{"type":"FeatureCollection","features":[{"type":"Feature","properties":{"name":"Centrum","bezirk":"Eindhoven"},"geometry":{"type":"MultiPolygon","coordinates":[[[[5.50103,51.44646],[5.50284,51.44429],[5.49752,51.44393],[5.48461,51.44218],[5.48469,51.4406],[5.48649,51.43988],[5.48681,51.4393],[5.48458,51.43635],[5.48547,51.43588],[5.48596,51.43533],[5.48608,51.43493],[5.48595,51.43353],[5.4856,51.43251],[5.4853,51.43233],[5.48396,51.43221],[5.48357,51.43236],[5.48076,51.4343],[5.4794,51.43325],[5.4792,51.43266],[5.47859,51.43246],[5.47847,51.43225],[5.47933,51.43063],[5.47858,51.42928],[5.4783,51.42974],[5.47812,51.43093],[5.47596,51.43274],[5.47443,51.43381],[5.47126,51.43552],[5.4689,51.43713],[5.46867,51.43747],[5.46866,51.43783],[5.46901,51.43846],[5.46905,51.43886],[5.46887,51.44093],[5.46911,51.44126],[5.47155,51.44313],[5.47286,51.44354],[5.47196,51.4445],[5.47498,51.44537],[5.4769,51.44527],[5.47698,51.4463],[5.48038,51.44639],[5.48083,51.44774],[5.48368,51.45137],[5.48442,51.45288],[5.49213,51.45247],[5.49503,51.45185],[5.49659,51.45112],[5.49759,51.4504],[5.49984,51.44789],[5.5007,51.44732],[5.50094,51.44703],[5.50103,51.44646]]]]}},{"type":"Feature","properties":{"name":"Oud-Stratum","bezirk":"Eindhoven"},"geometry":{"type":"MultiPolygon","coordinates":[[[[5.50324,51.43258],[5.50227,51.4299],[5.50171,51.42912],[5.50088,51.42839],[5.49537,51.42543],[5.49279,51.42417],[5.49152,51.42381],[5.48876,51.42367],[5.47719,51.42463],[5.4772,51.42508],[5.47599,51.42541],[5.47548,51.42601],[5.47568,51.42618],[5.47549,51.42692],[5.47602,51.42748],[5.47855,51.42925],[5.4793,51.43037],[5.47925,51.4309],[5.47847,51.43225],[5.47859,51.43246],[5.4792,51.43266],[5.4794,51.43325],[5.48076,51.4343],[5.48357,51.43236],[5.48396,51.43221],[5.4853,51.43233],[5.4856,51.43251],[5.48595,51.43353],[5.48608,51.43493],[5.48596,51.43533],[5.48547,51.43588],[5.48458,51.43635],[5.48559,51.43767],[5.50405,51.43491],[5.50324,51.43258]]]]}},{"type":"Feature","properties":{"name":"Kortonjo","bezirk":"Eindhoven"},"geometry":{"type":"MultiPolygon","coordinates":[[[[5.48876,51.42367],[5.49092,51.42371],[5.49279,51.42417],[5.49495,51.42145],[5.49733,51.41609],[5.49768,51.41576],[5.49842,51.41446],[5.50145,51.40746],[5.50246,51.40556],[5.50245,51.40387],[5.50464,51.40011],[5.50426,51.40005],[5.50362,51.40152],[5.50154,51.40311],[5.49985,51.40386],[5.49782,51.40427],[5.49109,51.40464],[5.48992,51.40445],[5.48905,51.40471],[5.48107,51.40459],[5.4778,51.40493],[5.4771,51.40488],[5.47656,51.40631],[5.47567,51.40726],[5.4762,51.40794],[5.4752,51.40879],[5.47572,51.4102],[5.4762,51.41038],[5.47675,51.41017],[5.47692,51.4102],[5.47691,51.41039],[5.47652,51.41158],[5.47601,51.41189],[5.47536,51.41268],[5.47535,51.41322],[5.47601,51.41357],[5.47579,51.41422],[5.47511,51.41445],[5.47474,51.4151],[5.47481,51.41539],[5.47533,51.41568],[5.47585,51.41561],[5.47603,51.41573],[5.47631,51.41623],[5.47701,51.41678],[5.47736,51.41779],[5.4776,51.41798],[5.47951,51.41856],[5.48017,51.41854],[5.48081,51.41884],[5.48097,51.41907],[5.48051,51.41968],[5.48108,51.42062],[5.48022,51.42198],[5.47951,51.42223],[5.47798,51.42222],[5.47768,51.42361],[5.47717,51.4243],[5.47719,51.42463],[5.48876,51.42367]]]]}},{"type":"Feature","properties":{"name":"Putten","bezirk":"Eindhoven"},"geometry":{"type":"MultiPolygon","coordinates":[[[[5.53209,51.43218],[5.53203,51.43199],[5.53181,51.43201],[5.53124,51.42895],[5.53184,51.42829],[5.53178,51.42803],[5.53118,51.42799],[5.53096,51.42742],[5.53065,51.42721],[5.5252,51.42799],[5.52517,51.42785],[5.52581,51.4047],[5.52439,51.40449],[5.52241,51.4047],[5.51343,51.40471],[5.50761,51.40453],[5.50568,51.40391],[5.50518,51.40342],[5.50464,51.40103],[5.50487,51.40015],[5.50464,51.40011],[5.50245,51.40387],[5.50246,51.40556],[5.50145,51.40746],[5.49842,51.41446],[5.49768,51.41576],[5.49733,51.41609],[5.49512,51.42119],[5.49279,51.42417],[5.4998,51.42771],[5.50134,51.42874],[5.50227,51.4299],[5.50405,51.43491],[5.51005,51.43422],[5.53209,51.43218]]]]}},{"type":"Feature","properties":{"name":"De Laak","bezirk":"Eindhoven"},"geometry":{"type":"MultiPolygon","coordinates":[[[[5.50439,51.43578],[5.50405,51.43491],[5.48559,51.43767],[5.48681,51.4393],[5.48649,51.43988],[5.48469,51.4406],[5.48461,51.44218],[5.49752,51.44393],[5.50284,51.44429],[5.50375,51.44262],[5.50492,51.43886],[5.50484,51.43711],[5.50439,51.43578]]]]}},{"type":"Feature","properties":{"name":"Doornakkers","bezirk":"Eindhoven"},"geometry":{"type":"MultiPolygon","coordinates":[[[[5.53317,51.43292],[5.53475,51.43168],[5.53203,51.43199],[5.53209,51.43218],[5.51005,51.43422],[5.50405,51.43491],[5.50484,51.43711],[5.50492,51.43886],[5.50349,51.44327],[5.50239,51.44487],[5.50594,51.44473],[5.51188,51.44405],[5.51564,51.44324],[5.51887,51.4422],[5.52138,51.44114],[5.52392,51.43979],[5.53317,51.43292]]]]}},{"type":"Feature","properties":{"name":"Oud-Tongelre","bezirk":"Eindhoven"},"geometry":{"type":"MultiPolygon","coordinates":[[[[5.51495,51.46528],[5.515,51.46492],[5.51597,51.46514],[5.51671,51.46458],[5.51687,51.46426],[5.51758,51.46435],[5.51809,51.46336],[5.51898,51.46293],[5.51883,51.46281],[5.51811,51.46295],[5.51818,51.4627],[5.51911,51.46219],[5.51957,51.46233],[5.52027,51.4618],[5.52091,51.46162],[5.52104,51.46103],[5.52194,51.46107],[5.52288,51.46026],[5.52494,51.45949],[5.52593,51.45941],[5.5285,51.45881],[5.52984,51.4587],[5.5299,51.45842],[5.53053,51.45824],[5.53076,51.458],[5.53108,51.45719],[5.53256,51.45719],[5.53246,51.45701],[5.53177,51.45673],[5.53208,51.45616],[5.53146,51.45542],[5.53149,51.45494],[5.53277,51.45466],[5.53272,51.45434],[5.53309,51.45399],[5.53329,51.45315],[5.53428,51.45254],[5.53424,51.45202],[5.53446,51.45157],[5.53512,51.45158],[5.53572,51.45109],[5.5364,51.45087],[5.53612,51.45034],[5.53704,51.45041],[5.53776,51.44982],[5.53863,51.44972],[5.53881,51.44952],[5.53908,51.44845],[5.53994,51.44828],[5.54017,51.44794],[5.53946,51.44744],[5.53932,51.44685],[5.53849,51.44577],[5.5386,51.44539],[5.53942,51.44462],[5.53912,51.44418],[5.53933,51.44406],[5.5393,51.44385],[5.53845,51.44362],[5.53946,51.44284],[5.53964,51.44241],[5.54053,51.44208],[5.54066,51.4416],[5.5414,51.44104],[5.54147,51.44054],[5.54078,51.44054],[5.54069,51.4404],[5.54136,51.43961],[5.54193,51.43937],[5.5428,51.43927],[5.54246,51.43979],[5.54276,51.44003],[5.54323,51.43989],[5.54332,51.43955],[5.54402,51.43957],[5.54357,51.43869],[5.54435,51.43806],[5.54441,51.43716],[5.54523,51.43672],[5.54585,51.4367],[5.5462,51.43585],[5.54588,51.43514],[5.54663,51.43454],[5.5467,51.43391],[5.54868,51.43468],[5.54885,51.4345],[5.54581,51.43331],[5.54422,51.43244],[5.54412,51.43253],[5.54358,51.43222],[5.5429,51.43233],[5.54101,51.43163],[5.54118,51.43153],[5.54047,51.43138],[5.53916,51.43128],[5.53475,51.43168],[5.52392,51.43979],[5.51965,51.44189],[5.51564,51.44324],[5.51188,51.44405],[5.50594,51.44473],[5.50239,51.44487],[5.50103,51.44646],[5.50094,51.44703],[5.5007,51.44732],[5.49984,51.44789],[5.49759,51.4504],[5.49597,51.45147],[5.49391,51.45217],[5.49453,51.4528],[5.49568,51.45353],[5.49589,51.45385],[5.49599,51.45487],[5.49555,51.45516],[5.49576,51.45595],[5.49628,51.45635],[5.498,51.45687],[5.49821,51.45714],[5.49837,51.45859],[5.49899,51.45937],[5.5,51.45951],[5.50092,51.45927],[5.50143,51.45953],[5.50143,51.45997],[5.50184,51.46114],[5.50299,51.46206],[5.50464,51.46272],[5.50696,51.46275],[5.50848,51.46333],[5.50941,51.46422],[5.50941,51.46445],[5.50893,51.46478],[5.50894,51.46498],[5.50968,51.46539],[5.51228,51.46525],[5.51439,51.46556],[5.51495,51.46528]]]]}},{"type":"Feature","properties":{"name":"Oud-Woensel","bezirk":"Eindhoven"},"geometry":{"type":"MultiPolygon","coordinates":[[[[5.48442,51.45288],[5.48368,51.45137],[5.48083,51.44774],[5.48038,51.44639],[5.47698,51.4463],[5.4769,51.44527],[5.47498,51.44537],[5.47196,51.4445],[5.47286,51.44354],[5.47173,51.44324],[5.47038,51.44222],[5.46743,51.44296],[5.46533,51.44397],[5.45751,51.44984],[5.46368,51.45161],[5.46698,51.45228],[5.47328,51.45294],[5.47975,51.45301],[5.48442,51.45288]]]]}},{"type":"Feature","properties":{"name":"Erp","bezirk":"Eindhoven"},"geometry":{"type":"MultiPolygon","coordinates":[[[[5.45366,51.46269],[5.45432,51.46204],[5.46663,51.46683],[5.46804,51.46758],[5.46902,51.46737],[5.47475,51.46748],[5.47499,51.46726],[5.47787,51.45294],[5.47328,51.45294],[5.46635,51.4522],[5.46368,51.45161],[5.45751,51.44984],[5.43227,51.46891],[5.43781,51.47223],[5.44239,51.474],[5.45366,51.46269]]]]}},{"type":"Feature","properties":{"name":"Begijnenbroek","bezirk":"Eindhoven"},"geometry":{"type":"MultiPolygon","coordinates":[[[[5.51182,51.46729],[5.51278,51.46662],[5.51412,51.46652],[5.51433,51.46625],[5.51424,51.46572],[5.51439,51.46556],[5.51228,51.46525],[5.50968,51.46539],[5.50894,51.46498],[5.50893,51.46478],[5.50941,51.46445],[5.50941,51.46422],[5.50848,51.46333],[5.50696,51.46275],[5.50464,51.46272],[5.50299,51.46206],[5.50184,51.46114],[5.50143,51.45997],[5.50143,51.45953],[5.50092,51.45927],[5.5,51.45951],[5.49899,51.45937],[5.49837,51.45859],[5.49821,51.45714],[5.498,51.45687],[5.49628,51.45635],[5.49576,51.45595],[5.49555,51.45516],[5.49599,51.45487],[5.49589,51.45385],[5.49568,51.45353],[5.49453,51.4528],[5.49391,51.45217],[5.49213,51.45247],[5.48668,51.45282],[5.47787,51.45294],[5.47499,51.46726],[5.47475,51.46748],[5.48637,51.46772],[5.49721,51.46708],[5.50659,51.46771],[5.51158,51.4675],[5.51182,51.46729]]]]}},{"type":"Feature","properties":{"name":"Ontginning","bezirk":"Eindhoven"},"geometry":{"type":"MultiPolygon","coordinates":[[[[5.45895,51.47624],[5.46027,51.47494],[5.46346,51.47618],[5.46684,51.4765],[5.48833,51.47587],[5.4869,51.46771],[5.46993,51.46737],[5.46902,51.46737],[5.46804,51.46758],[5.46663,51.46683],[5.45432,51.46204],[5.44239,51.474],[5.45626,51.47903],[5.45895,51.47624]]]]}},{"type":"Feature","properties":{"name":"Achtse Molen","bezirk":"Eindhoven"},"geometry":{"type":"MultiPolygon","coordinates":[[[[5.43487,51.4705],[5.43227,51.46891],[5.41476,51.48208],[5.41171,51.48465],[5.41544,51.48547],[5.41927,51.48665],[5.42749,51.48975],[5.42739,51.48985],[5.43043,51.49079],[5.44183,51.49376],[5.44597,51.49462],[5.4513,51.49546],[5.45161,51.49126],[5.45185,51.49018],[5.45457,51.48258],[5.45626,51.47903],[5.43843,51.47249],[5.43487,51.4705]]]]}},{"type":"Feature","properties":{"name":"Aanschot","bezirk":"Eindhoven"},"geometry":{"type":"MultiPolygon","coordinates":[[[[5.47836,51.49664],[5.47914,51.49661],[5.48377,51.49247],[5.48721,51.48894],[5.48855,51.48686],[5.48937,51.4845],[5.48951,51.48312],[5.48936,51.48146],[5.48833,51.47587],[5.46684,51.4765],[5.46346,51.47618],[5.46027,51.47494],[5.45658,51.47858],[5.45578,51.47988],[5.45457,51.48258],[5.45231,51.48868],[5.45161,51.49126],[5.4513,51.49546],[5.45849,51.4962],[5.46389,51.49698],[5.46825,51.49684],[5.46828,51.49582],[5.46986,51.4957],[5.46989,51.49559],[5.47285,51.49589],[5.47622,51.49704],[5.47737,51.49702],[5.47836,51.49664]]]]}},{"type":"Feature","properties":{"name":"Dommelbeemd","bezirk":"Eindhoven"},"geometry":{"type":"MultiPolygon","coordinates":[[[[5.51206,51.49659],[5.51326,51.49631],[5.51335,51.49554],[5.51358,51.49516],[5.51429,51.49442],[5.51561,51.49341],[5.5148,51.49274],[5.51301,51.49169],[5.51248,51.49099],[5.51256,51.49008],[5.51235,51.48915],[5.51155,51.4889],[5.51138,51.48829],[5.51071,51.48745],[5.51029,51.48733],[5.50886,51.48776],[5.50841,51.48768],[5.50794,51.48686],[5.50822,51.48595],[5.50804,51.48513],[5.50695,51.48428],[5.50653,51.4837],[5.50567,51.48362],[5.50541,51.48338],[5.50556,51.48279],[5.50627,51.48195],[5.50803,51.48035],[5.50956,51.47924],[5.50953,51.47894],[5.50916,51.47872],[5.50794,51.47857],[5.50776,51.47813],[5.50817,51.47747],[5.50883,51.47694],[5.50796,51.47405],[5.5079,51.4728],[5.50818,51.47183],[5.5081,51.47112],[5.50865,51.47068],[5.51008,51.47005],[5.51002,51.46979],[5.50914,51.46952],[5.50904,51.46931],[5.51041,51.4685],[5.51158,51.4675],[5.50811,51.46769],[5.50483,51.46767],[5.49721,51.46708],[5.4869,51.46771],[5.48943,51.48199],[5.48947,51.48378],[5.48916,51.4853],[5.48819,51.48757],[5.48648,51.48979],[5.48377,51.49247],[5.47914,51.49661],[5.51142,51.49692],[5.51206,51.49659]]]]}},{"type":"Feature","properties":{"name":"Oud-Strijp","bezirk":"Eindhoven"},"geometry":{"type":"MultiPolygon","coordinates":[[[[5.47156,51.43538],[5.46944,51.43464],[5.46674,51.43338],[5.46654,51.4337],[5.46412,51.43521],[5.4636,51.43458],[5.46326,51.43471],[5.46247,51.43448],[5.46096,51.43374],[5.45668,51.43235],[5.45604,51.43261],[5.45441,51.4318],[5.45357,51.43283],[5.44998,51.43986],[5.44972,51.44123],[5.44858,51.44502],[5.44853,51.44617],[5.4487,51.44654],[5.44944,51.44714],[5.45751,51.44984],[5.46533,51.44397],[5.46743,51.44296],[5.47038,51.44222],[5.46887,51.44093],[5.46905,51.43886],[5.46901,51.43846],[5.46866,51.43783],[5.46867,51.43747],[5.4689,51.43713],[5.47156,51.43538]]]]}},{"type":"Feature","properties":{"name":"Halve Maan","bezirk":"Eindhoven"},"geometry":{"type":"MultiPolygon","coordinates":[[[[5.44384,51.42755],[5.44236,51.4274],[5.44199,51.42656],[5.44156,51.42618],[5.43999,51.42604],[5.43766,51.42515],[5.43091,51.42319],[5.42791,51.42217],[5.42765,51.42228],[5.42687,51.42792],[5.42675,51.42977],[5.42666,51.43014],[5.42632,51.4304],[5.42716,51.43089],[5.42598,51.43573],[5.42592,51.43664],[5.42597,51.43762],[5.4275,51.44586],[5.42754,51.44661],[5.42717,51.44798],[5.42656,51.44883],[5.42461,51.45019],[5.41526,51.45474],[5.41312,51.45605],[5.41026,51.45827],[5.40882,51.45983],[5.40906,51.45993],[5.40749,51.46213],[5.40659,51.46402],[5.40596,51.46623],[5.40367,51.47643],[5.40362,51.47836],[5.40406,51.48007],[5.40485,51.48127],[5.40567,51.48207],[5.40684,51.48276],[5.40828,51.48327],[5.41236,51.48404],[5.41476,51.48208],[5.45751,51.44984],[5.44944,51.44714],[5.44891,51.44681],[5.44853,51.44617],[5.44862,51.44482],[5.44972,51.44123],[5.44998,51.43986],[5.45357,51.43283],[5.45441,51.4318],[5.4536,51.4312],[5.44971,51.42991],[5.44675,51.4285],[5.44384,51.42755]]]]}},{"type":"Feature","properties":{"name":"Meerhoven","bezirk":"Eindhoven"},"geometry":{"type":"MultiPolygon","coordinates":[[[[5.39292,51.48518],[5.39738,51.4843],[5.4017,51.48386],[5.40609,51.48388],[5.41171,51.48465],[5.41236,51.48404],[5.40828,51.48327],[5.40684,51.48276],[5.40567,51.48207],[5.40485,51.48127],[5.40406,51.48007],[5.40362,51.47836],[5.40367,51.47643],[5.40596,51.46623],[5.40659,51.46402],[5.40749,51.46213],[5.40906,51.45993],[5.40882,51.45983],[5.41026,51.45827],[5.41312,51.45605],[5.41526,51.45474],[5.42571,51.44954],[5.42656,51.44883],[5.42717,51.44798],[5.42754,51.44661],[5.4275,51.44586],[5.42597,51.43762],[5.42592,51.43664],[5.42598,51.43573],[5.42716,51.43089],[5.42632,51.4304],[5.42507,51.43117],[5.41994,51.43285],[5.41915,51.43271],[5.41717,51.43149],[5.41674,51.43172],[5.41449,51.43006],[5.41207,51.43134],[5.4107,51.43506],[5.409,51.43446],[5.40737,51.43593],[5.40492,51.43713],[5.40079,51.43297],[5.3938,51.43458],[5.39361,51.4349],[5.39085,51.4367],[5.38935,51.43758],[5.38877,51.43775],[5.38758,51.43757],[5.38737,51.4378],[5.37969,51.43509],[5.37921,51.4366],[5.3732,51.43761],[5.37125,51.43891],[5.3678,51.43837],[5.36682,51.43745],[5.3669,51.43621],[5.36353,51.43542],[5.36223,51.43546],[5.36229,51.43601],[5.36214,51.43613],[5.35692,51.4382],[5.35711,51.43932],[5.3574,51.43987],[5.36049,51.44265],[5.36088,51.44324],[5.36122,51.44846],[5.3611,51.44903],[5.36043,51.45013],[5.35834,51.45184],[5.35727,51.45327],[5.35672,51.4536],[5.35776,51.4541],[5.36142,51.45727],[5.36351,51.46026],[5.36389,51.4603],[5.36717,51.45943],[5.36945,51.46532],[5.37915,51.46384],[5.38119,51.46546],[5.38436,51.46751],[5.38551,51.46792],[5.38754,51.46812],[5.38752,51.46851],[5.38711,51.4692],[5.38752,51.46964],[5.38882,51.47001],[5.38965,51.47063],[5.39066,51.47061],[5.39058,51.47099],[5.39119,51.47176],[5.39092,51.47823],[5.39021,51.47804],[5.39084,51.47834],[5.39064,51.47879],[5.39083,51.47887],[5.39052,51.48515],[5.39104,51.48504],[5.39102,51.48555],[5.39292,51.48518]]]]}},{"type":"Feature","properties":{"name":"Rozenknopje","bezirk":"Eindhoven"},"geometry":{"type":"MultiPolygon","coordinates":[[[[5.4751,51.4334],[5.47812,51.43093],[5.4783,51.42974],[5.47858,51.42928],[5.47602,51.42748],[5.47549,51.42692],[5.47546,51.42672],[5.47568,51.42645],[5.47552,51.42584],[5.47599,51.42541],[5.4772,51.42508],[5.47719,51.42463],[5.47342,51.42507],[5.46982,51.4258],[5.46133,51.42832],[5.45597,51.4307],[5.45441,51.4318],[5.45604,51.43261],[5.45668,51.43235],[5.46096,51.43374],[5.46247,51.43448],[5.46326,51.43471],[5.4636,51.43458],[5.46412,51.43521],[5.46654,51.4337],[5.46674,51.43338],[5.46944,51.43464],[5.47156,51.43538],[5.4751,51.4334]]]]}},{"type":"Feature","properties":{"name":"Oud-Gestel","bezirk":"Eindhoven"},"geometry":{"type":"MultiPolygon","coordinates":[[[[5.47768,51.42361],[5.47798,51.42222],[5.47951,51.42223],[5.48022,51.42198],[5.48108,51.42062],[5.48051,51.41968],[5.48097,51.41907],[5.48081,51.41884],[5.48017,51.41854],[5.47951,51.41856],[5.4776,51.41798],[5.47736,51.41779],[5.47701,51.41678],[5.47631,51.41623],[5.47603,51.41573],[5.47585,51.41561],[5.47533,51.41568],[5.47481,51.41539],[5.47474,51.4151],[5.47511,51.41445],[5.47579,51.41422],[5.47601,51.41357],[5.47535,51.41322],[5.47536,51.41268],[5.47601,51.41189],[5.47652,51.41158],[5.47691,51.41039],[5.47692,51.4102],[5.47675,51.41017],[5.4762,51.41038],[5.47572,51.4102],[5.4752,51.40879],[5.4762,51.40794],[5.47567,51.40726],[5.47656,51.40631],[5.4771,51.40488],[5.47322,51.40528],[5.47114,51.40532],[5.46932,51.40535],[5.46862,51.40503],[5.46838,51.4053],[5.46333,51.40527],[5.46254,51.40494],[5.46074,51.40499],[5.46081,51.40509],[5.4604,51.40524],[5.45351,51.40529],[5.45174,51.4049],[5.45149,51.40525],[5.43619,51.40498],[5.43632,51.40447],[5.43575,51.40419],[5.43554,51.40445],[5.43561,51.4048],[5.43537,51.4064],[5.43661,51.41019],[5.43929,51.4104],[5.44107,51.41008],[5.44189,51.41066],[5.4428,51.41104],[5.44463,51.41243],[5.4465,51.41246],[5.4468,51.41254],[5.44724,51.41297],[5.44806,51.41315],[5.4482,51.41356],[5.44561,51.41934],[5.44528,51.42112],[5.44553,51.42176],[5.45018,51.42913],[5.45018,51.42937],[5.44971,51.42991],[5.4536,51.4312],[5.45441,51.4318],[5.45597,51.4307],[5.46133,51.42832],[5.46982,51.4258],[5.47342,51.42507],[5.47719,51.42463],[5.47717,51.4243],[5.47768,51.42361]]]]}},{"type":"Feature","properties":{"name":"Gestelse Ontginning","bezirk":"Eindhoven"},"geometry":{"type":"MultiPolygon","coordinates":[[[[5.44915,51.4275],[5.44553,51.42176],[5.44527,51.42105],[5.44561,51.41934],[5.4482,51.41356],[5.44806,51.41315],[5.44724,51.41297],[5.4468,51.41254],[5.4465,51.41246],[5.44463,51.41243],[5.4428,51.41104],[5.44189,51.41066],[5.44107,51.41008],[5.43929,51.4104],[5.43661,51.41019],[5.43537,51.4064],[5.43561,51.4048],[5.43554,51.40445],[5.43575,51.40419],[5.43551,51.40356],[5.43527,51.40331],[5.43372,51.40261],[5.43166,51.40234],[5.43121,51.40205],[5.43122,51.40232],[5.43096,51.40264],[5.4299,51.40281],[5.42875,51.4028],[5.42799,51.40258],[5.42758,51.40292],[5.42728,51.40265],[5.42523,51.40455],[5.42865,51.40521],[5.42948,51.40569],[5.42985,51.40618],[5.42981,51.40639],[5.42952,51.40654],[5.42942,51.40698],[5.42953,51.40894],[5.42923,51.4113],[5.42946,51.41142],[5.42942,51.41156],[5.42915,51.41167],[5.4285,51.41504],[5.42787,51.41598],[5.42762,51.41671],[5.42739,51.41673],[5.42736,51.41714],[5.42766,51.41716],[5.42769,51.4173],[5.42763,51.41829],[5.42787,51.42015],[5.42773,51.42152],[5.42791,51.42217],[5.43091,51.42319],[5.43766,51.42515],[5.43999,51.42604],[5.44156,51.42618],[5.44199,51.42656],[5.44236,51.4274],[5.44431,51.42765],[5.44675,51.4285],[5.44971,51.42991],[5.45018,51.42937],[5.45018,51.42913],[5.44915,51.4275]]]]}}]}