{"type":"FeatureCollection","features":[{"type":"Feature","properties":{"name":"Schwarzes Quartier","bezirk":"Stadtteil I Innere Stadt"},"geometry":{"type":"Polygon","coordinates":[[[7.45575,46.94919],[7.45572,46.94903],[7.45627,46.94889],[7.45578,46.94867],[7.45698,46.94857],[7.45701,46.94824],[7.45612,46.94808],[7.45619,46.9477],[7.45593,46.94752],[7.45579,46.94764],[7.45558,46.94754],[7.45573,46.9474],[7.45541,46.94724],[7.45502,46.94754],[7.4548,46.94743],[7.45492,46.9473],[7.45439,46.94709],[7.45415,46.94703],[7.45399,46.94719],[7.45301,46.94674],[7.45289,46.9464],[7.44966,46.9463],[7.44971,46.94578],[7.45439,46.94537],[7.45505,46.94546],[7.45742,46.94637],[7.45823,46.94694],[7.4585,46.94892],[7.45824,46.94971],[7.45761,46.95007],[7.45571,46.95022],[7.45575,46.94919]]]}},{"type":"Feature","properties":{"name":"Weissenstein","bezirk":"Stadtteil III Mattenhof-Weissenbühl"},"geometry":{"type":"Polygon","coordinates":[[[7.42172,46.93459],[7.42336,46.93393],[7.42345,46.93424],[7.42574,46.93694],[7.42729,46.9381],[7.42648,46.93863],[7.42547,46.93901],[7.41848,46.94057],[7.41599,46.93665],[7.41768,46.93635],[7.42121,46.93416],[7.42172,46.93459]]]}},{"type":"Feature","properties":{"name":"Grünes Quartier","bezirk":"Stadtteil I Innere Stadt"},"geometry":{"type":"Polygon","coordinates":[[[7.44797,46.94605],[7.44814,46.94578],[7.44971,46.94578],[7.44966,46.9463],[7.45265,46.94636],[7.45264,46.94668],[7.45233,46.94716],[7.45228,46.94853],[7.45207,46.94852],[7.45202,46.94891],[7.45151,46.9489],[7.45142,46.94937],[7.45212,46.94944],[7.45204,46.94984],[7.45034,46.94983],[7.44831,46.95025],[7.44743,46.94798],[7.44751,46.94734],[7.44724,46.94734],[7.4472,46.94639],[7.44791,46.94621],[7.44797,46.94605]]]}},{"type":"Feature","properties":{"name":"Mattenhof","bezirk":"Stadtteil III Mattenhof-Weissenbühl"},"geometry":{"type":"Polygon","coordinates":[[[7.42638,46.93868],[7.42729,46.9381],[7.42881,46.93942],[7.43137,46.9406],[7.43067,46.94183],[7.42873,46.94802],[7.42788,46.94825],[7.42766,46.94791],[7.42457,46.94676],[7.42379,46.94592],[7.42351,46.94538],[7.42133,46.94426],[7.4207,46.94364],[7.41848,46.94057],[7.4251,46.93911],[7.42638,46.93868]]]}},{"type":"Feature","properties":{"name":"Lorraine","bezirk":"Stadtteil V Breitenrain-Lorraine"},"geometry":{"type":"Polygon","coordinates":[[[7.44692,46.95788],[7.44666,46.95919],[7.44647,46.95916],[7.44622,46.9601],[7.4465,46.96025],[7.44662,46.96124],[7.44754,46.96165],[7.44696,46.96201],[7.44751,46.96257],[7.44749,46.96281],[7.44849,46.96353],[7.45102,46.96426],[7.45092,46.96466],[7.45114,46.96555],[7.45017,46.96728],[7.451,46.96903],[7.44976,46.96994],[7.44936,46.97052],[7.44794,46.96952],[7.44566,46.96634],[7.4442,46.96465],[7.44338,46.96329],[7.44108,46.95651],[7.44109,46.95552],[7.44151,46.95453],[7.44208,46.95378],[7.44322,46.95282],[7.44582,46.95447],[7.44658,46.95517],[7.44712,46.95639],[7.44692,46.95788]]]}},{"type":"Feature","properties":{"name":"Stöckacker","bezirk":"Stadtteil VI Bümpliz-Oberbottigen"},"geometry":{"type":"Polygon","coordinates":[[[7.40187,46.94201],[7.40234,46.94182],[7.40692,46.94482],[7.40724,46.94549],[7.40695,46.94586],[7.40724,46.94632],[7.39655,46.94649],[7.40095,46.94304],[7.40137,46.94307],[7.40127,46.94282],[7.40187,46.94201]]]}},{"type":"Feature","properties":{"name":"Engeried","bezirk":"Stadtteil II Länggasse-Felsenau"},"geometry":{"type":"Polygon","coordinates":[[[7.44078,46.95198],[7.44079,46.95147],[7.44312,46.95289],[7.44208,46.95378],[7.44151,46.95453],[7.44109,46.95552],[7.44104,46.95618],[7.44338,46.96329],[7.4442,46.96465],[7.44496,46.96549],[7.44449,46.96569],[7.44449,46.96633],[7.44406,46.96682],[7.44398,46.9673],[7.44304,46.96474],[7.44262,46.96484],[7.44249,46.96556],[7.44203,46.96563],[7.44206,46.96579],[7.43954,46.96652],[7.43755,46.96627],[7.43677,46.96418],[7.43582,46.96262],[7.4324,46.96289],[7.43205,46.96276],[7.43503,46.95995],[7.43778,46.95672],[7.43896,46.955],[7.43911,46.95356],[7.4404,46.95268],[7.44078,46.95198]]]}},{"type":"Feature","properties":{"name":"Brunnadern","bezirk":"Stadtteil IV Kirchenfeld-Schosshalde"},"geometry":{"type":"Polygon","coordinates":[[[7.47688,46.93512],[7.47811,46.93625],[7.46872,46.94026],[7.46632,46.94173],[7.45916,46.9405],[7.45847,46.94051],[7.45894,46.93974],[7.4597,46.93967],[7.45932,46.93941],[7.46215,46.9376],[7.4589,46.93476],[7.46004,46.93437],[7.46059,46.93395],[7.46205,46.93153],[7.46319,46.93054],[7.46924,46.92669],[7.47077,46.9255],[7.47129,46.92578],[7.47045,46.92738],[7.4692,46.9287],[7.46911,46.92924],[7.47094,46.92982],[7.47399,46.93188],[7.47378,46.93263],[7.47535,46.93299],[7.47477,46.93361],[7.4747,46.93392],[7.47604,46.93439],[7.47578,46.93464],[7.47688,46.93512]]]}},{"type":"Feature","properties":{"name":"Rotes Quartier","bezirk":"Stadtteil I Innere Stadt"},"geometry":{"type":"Polygon","coordinates":[[[7.44222,46.95234],[7.44052,46.9513],[7.44042,46.95108],[7.43974,46.95111],[7.43941,46.95045],[7.43976,46.95031],[7.4391,46.94967],[7.43781,46.94902],[7.43755,46.94931],[7.43692,46.94911],[7.43763,46.94705],[7.43709,46.94586],[7.43725,46.9456],[7.43939,46.94605],[7.43961,46.94544],[7.44053,46.94469],[7.44133,46.94588],[7.44271,46.94605],[7.44301,46.94584],[7.44331,46.94589],[7.44343,46.94617],[7.44377,46.94622],[7.44342,46.94811],[7.44348,46.94853],[7.44365,46.94884],[7.44415,46.94876],[7.44428,46.94888],[7.44496,46.95037],[7.44542,46.95032],[7.44602,46.95102],[7.44481,46.95168],[7.44312,46.95289],[7.44222,46.95234]]]}},{"type":"Feature","properties":{"name":"Schosshalde","bezirk":"Stadtteil IV Kirchenfeld-Schosshalde"},"geometry":{"type":"Polygon","coordinates":[[[7.46944,46.95311],[7.46717,46.95255],[7.46533,46.9523],[7.4634,46.95226],[7.46174,46.95176],[7.45936,46.95327],[7.45886,46.95262],[7.4588,46.95215],[7.46005,46.95043],[7.46056,46.9488],[7.46034,46.94848],[7.45997,46.94843],[7.46012,46.94807],[7.45969,46.94643],[7.45928,46.94597],[7.45818,46.94534],[7.4582,46.94492],[7.45864,46.9447],[7.46243,46.94437],[7.46675,46.94149],[7.46937,46.94238],[7.47055,46.94255],[7.47054,46.94316],[7.47254,46.943],[7.47458,46.9434],[7.47941,46.94352],[7.48017,46.94396],[7.48192,46.94326],[7.48287,46.94429],[7.48362,46.94579],[7.48391,46.94755],[7.48332,46.94771],[7.48405,46.94999],[7.48339,46.95037],[7.48224,46.95159],[7.48103,46.95253],[7.47938,46.95356],[7.47804,46.95419],[7.47722,46.95413],[7.47712,46.95435],[7.46944,46.95311]]]}},{"type":"Feature","properties":{"name":"Weisses Quartier","bezirk":"Stadtteil I Innere Stadt"},"geometry":{"type":"Polygon","coordinates":[[[7.45233,46.94804],[7.4524,46.94695],[7.45269,46.9464],[7.45289,46.9464],[7.45301,46.94674],[7.45399,46.94719],[7.45415,46.94703],[7.45467,46.94719],[7.45492,46.9473],[7.45485,46.94749],[7.45502,46.94754],[7.45541,46.94724],[7.45573,46.9474],[7.45558,46.94754],[7.45579,46.94764],[7.45593,46.94752],[7.45619,46.9477],[7.45612,46.94808],[7.45701,46.94824],[7.45703,46.94838],[7.45698,46.94857],[7.45578,46.94867],[7.45627,46.9489],[7.45572,46.94903],[7.45571,46.95022],[7.45524,46.95021],[7.45204,46.94984],[7.45212,46.94944],[7.45142,46.94937],[7.45151,46.9489],[7.45202,46.94891],[7.45207,46.94852],[7.45228,46.94853],[7.45233,46.94804]]]}},{"type":"Feature","properties":{"name":"Bümpliz","bezirk":"Stadtteil VI Bümpliz-Oberbottigen"},"geometry":{"type":"Polygon","coordinates":[[[7.40197,46.94186],[7.40127,46.94282],[7.40137,46.94307],[7.40095,46.94304],[7.39655,46.94649],[7.3925,46.94634],[7.37773,46.94452],[7.37441,46.94381],[7.37588,46.94151],[7.37579,46.94144],[7.37641,46.9392],[7.3778,46.93735],[7.37747,46.93652],[7.37886,46.9358],[7.37792,46.93559],[7.37702,46.93606],[7.37622,46.93523],[7.37498,46.93485],[7.37372,46.93403],[7.37312,46.93428],[7.37254,46.93421],[7.37324,46.93247],[7.37489,46.93271],[7.37487,46.93143],[7.37818,46.93171],[7.37835,46.93251],[7.37853,46.93272],[7.38007,46.93236],[7.38087,46.93241],[7.38048,46.93083],[7.38079,46.93036],[7.38032,46.93021],[7.38002,46.92989],[7.38166,46.92854],[7.38231,46.92728],[7.38281,46.92778],[7.3841,46.92847],[7.38442,46.92823],[7.38526,46.92866],[7.38626,46.92934],[7.38623,46.92974],[7.38637,46.92987],[7.3884,46.93101],[7.38929,46.93142],[7.39145,46.93172],[7.39194,46.93166],[7.39152,46.9324],[7.39376,46.93294],[7.39516,46.93359],[7.3965,46.93464],[7.39776,46.93623],[7.3985,46.93691],[7.40077,46.93809],[7.40297,46.93871],[7.40271,46.93905],[7.40381,46.9394],[7.40475,46.93999],[7.40539,46.94053],[7.40535,46.94089],[7.40555,46.9412],[7.40634,46.94185],[7.40445,46.94203],[7.40461,46.94245],[7.40447,46.94258],[7.40412,46.94244],[7.40387,46.94277],[7.40234,46.94182],[7.40197,46.94186]]]}},{"type":"Feature","properties":{"name":"Beundenfeld","bezirk":"Stadtteil IV Kirchenfeld-Schosshalde"},"geometry":{"type":"Polygon","coordinates":[[[7.4852,46.96795],[7.48506,46.96906],[7.48478,46.96968],[7.48392,46.97075],[7.48256,46.97129],[7.48062,46.97154],[7.47968,46.9712],[7.47816,46.97118],[7.47701,46.9705],[7.47675,46.9697],[7.47374,46.96951],[7.47106,46.96858],[7.46854,46.96505],[7.46868,46.96501],[7.46834,46.96449],[7.4682,46.96454],[7.46699,46.96314],[7.45936,46.95327],[7.46174,46.95176],[7.4634,46.95226],[7.46533,46.9523],[7.46717,46.95255],[7.4708,46.95341],[7.47712,46.95435],[7.47692,46.95479],[7.47718,46.95512],[7.4769,46.95552],[7.47859,46.95569],[7.47866,46.95592],[7.47944,46.95619],[7.47978,46.9566],[7.47893,46.95878],[7.47932,46.95887],[7.47944,46.95915],[7.47951,46.95965],[7.4792,46.95988],[7.47969,46.96007],[7.47945,46.9604],[7.48029,46.96068],[7.47963,46.96167],[7.47871,46.96242],[7.4788,46.96265],[7.47847,46.9629],[7.4808,46.96383],[7.4858,46.96468],[7.48552,46.96522],[7.4857,46.96542],[7.48574,46.96587],[7.48634,46.96647],[7.48562,46.96679],[7.48613,46.9679],[7.4852,46.96795]]]}},{"type":"Feature","properties":{"name":"Breitenrain","bezirk":"Stadtteil V Breitenrain-Lorraine"},"geometry":{"type":"Polygon","coordinates":[[[7.45461,46.96033],[7.45483,46.96405],[7.45475,46.96519],[7.44849,46.96353],[7.44749,46.96281],[7.44751,46.96257],[7.44696,46.96201],[7.44754,46.96165],[7.44662,46.96124],[7.4465,46.96025],[7.44622,46.9601],[7.44647,46.95916],[7.44666,46.95919],[7.44712,46.95639],[7.4544,46.9586],[7.4549,46.95899],[7.45461,46.96033]]]}},{"type":"Feature","properties":{"name":"Sandrain","bezirk":"Stadtteil III Mattenhof-Weissenbühl"},"geometry":{"type":"Polygon","coordinates":[[[7.44453,46.93635],[7.44438,46.93786],[7.44584,46.94459],[7.4464,46.94525],[7.44814,46.94578],[7.44791,46.94621],[7.44731,46.94636],[7.44479,46.94629],[7.4443,46.94613],[7.44343,46.94617],[7.44331,46.94589],[7.44301,46.94584],[7.44271,46.94605],[7.44133,46.94588],[7.44057,46.9447],[7.43858,46.94363],[7.43838,46.94384],[7.43851,46.94393],[7.43791,46.94397],[7.43756,46.94324],[7.43761,46.94211],[7.43708,46.94126],[7.43731,46.94081],[7.43769,46.94059],[7.43769,46.94035],[7.43711,46.93971],[7.43768,46.93884],[7.43928,46.93729],[7.43944,46.93587],[7.44047,46.93376],[7.44026,46.93365],[7.44536,46.93148],[7.44664,46.93113],[7.44764,46.93043],[7.44888,46.93189],[7.45019,46.93185],[7.45023,46.93203],[7.45107,46.93229],[7.45192,46.93207],[7.45247,46.933],[7.44989,46.93302],[7.44733,46.93357],[7.44624,46.93412],[7.44524,46.93494],[7.44453,46.93635]]]}},{"type":"Feature","properties":{"name":"Felsenau","bezirk":"Stadtteil II Länggasse-Felsenau"},"geometry":{"type":"Polygon","coordinates":[[[7.44612,46.97886],[7.44652,46.97901],[7.4477,46.97901],[7.44867,46.97832],[7.44905,46.97701],[7.44838,46.97564],[7.44702,46.9749],[7.44569,46.97479],[7.44482,46.97576],[7.44329,46.97682],[7.44226,46.97698],[7.44125,46.97679],[7.43989,46.97537],[7.43959,46.97447],[7.43934,46.97003],[7.43859,46.96892],[7.43785,46.96843],[7.43649,46.96818],[7.43536,46.96844],[7.43474,46.96907],[7.43399,46.97134],[7.43271,46.97269],[7.43113,46.97342],[7.42966,46.97375],[7.42812,46.97379],[7.42818,46.97318],[7.42401,46.97106],[7.42386,46.97025],[7.42579,46.97011],[7.42651,46.96992],[7.42727,46.9695],[7.4278,46.96888],[7.4291,46.96655],[7.43072,46.9641],[7.43205,46.96276],[7.4324,46.96289],[7.43574,46.9626],[7.43677,46.96418],[7.43755,46.96627],[7.43954,46.96652],[7.44206,46.96579],[7.44203,46.96563],[7.44249,46.96556],[7.44262,46.96484],[7.44304,46.96474],[7.44387,46.96727],[7.44398,46.9673],[7.44406,46.96682],[7.44449,46.96633],[7.44449,46.96569],[7.44496,46.96549],[7.44794,46.96952],[7.44936,46.97052],[7.45244,46.97125],[7.45388,46.97119],[7.45786,46.96991],[7.45966,46.96983],[7.46129,46.97032],[7.46322,46.9714],[7.46435,46.97267],[7.4664,46.97412],[7.46693,46.97488],[7.46702,46.97547],[7.46673,46.97583],[7.46618,46.97611],[7.4636,46.97621],[7.45601,46.97708],[7.45548,46.97721],[7.45465,46.97782],[7.45278,46.98357],[7.45239,46.98905],[7.45221,46.98968],[7.45146,46.99012],[7.45067,46.99015],[7.44849,46.98926],[7.44764,46.98811],[7.44727,46.98698],[7.44714,46.98544],[7.44663,46.98437],[7.44493,46.98251],[7.44173,46.9805],[7.44127,46.97982],[7.44156,46.97904],[7.44247,46.97849],[7.44405,46.97807],[7.44612,46.97886]]]}},{"type":"Feature","properties":{"name":"Weissenbühl","bezirk":"Stadtteil III Mattenhof-Weissenbühl"},"geometry":{"type":"Polygon","coordinates":[[[7.43282,46.93134],[7.43768,46.9308],[7.43776,46.93103],[7.4338,46.93312],[7.43542,46.93497],[7.43739,46.93471],[7.43923,46.93415],[7.44021,46.93362],[7.44047,46.93376],[7.43944,46.93587],[7.43928,46.93729],[7.43768,46.93884],[7.43711,46.93971],[7.43769,46.94035],[7.43769,46.94059],[7.4371,46.94111],[7.43737,46.94176],[7.43592,46.94093],[7.4334,46.9417],[7.43337,46.94118],[7.43311,46.94081],[7.43217,46.94095],[7.43173,46.94064],[7.43137,46.9406],[7.42881,46.93942],[7.42785,46.93848],[7.42598,46.93717],[7.42345,46.93424],[7.4243,46.93383],[7.42498,46.93464],[7.42698,46.93344],[7.42909,46.93293],[7.43038,46.93244],[7.43127,46.93198],[7.43112,46.93171],[7.43124,46.93164],[7.43222,46.93132],[7.43282,46.93134]]]}},{"type":"Feature","properties":{"name":"Gryphenhübeli","bezirk":"Stadtteil IV Kirchenfeld-Schosshalde"},"geometry":{"type":"Polygon","coordinates":[[[7.45847,46.94051],[7.45916,46.9405],[7.46632,46.94173],[7.4623,46.94442],[7.45828,46.94483],[7.45811,46.94512],[7.45818,46.94534],[7.45928,46.94597],[7.45969,46.94643],[7.46012,46.94807],[7.45997,46.94843],[7.45946,46.94861],[7.45944,46.94922],[7.45913,46.94949],[7.45845,46.94933],[7.45842,46.94784],[7.45823,46.94694],[7.45742,46.94637],[7.45505,46.94546],[7.45439,46.94537],[7.45252,46.94554],[7.45847,46.94051]]]}},{"type":"Feature","properties":{"name":"Bethlehem","bezirk":"Stadtteil VI Bümpliz-Oberbottigen"},"geometry":{"type":"Polygon","coordinates":[[[7.40075,46.94639],[7.40651,46.94625],[7.40649,46.94762],[7.40707,46.94761],[7.4071,46.94842],[7.40682,46.94842],[7.40683,46.94931],[7.40642,46.94931],[7.40581,46.94967],[7.4052,46.94955],[7.40079,46.94982],[7.40041,46.94972],[7.3994,46.95032],[7.39958,46.95056],[7.39889,46.9508],[7.3988,46.95067],[7.39554,46.95243],[7.3923,46.95153],[7.39063,46.95329],[7.3904,46.95458],[7.39072,46.9546],[7.38996,46.95693],[7.3892,46.95829],[7.38776,46.95994],[7.38629,46.96107],[7.38407,46.96313],[7.3857,46.96468],[7.38614,46.96492],[7.38613,46.96511],[7.38545,46.96545],[7.38522,46.96597],[7.38476,46.96639],[7.38321,46.9663],[7.38062,46.96547],[7.37851,46.96147],[7.37503,46.95984],[7.37151,46.96073],[7.36984,46.95925],[7.37049,46.95896],[7.36936,46.95762],[7.36953,46.95753],[7.36939,46.95735],[7.36851,46.95663],[7.3671,46.95613],[7.3663,46.95559],[7.36539,46.95526],[7.36457,46.95463],[7.35984,46.95227],[7.35818,46.95171],[7.3582,46.95118],[7.35685,46.95152],[7.35309,46.95193],[7.35289,46.95142],[7.35354,46.95073],[7.35404,46.95046],[7.35682,46.9497],[7.36135,46.94807],[7.36957,46.94753],[7.37126,46.94709],[7.37245,46.94716],[7.37095,46.94525],[7.37098,46.94496],[7.37136,46.9448],[7.37307,46.94501],[7.37321,46.94459],[7.37117,46.94401],[7.37025,46.94396],[7.37002,46.94277],[7.37743,46.94447],[7.39263,46.94636],[7.39499,46.94651],[7.40075,46.94639]]]}},{"type":"Feature","properties":{"name":"Gelbes Quartier","bezirk":"Stadtteil I Innere Stadt"},"geometry":{"type":"Polygon","coordinates":[[[7.44439,46.94913],[7.44415,46.94876],[7.44365,46.94884],[7.44345,46.94844],[7.44358,46.94687],[7.44378,46.94619],[7.44726,46.94632],[7.44724,46.94734],[7.44751,46.94734],[7.44743,46.94798],[7.44831,46.95025],[7.44602,46.95102],[7.44542,46.95032],[7.44496,46.95037],[7.44439,46.94913]]]}},{"type":"Feature","properties":{"name":"Stadtbach","bezirk":"Stadtteil II Länggasse-Felsenau"},"geometry":{"type":"Polygon","coordinates":[[[7.43409,46.95208],[7.4326,46.95315],[7.42865,46.95016],[7.42798,46.94858],[7.43088,46.94756],[7.43341,46.94747],[7.43342,46.94759],[7.43487,46.94767],[7.4373,46.94817],[7.43692,46.94911],[7.43673,46.94906],[7.43614,46.95044],[7.43409,46.95208]]]}},{"type":"Feature","properties":{"name":"Länggasse","bezirk":"Stadtteil II Länggasse-Felsenau"},"geometry":{"type":"Polygon","coordinates":[[[7.43557,46.95089],[7.43614,46.95044],[7.43673,46.94906],[7.43755,46.94931],[7.43781,46.94902],[7.43904,46.94963],[7.43957,46.95007],[7.43976,46.95031],[7.43941,46.95045],[7.43974,46.95111],[7.44042,46.95108],[7.44079,46.95147],[7.44077,46.95201],[7.4404,46.95268],[7.43911,46.95356],[7.43896,46.955],[7.43778,46.95672],[7.43427,46.95535],[7.43327,46.9545],[7.4326,46.95315],[7.43557,46.95089]]]}},{"type":"Feature","properties":{"name":"Murifeld","bezirk":"Stadtteil IV Kirchenfeld-Schosshalde"},"geometry":{"type":"Polygon","coordinates":[[[7.49026,46.93804],[7.4908,46.93876],[7.49265,46.93836],[7.49351,46.93766],[7.49437,46.93882],[7.49495,46.93862],[7.49556,46.93962],[7.49309,46.94115],[7.49143,46.94257],[7.49075,46.94185],[7.48826,46.94371],[7.48611,46.94427],[7.48523,46.94509],[7.48498,46.94461],[7.48339,46.9452],[7.48279,46.94417],[7.48192,46.94326],[7.48017,46.94396],[7.47941,46.94352],[7.47458,46.9434],[7.47254,46.943],[7.47054,46.94316],[7.47055,46.94255],[7.46937,46.94238],[7.46675,46.94149],[7.46872,46.94026],[7.47655,46.93685],[7.47919,46.93748],[7.48159,46.93715],[7.4836,46.93707],[7.48599,46.93666],[7.48576,46.93722],[7.4895,46.93687],[7.49026,46.93804]]]}},{"type":"Feature","properties":{"name":"Spitalacker","bezirk":"Stadtteil V Breitenrain-Lorraine"},"geometry":{"type":"Polygon","coordinates":[[[7.45195,46.95299],[7.45302,46.95277],[7.4582,46.9525],[7.45897,46.95335],[7.45922,46.95311],[7.45946,46.95339],[7.46394,46.95918],[7.46149,46.96007],[7.4549,46.95899],[7.4544,46.9586],[7.45267,46.958],[7.44712,46.95639],[7.44667,46.95529],[7.44586,46.95451],[7.44688,46.95359],[7.44809,46.9539],[7.45195,46.95299]]]}},{"type":"Feature","properties":{"name":"Oberbottigen","bezirk":"Stadtteil VI Bümpliz-Oberbottigen"},"geometry":{"type":"Polygon","coordinates":[[[7.37002,46.94277],[7.37025,46.94396],[7.37117,46.94401],[7.37321,46.94459],[7.37307,46.94501],[7.37136,46.9448],[7.37098,46.94496],[7.37095,46.94525],[7.37245,46.94716],[7.37126,46.94709],[7.36957,46.94753],[7.36135,46.94807],[7.35682,46.9497],[7.35404,46.95046],[7.35354,46.95073],[7.35289,46.95142],[7.35251,46.95053],[7.35056,46.95021],[7.35136,46.94855],[7.34908,46.94783],[7.34765,46.94766],[7.34735,46.94829],[7.34682,46.94812],[7.34664,46.94943],[7.34346,46.94879],[7.34385,46.94737],[7.34224,46.94724],[7.34215,46.94709],[7.3415,46.94719],[7.34141,46.94608],[7.34068,46.94624],[7.33977,46.94606],[7.33837,46.94609],[7.33755,46.94632],[7.33573,46.946],[7.33391,46.94628],[7.33331,46.94628],[7.33339,46.9461],[7.33216,46.94609],[7.33146,46.94623],[7.33103,46.94663],[7.32836,46.94639],[7.3262,46.94519],[7.32613,46.94461],[7.32503,46.9437],[7.32474,46.94329],[7.32244,46.94315],[7.31699,46.94226],[7.31493,46.94248],[7.31373,46.94182],[7.30981,46.9415],[7.30686,46.94037],[7.30686,46.94004],[7.30644,46.93996],[7.30653,46.93964],[7.30625,46.93944],[7.30634,46.9392],[7.30516,46.93875],[7.30465,46.93834],[7.3047,46.93687],[7.30434,46.93623],[7.30452,46.93529],[7.30511,46.93493],[7.30598,46.93322],[7.30525,46.93302],[7.3061,46.93209],[7.3064,46.93138],[7.30615,46.93094],[7.30408,46.93024],[7.30369,46.92989],[7.30278,46.92951],[7.30172,46.92849],[7.29911,46.92792],[7.29827,46.92746],[7.2954,46.92505],[7.29445,46.92398],[7.29432,46.92365],[7.29497,46.92287],[7.29854,46.92287],[7.30389,46.92237],[7.30888,46.9223],[7.31176,46.92272],[7.31423,46.9233],[7.31727,46.92447],[7.31987,46.92514],[7.32451,46.92515],[7.32478,46.92512],[7.32475,46.92494],[7.32526,46.92469],[7.32579,46.92464],[7.32647,46.9242],[7.32692,46.9236],[7.32746,46.91903],[7.33937,46.91967],[7.33878,46.92454],[7.34799,46.92524],[7.35106,46.92589],[7.35395,46.92603],[7.35393,46.92681],[7.3576,46.92719],[7.36056,46.9272],[7.36041,46.92859],[7.36528,46.92922],[7.36641,46.92951],[7.36831,46.93043],[7.36848,46.93055],[7.36841,46.93089],[7.36744,46.93179],[7.36807,46.93239],[7.36941,46.9321],[7.36993,46.93181],[7.37072,46.93224],[7.37318,46.93264],[7.37254,46.93421],[7.37312,46.93428],[7.37372,46.93403],[7.37498,46.93485],[7.37622,46.93523],[7.37702,46.93606],[7.37792,46.93559],[7.37886,46.9358],[7.37747,46.93652],[7.3778,46.93735],[7.37641,46.9392],[7.37579,46.94144],[7.37588,46.94151],[7.37441,46.94381],[7.37002,46.94277]]]}},{"type":"Feature","properties":{"name":"Holligen","bezirk":"Stadtteil III Mattenhof-Weissenbühl"},"geometry":{"type":"Polygon","coordinates":[[[7.41904,46.94134],[7.4207,46.94364],[7.42133,46.94426],[7.42351,46.94538],[7.42379,46.94592],[7.42457,46.94676],[7.42766,46.94791],[7.42798,46.94858],[7.42284,46.95144],[7.42082,46.95191],[7.42045,46.95219],[7.42072,46.95219],[7.42025,46.9527],[7.41991,46.95277],[7.41697,46.95186],[7.41541,46.95094],[7.41427,46.95051],[7.40919,46.94948],[7.40685,46.94952],[7.40682,46.94842],[7.4071,46.94842],[7.40707,46.94761],[7.40649,46.94762],[7.40651,46.94636],[7.40724,46.94632],[7.40695,46.94586],[7.40724,46.94549],[7.40692,46.94482],[7.40378,46.94282],[7.40412,46.94244],[7.40447,46.94258],[7.40461,46.94245],[7.40445,46.94203],[7.40634,46.94185],[7.40546,46.9411],[7.40539,46.94053],[7.40428,46.93965],[7.40271,46.93905],[7.40297,46.93871],[7.40077,46.93809],[7.3985,46.93691],[7.39776,46.93623],[7.3965,46.93464],[7.39516,46.93359],[7.39376,46.93294],[7.39152,46.9324],[7.39194,46.93166],[7.39145,46.93172],[7.38929,46.93142],[7.38757,46.93045],[7.39334,46.92642],[7.39608,46.92537],[7.39962,46.92263],[7.39996,46.92218],[7.40148,46.92119],[7.40141,46.92229],[7.40088,46.92262],[7.4009,46.92283],[7.40127,46.92347],[7.40213,46.9242],[7.40277,46.92439],[7.40374,46.92437],[7.40571,46.9247],[7.40807,46.92563],[7.40726,46.92644],[7.40724,46.92681],[7.40752,46.92755],[7.40739,46.92797],[7.40709,46.92822],[7.40708,46.93038],[7.40823,46.93098],[7.40978,46.93097],[7.40987,46.93068],[7.41168,46.93095],[7.41159,46.93123],[7.41384,46.93157],[7.41342,46.93258],[7.41364,46.93278],[7.41415,46.93401],[7.41468,46.93596],[7.41464,46.93638],[7.41481,46.9364],[7.41469,46.93682],[7.41599,46.93665],[7.41745,46.93914],[7.41904,46.94134]]]}},{"type":"Feature","properties":{"name":"Breitfeld","bezirk":"Stadtteil V Breitenrain-Lorraine"},"geometry":{"type":"Polygon","coordinates":[[[7.46851,46.96478],[7.46868,46.96501],[7.46854,46.96505],[7.47021,46.96741],[7.47037,46.96882],[7.47082,46.96946],[7.47069,46.96951],[7.4708,46.96988],[7.47071,46.97024],[7.47006,46.97101],[7.46984,46.97285],[7.46971,46.97283],[7.46859,46.97394],[7.46831,46.97531],[7.46804,46.97583],[7.46702,46.97547],[7.46693,46.97488],[7.4664,46.97412],[7.46435,46.97267],[7.46322,46.9714],[7.46129,46.97032],[7.45966,46.96983],[7.45786,46.96991],[7.45388,46.97119],[7.45244,46.97125],[7.44936,46.97052],[7.44976,46.96994],[7.451,46.96903],[7.45017,46.96728],[7.45114,46.96555],[7.45092,46.96466],[7.45102,46.96426],[7.45475,46.96519],[7.45483,46.96405],[7.45461,46.96033],[7.4549,46.95899],[7.46149,46.96007],[7.46394,46.95918],[7.46699,46.96314],[7.46851,46.96478]]]}},{"type":"Feature","properties":{"name":"Altenberg","bezirk":"Stadtteil V Breitenrain-Lorraine"},"geometry":{"type":"Polygon","coordinates":[[[7.45284,46.94992],[7.45524,46.95021],[7.45718,46.95015],[7.45798,46.9499],[7.45845,46.94933],[7.45912,46.94949],[7.45934,46.94941],[7.45955,46.94852],[7.46016,46.94841],[7.46056,46.9488],[7.46001,46.9505],[7.45882,46.95209],[7.45884,46.95257],[7.45921,46.95312],[7.45897,46.95335],[7.4582,46.9525],[7.45302,46.95277],[7.44809,46.9539],[7.44688,46.95359],[7.44586,46.95451],[7.44322,46.95282],[7.4453,46.95137],[7.44884,46.95008],[7.45085,46.9498],[7.45284,46.94992]]]}},{"type":"Feature","properties":{"name":"Muesmatt","bezirk":"Stadtteil II Länggasse-Felsenau"},"geometry":{"type":"Polygon","coordinates":[[[7.43108,46.9521],[7.4326,46.95315],[7.42975,46.9549],[7.42397,46.95658],[7.42208,46.95385],[7.42099,46.95291],[7.42035,46.95259],[7.42072,46.95219],[7.42045,46.95219],[7.42082,46.95191],[7.42284,46.95144],[7.42798,46.94858],[7.42865,46.95016],[7.43108,46.9521]]]}},{"type":"Feature","properties":{"name":"Monbijou","bezirk":"Stadtteil III Mattenhof-Weissenbühl"},"geometry":{"type":"Polygon","coordinates":[[[7.43264,46.94749],[7.43055,46.9476],[7.42798,46.94858],[7.42788,46.94825],[7.42873,46.94802],[7.43067,46.94183],[7.43137,46.9406],[7.43173,46.94064],[7.43221,46.94096],[7.43311,46.94081],[7.43337,46.94118],[7.4334,46.9417],[7.43592,46.94093],[7.437,46.94145],[7.43761,46.94211],[7.43755,46.94316],[7.43791,46.94397],[7.43851,46.94393],[7.43838,46.94384],[7.43858,46.94363],[7.44048,46.94469],[7.43961,46.94544],[7.43939,46.94605],[7.43725,46.9456],[7.43709,46.94586],[7.43764,46.947],[7.4373,46.94817],[7.43487,46.94767],[7.43264,46.94749]]]}},{"type":"Feature","properties":{"name":"Kirchenfeld","bezirk":"Stadtteil IV Kirchenfeld-Schosshalde"},"geometry":{"type":"Polygon","coordinates":[[[7.44524,46.93494],[7.44624,46.93412],[7.44768,46.93344],[7.45077,46.93294],[7.45247,46.933],[7.45695,46.93475],[7.45775,46.93487],[7.4589,46.93476],[7.46215,46.9376],[7.45932,46.93941],[7.4597,46.93967],[7.45894,46.93974],[7.45847,46.94051],[7.45252,46.94554],[7.44814,46.94578],[7.4464,46.94525],[7.44584,46.94459],[7.44438,46.93786],[7.44453,46.93635],[7.44524,46.93494]]]}},{"type":"Feature","properties":{"name":"Neufeld","bezirk":"Stadtteil II Länggasse-Felsenau"},"geometry":{"type":"Polygon","coordinates":[[[7.4346,46.96034],[7.43072,46.9641],[7.4291,46.96655],[7.4278,46.96888],[7.42727,46.9695],[7.42651,46.96992],[7.42579,46.97011],[7.42386,46.97025],[7.42401,46.97106],[7.42818,46.97318],[7.42812,46.97379],[7.42622,46.9733],[7.42134,46.97156],[7.41594,46.97105],[7.40829,46.96869],[7.40005,46.96918],[7.3938,46.96693],[7.38476,46.96639],[7.38522,46.96597],[7.38545,46.96545],[7.38613,46.96511],[7.38614,46.96492],[7.38406,46.96317],[7.38629,46.96107],[7.38776,46.95994],[7.3892,46.95829],[7.38996,46.95693],[7.39072,46.9546],[7.3904,46.95458],[7.39063,46.95329],[7.3923,46.95153],[7.39554,46.95243],[7.3988,46.95067],[7.39889,46.9508],[7.39958,46.95056],[7.3994,46.95032],[7.40041,46.94972],[7.40079,46.94982],[7.4052,46.94955],[7.40581,46.94967],[7.40642,46.94931],[7.40683,46.94931],[7.40685,46.94952],[7.40919,46.94948],[7.41403,46.95045],[7.4152,46.95084],[7.41697,46.95186],[7.41765,46.9521],[7.41967,46.9526],[7.41991,46.95277],[7.42035,46.95259],[7.42099,46.95291],[7.42208,46.95385],[7.42397,46.95658],[7.42975,46.9549],[7.4326,46.95315],[7.43327,46.9545],[7.43427,46.95535],[7.43778,46.95672],[7.4346,46.96034]]]}}]}