{"type":"FeatureCollection","features":[{"type":"Feature","properties":{"zone":"3000","district":"Schwarzes Quartier","rawHours":"","rawFee":"","note":"Blaue Zone: blau markierte Parkfelder mit Parkscheibe, Parkkarte hebt die Beschränkung auf","windows":[],"fee":{"kind":"unknown"},"unmodelledRules":[],"sourceDefect":null,"scheduleUnknown":true,"spaces":null,"maxStayMinutes":null,"maxStay":null,"maxStayShare":0,"maxStayValues":[],"chargingPoints":0,"carsharing":0},"geometry":{"type":"Polygon","coordinates":[[[7.45823,46.94694],[7.45834,46.94731],[7.45842,46.94784],[7.45846,46.94839],[7.45713,46.94849],[7.45711,46.94836],[7.45702,46.94824],[7.4567,46.94818],[7.45507,46.94748],[7.45398,46.94705],[7.45354,46.94694],[7.45343,46.94702],[7.45243,46.94664],[7.45113,46.94649],[7.45007,46.94639],[7.44884,46.94621],[7.44889,46.94601],[7.45107,46.94621],[7.45124,46.94621],[7.45124,46.94609],[7.45227,46.9461],[7.45265,46.94612],[7.45271,46.94593],[7.45279,46.94551],[7.45439,46.94537],[7.45505,46.94546],[7.45742,46.94637],[7.4578,46.9466],[7.45823,46.94694]]]}},{"type":"Feature","properties":{"zone":"3000","district":"Schwarzes Quartier","rawHours":"","rawFee":"","note":"Blaue Zone: blau markierte Parkfelder mit Parkscheibe, Parkkarte hebt die Beschränkung auf","windows":[],"fee":{"kind":"unknown"},"unmodelledRules":[],"sourceDefect":null,"scheduleUnknown":true,"spaces":null,"maxStayMinutes":null,"maxStay":null,"maxStayShare":0,"maxStayValues":[],"chargingPoints":0,"carsharing":0},"geometry":{"type":"Polygon","coordinates":[[[7.45824,46.94971],[7.45798,46.9499],[7.45761,46.95007],[7.45718,46.95015],[7.45604,46.95023],[7.45537,46.95021],[7.45544,46.94969],[7.45568,46.9497],[7.45574,46.94921],[7.45572,46.94899],[7.45577,46.9488],[7.4559,46.94873],[7.45599,46.94872],[7.45847,46.94853],[7.4585,46.94892],[7.45845,46.94933],[7.45843,46.94942],[7.45824,46.94971]]]}},{"type":"Feature","properties":{"zone":"3003","district":"Sandrain","rawHours":"","rawFee":"","note":"Blaue Zone: blau markierte Parkfelder mit Parkscheibe, Parkkarte hebt die Beschränkung auf","windows":[],"fee":{"kind":"unknown"},"unmodelledRules":[],"sourceDefect":null,"scheduleUnknown":true,"spaces":null,"maxStayMinutes":null,"maxStay":null,"maxStayShare":0,"maxStayValues":[],"chargingPoints":0,"carsharing":0},"geometry":{"type":"Polygon","coordinates":[[[7.44479,46.94628],[7.44457,46.94618],[7.44429,46.94613],[7.44345,46.94582],[7.44321,46.94575],[7.44197,46.94608],[7.44123,46.94596],[7.44126,46.94565],[7.44054,46.9447],[7.4405,46.9447],[7.44043,46.94473],[7.43962,46.94545],[7.43955,46.94566],[7.43934,46.94559],[7.4386,46.94515],[7.4384,46.94494],[7.43816,46.94446],[7.43789,46.94396],[7.43754,46.94315],[7.43753,46.94299],[7.43761,46.94214],[7.43767,46.94201],[7.43803,46.94163],[7.4386,46.94123],[7.43905,46.94097],[7.43955,46.94077],[7.44003,46.94079],[7.44056,46.94084],[7.441,46.94083],[7.44133,46.94078],[7.44181,46.94065],[7.44257,46.9416],[7.44292,46.94147],[7.44314,46.94191],[7.4433,46.94215],[7.44304,46.94227],[7.44338,46.94269],[7.44373,46.94256],[7.44388,46.94276],[7.44353,46.94289],[7.44432,46.94382],[7.44513,46.945],[7.44598,46.94558],[7.4458,46.94591],[7.44479,46.94628]]]}},{"type":"Feature","properties":{"zone":"3004","district":"Felsenau","rawHours":"","rawFee":"","note":"Blaue Zone: blau markierte Parkfelder mit Parkscheibe, Parkkarte hebt die Beschränkung auf","windows":[],"fee":{"kind":"unknown"},"unmodelledRules":[],"sourceDefect":null,"scheduleUnknown":true,"spaces":null,"maxStayMinutes":null,"maxStay":null,"maxStayShare":0,"maxStayValues":[],"chargingPoints":0,"carsharing":0},"geometry":{"type":"Polygon","coordinates":[[[7.45532,46.97375],[7.4557,46.9741],[7.45622,46.97487],[7.45578,46.975],[7.45535,46.9749],[7.45197,46.97354],[7.45129,46.97323],[7.45114,46.9734],[7.45097,46.97351],[7.45041,46.97378],[7.4497,46.97339],[7.4487,46.97294],[7.44807,46.9726],[7.44852,46.97215],[7.44852,46.97201],[7.44875,46.97166],[7.44918,46.97081],[7.45025,46.97112],[7.45174,46.9715],[7.45308,46.9716],[7.4537,46.97162],[7.45406,46.97198],[7.45338,46.97218],[7.45434,46.97303],[7.45532,46.97375]]]}},{"type":"Feature","properties":{"zone":"3004/1","district":"Felsenau","rawHours":"","rawFee":"","note":"Blaue Zone: blau markierte Parkfelder mit Parkscheibe, Parkkarte hebt die Beschränkung auf","windows":[],"fee":{"kind":"unknown"},"unmodelledRules":[],"sourceDefect":null,"scheduleUnknown":true,"spaces":null,"maxStayMinutes":null,"maxStay":null,"maxStayShare":0,"maxStayValues":[],"chargingPoints":0,"carsharing":0},"geometry":{"type":"Polygon","coordinates":[[[7.45269,46.97735],[7.45275,46.97747],[7.45277,46.9777],[7.45239,46.97873],[7.45205,46.97869],[7.45118,46.97839],[7.45103,46.97838],[7.45048,46.97825],[7.45082,46.97698],[7.45046,46.97626],[7.45025,46.97562],[7.44986,46.97507],[7.4494,46.97466],[7.44909,46.97447],[7.44705,46.97371],[7.44618,46.9738],[7.44583,46.97374],[7.44575,46.97374],[7.4455,46.97383],[7.44483,46.97383],[7.44409,46.974],[7.44388,46.97403],[7.44369,46.97395],[7.44345,46.97331],[7.44331,46.97331],[7.44333,46.97313],[7.44308,46.97305],[7.44339,46.97019],[7.44355,46.96989],[7.44363,46.96966],[7.4437,46.96938],[7.44374,46.96912],[7.44373,46.96875],[7.44356,46.96848],[7.44349,46.96831],[7.44335,46.96812],[7.44303,46.96771],[7.4429,46.96751],[7.4421,46.96725],[7.44165,46.96712],[7.44147,46.9671],[7.44085,46.96705],[7.43924,46.9667],[7.43895,46.96657],[7.439,46.96645],[7.43926,46.96649],[7.43939,46.96649],[7.43955,46.96647],[7.44205,46.96573],[7.44311,46.96555],[7.44326,46.96596],[7.4435,46.9667],[7.44351,46.96681],[7.44356,46.9671],[7.4436,46.96719],[7.44366,46.96778],[7.44371,46.96795],[7.44392,46.96855],[7.444,46.96873],[7.44399,46.96873],[7.44422,46.96911],[7.44461,46.96961],[7.44507,46.97009],[7.44576,46.97086],[7.44587,46.97081],[7.44598,46.97093],[7.44629,46.97119],[7.44664,46.9714],[7.44767,46.97184],[7.44786,46.97205],[7.44826,46.97241],[7.44791,46.97276],[7.44813,46.97284],[7.44805,46.97296],[7.44876,46.97325],[7.44925,46.97351],[7.44951,46.97369],[7.44981,46.97393],[7.45003,46.97384],[7.45035,46.97388],[7.45052,46.97423],[7.45067,46.97446],[7.45084,46.97469],[7.45142,46.97536],[7.45134,46.97539],[7.4517,46.97579],[7.45061,46.97605],[7.45095,46.97676],[7.4522,46.97655],[7.45269,46.97735]]]}},{"type":"Feature","properties":{"zone":"3004/2","district":"Engeried","rawHours":"","rawFee":"","note":"Blaue Zone: blau markierte Parkfelder mit Parkscheibe, Parkkarte hebt die Beschränkung auf","windows":[],"fee":{"kind":"unknown"},"unmodelledRules":[],"sourceDefect":null,"scheduleUnknown":true,"spaces":null,"maxStayMinutes":null,"maxStay":null,"maxStayShare":0,"maxStayValues":[],"chargingPoints":0,"carsharing":0},"geometry":{"type":"Polygon","coordinates":[[[7.4411,46.95356],[7.44188,46.95402],[7.44172,46.95422],[7.44151,46.95453],[7.44133,46.95485],[7.4412,46.95518],[7.44109,46.95552],[7.44104,46.95585],[7.44104,46.95618],[7.44108,46.95651],[7.44117,46.95684],[7.44215,46.95965],[7.44338,46.96329],[7.44375,46.964],[7.4442,46.96465],[7.44524,46.9658],[7.44566,46.96634],[7.44595,46.96683],[7.44719,46.96855],[7.44574,46.96904],[7.4454,46.96913],[7.44435,46.96876],[7.44413,46.96824],[7.44396,46.96765],[7.44389,46.96635],[7.44353,46.96503],[7.44192,46.96242],[7.44143,46.96155],[7.44125,46.96061],[7.4405,46.9606],[7.43944,46.95815],[7.43918,46.9574],[7.43912,46.95712],[7.4392,46.95614],[7.43928,46.95452],[7.43944,46.95423],[7.43956,46.95422],[7.43955,46.9541],[7.43997,46.95409],[7.44067,46.95348],[7.4411,46.95356]]]}},{"type":"Feature","properties":{"zone":"3004/3","district":"Felsenau","rawHours":"","rawFee":"","note":"Blaue Zone: blau markierte Parkfelder mit Parkscheibe, Parkkarte hebt die Beschränkung auf","windows":[],"fee":{"kind":"unknown"},"unmodelledRules":[],"sourceDefect":null,"scheduleUnknown":true,"spaces":null,"maxStayMinutes":null,"maxStay":null,"maxStayShare":0,"maxStayValues":[],"chargingPoints":0,"carsharing":0},"geometry":{"type":"Polygon","coordinates":[[[7.44088,46.97132],[7.44087,46.9714],[7.4408,46.97141],[7.44072,46.97132],[7.44054,46.9712],[7.44032,46.97117],[7.44032,46.97115],[7.44046,46.97096],[7.44066,46.97095],[7.44065,46.97076],[7.4407,46.97076],[7.44073,46.97056],[7.44052,46.97056],[7.44049,46.97064],[7.44046,46.97067],[7.4404,46.97068],[7.44026,46.97057],[7.44014,46.97057],[7.44014,46.97059],[7.4401,46.9706],[7.4401,46.97057],[7.43994,46.97058],[7.43992,46.97042],[7.43995,46.97015],[7.44005,46.96993],[7.44005,46.96984],[7.43998,46.96983],[7.43979,46.96986],[7.43977,46.96975],[7.43957,46.96957],[7.43976,46.96953],[7.43993,46.96968],[7.43999,46.96966],[7.44004,46.9697],[7.43993,46.96949],[7.44053,46.96937],[7.44066,46.96966],[7.4409,46.96969],[7.44102,46.96982],[7.44107,46.96988],[7.44108,46.96997],[7.44088,46.97132]]]}},{"type":"Feature","properties":{"zone":"3005","district":"Kirchenfeld","rawHours":"","rawFee":"","note":"Blaue Zone: blau markierte Parkfelder mit Parkscheibe, Parkkarte hebt die Beschränkung auf","windows":[],"fee":{"kind":"unknown"},"unmodelledRules":[],"sourceDefect":null,"scheduleUnknown":true,"spaces":null,"maxStayMinutes":null,"maxStay":null,"maxStayShare":0,"maxStayValues":[],"chargingPoints":0,"carsharing":0},"geometry":{"type":"Polygon","coordinates":[[[7.44869,46.93522],[7.449,46.93553],[7.45083,46.93695],[7.45262,46.93839],[7.45392,46.939],[7.45384,46.93989],[7.4584,46.94015],[7.45833,46.94054],[7.45823,46.94085],[7.45426,46.94415],[7.45279,46.94551],[7.4495,46.9458],[7.44814,46.94578],[7.44769,46.94569],[7.44681,46.94544],[7.4464,46.94525],[7.44613,46.94491],[7.44584,46.94459],[7.44444,46.93823],[7.44438,46.93786],[7.44436,46.93748],[7.44437,46.9371],[7.44443,46.93672],[7.44453,46.93635],[7.44465,46.936],[7.44482,46.93564],[7.44502,46.93529],[7.44524,46.93494],[7.44564,46.93459],[7.44624,46.93496],[7.44699,46.9347],[7.44732,46.93472],[7.44746,46.9347],[7.44775,46.93462],[7.44826,46.93493],[7.44869,46.93522]]]}},{"type":"Feature","properties":{"zone":"3006","district":"Schosshalde","rawHours":"","rawFee":"","note":"Blaue Zone: blau markierte Parkfelder mit Parkscheibe, Parkkarte hebt die Beschränkung auf","windows":[],"fee":{"kind":"unknown"},"unmodelledRules":[],"sourceDefect":null,"scheduleUnknown":true,"spaces":null,"maxStayMinutes":null,"maxStay":null,"maxStayShare":0,"maxStayValues":[],"chargingPoints":0,"carsharing":0},"geometry":{"type":"Polygon","coordinates":[[[7.47054,46.95246],[7.47001,46.95316],[7.46875,46.95289],[7.46746,46.95258],[7.46731,46.95251],[7.46701,46.95245],[7.467,46.95248],[7.46527,46.95224],[7.46459,46.95225],[7.46454,46.95227],[7.46428,46.95228],[7.46391,46.95227],[7.46353,46.95223],[7.46252,46.95201],[7.46158,46.95169],[7.46152,46.95166],[7.46123,46.95136],[7.46095,46.95104],[7.46089,46.95088],[7.46087,46.95068],[7.46091,46.95037],[7.46067,46.95032],[7.4607,46.9501],[7.46068,46.94872],[7.46061,46.94863],[7.46041,46.94854],[7.4602,46.9484],[7.46018,46.94828],[7.46021,46.94809],[7.45986,46.94659],[7.45982,46.9465],[7.45973,46.94634],[7.45954,46.94611],[7.45927,46.94588],[7.45905,46.94575],[7.45861,46.94553],[7.45848,46.94554],[7.45824,46.94573],[7.45612,46.94499],[7.45414,46.94426],[7.45426,46.94415],[7.45823,46.94085],[7.45833,46.94054],[7.45838,46.94024],[7.45853,46.94013],[7.45866,46.93999],[7.45907,46.93935],[7.4594,46.93936],[7.46018,46.93888],[7.46223,46.93755],[7.46204,46.93739],[7.46158,46.93711],[7.45944,46.93524],[7.46051,46.93477],[7.46199,46.934],[7.4627,46.93345],[7.4632,46.93362],[7.46352,46.93382],[7.46374,46.93392],[7.46343,46.93458],[7.46392,46.93522],[7.464,46.93519],[7.4639,46.93473],[7.46413,46.9347],[7.4647,46.93426],[7.46462,46.93421],[7.46573,46.93337],[7.46643,46.9338],[7.46722,46.93316],[7.46744,46.9332],[7.468,46.93335],[7.46862,46.93357],[7.46876,46.93363],[7.46888,46.93363],[7.47007,46.93409],[7.47045,46.93432],[7.47213,46.93292],[7.47224,46.9328],[7.47278,46.93234],[7.47298,46.93239],[7.47344,46.93177],[7.47396,46.93199],[7.47378,46.93263],[7.47535,46.93299],[7.47477,46.93361],[7.4747,46.93392],[7.47604,46.93439],[7.47578,46.93464],[7.47675,46.93511],[7.4768,46.93511],[7.47685,46.93507],[7.47692,46.93518],[7.47724,46.93554],[7.47731,46.9356],[7.47712,46.93571],[7.47687,46.93592],[7.47671,46.93611],[7.47707,46.93632],[7.47702,46.93639],[7.477,46.93648],[7.47701,46.93654],[7.47707,46.93661],[7.4759,46.93712],[7.4752,46.93744],[7.47151,46.93904],[7.47199,46.9392],[7.47301,46.93952],[7.47297,46.93959],[7.47299,46.93963],[7.47361,46.93982],[7.47407,46.93995],[7.47451,46.93999],[7.47507,46.94015],[7.47498,46.94022],[7.47454,46.94069],[7.47401,46.94142],[7.47339,46.9422],[7.47318,46.94251],[7.47316,46.94252],[7.47298,46.94297],[7.47256,46.94294],[7.47254,46.94311],[7.47292,46.94315],[7.47276,46.94351],[7.47267,46.94381],[7.4724,46.94432],[7.47222,46.94457],[7.47209,46.9447],[7.47166,46.94499],[7.47282,46.94772],[7.4722,46.94784],[7.47205,46.94785],[7.47183,46.94783],[7.47178,46.94793],[7.47157,46.94804],[7.46924,46.94628],[7.46764,46.94669],[7.46701,46.94694],[7.46656,46.94719],[7.46622,46.94745],[7.46659,46.94772],[7.46695,46.94802],[7.46741,46.94836],[7.46783,46.94861],[7.46907,46.94926],[7.46906,46.94932],[7.46911,46.94934],[7.4691,46.94935],[7.4692,46.94942],[7.46921,46.94941],[7.47031,46.95011],[7.47068,46.95028],[7.47207,46.9507],[7.47205,46.95075],[7.47114,46.95182],[7.47054,46.95246]],[[7.46323,46.94063],[7.46328,46.94096],[7.46331,46.94101],[7.46335,46.94103],[7.46587,46.94145],[7.46614,46.94147],[7.46619,46.94145],[7.46618,46.94141],[7.46612,46.94137],[7.46602,46.94135],[7.46594,46.94107],[7.46526,46.94101],[7.46508,46.94092],[7.46511,46.94077],[7.46327,46.9406],[7.46323,46.94063]]]}},{"type":"Feature","properties":{"zone":"3006/1","district":"Beundenfeld","rawHours":"","rawFee":"","note":"Weiss markierte Parkfelder; ob gebührenpflichtig, sagt die Quelle nicht","windows":[],"fee":{"kind":"unknown"},"unmodelledRules":[],"sourceDefect":null,"scheduleUnknown":true,"spaces":null,"maxStayMinutes":null,"maxStay":null,"maxStayShare":0,"maxStayValues":[],"chargingPoints":0,"carsharing":0},"geometry":{"type":"Polygon","coordinates":[[[7.47941,46.96022],[7.47933,46.96032],[7.47502,46.95757],[7.47564,46.95709],[7.47608,46.95667],[7.47631,46.9564],[7.47673,46.95587],[7.47685,46.95567],[7.4769,46.95552],[7.47859,46.95569],[7.47866,46.95592],[7.47911,46.95603],[7.47944,46.95619],[7.47964,46.95641],[7.47978,46.9566],[7.47975,46.95682],[7.4795,46.95711],[7.47893,46.95878],[7.47932,46.95887],[7.47944,46.95915],[7.4795,46.95945],[7.47951,46.95965],[7.4792,46.95988],[7.47948,46.96005],[7.47956,46.96005],[7.47941,46.96022]]]}},{"type":"Feature","properties":{"zone":"3006/2","district":"Beundenfeld","rawHours":"","rawFee":"","note":"Weiss markierte Parkfelder; ob gebührenpflichtig, sagt die Quelle nicht — Hinweis der Quelle: „Auch Sonntags\"","windows":[],"fee":{"kind":"unknown"},"unmodelledRules":["Auch Sonntags"],"sourceDefect":null,"scheduleUnknown":true,"spaces":null,"maxStayMinutes":null,"maxStay":null,"maxStayShare":0,"maxStayValues":[],"chargingPoints":0,"carsharing":0},"geometry":{"type":"Polygon","coordinates":[[[7.47706,46.95508],[7.47718,46.95512],[7.4769,46.95552],[7.47685,46.95567],[7.47675,46.95584],[7.47627,46.95646],[7.47589,46.95686],[7.47545,46.95724],[7.47241,46.95951],[7.47073,46.95848],[7.47111,46.95827],[7.47106,46.95822],[7.47311,46.95712],[7.47331,46.95696],[7.4737,46.95671],[7.47366,46.95668],[7.47697,46.95492],[7.47706,46.95508]]]}},{"type":"Feature","properties":{"zone":"3006/3","district":"Beundenfeld","rawHours":"","rawFee":"","note":"Weiss markierte Parkfelder; ob gebührenpflichtig, sagt die Quelle nicht — Hinweis der Quelle: „Auch Sonntags\"","windows":[],"fee":{"kind":"unknown"},"unmodelledRules":["Auch Sonntags"],"sourceDefect":null,"scheduleUnknown":true,"spaces":null,"maxStayMinutes":null,"maxStay":null,"maxStayShare":0,"maxStayValues":[],"chargingPoints":0,"carsharing":0},"geometry":{"type":"Polygon","coordinates":[[[7.47709,46.95443],[7.47704,46.95443],[7.47702,46.95445],[7.47692,46.95476],[7.47692,46.95482],[7.47697,46.95492],[7.47366,46.95668],[7.4737,46.95671],[7.47331,46.95696],[7.47311,46.95712],[7.47106,46.95822],[7.47111,46.95827],[7.47073,46.95848],[7.46936,46.95764],[7.46786,46.9566],[7.46774,46.95624],[7.4681,46.95595],[7.46894,46.95517],[7.47013,46.9537],[7.47053,46.95325],[7.47149,46.95343],[7.47686,46.95419],[7.47688,46.95423],[7.47717,46.95424],[7.47709,46.95443]]]}},{"type":"Feature","properties":{"zone":"3006/4","district":"Beundenfeld","rawHours":"","rawFee":"","note":"Blaue Zone: blau markierte Parkfelder mit Parkscheibe, Parkkarte hebt die Beschränkung auf","windows":[],"fee":{"kind":"unknown"},"unmodelledRules":[],"sourceDefect":null,"scheduleUnknown":true,"spaces":null,"maxStayMinutes":null,"maxStay":null,"maxStayShare":0,"maxStayValues":[],"chargingPoints":0,"carsharing":0},"geometry":{"type":"Polygon","coordinates":[[[7.4795,46.96038],[7.48029,46.96068],[7.48011,46.96099],[7.47979,46.96148],[7.47963,46.96167],[7.47915,46.96213],[7.47809,46.96284],[7.47734,46.96238],[7.47877,46.96095],[7.47933,46.96032],[7.4795,46.96038]]]}},{"type":"Feature","properties":{"zone":"3006/5","district":"Schosshalde","rawHours":"","rawFee":"","note":"Blaue Zone: blau markierte Parkfelder mit Parkscheibe, Parkkarte hebt die Beschränkung auf","windows":[],"fee":{"kind":"unknown"},"unmodelledRules":[],"sourceDefect":null,"scheduleUnknown":true,"spaces":null,"maxStayMinutes":null,"maxStay":null,"maxStayShare":0,"maxStayValues":[],"chargingPoints":0,"carsharing":0},"geometry":{"type":"Polygon","coordinates":[[[7.48356,46.94555],[7.48362,46.94579],[7.48364,46.94647],[7.48368,46.94672],[7.48391,46.94755],[7.48332,46.94771],[7.48267,46.94792],[7.48244,46.94796],[7.48247,46.94803],[7.48246,46.94807],[7.48241,46.94809],[7.48226,46.94814],[7.48164,46.94835],[7.48147,46.94714],[7.48151,46.947],[7.48189,46.94641],[7.48193,46.9459],[7.48189,46.9456],[7.48218,46.94552],[7.48328,46.94499],[7.48339,46.9452],[7.48356,46.94555]]]}},{"type":"Feature","properties":{"zone":"3006/6","district":"Schosshalde","rawHours":"","rawFee":"","note":"Blaue Zone: blau markierte Parkfelder mit Parkscheibe, Parkkarte hebt die Beschränkung auf","windows":[],"fee":{"kind":"unknown"},"unmodelledRules":[],"sourceDefect":null,"scheduleUnknown":true,"spaces":null,"maxStayMinutes":null,"maxStay":null,"maxStayShare":0,"maxStayValues":[],"chargingPoints":0,"carsharing":0},"geometry":{"type":"Polygon","coordinates":[[[7.47525,46.95091],[7.47518,46.95095],[7.47503,46.95094],[7.47352,46.95075],[7.47322,46.95079],[7.4731,46.95084],[7.47306,46.95077],[7.47292,46.95077],[7.47257,46.95068],[7.47292,46.95016],[7.47312,46.94979],[7.4732,46.9496],[7.47328,46.94938],[7.47334,46.94911],[7.47337,46.94873],[7.47335,46.94847],[7.47331,46.94826],[7.47325,46.948],[7.47317,46.9478],[7.47321,46.94779],[7.47239,46.94586],[7.47238,46.94563],[7.47242,46.94528],[7.47333,46.94481],[7.47345,46.9447],[7.47354,46.94458],[7.47356,46.94446],[7.47354,46.94435],[7.47316,46.94397],[7.47311,46.94375],[7.47316,46.94354],[7.47331,46.9432],[7.47292,46.94315],[7.47254,46.94311],[7.47256,46.94294],[7.47298,46.94297],[7.47337,46.94302],[7.47363,46.94257],[7.47404,46.94196],[7.47406,46.94197],[7.4746,46.94128],[7.47508,46.94147],[7.47595,46.94166],[7.47605,46.94171],[7.47609,46.94176],[7.47871,46.94209],[7.47872,46.94223],[7.4788,46.9424],[7.47905,46.94279],[7.47927,46.94306],[7.47941,46.94332],[7.47955,46.94355],[7.4801,46.94389],[7.48032,46.94394],[7.48021,46.944],[7.48015,46.94411],[7.48015,46.9442],[7.48016,46.94423],[7.48014,46.94426],[7.48014,46.94433],[7.48004,46.94438],[7.47992,46.94476],[7.47969,46.94509],[7.4796,46.94534],[7.47947,46.94561],[7.47946,46.94572],[7.47947,46.94594],[7.47945,46.94622],[7.4794,46.94645],[7.4794,46.94651],[7.47931,46.94663],[7.47907,46.94688],[7.47863,46.94728],[7.47794,46.94807],[7.47754,46.94842],[7.47734,46.94866],[7.477,46.9491],[7.47684,46.94934],[7.47658,46.94979],[7.47646,46.95013],[7.47634,46.95028],[7.47612,46.95043],[7.47588,46.95063],[7.47525,46.95091]],[[7.47412,46.94738],[7.47484,46.9473],[7.47558,46.94726],[7.47616,46.94726],[7.47695,46.94729],[7.47716,46.94619],[7.47642,46.94616],[7.47524,46.94619],[7.47423,46.94629],[7.47348,46.94641],[7.47346,46.94634],[7.47321,46.94638],[7.47326,46.94651],[7.47337,46.94649],[7.47364,46.94713],[7.47401,46.94706],[7.47412,46.94738]],[[7.47367,46.94302],[7.47368,46.94307],[7.47412,46.94316],[7.47428,46.94327],[7.47457,46.94334],[7.47468,46.94334],[7.47495,46.94328],[7.47506,46.94285],[7.47517,46.94286],[7.47518,46.94282],[7.47481,46.94277],[7.47492,46.94235],[7.47405,46.94217],[7.47379,46.94257],[7.4738,46.94265],[7.47377,46.94272],[7.47368,46.94283],[7.4736,46.94299],[7.47367,46.94302]]]}},{"type":"Feature","properties":{"zone":"3007/1","district":"Sandrain","rawHours":"","rawFee":"","note":"Blaue Zone: blau markierte Parkfelder mit Parkscheibe, Parkkarte hebt die Beschränkung auf","windows":[],"fee":{"kind":"unknown"},"unmodelledRules":[],"sourceDefect":null,"scheduleUnknown":true,"spaces":null,"maxStayMinutes":null,"maxStay":null,"maxStayShare":0,"maxStayValues":[],"chargingPoints":0,"carsharing":0},"geometry":{"type":"Polygon","coordinates":[[[7.43617,46.94298],[7.43524,46.94334],[7.43254,46.94431],[7.43143,46.94243],[7.43081,46.94153],[7.43116,46.94085],[7.4316,46.94022],[7.43185,46.93977],[7.43207,46.93928],[7.43217,46.93854],[7.43222,46.93784],[7.43212,46.93678],[7.43241,46.9365],[7.43325,46.93576],[7.43364,46.93558],[7.43443,46.93532],[7.43532,46.93506],[7.43559,46.93501],[7.43647,46.93494],[7.43697,46.93494],[7.43793,46.93466],[7.43889,46.93435],[7.43964,46.93417],[7.44004,46.93403],[7.44104,46.93337],[7.44186,46.93306],[7.44339,46.93253],[7.44592,46.9315],[7.44597,46.93201],[7.44597,46.93214],[7.44592,46.93231],[7.44586,46.93245],[7.44572,46.93265],[7.44563,46.93275],[7.44546,46.9329],[7.44584,46.93326],[7.44556,46.93344],[7.44456,46.93394],[7.44437,46.9339],[7.4442,46.93391],[7.44387,46.93401],[7.4437,46.93413],[7.44312,46.93466],[7.44302,46.93477],[7.44294,46.93489],[7.44288,46.93501],[7.44266,46.93566],[7.44255,46.93586],[7.44238,46.93605],[7.44179,46.93657],[7.44166,46.93676],[7.44141,46.93733],[7.44122,46.93845],[7.44119,46.93879],[7.44122,46.93914],[7.44127,46.93935],[7.44152,46.94013],[7.44159,46.94028],[7.44181,46.94065],[7.44133,46.94078],[7.441,46.94083],[7.44056,46.94084],[7.44003,46.94079],[7.43955,46.94077],[7.43905,46.94097],[7.4386,46.94123],[7.43803,46.94163],[7.43767,46.94201],[7.43761,46.94214],[7.43757,46.94255],[7.43642,46.94298],[7.43636,46.94291],[7.43617,46.94298]]]}},{"type":"Feature","properties":{"zone":"3007/2","district":"Mattenhof","rawHours":"","rawFee":"","note":"Blaue Zone: blau markierte Parkfelder mit Parkscheibe, Parkkarte hebt die Beschränkung auf","windows":[],"fee":{"kind":"unknown"},"unmodelledRules":[],"sourceDefect":null,"scheduleUnknown":true,"spaces":null,"maxStayMinutes":null,"maxStay":null,"maxStayShare":0,"maxStayValues":[],"chargingPoints":0,"carsharing":0},"geometry":{"type":"Polygon","coordinates":[[[7.42665,46.94524],[7.42588,46.94519],[7.42581,46.94522],[7.42373,46.94507],[7.42371,46.94518],[7.42343,46.94516],[7.42331,46.94512],[7.42285,46.94488],[7.42282,46.94485],[7.42283,46.9447],[7.42249,46.9447],[7.42244,46.94464],[7.42172,46.94457],[7.4207,46.94457],[7.42017,46.94454],[7.42019,46.9444],[7.42016,46.94436],[7.42005,46.94425],[7.41961,46.94392],[7.41944,46.94378],[7.41914,46.94348],[7.41895,46.94324],[7.41751,46.94115],[7.41845,46.94093],[7.42072,46.94077],[7.42107,46.94071],[7.42133,46.94059],[7.42216,46.94008],[7.4225,46.93996],[7.4228,46.93991],[7.42348,46.93984],[7.42468,46.93968],[7.42572,46.93953],[7.42609,46.93945],[7.42647,46.93933],[7.42695,46.93912],[7.42742,46.93892],[7.42801,46.93862],[7.42827,46.93835],[7.42851,46.93815],[7.42875,46.93801],[7.43085,46.93723],[7.43212,46.93678],[7.43222,46.93784],[7.43217,46.93854],[7.43207,46.93928],[7.43185,46.93977],[7.4316,46.94022],[7.43116,46.94085],[7.43081,46.94153],[7.43063,46.94161],[7.4301,46.94162],[7.42991,46.94144],[7.42899,46.94187],[7.42886,46.94175],[7.42785,46.94225],[7.42816,46.94254],[7.42799,46.94261],[7.42747,46.9431],[7.4272,46.94323],[7.42735,46.94357],[7.42732,46.9436],[7.42745,46.94377],[7.4279,46.94345],[7.42841,46.94315],[7.42912,46.94304],[7.42934,46.94355],[7.4302,46.94328],[7.43056,46.94224],[7.43123,46.94214],[7.43143,46.94243],[7.43254,46.94431],[7.42978,46.94468],[7.42917,46.94466],[7.42787,46.94465],[7.42787,46.94436],[7.42776,46.94436],[7.42775,46.94428],[7.42764,46.94411],[7.42733,46.9442],[7.42731,46.94422],[7.42727,46.94472],[7.42673,46.94472],[7.42665,46.94524]]]}},{"type":"Feature","properties":{"zone":"3007/3","district":"Weissenbühl","rawHours":"","rawFee":"","note":"Blaue Zone: blau markierte Parkfelder mit Parkscheibe, Parkkarte hebt die Beschränkung auf","windows":[],"fee":{"kind":"unknown"},"unmodelledRules":[],"sourceDefect":null,"scheduleUnknown":true,"spaces":null,"maxStayMinutes":null,"maxStay":null,"maxStayShare":0,"maxStayValues":[],"chargingPoints":0,"carsharing":0},"geometry":{"type":"Polygon","coordinates":[[[7.42969,46.93766],[7.42875,46.93801],[7.42851,46.93815],[7.42827,46.93835],[7.42801,46.93862],[7.42789,46.93851],[7.42751,46.93824],[7.42823,46.9376],[7.42828,46.93762],[7.42895,46.93707],[7.42924,46.93699],[7.43018,46.93612],[7.43159,46.93487],[7.43117,46.93468],[7.43064,46.93433],[7.42994,46.93365],[7.42936,46.9328],[7.42996,46.93262],[7.43018,46.93253],[7.43126,46.93198],[7.43129,46.93195],[7.43129,46.93191],[7.43112,46.93171],[7.43122,46.93166],[7.43148,46.93159],[7.43203,46.93137],[7.43228,46.93131],[7.43256,46.9313],[7.43267,46.93131],[7.43275,46.93136],[7.43282,46.93134],[7.43382,46.93323],[7.43403,46.93353],[7.43448,46.93406],[7.43534,46.93494],[7.4354,46.93504],[7.43443,46.93532],[7.43364,46.93558],[7.43325,46.93576],[7.43241,46.9365],[7.43212,46.93678],[7.43085,46.93723],[7.42969,46.93766]]]}},{"type":"Feature","properties":{"zone":"3007/4","district":"Sandrain","rawHours":"","rawFee":"","note":"Blaue Zone: blau markierte Parkfelder mit Parkscheibe, Parkkarte hebt die Beschränkung auf","windows":[],"fee":{"kind":"unknown"},"unmodelledRules":[],"sourceDefect":null,"scheduleUnknown":true,"spaces":null,"maxStayMinutes":null,"maxStay":null,"maxStayShare":0,"maxStayValues":[],"chargingPoints":0,"carsharing":0},"geometry":{"type":"Polygon","coordinates":[[[7.44769,46.93248],[7.44705,46.93259],[7.44667,46.93272],[7.44633,46.93286],[7.44625,46.93291],[7.44617,46.9326],[7.44591,46.93234],[7.44597,46.93214],[7.44597,46.93201],[7.44592,46.9315],[7.44696,46.93108],[7.44764,46.93054],[7.44781,46.93053],[7.44866,46.93159],[7.44864,46.93159],[7.44888,46.93189],[7.44894,46.93189],[7.44914,46.93215],[7.4486,46.93236],[7.44822,46.93245],[7.44769,46.93248]]]}},{"type":"Feature","properties":{"zone":"3008/1","district":"Monbijou","rawHours":"","rawFee":"","note":"Blaue Zone: blau markierte Parkfelder mit Parkscheibe, Parkkarte hebt die Beschränkung auf","windows":[],"fee":{"kind":"unknown"},"unmodelledRules":[],"sourceDefect":null,"scheduleUnknown":true,"spaces":null,"maxStayMinutes":null,"maxStay":null,"maxStayShare":0,"maxStayValues":[],"chargingPoints":0,"carsharing":0},"geometry":{"type":"Polygon","coordinates":[[[7.42922,46.94622],[7.42882,46.94749],[7.42834,46.94742],[7.42673,46.94683],[7.42684,46.94665],[7.42688,46.94664],[7.42665,46.94659],[7.42523,46.9465],[7.4251,46.94644],[7.42401,46.94543],[7.42325,46.94538],[7.42172,46.94457],[7.42244,46.94464],[7.42249,46.9447],[7.42283,46.9447],[7.42282,46.94485],[7.42285,46.94488],[7.42331,46.94512],[7.42343,46.94516],[7.42371,46.94518],[7.42373,46.94507],[7.42581,46.94522],[7.42588,46.94519],[7.42665,46.94524],[7.42673,46.94472],[7.42727,46.94472],[7.42723,46.9451],[7.42726,46.94513],[7.42838,46.94517],[7.4284,46.94491],[7.42845,46.94492],[7.42847,46.94466],[7.42917,46.94466],[7.42978,46.94468],[7.43254,46.94431],[7.43524,46.94334],[7.43636,46.94291],[7.43642,46.94298],[7.43757,46.94255],[7.43753,46.94299],[7.43754,46.94315],[7.43789,46.94396],[7.43827,46.94469],[7.43671,46.94504],[7.4372,46.94579],[7.43709,46.94586],[7.43732,46.94619],[7.43764,46.947],[7.43761,46.94703],[7.43763,46.94704],[7.43763,46.94706],[7.43757,46.94707],[7.43754,46.94709],[7.43604,46.94715],[7.43592,46.94712],[7.43583,46.94707],[7.43574,46.94698],[7.43497,46.94583],[7.43195,46.94595],[7.43157,46.94595],[7.43119,46.94593],[7.43113,46.94631],[7.43078,46.9463],[7.42937,46.9462],[7.42922,46.94622]]]}},{"type":"Feature","properties":{"zone":"3008/1","district":"Holligen","rawHours":"","rawFee":"","note":"Blaue Zone: blau markierte Parkfelder mit Parkscheibe, Parkkarte hebt die Beschränkung auf","windows":[],"fee":{"kind":"unknown"},"unmodelledRules":[],"sourceDefect":null,"scheduleUnknown":true,"spaces":null,"maxStayMinutes":null,"maxStay":null,"maxStayShare":0,"maxStayValues":[],"chargingPoints":0,"carsharing":0},"geometry":{"type":"Polygon","coordinates":[[[7.42447,46.94997],[7.42427,46.94987],[7.42255,46.94931],[7.42183,46.94912],[7.42207,46.94864],[7.42181,46.94812],[7.42133,46.94733],[7.42085,46.94676],[7.42049,46.94641],[7.42039,46.9464],[7.42031,46.94642],[7.41635,46.94955],[7.41562,46.9491],[7.41497,46.94859],[7.41685,46.9471],[7.4166,46.94696],[7.41622,46.94697],[7.41615,46.94695],[7.41612,46.94662],[7.41613,46.94655],[7.41608,46.94655],[7.41603,46.94623],[7.41552,46.94627],[7.41557,46.94609],[7.41554,46.94607],[7.41553,46.94601],[7.41583,46.94552],[7.41627,46.94563],[7.41651,46.94565],[7.41701,46.94556],[7.41796,46.94534],[7.41787,46.94513],[7.41787,46.94506],[7.41842,46.94503],[7.419,46.94506],[7.42,46.94516],[7.42035,46.94475],[7.42035,46.94467],[7.42031,46.94464],[7.42062,46.94466],[7.42071,46.94469],[7.42105,46.9447],[7.42106,46.94478],[7.42076,46.9448],[7.42055,46.94488],[7.42045,46.94483],[7.42003,46.94534],[7.41999,46.94545],[7.42,46.94552],[7.42003,46.94558],[7.42052,46.94612],[7.42062,46.94629],[7.42123,46.94631],[7.42184,46.94625],[7.42204,46.94669],[7.42206,46.94692],[7.42216,46.94715],[7.42245,46.9477],[7.42297,46.94836],[7.42319,46.94857],[7.42336,46.9487],[7.42339,46.94868],[7.42363,46.94884],[7.42399,46.94903],[7.42419,46.94912],[7.42443,46.9492],[7.4245,46.94925],[7.42453,46.94933],[7.42457,46.94933],[7.42456,46.94939],[7.4244,46.94966],[7.42439,46.94971],[7.42457,46.9498],[7.42465,46.94981],[7.42447,46.94997]]]}},{"type":"Feature","properties":{"zone":"3008/2","district":"Holligen","rawHours":"","rawFee":"","note":"Blaue Zone: blau markierte Parkfelder mit Parkscheibe, Parkkarte hebt die Beschränkung auf","windows":[],"fee":{"kind":"unknown"},"unmodelledRules":[],"sourceDefect":null,"scheduleUnknown":true,"spaces":null,"maxStayMinutes":null,"maxStay":null,"maxStayShare":0,"maxStayValues":[],"chargingPoints":0,"carsharing":0},"geometry":{"type":"Polygon","coordinates":[[[7.41105,46.94667],[7.41102,46.9467],[7.41096,46.94671],[7.41068,46.94661],[7.41069,46.9466],[7.41043,46.94651],[7.41016,46.94651],[7.40979,46.94634],[7.40819,46.94533],[7.40798,46.94519],[7.408,46.94515],[7.40784,46.94505],[7.4078,46.94507],[7.40733,46.94477],[7.40768,46.94413],[7.4077,46.94413],[7.40789,46.94358],[7.408,46.94329],[7.40825,46.94303],[7.40858,46.94288],[7.40876,46.94271],[7.41105,46.94218],[7.41079,46.94207],[7.41009,46.94175],[7.41015,46.94162],[7.41248,46.94149],[7.41522,46.93946],[7.41506,46.93935],[7.41493,46.9392],[7.41459,46.93866],[7.41452,46.93849],[7.4145,46.93837],[7.41447,46.93744],[7.41448,46.93735],[7.41457,46.93692],[7.41469,46.93682],[7.41597,46.93666],[7.41586,46.9369],[7.41566,46.93749],[7.4154,46.93875],[7.41619,46.93853],[7.41689,46.93819],[7.4171,46.93856],[7.41766,46.93943],[7.41805,46.94],[7.41874,46.94091],[7.41845,46.94093],[7.41751,46.94115],[7.41749,46.94112],[7.41585,46.94148],[7.41626,46.94242],[7.41636,46.9428],[7.41637,46.94312],[7.41635,46.94335],[7.41624,46.94408],[7.41626,46.94413],[7.41631,46.94416],[7.41627,46.94443],[7.41612,46.9449],[7.41583,46.94552],[7.41553,46.94601],[7.41554,46.94607],[7.41557,46.94609],[7.41552,46.94627],[7.41536,46.94625],[7.41457,46.94608],[7.41427,46.946],[7.41296,46.94546],[7.41224,46.94518],[7.41226,46.94516],[7.41203,46.94506],[7.41176,46.94534],[7.41199,46.94548],[7.41213,46.9456],[7.41168,46.94597],[7.41163,46.94605],[7.41157,46.94618],[7.41156,46.94626],[7.41158,46.94634],[7.41162,46.94642],[7.41155,46.94651],[7.41158,46.94658],[7.41146,46.94656],[7.41139,46.94658],[7.41129,46.94653],[7.4111,46.94667],[7.41105,46.94667]]]}},{"type":"Feature","properties":{"zone":"3008/3","district":"Weissenstein","rawHours":"","rawFee":"","note":"Blaue Zone: blau markierte Parkfelder mit Parkscheibe, Parkkarte hebt die Beschränkung auf — Hinweis der Quelle: „Auch Sonntags\"","windows":[],"fee":{"kind":"unknown"},"unmodelledRules":["Auch Sonntags"],"sourceDefect":null,"scheduleUnknown":true,"spaces":null,"maxStayMinutes":null,"maxStay":null,"maxStayShare":0,"maxStayValues":[],"chargingPoints":0,"carsharing":0},"geometry":{"type":"Polygon","coordinates":[[[7.42507,46.9361],[7.42536,46.93651],[7.4258,46.937],[7.42617,46.93732],[7.42665,46.9377],[7.42763,46.93832],[7.42789,46.93851],[7.42801,46.93862],[7.42742,46.93892],[7.42695,46.93912],[7.42647,46.93933],[7.42609,46.93945],[7.42572,46.93953],[7.42468,46.93968],[7.42348,46.93984],[7.4228,46.93991],[7.4225,46.93996],[7.42216,46.94008],[7.42133,46.94059],[7.42107,46.94071],[7.42072,46.94077],[7.41892,46.94089],[7.41874,46.94091],[7.41805,46.94],[7.41736,46.93896],[7.42469,46.9356],[7.42507,46.9361]]]}},{"type":"Feature","properties":{"zone":"3008/3","district":"Weissenstein","rawHours":"","rawFee":"","note":"Blaue Zone: blau markierte Parkfelder mit Parkscheibe, Parkkarte hebt die Beschränkung auf","windows":[],"fee":{"kind":"unknown"},"unmodelledRules":[],"sourceDefect":null,"scheduleUnknown":true,"spaces":null,"maxStayMinutes":null,"maxStay":null,"maxStayShare":0,"maxStayValues":[],"chargingPoints":0,"carsharing":0},"geometry":{"type":"Polygon","coordinates":[[[7.42052,46.9353],[7.42091,46.9357],[7.4176,46.93721],[7.41688,46.93755],[7.4166,46.9377],[7.416,46.93665],[7.41608,46.93664],[7.41709,46.93637],[7.41768,46.93635],[7.42008,46.93486],[7.42052,46.9353]]]}},{"type":"Feature","properties":{"zone":"3011","district":"Gryphenhübeli","rawHours":"","rawFee":"","note":"Blaue Zone: blau markierte Parkfelder mit Parkscheibe, Parkkarte hebt die Beschränkung auf","windows":[],"fee":{"kind":"unknown"},"unmodelledRules":[],"sourceDefect":null,"scheduleUnknown":true,"spaces":null,"maxStayMinutes":null,"maxStay":null,"maxStayShare":0,"maxStayValues":[],"chargingPoints":0,"carsharing":0},"geometry":{"type":"Polygon","coordinates":[[[7.45905,46.94575],[7.45927,46.94588],[7.45945,46.94602],[7.45963,46.94621],[7.45973,46.94634],[7.45982,46.9465],[7.45989,46.94674],[7.46021,46.94809],[7.46018,46.94828],[7.4602,46.9484],[7.46041,46.94854],[7.46049,46.94863],[7.46055,46.94874],[7.46056,46.94886],[7.46015,46.95018],[7.46001,46.9505],[7.45987,46.95073],[7.45895,46.95184],[7.45886,46.95199],[7.45878,46.95195],[7.45887,46.95175],[7.45935,46.95108],[7.45962,46.95061],[7.45988,46.95007],[7.45913,46.94996],[7.45833,46.94957],[7.45843,46.94942],[7.4585,46.94892],[7.45842,46.94784],[7.45834,46.94731],[7.45823,46.94694],[7.4578,46.9466],[7.45742,46.94637],[7.45848,46.94554],[7.45861,46.94553],[7.45905,46.94575]]]}},{"type":"Feature","properties":{"zone":"3012","district":"Muesmatt","rawHours":"","rawFee":"","note":"Blaue Zone: blau markierte Parkfelder mit Parkscheibe, Parkkarte hebt die Beschränkung auf","windows":[],"fee":{"kind":"unknown"},"unmodelledRules":[],"sourceDefect":null,"scheduleUnknown":true,"spaces":null,"maxStayMinutes":null,"maxStay":null,"maxStayShare":0,"maxStayValues":[],"chargingPoints":0,"carsharing":0},"geometry":{"type":"Polygon","coordinates":[[[7.43571,46.96094],[7.43502,46.96121],[7.43415,46.96078],[7.43434,46.96059],[7.43249,46.95939],[7.43247,46.9594],[7.43178,46.95895],[7.4318,46.95894],[7.4306,46.95822],[7.43052,46.9583],[7.42904,46.95769],[7.42809,46.95701],[7.42759,46.9565],[7.42738,46.95605],[7.42694,46.95619],[7.4266,46.9562],[7.42643,46.95618],[7.42628,46.95602],[7.42623,46.95594],[7.42413,46.95654],[7.42398,46.95635],[7.42395,46.95636],[7.42304,46.95517],[7.42233,46.95396],[7.42221,46.95381],[7.42093,46.95271],[7.42068,46.95255],[7.42049,46.95246],[7.42049,46.9524],[7.42054,46.95234],[7.42077,46.95217],[7.4214,46.9521],[7.42171,46.95205],[7.4221,46.95196],[7.42239,46.95188],[7.42288,46.95171],[7.42352,46.95143],[7.42358,46.95149],[7.42485,46.95209],[7.4249,46.95209],[7.42502,46.95206],[7.42536,46.9519],[7.42777,46.95058],[7.4279,46.95048],[7.42846,46.94998],[7.42804,46.94901],[7.42828,46.94887],[7.42826,46.94886],[7.42866,46.94866],[7.42889,46.94857],[7.42941,46.94842],[7.42994,46.94834],[7.4302,46.94833],[7.43048,46.94834],[7.43075,46.94837],[7.43176,46.94854],[7.43189,46.94857],[7.43228,46.94875],[7.43254,46.94883],[7.43254,46.94882],[7.43301,46.94887],[7.43354,46.94888],[7.43383,46.94886],[7.43432,46.94879],[7.435,46.94877],[7.43523,46.94878],[7.43572,46.94884],[7.43673,46.94906],[7.43618,46.95039],[7.43641,46.95041],[7.43728,46.95062],[7.43738,46.95062],[7.43749,46.95064],[7.43761,46.95068],[7.43946,46.95216],[7.43892,46.95282],[7.43857,46.95335],[7.43852,46.95352],[7.43909,46.95359],[7.43901,46.95474],[7.43896,46.955],[7.43881,46.95528],[7.43821,46.95604],[7.43784,46.95662],[7.43809,46.95743],[7.43855,46.95813],[7.4389,46.95871],[7.43918,46.95946],[7.43925,46.95993],[7.43914,46.96055],[7.43856,46.96044],[7.43746,46.96025],[7.43571,46.96094]]]}},{"type":"Feature","properties":{"zone":"3013","district":"Spitalacker","rawHours":"","rawFee":"","note":"Blaue Zone: blau markierte Parkfelder mit Parkscheibe, Parkkarte hebt die Beschränkung auf","windows":[],"fee":{"kind":"unknown"},"unmodelledRules":[],"sourceDefect":null,"scheduleUnknown":true,"spaces":null,"maxStayMinutes":null,"maxStay":null,"maxStayShare":0,"maxStayValues":[],"chargingPoints":0,"carsharing":0},"geometry":{"type":"Polygon","coordinates":[[[7.4445,46.96057],[7.44453,46.9606],[7.44411,46.96082],[7.44406,46.96088],[7.44402,46.961],[7.44401,46.96115],[7.44406,46.96144],[7.44427,46.96218],[7.44461,46.96317],[7.44438,46.96321],[7.44425,46.96309],[7.44415,46.96302],[7.44363,46.96208],[7.44346,46.96161],[7.4435,46.9615],[7.44347,46.96143],[7.44327,46.96108],[7.44327,46.96094],[7.44328,46.96091],[7.44336,46.96088],[7.44338,46.96076],[7.44336,46.96044],[7.44332,46.96044],[7.44327,46.96006],[7.443,46.95935],[7.44344,46.95924],[7.44332,46.95899],[7.44319,46.95858],[7.44316,46.95857],[7.4431,46.95831],[7.44311,46.95829],[7.44314,46.95829],[7.44309,46.95762],[7.44305,46.9564],[7.44302,46.95602],[7.44297,46.95578],[7.44298,46.95578],[7.44297,46.95566],[7.44263,46.95494],[7.44264,46.95493],[7.44202,46.95385],[7.44252,46.95336],[7.44312,46.95289],[7.44481,46.95168],[7.44533,46.95135],[7.44604,46.95101],[7.44684,46.95071],[7.44884,46.95008],[7.44932,46.94998],[7.45034,46.94983],[7.45085,46.9498],[7.45137,46.94979],[7.45188,46.94982],[7.45239,46.94987],[7.45497,46.95018],[7.45537,46.95021],[7.45604,46.95023],[7.45718,46.95015],[7.45761,46.95007],[7.45798,46.9499],[7.45824,46.94971],[7.45833,46.94957],[7.45913,46.94996],[7.45988,46.95007],[7.45962,46.95061],[7.45935,46.95108],[7.45887,46.95175],[7.45878,46.95195],[7.45871,46.95216],[7.4587,46.95235],[7.45874,46.95255],[7.45883,46.95273],[7.45929,46.95335],[7.46157,46.95187],[7.46178,46.95202],[7.46198,46.95214],[7.46245,46.95238],[7.46201,46.95278],[7.46208,46.95287],[7.46215,46.9529],[7.46236,46.95333],[7.46247,46.95361],[7.46251,46.95382],[7.46249,46.95386],[7.46158,46.95424],[7.4615,46.95429],[7.46049,46.95473],[7.46039,46.95477],[7.46033,46.95486],[7.46017,46.95493],[7.4602,46.95496],[7.4597,46.95517],[7.45938,46.95529],[7.45878,46.95557],[7.45842,46.95583],[7.45807,46.95624],[7.45782,46.9565],[7.45762,46.95666],[7.45706,46.95724],[7.45627,46.95752],[7.45622,46.95746],[7.45604,46.95752],[7.45616,46.95767],[7.45596,46.95774],[7.45601,46.95779],[7.45479,46.95823],[7.45466,46.95806],[7.45437,46.95816],[7.45424,46.95818],[7.45364,46.95839],[7.45194,46.95783],[7.44855,46.95696],[7.44844,46.95694],[7.44806,46.95682],[7.44714,46.95645],[7.44713,46.95685],[7.44705,46.95734],[7.44669,46.95884],[7.44665,46.95918],[7.44667,46.95932],[7.44674,46.9595],[7.44658,46.96026],[7.44652,46.96032],[7.44629,46.96024],[7.44618,46.9601],[7.44599,46.96009],[7.44552,46.96001],[7.44549,46.96007],[7.44555,46.96011],[7.4455,46.96016],[7.44548,46.96014],[7.44522,46.96033],[7.44524,46.96034],[7.44513,46.96042],[7.44496,46.96049],[7.44494,46.96046],[7.44468,46.96056],[7.44464,46.96052],[7.4445,46.96057]],[[7.44551,46.95717],[7.44575,46.95719],[7.4458,46.95718],[7.44582,46.95715],[7.44591,46.95668],[7.44561,46.95666],[7.44551,46.95717]]]}},{"type":"Feature","properties":{"zone":"3014","district":"Breitfeld","rawHours":"","rawFee":"","note":"Blaue Zone: blau markierte Parkfelder mit Parkscheibe, Parkkarte hebt die Beschränkung auf — Hinweis der Quelle: „Auch Sonntags\"","windows":[],"fee":{"kind":"unknown"},"unmodelledRules":["Auch Sonntags"],"sourceDefect":null,"scheduleUnknown":true,"spaces":null,"maxStayMinutes":null,"maxStay":null,"maxStayShare":0,"maxStayValues":[],"chargingPoints":0,"carsharing":0},"geometry":{"type":"Polygon","coordinates":[[[7.46636,46.96613],[7.46566,46.9662],[7.46495,46.96622],[7.46402,46.96618],[7.46365,46.96615],[7.46298,46.96605],[7.46247,46.96595],[7.45483,46.9641],[7.45483,46.96457],[7.4548,46.96479],[7.45465,46.96481],[7.45333,46.96459],[7.45198,46.96427],[7.45112,46.96415],[7.4486,46.96349],[7.4481,46.96332],[7.4475,46.96307],[7.44721,46.96293],[7.44667,46.96261],[7.44632,46.96236],[7.44599,46.96208],[7.44513,46.96123],[7.44519,46.96118],[7.44531,46.96102],[7.44572,46.96082],[7.44622,46.9605],[7.44627,46.96041],[7.44629,46.96024],[7.44652,46.96032],[7.44658,46.96026],[7.44674,46.9595],[7.44667,46.95932],[7.44665,46.95918],[7.44669,46.95884],[7.44705,46.95734],[7.44713,46.95685],[7.44714,46.95645],[7.44806,46.95682],[7.44844,46.95694],[7.44855,46.95696],[7.45194,46.95783],[7.45364,46.95839],[7.45424,46.95818],[7.45437,46.95816],[7.45466,46.95806],[7.45479,46.95823],[7.45601,46.95779],[7.45596,46.95774],[7.45616,46.95767],[7.45604,46.95752],[7.45622,46.95746],[7.45707,46.95858],[7.45802,46.95873],[7.46225,46.95954],[7.4624,46.95975],[7.4617,46.95998],[7.46236,46.96085],[7.46217,46.96091],[7.46123,46.96157],[7.46122,46.96161],[7.46125,46.96163],[7.46155,46.96175],[7.46176,46.96186],[7.46245,46.96229],[7.46278,46.96255],[7.463,46.96278],[7.46409,46.96421],[7.46425,46.96446],[7.46433,46.96464],[7.46443,46.96499],[7.46444,46.96512],[7.4644,46.96552],[7.46511,46.96553],[7.46509,46.9661],[7.46604,46.96605],[7.46606,46.96601],[7.46612,46.96597],[7.4662,46.96597],[7.46627,46.966],[7.46636,46.96613]],[[7.45155,46.9635],[7.45155,46.96354],[7.45158,46.96357],[7.4527,46.96385],[7.45275,46.96385],[7.45279,46.96382],[7.45295,46.96352],[7.45294,46.96349],[7.45291,46.96346],[7.45188,46.96315],[7.45181,46.96315],[7.45155,46.9635]]]}},{"type":"Feature","properties":{"zone":"3014/1","district":"Lorraine","rawHours":"","rawFee":"","note":"Blaue Zone: blau markierte Parkfelder mit Parkscheibe, Parkkarte hebt die Beschränkung auf","windows":[],"fee":{"kind":"unknown"},"unmodelledRules":[],"sourceDefect":null,"scheduleUnknown":true,"spaces":null,"maxStayMinutes":null,"maxStay":null,"maxStayShare":0,"maxStayValues":[],"chargingPoints":0,"carsharing":0},"geometry":{"type":"Polygon","coordinates":[[[7.44572,46.96082],[7.44531,46.96102],[7.44519,46.96118],[7.44513,46.96123],[7.44599,46.96208],[7.44632,46.96236],[7.44667,46.96261],[7.44721,46.96293],[7.4475,46.96307],[7.4481,46.96332],[7.4486,46.96349],[7.45112,46.96415],[7.45098,46.96439],[7.45099,46.96475],[7.45119,46.96526],[7.45121,46.96539],[7.45119,46.96553],[7.45089,46.9662],[7.4507,46.96653],[7.45031,46.96709],[7.45027,46.96717],[7.45025,46.96729],[7.45029,46.96745],[7.45053,46.96793],[7.45098,46.96888],[7.45101,46.96903],[7.45029,46.96955],[7.44945,46.96946],[7.44882,46.96936],[7.44764,46.96913],[7.44719,46.96855],[7.44595,46.96683],[7.44566,46.96634],[7.44524,46.9658],[7.44496,46.96549],[7.44461,46.96317],[7.44427,46.96218],[7.44406,46.96144],[7.44401,46.96115],[7.44402,46.961],[7.44406,46.96088],[7.44411,46.96082],[7.44453,46.9606],[7.4445,46.96057],[7.44464,46.96052],[7.44468,46.96056],[7.44494,46.96046],[7.44496,46.96049],[7.44513,46.96042],[7.44524,46.96034],[7.44522,46.96033],[7.44548,46.96014],[7.4455,46.96016],[7.44555,46.96011],[7.44549,46.96007],[7.44552,46.96001],[7.44599,46.96009],[7.44618,46.9601],[7.44629,46.96024],[7.44627,46.96041],[7.44622,46.9605],[7.44572,46.96082]]]}},{"type":"Feature","properties":{"zone":"3018","district":"Bümpliz","rawHours":"","rawFee":"","note":"Blaue Zone: blau markierte Parkfelder mit Parkscheibe, Parkkarte hebt die Beschränkung auf","windows":[],"fee":{"kind":"unknown"},"unmodelledRules":[],"sourceDefect":null,"scheduleUnknown":true,"spaces":null,"maxStayMinutes":null,"maxStay":null,"maxStayShare":0,"maxStayValues":[],"chargingPoints":0,"carsharing":0},"geometry":{"type":"Polygon","coordinates":[[[7.40446,46.94324],[7.40601,46.94424],[7.4054,46.94521],[7.40453,46.9457],[7.40336,46.94621],[7.40327,46.94628],[7.40327,46.94635],[7.3965,46.94651],[7.39459,46.94652],[7.39388,46.94648],[7.39261,46.94636],[7.39105,46.94617],[7.38714,46.94569],[7.38502,46.94541],[7.38036,46.94485],[7.38026,46.94447],[7.38025,46.94426],[7.38212,46.94354],[7.38196,46.94329],[7.38157,46.94257],[7.38131,46.94235],[7.38095,46.94219],[7.3796,46.94171],[7.3798,46.94153],[7.37986,46.94143],[7.38018,46.9408],[7.38059,46.94005],[7.381,46.93887],[7.38092,46.93866],[7.38105,46.9386],[7.38121,46.93863],[7.38127,46.93844],[7.38167,46.93804],[7.38136,46.93789],[7.38061,46.93739],[7.38152,46.93712],[7.38325,46.9361],[7.38564,46.9352],[7.386,46.93561],[7.38607,46.93564],[7.38615,46.93563],[7.38753,46.9347],[7.38735,46.93448],[7.38807,46.93399],[7.38982,46.93521],[7.39044,46.9357],[7.39055,46.9358],[7.39059,46.93582],[7.39213,46.93703],[7.39317,46.93634],[7.39335,46.93642],[7.39482,46.93734],[7.39475,46.93739],[7.39501,46.93755],[7.39521,46.93777],[7.39522,46.93783],[7.39521,46.93793],[7.39511,46.93809],[7.39582,46.93775],[7.39646,46.93814],[7.39557,46.93866],[7.3963,46.93927],[7.39743,46.93875],[7.40067,46.94077],[7.40225,46.94181],[7.40184,46.94188],[7.40193,46.94212],[7.40158,46.94239],[7.40137,46.94269],[7.40136,46.94302],[7.40357,46.94318],[7.40394,46.94291],[7.40446,46.94324]]]}},{"type":"Feature","properties":{"zone":"3018/11","district":"Bümpliz","rawHours":"","rawFee":"","note":"Blaue Zone: blau markierte Parkfelder mit Parkscheibe, Parkkarte hebt die Beschränkung auf","windows":[],"fee":{"kind":"unknown"},"unmodelledRules":[],"sourceDefect":null,"scheduleUnknown":true,"spaces":null,"maxStayMinutes":null,"maxStay":null,"maxStayShare":0,"maxStayValues":[],"chargingPoints":0,"carsharing":0},"geometry":{"type":"Polygon","coordinates":[[[7.39555,46.93441],[7.39649,46.93544],[7.39689,46.93611],[7.39726,46.93728],[7.39619,46.93774],[7.39567,46.93733],[7.39397,46.93586],[7.39274,46.93496],[7.39462,46.93377],[7.39555,46.93441]]]}},{"type":"Feature","properties":{"zone":"3027","district":"Bethlehem","rawHours":"","rawFee":"","note":"Blaue Zone: blau markierte Parkfelder mit Parkscheibe, Parkkarte hebt die Beschränkung auf","windows":[],"fee":{"kind":"unknown"},"unmodelledRules":[],"sourceDefect":null,"scheduleUnknown":true,"spaces":null,"maxStayMinutes":null,"maxStay":null,"maxStayShare":0,"maxStayValues":[],"chargingPoints":0,"carsharing":0},"geometry":{"type":"Polygon","coordinates":[[[7.39226,46.95152],[7.39175,46.95204],[7.39141,46.9523],[7.39145,46.95251],[7.391,46.95298],[7.39087,46.95317],[7.38806,46.95219],[7.38738,46.95168],[7.38806,46.9509],[7.38882,46.95147],[7.38919,46.95096],[7.38998,46.95123],[7.39064,46.95026],[7.39103,46.95039],[7.39153,46.94971],[7.39222,46.94975],[7.3923,46.94914],[7.391,46.949],[7.38987,46.94891],[7.38933,46.94888],[7.3888,46.94889],[7.38599,46.94912],[7.38547,46.94913],[7.38482,46.9491],[7.38421,46.94905],[7.38336,46.94894],[7.38258,46.94879],[7.38184,46.94861],[7.38155,46.94876],[7.38162,46.94882],[7.38175,46.94898],[7.38195,46.94913],[7.38302,46.95041],[7.38159,46.95097],[7.38134,46.9511],[7.38016,46.95195],[7.37973,46.95136],[7.37954,46.95097],[7.379,46.95065],[7.37867,46.95056],[7.3784,46.95043],[7.3778,46.95025],[7.37687,46.9499],[7.37574,46.95032],[7.37511,46.94953],[7.37326,46.94847],[7.37321,46.94821],[7.37343,46.94799],[7.3737,46.94812],[7.37398,46.94823],[7.37429,46.94831],[7.3746,46.94836],[7.37492,46.94839],[7.37525,46.9484],[7.37563,46.94837],[7.37965,46.94789],[7.37995,46.94787],[7.38008,46.94787],[7.3802,46.94736],[7.38042,46.94685],[7.38206,46.94549],[7.38229,46.9454],[7.38285,46.94515],[7.39261,46.94636],[7.39257,46.94642],[7.39263,46.94654],[7.39282,46.94675],[7.39298,46.94687],[7.39339,46.9471],[7.39345,46.94705],[7.39461,46.94769],[7.39485,46.94753],[7.3965,46.94651],[7.40083,46.94641],[7.40062,46.94821],[7.40043,46.94968],[7.39945,46.95022],[7.39873,46.95049],[7.39847,46.9506],[7.39793,46.95092],[7.39718,46.95139],[7.39676,46.95124],[7.3959,46.95076],[7.39329,46.95007],[7.39281,46.95096],[7.39226,46.95152]]]}},{"type":"Feature","properties":{"zone":"3027/2","district":"Bethlehem","rawHours":"","rawFee":"","note":"Weiss markierte Parkfelder; ob gebührenpflichtig, sagt die Quelle nicht","windows":[],"fee":{"kind":"unknown"},"unmodelledRules":[],"sourceDefect":null,"scheduleUnknown":true,"spaces":null,"maxStayMinutes":null,"maxStay":null,"maxStayShare":0,"maxStayValues":[],"chargingPoints":0,"carsharing":0},"geometry":{"type":"Polygon","coordinates":[[[7.38738,46.95168],[7.38636,46.95105],[7.38659,46.94925],[7.38862,46.94907],[7.38917,46.94904],[7.38965,46.94905],[7.39229,46.94921],[7.39222,46.94975],[7.39153,46.94971],[7.39103,46.95039],[7.39064,46.95026],[7.38998,46.95123],[7.38919,46.95096],[7.38882,46.95147],[7.38806,46.9509],[7.38738,46.95168]]]}},{"type":"Feature","properties":{"zone":"3027/3","district":"Bethlehem","rawHours":"","rawFee":"","note":"Blaue Zone: blau markierte Parkfelder mit Parkscheibe, Parkkarte hebt die Beschränkung auf","windows":[],"fee":{"kind":"unknown"},"unmodelledRules":[],"sourceDefect":null,"scheduleUnknown":true,"spaces":null,"maxStayMinutes":null,"maxStay":null,"maxStayShare":0,"maxStayValues":[],"chargingPoints":0,"carsharing":0},"geometry":{"type":"Polygon","coordinates":[[[7.37691,46.94805],[7.37611,46.94814],[7.37522,46.9482],[7.37489,46.94819],[7.37451,46.94815],[7.37397,46.948],[7.3735,46.94776],[7.37368,46.94714],[7.37468,46.94728],[7.3755,46.94452],[7.37561,46.94409],[7.37645,46.94428],[7.37776,46.94452],[7.38285,46.94515],[7.38229,46.9454],[7.38206,46.94549],[7.3817,46.9458],[7.3788,46.94544],[7.37819,46.94755],[7.37713,46.9474],[7.37691,46.94805]]]}}]}