{"type":"FeatureCollection","features":[{"type":"Feature","properties":{"name":"Grottes Saint-Gervais"},"geometry":{"type":"Polygon","coordinates":[[[6.1434,46.21106],[6.14394,46.21163],[6.14563,46.21484],[6.14545,46.21496],[6.14564,46.21568],[6.14524,46.21567],[6.14522,46.21611],[6.14503,46.21611],[6.14493,46.21801],[6.14476,46.21806],[6.14362,46.21811],[6.14117,46.21626],[6.14102,46.21637],[6.13964,46.21638],[6.13976,46.21629],[6.13948,46.21395],[6.1384,46.21237],[6.13811,46.21213],[6.13669,46.21342],[6.13463,46.21131],[6.13489,46.21119],[6.13319,46.21015],[6.13211,46.20878],[6.1309,46.20864],[6.1299,46.20666],[6.13234,46.20574],[6.13455,46.20594],[6.13447,46.20539],[6.13407,46.20491],[6.13339,46.20438],[6.13229,46.20394],[6.13177,46.20311],[6.13327,46.2034],[6.13672,46.20512],[6.13893,46.20485],[6.13896,46.20468],[6.14187,46.20458],[6.14436,46.20509],[6.14471,46.20542],[6.14474,46.20529],[6.14786,46.20576],[6.14811,46.20609],[6.14857,46.20627],[6.14802,46.20698],[6.14884,46.20736],[6.14871,46.20761],[6.14903,46.2079],[6.14407,46.21054],[6.1434,46.21106]]]}},{"type":"Feature","properties":{"name":"Champel"},"geometry":{"type":"Polygon","coordinates":[[[6.16865,46.20004],[6.16197,46.20001],[6.15902,46.20052],[6.15764,46.19975],[6.1569,46.19899],[6.15658,46.199],[6.15315,46.19686],[6.15046,46.19578],[6.14963,46.19634],[6.14914,46.19637],[6.14485,46.18933],[6.14391,46.18694],[6.1454,46.18676],[6.14819,46.18687],[6.15225,46.18662],[6.15308,46.18644],[6.15375,46.18611],[6.15418,46.18566],[6.15453,46.18471],[6.15383,46.17984],[6.15415,46.17924],[6.15493,46.1784],[6.15615,46.17788],[6.15774,46.17782],[6.15877,46.17821],[6.15933,46.17867],[6.15963,46.17917],[6.15972,46.18055],[6.16003,46.1815],[6.16226,46.18491],[6.16239,46.18579],[6.16227,46.18648],[6.16255,46.18732],[6.16356,46.18798],[6.16505,46.18818],[6.16633,46.18794],[6.16786,46.18727],[6.16739,46.1899],[6.16931,46.19123],[6.17263,46.19389],[6.17124,46.19451],[6.17345,46.197],[6.17436,46.19831],[6.17472,46.19946],[6.17422,46.19957],[6.17426,46.19968],[6.17161,46.20004],[6.16865,46.20004]]]}},{"type":"Feature","properties":{"name":"Pâquis Sécheron"},"geometry":{"type":"Polygon","coordinates":[[[6.14558,46.20973],[6.14903,46.2079],[6.14974,46.20854],[6.15005,46.2084],[6.15034,46.20861],[6.1509,46.20861],[6.15112,46.20882],[6.15098,46.20919],[6.15303,46.21102],[6.15371,46.21069],[6.15336,46.21042],[6.15363,46.2105],[6.15399,46.21032],[6.15383,46.21017],[6.154,46.21008],[6.15417,46.21022],[6.15452,46.21004],[6.15438,46.20988],[6.15448,46.20983],[6.15484,46.21005],[6.15535,46.20989],[6.15695,46.21],[6.15496,46.21018],[6.15458,46.21031],[6.15468,46.21044],[6.15454,46.21032],[6.154,46.21057],[6.15408,46.21069],[6.15398,46.2106],[6.15306,46.21108],[6.15316,46.2116],[6.15268,46.21386],[6.15157,46.2175],[6.1519,46.21803],[6.15211,46.21805],[6.15244,46.21877],[6.15244,46.21936],[6.15315,46.21989],[6.15361,46.22084],[6.15364,46.2212],[6.15305,46.22193],[6.15173,46.22284],[6.15131,46.22333],[6.15125,46.2242],[6.15101,46.22425],[6.14951,46.22574],[6.14903,46.22653],[6.14914,46.22746],[6.14931,46.2277],[6.14947,46.22766],[6.14894,46.22779],[6.149,46.22798],[6.1468,46.2284],[6.14585,46.22886],[6.14588,46.22873],[6.1437,46.2301],[6.14343,46.23064],[6.14287,46.2293],[6.13853,46.23029],[6.13882,46.22961],[6.13882,46.22875],[6.13849,46.22817],[6.13794,46.22818],[6.13744,46.22849],[6.13634,46.23036],[6.13592,46.23063],[6.13456,46.23067],[6.13308,46.23189],[6.13016,46.23008],[6.12986,46.22965],[6.12826,46.22853],[6.12824,46.22838],[6.12866,46.22802],[6.1343,46.22405],[6.14014,46.2214],[6.14123,46.2186],[6.14125,46.21636],[6.14362,46.21811],[6.14493,46.21801],[6.14503,46.21611],[6.14522,46.21611],[6.14524,46.21567],[6.14564,46.21568],[6.14545,46.21496],[6.14563,46.21484],[6.14394,46.21163],[6.1434,46.21106],[6.14558,46.20973]]]}},{"type":"Feature","properties":{"name":"Servette Petit-Saconnex"},"geometry":{"type":"Polygon","coordinates":[[[6.12958,46.21371],[6.13463,46.21131],[6.13669,46.21342],[6.13811,46.21213],[6.1389,46.21297],[6.13947,46.21391],[6.13976,46.21629],[6.13964,46.21638],[6.14102,46.21637],[6.14117,46.21626],[6.1413,46.21642],[6.14123,46.2186],[6.14014,46.2214],[6.1343,46.22405],[6.12866,46.22802],[6.12769,46.22735],[6.12698,46.22779],[6.12617,46.2271],[6.12578,46.22735],[6.12422,46.22573],[6.12189,46.22671],[6.12121,46.22598],[6.12209,46.22515],[6.12175,46.22484],[6.11781,46.22216],[6.11767,46.22193],[6.11743,46.22207],[6.11383,46.22027],[6.11625,46.21757],[6.11735,46.21694],[6.11923,46.21621],[6.11912,46.21615],[6.12698,46.21465],[6.12958,46.21371]]]}},{"type":"Feature","properties":{"name":"Eaux-Vives Cité"},"geometry":{"type":"Polygon","coordinates":[[[6.17484,46.20392],[6.17496,46.20401],[6.17398,46.20447],[6.17468,46.20519],[6.17565,46.20582],[6.17585,46.20579],[6.17511,46.20671],[6.17483,46.20683],[6.17488,46.20703],[6.17173,46.20588],[6.17075,46.2067],[6.17088,46.20765],[6.17227,46.20875],[6.17214,46.20884],[6.17328,46.2096],[6.17138,46.21106],[6.17255,46.2116],[6.17236,46.21189],[6.16802,46.21327],[6.16645,46.21257],[6.16712,46.21185],[6.16665,46.21136],[6.16638,46.21139],[6.16661,46.21123],[6.1661,46.21074],[6.16566,46.21065],[6.16589,46.2105],[6.16542,46.21003],[6.16493,46.20991],[6.16504,46.20972],[6.16477,46.20932],[6.16419,46.20917],[6.16449,46.2091],[6.16425,46.20881],[6.16302,46.20876],[6.16267,46.20888],[6.16254,46.20932],[6.16231,46.20937],[6.16223,46.20924],[6.16264,46.20839],[6.15751,46.20594],[6.15604,46.20741],[6.15598,46.20802],[6.15601,46.20742],[6.15584,46.20737],[6.15602,46.2074],[6.15647,46.20696],[6.15636,46.2069],[6.1565,46.20693],[6.15749,46.20593],[6.15404,46.20429],[6.15055,46.20507],[6.14974,46.20504],[6.14857,46.20627],[6.14811,46.20609],[6.14786,46.20576],[6.14474,46.20529],[6.14471,46.20542],[6.14436,46.20509],[6.14214,46.20462],[6.13896,46.20468],[6.13946,46.20148],[6.13937,46.20126],[6.14045,46.20097],[6.14295,46.19739],[6.14343,46.19761],[6.14578,46.19659],[6.14963,46.19634],[6.15046,46.19578],[6.1536,46.19706],[6.15517,46.19818],[6.15658,46.199],[6.1569,46.19899],[6.15764,46.19975],[6.15902,46.20052],[6.16197,46.20001],[6.1714,46.20006],[6.17426,46.19968],[6.17582,46.20133],[6.17373,46.20248],[6.17385,46.20261],[6.17339,46.20296],[6.17484,46.20392]]]}},{"type":"Feature","properties":{"name":"Acacias Bâtie"},"geometry":{"type":"Polygon","coordinates":[[[6.13162,46.19752],[6.12952,46.19889],[6.12663,46.20023],[6.12393,46.20076],[6.12092,46.20112],[6.12091,46.20125],[6.11946,46.20087],[6.11771,46.20095],[6.11603,46.20143],[6.11328,46.20263],[6.11196,46.20289],[6.11067,46.20282],[6.11074,46.20242],[6.11089,46.20249],[6.11103,46.20164],[6.11127,46.20173],[6.11146,46.19845],[6.11183,46.1971],[6.1121,46.19686],[6.11624,46.19722],[6.11627,46.19708],[6.12156,46.19761],[6.12171,46.19659],[6.12155,46.19612],[6.12344,46.19584],[6.1245,46.19608],[6.12679,46.19709],[6.12737,46.1971],[6.12684,46.19541],[6.12712,46.19537],[6.12695,46.1946],[6.12778,46.19476],[6.12791,46.19465],[6.12789,46.19043],[6.12777,46.18792],[6.12765,46.18777],[6.12883,46.18791],[6.13158,46.18938],[6.13184,46.18922],[6.13502,46.19085],[6.13701,46.18881],[6.1397,46.18864],[6.14144,46.18908],[6.13953,46.19298],[6.13906,46.1935],[6.1382,46.1941],[6.13302,46.1966],[6.13162,46.19752]]]}},{"type":"Feature","properties":{"name":"Plainpalais Jonction"},"geometry":{"type":"Polygon","coordinates":[[[6.13937,46.1932],[6.14195,46.188],[6.14276,46.18735],[6.14391,46.18694],[6.14485,46.18933],[6.14914,46.19637],[6.14578,46.19659],[6.14343,46.19761],[6.14295,46.19739],[6.14045,46.20097],[6.13937,46.20126],[6.13946,46.20148],[6.13893,46.20485],[6.13672,46.20512],[6.13417,46.20378],[6.13272,46.20322],[6.13177,46.20311],[6.12862,46.20318],[6.1265,46.20292],[6.12091,46.20125],[6.12092,46.20112],[6.1251,46.20056],[6.12749,46.19993],[6.13046,46.19834],[6.13302,46.1966],[6.1382,46.1941],[6.13937,46.1932]]]}},{"type":"Feature","properties":{"name":"Saint-Jean Charmilles"},"geometry":{"type":"Polygon","coordinates":[[[6.13199,46.20588],[6.1299,46.20666],[6.1309,46.20864],[6.13211,46.20878],[6.13319,46.21015],[6.13489,46.21119],[6.12984,46.2136],[6.12777,46.21443],[6.11912,46.21615],[6.11879,46.21597],[6.11843,46.21603],[6.11611,46.21259],[6.11463,46.21108],[6.11491,46.21095],[6.11473,46.2107],[6.11452,46.21066],[6.11247,46.20862],[6.11023,46.20557],[6.11082,46.20283],[6.11196,46.20289],[6.11314,46.20266],[6.11686,46.20115],[6.11895,46.20085],[6.12029,46.20103],[6.12642,46.20291],[6.12862,46.20318],[6.13177,46.20311],[6.13229,46.20394],[6.13339,46.20438],[6.13407,46.20491],[6.13447,46.20539],[6.13455,46.20594],[6.13234,46.20574],[6.13199,46.20588]]]}}]}