{"type":"FeatureCollection","features":[{"type":"Feature","properties":{"kind":"accessible","label":"Rue Saint-Léger 8","detail":"1 Platz"},"geometry":{"type":"Point","coordinates":[6.14633,46.19785]}},{"type":"Feature","properties":{"kind":"accessible","label":"Rue Caroline 8","detail":"1 Platz"},"geometry":{"type":"Point","coordinates":[6.13856,46.19142]}},{"type":"Feature","properties":{"kind":"accessible","label":"Chemin de la Tourelle 4","detail":"1 Platz · Höchstdauer 3 heures"},"geometry":{"type":"Point","coordinates":[6.12642,46.22424]}},{"type":"Feature","properties":{"kind":"accessible","label":"Rue de Lausanne 141","detail":"1 Platz"},"geometry":{"type":"Point","coordinates":[6.14883,46.22275]}},{"type":"Feature","properties":{"kind":"accessible","label":"Rue de la Poterie 5","detail":"1 Platz"},"geometry":{"type":"Point","coordinates":[6.13256,46.20931]}},{"type":"Feature","properties":{"kind":"accessible","label":"Rue de la Chapelle 8","detail":"1 Platz"},"geometry":{"type":"Point","coordinates":[6.15773,46.20159]}},{"type":"Feature","properties":{"kind":"accessible","label":"Rue De-CANDOLLE 18","detail":"1 Platz"},"geometry":{"type":"Point","coordinates":[6.14504,46.19806]}},{"type":"Feature","properties":{"kind":"accessible","label":"Boulevard Carl-VOGT 69","detail":"2 Plätze"},"geometry":{"type":"Point","coordinates":[6.1371,46.19737]}},{"type":"Feature","properties":{"kind":"accessible","label":"Rue Beau-Site 3","detail":"1 Platz · verbreitert"},"geometry":{"type":"Point","coordinates":[6.13004,46.20446]}},{"type":"Feature","properties":{"kind":"accessible","label":"Rue PICTET-De-BOCK 3-5","detail":"1 Platz"},"geometry":{"type":"Point","coordinates":[6.14317,46.19377]}},{"type":"Feature","properties":{"kind":"accessible","label":"Route de Chêne 54","detail":"1 Platz · verbreitert"},"geometry":{"type":"Point","coordinates":[6.1714,46.19994]}},{"type":"Feature","properties":{"kind":"accessible","label":"Avenue De-BUDÉ Face au 10","detail":"1 Platz · verbreitert"},"geometry":{"type":"Point","coordinates":[6.13059,46.22602]}},{"type":"Feature","properties":{"kind":"accessible","label":"Avenue du Cimetière 12","detail":"1 Platz · verbreitert"},"geometry":{"type":"Point","coordinates":[6.11764,46.19724]}},{"type":"Feature","properties":{"kind":"accessible","label":"Rue de l' Avenir 32","detail":"1 Platz"},"geometry":{"type":"Point","coordinates":[6.16219,46.20461]}},{"type":"Feature","properties":{"kind":"accessible","label":"Avenue PESCHIER Face au 12BIS","detail":"1 Platz · verbreitert"},"geometry":{"type":"Point","coordinates":[6.15629,46.19257]}},{"type":"Feature","properties":{"kind":"accessible","label":"Rue du Quartier-Neuf 13","detail":"1 Platz"},"geometry":{"type":"Point","coordinates":[6.12877,46.20135]}},{"type":"Feature","properties":{"kind":"accessible","label":"Rue du Mont-Blanc Face au 11","detail":"1 Platz · Höchstdauer 3 heures · verbreitert"},"geometry":{"type":"Point","coordinates":[6.14479,46.20857]}},{"type":"Feature","properties":{"kind":"accessible","label":"Rue de Vermont 21","detail":"1 Platz"},"geometry":{"type":"Point","coordinates":[6.13506,46.21629]}},{"type":"Feature","properties":{"kind":"accessible","label":"Rue de Lyon 106","detail":"1 Platz · verbreitert"},"geometry":{"type":"Point","coordinates":[6.12423,46.20881]}},{"type":"Feature","properties":{"kind":"accessible","label":"Quai Ernest-ANSERMET 16","detail":"1 Platz"},"geometry":{"type":"Point","coordinates":[6.13799,46.19478]}},{"type":"Feature","properties":{"kind":"accessible","label":"Rue de la Prairie 3","detail":"1 Platz"},"geometry":{"type":"Point","coordinates":[6.1351,46.20866]}},{"type":"Feature","properties":{"kind":"accessible","label":"Quai des Vernets 3","detail":"1 Platz · verbreitert"},"geometry":{"type":"Point","coordinates":[6.13836,46.19326]}},{"type":"Feature","properties":{"kind":"accessible","label":"Rue Charles-GALLAND 2","detail":"1 Platz · verbreitert"},"geometry":{"type":"Point","coordinates":[6.15165,46.1996]}},{"type":"Feature","properties":{"kind":"accessible","label":"Rue PESTALOZZI 5BIS","detail":"1 Platz · verbreitert"},"geometry":{"type":"Point","coordinates":[6.12986,46.21619]}},{"type":"Feature","properties":{"kind":"accessible","label":"Rue Simon-DURAND 15","detail":"1 Platz"},"geometry":{"type":"Point","coordinates":[6.13945,46.19003]}},{"type":"Feature","properties":{"kind":"accessible","label":"Rue des Epinettes 12TER","detail":"1 Platz · verbreitert"},"geometry":{"type":"Point","coordinates":[6.13596,46.18989]}},{"type":"Feature","properties":{"kind":"accessible","label":"Quai des Arénières 10","detail":"1 Platz · verbreitert"},"geometry":{"type":"Point","coordinates":[6.12774,46.2003]}},{"type":"Feature","properties":{"kind":"accessible","label":"Route des Franchises 13","detail":"1 Platz"},"geometry":{"type":"Point","coordinates":[6.12022,46.21139]}},{"type":"Feature","properties":{"kind":"accessible","label":"Rue de Varembé 15-17","detail":"1 Platz"},"geometry":{"type":"Point","coordinates":[6.13826,46.22014]}},{"type":"Feature","properties":{"kind":"accessible","label":"Boulevard de la Cluse 40","detail":"1 Platz · verbreitert"},"geometry":{"type":"Point","coordinates":[6.14683,46.19242]}},{"type":"Feature","properties":{"kind":"accessible","label":"Rue Albert-GOS 14","detail":"1 Platz · verbreitert"},"geometry":{"type":"Point","coordinates":[6.15548,46.18869]}},{"type":"Feature","properties":{"kind":"accessible","label":"Rue d' Italie 7","detail":"1 Platz"},"geometry":{"type":"Point","coordinates":[6.15228,46.20213]}},{"type":"Feature","properties":{"kind":"accessible","label":"Rue du Contrat-Social 6","detail":"1 Platz · verbreitert"},"geometry":{"type":"Point","coordinates":[6.12346,46.20465]}},{"type":"Feature","properties":{"kind":"accessible","label":"Rue DANCET 9","detail":"1 Platz · verbreitert"},"geometry":{"type":"Point","coordinates":[6.14225,46.19383]}},{"type":"Feature","properties":{"kind":"accessible","label":"Rue de Berne 48","detail":"1 Platz"},"geometry":{"type":"Point","coordinates":[6.14725,46.21204]}},{"type":"Feature","properties":{"kind":"accessible","label":"Rue Jacques-BALMAT 3","detail":"1 Platz · Höchstdauer 3 heures"},"geometry":{"type":"Point","coordinates":[6.14167,46.19976]}},{"type":"Feature","properties":{"kind":"accessible","label":"Rue du Vuache 11","detail":"1 Platz · verbreitert"},"geometry":{"type":"Point","coordinates":[6.13733,46.20664]}},{"type":"Feature","properties":{"kind":"accessible","label":"Boulevard des Tranchée 42","detail":"1 Platz"},"geometry":{"type":"Point","coordinates":[6.15523,46.19788]}},{"type":"Feature","properties":{"kind":"accessible","label":"chemin COLLADON 7","detail":"2 Plätze · verbreitert"},"geometry":{"type":"Point","coordinates":[6.12345,46.22291]}},{"type":"Feature","properties":{"kind":"accessible","label":"Rue Charles-HUMBERT 10","detail":"1 Platz · Höchstdauer 3 heures"},"geometry":{"type":"Point","coordinates":[6.13831,46.20018]}},{"type":"Feature","properties":{"kind":"accessible","label":"Route de Florissant 8","detail":"1 Platz"},"geometry":{"type":"Point","coordinates":[6.15973,46.19422]}},{"type":"Feature","properties":{"kind":"accessible","label":"Rue du Tir 5","detail":"1 Platz"},"geometry":{"type":"Point","coordinates":[6.13646,46.20297]}},{"type":"Feature","properties":{"kind":"accessible","label":"Rue des Maraîchers 8","detail":"1 Platz"},"geometry":{"type":"Point","coordinates":[6.13512,46.1992]}},{"type":"Feature","properties":{"kind":"accessible","label":"Rue de la Servette 78","detail":"1 Platz"},"geometry":{"type":"Point","coordinates":[6.13245,46.21245]}},{"type":"Feature","properties":{"kind":"accessible","label":"Parc des Eaux-Vives 82","detail":"2 Plätze · verbreitert"},"geometry":{"type":"Point","coordinates":[6.16961,46.20759]}},{"type":"Feature","properties":{"kind":"accessible","label":"Rue de Lyon 61BIS","detail":"1 Platz"},"geometry":{"type":"Point","coordinates":[6.13004,46.20852]}},{"type":"Feature","properties":{"kind":"accessible","label":"Avenue Léon-GAUD 11","detail":"1 Platz"},"geometry":{"type":"Point","coordinates":[6.15637,46.19558]}},{"type":"Feature","properties":{"kind":"accessible","label":"Rue de Bourgogne Angle Rue Joseph-PASQUIER","detail":"1 Platz"},"geometry":{"type":"Point","coordinates":[6.12614,46.20945]}},{"type":"Feature","properties":{"kind":"accessible","label":"Rue des Maraîchers Face au 42","detail":"1 Platz"},"geometry":{"type":"Point","coordinates":[6.13669,46.19841]}},{"type":"Feature","properties":{"kind":"accessible","label":"Rue de la Coulouvrenière 10","detail":"1 Platz"},"geometry":{"type":"Point","coordinates":[6.13537,46.20374]}},{"type":"Feature","properties":{"kind":"accessible","label":"Rue du Général-DUFOUR 24","detail":"2 Plätze"},"geometry":{"type":"Point","coordinates":[6.14271,46.19981]}},{"type":"Feature","properties":{"kind":"accessible","label":"Route de Florissant 86B","detail":"1 Platz"},"geometry":{"type":"Point","coordinates":[6.16444,46.19208]}},{"type":"Feature","properties":{"kind":"accessible","label":"Rue De-BEAUMONT 11","detail":"1 Platz"},"geometry":{"type":"Point","coordinates":[6.15659,46.19733]}},{"type":"Feature","properties":{"kind":"accessible","label":"Avenue du Bouchet Face au 19","detail":"1 Platz"},"geometry":{"type":"Point","coordinates":[6.12095,46.21798]}},{"type":"Feature","properties":{"kind":"accessible","label":"Avenue du Cimetière Face au 34","detail":"1 Platz"},"geometry":{"type":"Point","coordinates":[6.12148,46.1977]}},{"type":"Feature","properties":{"kind":"accessible","label":"Avenue Giuseppe-MOTTA Face au 48","detail":"1 Platz"},"geometry":{"type":"Point","coordinates":[6.13482,46.21963]}},{"type":"Feature","properties":{"kind":"accessible","label":"Rue Henri-MUSSARD Face au 5","detail":"1 Platz"},"geometry":{"type":"Point","coordinates":[6.16286,46.19833]}},{"type":"Feature","properties":{"kind":"accessible","label":"Rue du Général-DUFOUR 16","detail":"1 Platz"},"geometry":{"type":"Point","coordinates":[6.14168,46.20125]}},{"type":"Feature","properties":{"kind":"accessible","label":"Rue du Général-DUFOUR 16","detail":"1 Platz · Höchstdauer 3 heures"},"geometry":{"type":"Point","coordinates":[6.14164,46.20131]}},{"type":"Feature","properties":{"kind":"accessible","label":"Rue de Robert-ESTIENNE 8","detail":"1 Platz · Höchstdauer 3 heures"},"geometry":{"type":"Point","coordinates":[6.15196,46.20291]}},{"type":"Feature","properties":{"kind":"accessible","label":"Rue de Robert-ESTIENNE 7","detail":"1 Platz"},"geometry":{"type":"Point","coordinates":[6.15172,46.20297]}},{"type":"Feature","properties":{"kind":"accessible","label":"Rue de la Tour-Maîtresse 6","detail":"1 Platz"},"geometry":{"type":"Point","coordinates":[6.15162,46.20267]}},{"type":"Feature","properties":{"kind":"accessible","label":"Rue Philippe-PLANTAMOUR 2","detail":"1 Platz"},"geometry":{"type":"Point","coordinates":[6.14834,46.20907]}},{"type":"Feature","properties":{"kind":"accessible","label":"Rue Adhémar-FABRI 4","detail":"1 Platz · Höchstdauer 3 heures"},"geometry":{"type":"Point","coordinates":[6.14939,46.20892]}},{"type":"Feature","properties":{"kind":"accessible","label":"Rue du Rhône 12","detail":"1 Platz"},"geometry":{"type":"Point","coordinates":[6.14545,46.20455]}},{"type":"Feature","properties":{"kind":"accessible","label":"Rue du Rhône 8","detail":"2 Plätze"},"geometry":{"type":"Point","coordinates":[6.14503,46.20456]}},{"type":"Feature","properties":{"kind":"accessible","label":"Rue Robert-De-TRAZ 15","detail":"1 Platz"},"geometry":{"type":"Point","coordinates":[6.16432,46.1936]}},{"type":"Feature","properties":{"kind":"accessible","label":"r. Alcide- JENTZER 11","detail":"1 Platz · Höchstdauer 3 heures"},"geometry":{"type":"Point","coordinates":[6.14611,46.19201]}},{"type":"Feature","properties":{"kind":"accessible","label":"Avenue Ernest-PICTET 32-34","detail":"1 Platz · verbreitert"},"geometry":{"type":"Point","coordinates":[6.12396,46.21295]}},{"type":"Feature","properties":{"kind":"accessible","label":"Rue du Vieux-Billard Face au  7","detail":"1 Platz"},"geometry":{"type":"Point","coordinates":[6.13824,46.20054]}},{"type":"Feature","properties":{"kind":"accessible","label":"Rue NECKER 15","detail":"1 Platz · Höchstdauer 3 heures"},"geometry":{"type":"Point","coordinates":[6.14132,46.20806]}},{"type":"Feature","properties":{"kind":"accessible","label":"Rue des Corps-Saints 8","detail":"1 Platz · Höchstdauer Illimité"},"geometry":{"type":"Point","coordinates":[6.14151,46.20669]}},{"type":"Feature","properties":{"kind":"accessible","label":"Rue de Berne 6","detail":"2 Plätze"},"geometry":{"type":"Point","coordinates":[6.14479,46.20885]}},{"type":"Feature","properties":{"kind":"accessible","label":"Rue du Temple","detail":"1 Platz"},"geometry":{"type":"Point","coordinates":[6.14086,46.20622]}},{"type":"Feature","properties":{"kind":"accessible","label":"QUai TURRETTINI","detail":"1 Platz"},"geometry":{"type":"Point","coordinates":[6.14058,46.2055]}},{"type":"Feature","properties":{"kind":"accessible","label":"Rue Henriette-et-Jeanne-RATH 10","detail":"1 Platz · Höchstdauer 3 heures"},"geometry":{"type":"Point","coordinates":[6.14216,46.20311]}},{"type":"Feature","properties":{"kind":"accessible","label":"Rue du Cendrier 4","detail":"1 Platz · Höchstdauer 3 heures"},"geometry":{"type":"Point","coordinates":[6.14444,46.20686]}},{"type":"Feature","properties":{"kind":"accessible","label":"Rue du Général-DUFOUR 18","detail":"1 Platz · Höchstdauer Illimité"},"geometry":{"type":"Point","coordinates":[6.14206,46.20071]}},{"type":"Feature","properties":{"kind":"accessible","label":"Rue de Hesse 3","detail":"1 Platz · Höchstdauer 3 heures"},"geometry":{"type":"Point","coordinates":[6.14088,46.20219]}},{"type":"Feature","properties":{"kind":"accessible","label":"Rue ROUSSEAU 15","detail":"1 Platz"},"geometry":{"type":"Point","coordinates":[6.14354,46.20724]}},{"type":"Feature","properties":{"kind":"accessible","label":"Rue ROUSSEAU 15","detail":"1 Platz · Höchstdauer 3 heures"},"geometry":{"type":"Point","coordinates":[6.1436,46.20719]}},{"type":"Feature","properties":{"kind":"accessible","label":"Rue du Général-DUFOUR 16","detail":"1 Platz · Höchstdauer 3 heures"},"geometry":{"type":"Point","coordinates":[6.14167,46.20145]}},{"type":"Feature","properties":{"kind":"accessible","label":"Place de la Poste Face au 1","detail":"1 Platz"},"geometry":{"type":"Point","coordinates":[6.141,46.20372]}},{"type":"Feature","properties":{"kind":"accessible","label":"Behindertenparkplatz","detail":"1 Platz"},"geometry":{"type":"Point","coordinates":[6.14224,46.20102]}},{"type":"Feature","properties":{"kind":"accessible","label":"Behindertenparkplatz","detail":"1 Platz"},"geometry":{"type":"Point","coordinates":[6.14174,46.20242]}},{"type":"Feature","properties":{"kind":"accessible","label":"Rue de la Corraterie 21","detail":"2 Plätze"},"geometry":{"type":"Point","coordinates":[6.14348,46.2026]}},{"type":"Feature","properties":{"kind":"accessible","label":"Rue BOVY-LYSBERG Angle Boulevard du Théàtre","detail":"2 Plätze"},"geometry":{"type":"Point","coordinates":[6.1423,46.20206]}},{"type":"Feature","properties":{"kind":"accessible","label":"Rue François-DIDAY 17","detail":"2 Plätze"},"geometry":{"type":"Point","coordinates":[6.14308,46.20229]}},{"type":"Feature","properties":{"kind":"accessible","label":"Rue François-Diday","detail":"2 Plätze"},"geometry":{"type":"Point","coordinates":[6.14321,46.20195]}},{"type":"Feature","properties":{"kind":"accessible","label":"Rue BOVY-LYSBERG Angle Boulevard du Théàtre","detail":"2 Plätze"},"geometry":{"type":"Point","coordinates":[6.14239,46.20209]}},{"type":"Feature","properties":{"kind":"accessible","label":"Rue François-Diday","detail":"2 Plätze"},"geometry":{"type":"Point","coordinates":[6.14314,46.20183]}},{"type":"Feature","properties":{"kind":"accessible","label":"Rue François-Diday","detail":"2 Plätze"},"geometry":{"type":"Point","coordinates":[6.14314,46.20183]}},{"type":"Feature","properties":{"kind":"accessible","label":"Place de la Poste Face au 1","detail":"1 Platz"},"geometry":{"type":"Point","coordinates":[6.14096,46.20397]}},{"type":"Feature","properties":{"kind":"accessible","label":"Rue François-Diday Angle Rue Jean-PETITOT","detail":"1 Platz · Höchstdauer 3 heures"},"geometry":{"type":"Point","coordinates":[6.14266,46.2033]}},{"type":"Feature","properties":{"kind":"accessible","label":"Rue François-Diday Angle Place de Neuve","detail":"2 Plätze"},"geometry":{"type":"Point","coordinates":[6.1432,46.20168]}},{"type":"Feature","properties":{"kind":"accessible","label":"Rue François-Diday Angle Place de Neuve","detail":"2 Plätze"},"geometry":{"type":"Point","coordinates":[6.1432,46.20168]}},{"type":"Feature","properties":{"kind":"accessible","label":"Square Aimée- RAPIN","detail":"1 Platz · Höchstdauer 3 heures · verbreitert"},"geometry":{"type":"Point","coordinates":[6.12599,46.21526]}},{"type":"Feature","properties":{"kind":"accessible","label":"Place des Philosophes 16","detail":"1 Platz · verbreitert"},"geometry":{"type":"Point","coordinates":[6.14548,46.19654]}},{"type":"Feature","properties":{"kind":"accessible","label":"Avenue CALAS 6","detail":"1 Platz · Höchstdauer 3 heures"},"geometry":{"type":"Point","coordinates":[6.15318,46.1896]}},{"type":"Feature","properties":{"kind":"accessible","label":"Rue des Garages Angle Rue Dejean","detail":"1 Platz"},"geometry":{"type":"Point","coordinates":[6.14789,46.21837]}},{"type":"Feature","properties":{"kind":"accessible","label":"Rue Beauregard 8","detail":"2 Plätze"},"geometry":{"type":"Point","coordinates":[6.14943,46.1988]}},{"type":"Feature","properties":{"kind":"accessible","label":"Rue Gabrielle-PERRET-GENTIL 2","detail":"4 Plätze · verbreitert"},"geometry":{"type":"Point","coordinates":[6.14882,46.19369]}},{"type":"Feature","properties":{"kind":"accessible","label":"Rue des Confessions Angle Rue De-MILÉAnT","detail":"1 Platz"},"geometry":{"type":"Point","coordinates":[6.12708,46.20546]}},{"type":"Feature","properties":{"kind":"accessible","label":"Rue des Vollandes Angle Quai Gustave-ADOR","detail":"1 Platz"},"geometry":{"type":"Point","coordinates":[6.1593,46.20614]}},{"type":"Feature","properties":{"kind":"accessible","label":"Rue Jean Jean SÉNEBIER 8","detail":"1 Platz"},"geometry":{"type":"Point","coordinates":[6.1473,46.19765]}},{"type":"Feature","properties":{"kind":"accessible","label":"Rue Sigismond-THALBERG 12","detail":"1 Platz"},"geometry":{"type":"Point","coordinates":[6.14618,46.20974]}},{"type":"Feature","properties":{"kind":"accessible","label":"Rue des Rois Angle Boulevard de Saint-Georges","detail":"1 Platz"},"geometry":{"type":"Point","coordinates":[6.13789,46.20157]}},{"type":"Feature","properties":{"kind":"accessible","label":"Rue de l' Athénée 39","detail":"1 Platz · verbreitert"},"geometry":{"type":"Point","coordinates":[6.15586,46.19429]}},{"type":"Feature","properties":{"kind":"accessible","label":"Avenue du Mail 29","detail":"1 Platz"},"geometry":{"type":"Point","coordinates":[6.14094,46.19581]}},{"type":"Feature","properties":{"kind":"accessible","label":"Rue de Bourgogne 6A","detail":"1 Platz"},"geometry":{"type":"Point","coordinates":[6.12485,46.20966]}},{"type":"Feature","properties":{"kind":"accessible","label":"Rue Emilie-GOURD 6","detail":"1 Platz"},"geometry":{"type":"Point","coordinates":[6.15277,46.19767]}},{"type":"Feature","properties":{"kind":"accessible","label":"Rue Jean-GUTENBERG Face au 16","detail":"1 Platz"},"geometry":{"type":"Point","coordinates":[6.13698,46.20918]}},{"type":"Feature","properties":{"kind":"accessible","label":"Square Horace-Bénédict-DE-SAUSSURE","detail":"1 Platz"},"geometry":{"type":"Point","coordinates":[6.14259,46.19937]}},{"type":"Feature","properties":{"kind":"accessible","label":"Avenue Ernest-HENTSCH Angle Avenue Théodore Flournoy","detail":"1 Platz"},"geometry":{"type":"Point","coordinates":[6.16467,46.20395]}},{"type":"Feature","properties":{"kind":"accessible","label":"Route de Saint-Jean 9","detail":"1 Platz"},"geometry":{"type":"Point","coordinates":[6.12615,46.20451]}},{"type":"Feature","properties":{"kind":"accessible","label":"Rue Hugo-De-SENGER 7","detail":"1 Platz"},"geometry":{"type":"Point","coordinates":[6.14115,46.19364]}},{"type":"Feature","properties":{"kind":"accessible","label":"Rue des Falaises Face au 12","detail":"1 Platz"},"geometry":{"type":"Point","coordinates":[6.1301,46.20168]}},{"type":"Feature","properties":{"kind":"accessible","label":"Rue d' Italie Angle Rue du Rhône","detail":"1 Platz · Höchstdauer 3 heures"},"geometry":{"type":"Point","coordinates":[6.15241,46.20293]}},{"type":"Feature","properties":{"kind":"accessible","label":"Rue Alcide-JENTZER 22","detail":"2 Plätze"},"geometry":{"type":"Point","coordinates":[6.14833,46.19132]}},{"type":"Feature","properties":{"kind":"accessible","label":"Rue de Carouge 85","detail":"1 Platz"},"geometry":{"type":"Point","coordinates":[6.14331,46.18944]}},{"type":"Feature","properties":{"kind":"accessible","label":"Rue PÉCOLAT 8","detail":"1 Platz"},"geometry":{"type":"Point","coordinates":[6.14624,46.20875]}},{"type":"Feature","properties":{"kind":"accessible","label":"Avenue Ernest-PICTET 10","detail":"1 Platz · verbreitert"},"geometry":{"type":"Point","coordinates":[6.12617,46.21203]}},{"type":"Feature","properties":{"kind":"accessible","label":"Rue Jean-CALVIN 2","detail":"1 Platz · verbreitert"},"geometry":{"type":"Point","coordinates":[6.14605,46.20224]}},{"type":"Feature","properties":{"kind":"accessible","label":"Chemin des Crêts de Champel 24","detail":"1 Platz"},"geometry":{"type":"Point","coordinates":[6.15537,46.1875]}},{"type":"Feature","properties":{"kind":"accessible","label":"Rue Jean-VIOLETTE 4","detail":"1 Platz · verbreitert"},"geometry":{"type":"Point","coordinates":[6.14394,46.19395]}},{"type":"Feature","properties":{"kind":"accessible","label":"Rue Barthélémy-MENN 7","detail":"1 Platz"},"geometry":{"type":"Point","coordinates":[6.1451,46.19059]}},{"type":"Feature","properties":{"kind":"accessible","label":"Rue FALLER 4","detail":"1 Platz"},"geometry":{"type":"Point","coordinates":[6.1306,46.21081]}},{"type":"Feature","properties":{"kind":"accessible","label":"Rue de Lausanne 44","detail":"1 Platz"},"geometry":{"type":"Point","coordinates":[6.14603,46.2139]}},{"type":"Feature","properties":{"kind":"accessible","label":"Rue LAMARTINE 3","detail":"1 Platz"},"geometry":{"type":"Point","coordinates":[6.12857,46.20889]}},{"type":"Feature","properties":{"kind":"accessible","label":"Avenue DUMAS 31","detail":"1 Platz"},"geometry":{"type":"Point","coordinates":[6.15837,46.19024]}},{"type":"Feature","properties":{"kind":"accessible","label":"Rue de l' Evêché 4","detail":"1 Platz · verbreitert"},"geometry":{"type":"Point","coordinates":[6.14891,46.20131]}},{"type":"Feature","properties":{"kind":"accessible","label":"Boulevard Carl-VOGT 6","detail":"1 Platz · verbreitert"},"geometry":{"type":"Point","coordinates":[6.13083,46.20079]}},{"type":"Feature","properties":{"kind":"accessible","label":"Rue Anne-De-LUSIGNAN Face au 4","detail":"1 Platz"},"geometry":{"type":"Point","coordinates":[6.15574,46.20212]}},{"type":"Feature","properties":{"kind":"accessible","label":"Chemin Eugène-RIGOT Face au 2C","detail":"2 Plätze · verbreitert"},"geometry":{"type":"Point","coordinates":[6.14318,46.22152]}},{"type":"Feature","properties":{"kind":"accessible","label":"Rue de Lyon 97","detail":"2 Plätze"},"geometry":{"type":"Point","coordinates":[6.12276,46.20895]}},{"type":"Feature","properties":{"kind":"accessible","label":"Route de Chêne 53","detail":"1 Platz"},"geometry":{"type":"Point","coordinates":[6.1722,46.20006]}},{"type":"Feature","properties":{"kind":"accessible","label":"Rue de l' Université 1","detail":"1 Platz · verbreitert"},"geometry":{"type":"Point","coordinates":[6.14343,46.1983]}},{"type":"Feature","properties":{"kind":"accessible","label":"Chemin Moïse-DUBOULE 16","detail":"1 Platz"},"geometry":{"type":"Point","coordinates":[6.1258,46.22519]}},{"type":"Feature","properties":{"kind":"accessible","label":"Avenue de Champel 22","detail":"1 Platz"},"geometry":{"type":"Point","coordinates":[6.15305,46.19139]}},{"type":"Feature","properties":{"kind":"accessible","label":"Avenue De-BUDÉ 33","detail":"1 Platz · verbreitert"},"geometry":{"type":"Point","coordinates":[6.12906,46.22553]}},{"type":"Feature","properties":{"kind":"accessible","label":"Rue des Jardins Face au 2","detail":"1 Platz"},"geometry":{"type":"Point","coordinates":[6.13232,46.20258]}},{"type":"Feature","properties":{"kind":"accessible","label":"Rue Charles-HUMBERT 6-8","detail":"1 Platz"},"geometry":{"type":"Point","coordinates":[6.13823,46.20001]}},{"type":"Feature","properties":{"kind":"accessible","label":"Rue Emile-YUNG Face au 1","detail":"1 Platz"},"geometry":{"type":"Point","coordinates":[6.15016,46.19587]}},{"type":"Feature","properties":{"kind":"accessible","label":"Rue des Confessions Angle Rue du Beulet","detail":"1 Platz"},"geometry":{"type":"Point","coordinates":[6.12583,46.2056]}},{"type":"Feature","properties":{"kind":"accessible","label":"Avenue De-BUDÉ Face au 15","detail":"1 Platz · verbreitert"},"geometry":{"type":"Point","coordinates":[6.1315,46.22535]}},{"type":"Feature","properties":{"kind":"accessible","label":"Rue de l' École-de-Médecine 5","detail":"1 Platz"},"geometry":{"type":"Point","coordinates":[6.13861,46.19735]}},{"type":"Feature","properties":{"kind":"accessible","label":"Rue de Savoises 5","detail":"1 Platz"},"geometry":{"type":"Point","coordinates":[6.13937,46.20083]}},{"type":"Feature","properties":{"kind":"accessible","label":"Avenue De-BUDÉ 5","detail":"1 Platz · verbreitert"},"geometry":{"type":"Point","coordinates":[6.13154,46.22421]}},{"type":"Feature","properties":{"kind":"accessible","label":"Rue de la Coulouvrenière 16","detail":"1 Platz"},"geometry":{"type":"Point","coordinates":[6.13612,46.20381]}},{"type":"Feature","properties":{"kind":"accessible","label":"Rue Ernest-BLOCH 33","detail":"1 Platz"},"geometry":{"type":"Point","coordinates":[6.16434,46.20279]}},{"type":"Feature","properties":{"kind":"accessible","label":"Rue du Vidollet 23","detail":"1 Platz"},"geometry":{"type":"Point","coordinates":[6.1372,46.21687]}},{"type":"Feature","properties":{"kind":"accessible","label":"Rue de Lyon 55","detail":"1 Platz · Höchstdauer 3 heures"},"geometry":{"type":"Point","coordinates":[6.13336,46.20861]}},{"type":"Feature","properties":{"kind":"accessible","label":"Rue Rodolphe-TOEPFFER 11","detail":"1 Platz"},"geometry":{"type":"Point","coordinates":[6.15398,46.19848]}},{"type":"Feature","properties":{"kind":"accessible","label":"Rue des Pâquis 24","detail":"1 Platz · verbreitert"},"geometry":{"type":"Point","coordinates":[6.14933,46.21144]}},{"type":"Feature","properties":{"kind":"accessible","label":"Chemin de l' Impératrice Angle Rue de Lausanne","detail":"1 Platz"},"geometry":{"type":"Point","coordinates":[6.14826,46.22813]}},{"type":"Feature","properties":{"kind":"accessible","label":"Rue du Belvédère 10","detail":"1 Platz · verbreitert"},"geometry":{"type":"Point","coordinates":[6.13135,46.20501]}},{"type":"Feature","properties":{"kind":"accessible","label":"Rue du 31 Décembre Face au 21","detail":"1 Platz"},"geometry":{"type":"Point","coordinates":[6.1591,46.2042]}},{"type":"Feature","properties":{"kind":"accessible","label":"Rue CRESPIN Face au 2","detail":"1 Platz · verbreitert"},"geometry":{"type":"Point","coordinates":[6.15784,46.19542]}},{"type":"Feature","properties":{"kind":"accessible","label":"Rue des Allobroges 13","detail":"1 Platz"},"geometry":{"type":"Point","coordinates":[6.13959,46.18892]}},{"type":"Feature","properties":{"kind":"accessible","label":"Rue Robert De-TRAZ 1","detail":"1 Platz"},"geometry":{"type":"Point","coordinates":[6.16251,46.19334]}},{"type":"Feature","properties":{"kind":"accessible","label":"Rue des Vieux-Grenadiers 2","detail":"1 Platz"},"geometry":{"type":"Point","coordinates":[6.14694,46.20462]}},{"type":"Feature","properties":{"kind":"accessible","label":"Rue des Peupliers 2","detail":"1 Platz"},"geometry":{"type":"Point","coordinates":[6.14496,46.18796]}},{"type":"Feature","properties":{"kind":"accessible","label":"Boulevard Helvétique 29","detail":"1 Platz"},"geometry":{"type":"Point","coordinates":[6.15482,46.20182]}},{"type":"Feature","properties":{"kind":"accessible","label":"Boulevard de Saint-Georges 42","detail":"1 Platz"},"geometry":{"type":"Point","coordinates":[6.1349,46.20128]}},{"type":"Feature","properties":{"kind":"accessible","label":"Boulevard Helvétique Face au 28","detail":"1 Platz · verbreitert"},"geometry":{"type":"Point","coordinates":[6.15451,46.20109]}},{"type":"Feature","properties":{"kind":"accessible","label":"Rue FALLER 4","detail":"1 Platz"},"geometry":{"type":"Point","coordinates":[6.13042,46.21078]}},{"type":"Feature","properties":{"kind":"accessible","label":"Rue Benjamin-FRANKLIN 2","detail":"1 Platz"},"geometry":{"type":"Point","coordinates":[6.13718,46.20813]}},{"type":"Feature","properties":{"kind":"accessible","label":"Rue DAUBIN 25","detail":"1 Platz"},"geometry":{"type":"Point","coordinates":[6.12991,46.20681]}},{"type":"Feature","properties":{"kind":"accessible","label":"Boulevard James-FAZY 4","detail":"1 Platz"},"geometry":{"type":"Point","coordinates":[6.13962,46.20639]}},{"type":"Feature","properties":{"kind":"accessible","label":"Rue des Glacis-de-Rive 6","detail":"2 Plätze · Höchstdauer 3 heures"},"geometry":{"type":"Point","coordinates":[6.15522,46.20051]}},{"type":"Feature","properties":{"kind":"accessible","label":"Rue Jorge-Luis-BORGÈS 6","detail":"1 Platz"},"geometry":{"type":"Point","coordinates":[6.12765,46.20707]}},{"type":"Feature","properties":{"kind":"accessible","label":"Boulevard d' Yvoy 4","detail":"1 Platz · verbreitert"},"geometry":{"type":"Point","coordinates":[6.13371,46.19813]}},{"type":"Feature","properties":{"kind":"accessible","label":"Rue de la Maladière 3","detail":"1 Platz"},"geometry":{"type":"Point","coordinates":[6.1431,46.18962]}},{"type":"Feature","properties":{"kind":"accessible","label":"Rue Anne-TORCAPEL 4B","detail":"1 Platz"},"geometry":{"type":"Point","coordinates":[6.14589,46.2189]}},{"type":"Feature","properties":{"kind":"accessible","label":"Boulevard Emilie-JAQUES-DALCROZE 9","detail":"1 Platz · Höchstdauer 3 heures"},"geometry":{"type":"Point","coordinates":[6.15112,46.19946]}},{"type":"Feature","properties":{"kind":"accessible","label":"Route de Florissant 8","detail":"1 Platz"},"geometry":{"type":"Point","coordinates":[6.15469,46.19643]}},{"type":"Feature","properties":{"kind":"accessible","label":"Rue PREVOST-MARTIN 25","detail":"1 Platz"},"geometry":{"type":"Point","coordinates":[6.14573,46.19458]}},{"type":"Feature","properties":{"kind":"accessible","label":"Chemin des Colombettes 8","detail":"1 Platz"},"geometry":{"type":"Point","coordinates":[6.13345,46.2198]}},{"type":"Feature","properties":{"kind":"accessible","label":"Rue de l' Ancien-Port 14","detail":"1 Platz"},"geometry":{"type":"Point","coordinates":[6.15026,46.2123]}},{"type":"Feature","properties":{"kind":"accessible","label":"Place du Petit-Saconnex 5","detail":"1 Platz · Höchstdauer 3 heures · verbreitert"},"geometry":{"type":"Point","coordinates":[6.1276,46.22296]}},{"type":"Feature","properties":{"kind":"accessible","label":"Rue Charles-BONNET Face au 3","detail":"1 Platz · Höchstdauer 3 heures"},"geometry":{"type":"Point","coordinates":[6.15103,46.19736]}},{"type":"Feature","properties":{"kind":"accessible","label":"Rue des Délices 12","detail":"1 Platz"},"geometry":{"type":"Point","coordinates":[6.13365,46.20688]}},{"type":"Feature","properties":{"kind":"accessible","label":"Rue du Grand-Bureau 6","detail":"1 Platz · verbreitert"},"geometry":{"type":"Point","coordinates":[6.13742,46.19077]}},{"type":"Feature","properties":{"kind":"accessible","label":"Rue Charles-STURM 16","detail":"1 Platz · verbreitert"},"geometry":{"type":"Point","coordinates":[6.15432,46.1989]}},{"type":"Feature","properties":{"kind":"accessible","label":"Place des Augustins 9","detail":"1 Platz · verbreitert"},"geometry":{"type":"Point","coordinates":[6.14438,46.19125]}},{"type":"Feature","properties":{"kind":"accessible","label":"Quai Capo-d'ISTRIA 3","detail":"1 Platz"},"geometry":{"type":"Point","coordinates":[6.14277,46.18802]}},{"type":"Feature","properties":{"kind":"accessible","label":"Rue de Bourgogne 2","detail":"1 Platz"},"geometry":{"type":"Point","coordinates":[6.12664,46.20948]}},{"type":"Feature","properties":{"kind":"accessible","label":"Rue du 1er-Juin 8","detail":"1 Platz"},"geometry":{"type":"Point","coordinates":[6.16129,46.20622]}},{"type":"Feature","properties":{"kind":"accessible","label":"Rue du 31-Décembre 8","detail":"1 Platz"},"geometry":{"type":"Point","coordinates":[6.15828,46.20487]}},{"type":"Feature","properties":{"kind":"accessible","label":"Rue du Midi 8","detail":"1 Platz"},"geometry":{"type":"Point","coordinates":[6.13769,46.21096]}},{"type":"Feature","properties":{"kind":"accessible","label":"Rue CAVOUR 1","detail":"1 Platz"},"geometry":{"type":"Point","coordinates":[6.13165,46.20613]}},{"type":"Feature","properties":{"kind":"accessible","label":"La Vy-des-Champs 9","detail":"1 Platz · verbreitert"},"geometry":{"type":"Point","coordinates":[6.13785,46.2282]}},{"type":"Feature","properties":{"kind":"accessible","label":"Rue du Cercle 3","detail":"1 Platz"},"geometry":{"type":"Point","coordinates":[6.13881,46.20983]}},{"type":"Feature","properties":{"kind":"accessible","label":"Quai Gustave-ADOR 68","detail":"2 Plätze · Höchstdauer 3 heures · verbreitert"},"geometry":{"type":"Point","coordinates":[6.16537,46.20848]}},{"type":"Feature","properties":{"kind":"accessible","label":"Rue VIOLLIER 10","detail":"1 Platz"},"geometry":{"type":"Point","coordinates":[6.1643,46.20132]}},{"type":"Feature","properties":{"kind":"accessible","label":"Emile-NICOLET. Rue 13","detail":"1 Platz"},"geometry":{"type":"Point","coordinates":[6.12822,46.20149]}},{"type":"Feature","properties":{"kind":"accessible","label":"Rue d' Ermenonville 3","detail":"1 Platz"},"geometry":{"type":"Point","coordinates":[6.12442,46.20363]}},{"type":"Feature","properties":{"kind":"accessible","label":"Rue CRESPIN 9","detail":"1 Platz · verbreitert"},"geometry":{"type":"Point","coordinates":[6.15918,46.19572]}},{"type":"Feature","properties":{"kind":"accessible","label":"Avenue de Champel 30","detail":"1 Platz · Höchstdauer 3 heures · verbreitert"},"geometry":{"type":"Point","coordinates":[6.15273,46.19061]}},{"type":"Feature","properties":{"kind":"accessible","label":"Avenue Gaspard-VALLETTE 9","detail":"1 Platz"},"geometry":{"type":"Point","coordinates":[6.15687,46.1954]}},{"type":"Feature","properties":{"kind":"accessible","label":"Place des Augustins 17","detail":"1 Platz · Höchstdauer 3 heures · verbreitert"},"geometry":{"type":"Point","coordinates":[6.14427,46.19091]}},{"type":"Feature","properties":{"kind":"accessible","label":"Chemin de la Bâtie 30","detail":"1 Platz · verbreitert"},"geometry":{"type":"Point","coordinates":[6.12214,46.1996]}},{"type":"Feature","properties":{"kind":"accessible","label":"Rue KLÉBERG 13","detail":"1 Platz · verbreitert"},"geometry":{"type":"Point","coordinates":[6.14493,46.20688]}},{"type":"Feature","properties":{"kind":"accessible","label":"Rue Frank-MARTIN 1","detail":"1 Platz"},"geometry":{"type":"Point","coordinates":[6.14546,46.2027]}},{"type":"Feature","properties":{"kind":"accessible","label":"Avenue d' Aïre 45","detail":"1 Platz"},"geometry":{"type":"Point","coordinates":[6.12311,46.20731]}},{"type":"Feature","properties":{"kind":"accessible","label":"Quai du Seujet 14","detail":"1 Platz"},"geometry":{"type":"Point","coordinates":[6.13603,46.20544]}},{"type":"Feature","properties":{"kind":"accessible","label":"Rue DEJEAN Angle Rue de Lausanne","detail":"1 Platz"},"geometry":{"type":"Point","coordinates":[6.14837,46.21848]}},{"type":"Feature","properties":{"kind":"accessible","label":"Rue Barthélémy-MENN 22","detail":"3 Plätze · Höchstdauer 3 heures"},"geometry":{"type":"Point","coordinates":[6.14851,46.18958]}},{"type":"Feature","properties":{"kind":"accessible","label":"Avenue BLANC Angle Rue DEJEAN","detail":"1 Platz"},"geometry":{"type":"Point","coordinates":[6.14715,46.21863]}},{"type":"Feature","properties":{"kind":"accessible","label":"Rue ROD-Edouard 40","detail":"1 Platz"},"geometry":{"type":"Point","coordinates":[6.12314,46.21393]}},{"type":"Feature","properties":{"kind":"accessible","label":"Chemin de la Gravière 6","detail":"1 Platz · verbreitert"},"geometry":{"type":"Point","coordinates":[6.12972,46.19671]}},{"type":"Feature","properties":{"kind":"accessible","label":"Rue du Grand-Pré 70A","detail":"1 Platz"},"geometry":{"type":"Point","coordinates":[6.13233,46.21642]}},{"type":"Feature","properties":{"kind":"accessible","label":"Rue de Grand-Pré 40","detail":"1 Platz"},"geometry":{"type":"Point","coordinates":[6.13493,46.21453]}},{"type":"Feature","properties":{"kind":"accessible","label":"La Voie-Creuse 11","detail":"1 Platz"},"geometry":{"type":"Point","coordinates":[6.1427,46.21952]}},{"type":"Feature","properties":{"kind":"accessible","label":"Rue Jean-Louis-HUGON 5","detail":"2 Plätze"},"geometry":{"type":"Point","coordinates":[6.13424,46.20096]}},{"type":"Feature","properties":{"kind":"accessible","label":"Chemin Malombré 11","detail":"1 Platz · verbreitert"},"geometry":{"type":"Point","coordinates":[6.15175,46.1952]}},{"type":"Feature","properties":{"kind":"accessible","label":"Rue Frank-MARTIN 1","detail":"1 Platz · Höchstdauer 3 heures"},"geometry":{"type":"Point","coordinates":[6.14541,46.20279]}},{"type":"Feature","properties":{"kind":"accessible","label":"Grand Rue 6","detail":"1 Platz"},"geometry":{"type":"Point","coordinates":[6.1449,46.2023]}},{"type":"Feature","properties":{"kind":"accessible","label":"Avenue du Devin-du-Village 27","detail":"1 Platz"},"geometry":{"type":"Point","coordinates":[6.12204,46.20272]}},{"type":"Feature","properties":{"kind":"accessible","label":"Rue du 31-Décembre 13","detail":"1 Platz"},"geometry":{"type":"Point","coordinates":[6.15856,46.2047]}},{"type":"Feature","properties":{"kind":"accessible","label":"Quai Gustave-ADOR 68","detail":"2 Plätze · Höchstdauer 3 heures · verbreitert"},"geometry":{"type":"Point","coordinates":[6.16551,46.20854]}},{"type":"Feature","properties":{"kind":"accessible","label":"Rue Robert-CÉARD 1","detail":"1 Platz"},"geometry":{"type":"Point","coordinates":[6.14922,46.20391]}},{"type":"Feature","properties":{"kind":"accessible","label":"Rue John-REHFOUS 2","detail":"1 Platz"},"geometry":{"type":"Point","coordinates":[6.16294,46.19793]}},{"type":"Feature","properties":{"kind":"accessible","label":"Rue de Contamines 28","detail":"1 Platz"},"geometry":{"type":"Point","coordinates":[6.1553,46.19526]}},{"type":"Feature","properties":{"kind":"accessible","label":"Rue de la Maladière 4","detail":"1 Platz"},"geometry":{"type":"Point","coordinates":[6.14229,46.18979]}},{"type":"Feature","properties":{"kind":"accessible","label":"Avenue de la Gare des Eaux-Vives 4","detail":"1 Platz · Höchstdauer 3 heures"},"geometry":{"type":"Point","coordinates":[6.16588,46.20041]}},{"type":"Feature","properties":{"kind":"accessible","label":"Avenue de la Gare des Eaux-Vives 6","detail":"1 Platz · Höchstdauer 3 heures"},"geometry":{"type":"Point","coordinates":[6.16628,46.20064]}},{"type":"Feature","properties":{"kind":"accessible","label":"Rue Charles-GIRON Face au 31","detail":"1 Platz"},"geometry":{"type":"Point","coordinates":[6.1269,46.20677]}},{"type":"Feature","properties":{"kind":"accessible","label":"Chemin Malombré Face au 5","detail":"1 Platz · verbreitert"},"geometry":{"type":"Point","coordinates":[6.15235,46.19599]}},{"type":"Feature","properties":{"kind":"accessible","label":"Rue BOISSONNAS Face au 12","detail":"1 Platz"},"geometry":{"type":"Point","coordinates":[6.13056,46.19311]}},{"type":"Feature","properties":{"kind":"accessible","label":"Rue de la Faucille Face au 11","detail":"1 Platz"},"geometry":{"type":"Point","coordinates":[6.13979,46.21136]}},{"type":"Feature","properties":{"kind":"accessible","label":"Boulevard de la Cluse 37","detail":"1 Platz · verbreitert"},"geometry":{"type":"Point","coordinates":[6.14571,46.1906]}},{"type":"Feature","properties":{"kind":"accessible","label":"Rue HORNUNG 1","detail":"1 Platz · Höchstdauer 3 heures"},"geometry":{"type":"Point","coordinates":[6.14068,46.20107]}},{"type":"Feature","properties":{"kind":"accessible","label":"Rue MERLE-D'AUBIGNÉ Angle Rue des Eaux-Vives","detail":"1 Platz"},"geometry":{"type":"Point","coordinates":[6.16207,46.20644]}},{"type":"Feature","properties":{"kind":"accessible","label":"Chemin COLLADON 34","detail":"2 Plätze"},"geometry":{"type":"Point","coordinates":[6.1225,46.22328]}},{"type":"Feature","properties":{"kind":"accessible","label":"Rue de l' Hôtel-de-Ville 16","detail":"2 Plätze"},"geometry":{"type":"Point","coordinates":[6.14818,46.20017]}},{"type":"Feature","properties":{"kind":"accessible","label":"Rue des Grottes 20","detail":"1 Platz"},"geometry":{"type":"Point","coordinates":[6.13925,46.21057]}},{"type":"Feature","properties":{"kind":"accessible","label":"Rue HOFFMANN 6","detail":"1 Platz"},"geometry":{"type":"Point","coordinates":[6.1301,46.21415]}},{"type":"Feature","properties":{"kind":"accessible","label":"Rue des Granges 11","detail":"1 Platz · Höchstdauer 3 heures"},"geometry":{"type":"Point","coordinates":[6.14572,46.20144]}},{"type":"Feature","properties":{"kind":"accessible","label":"Rue Saint-Léger 33","detail":"1 Platz · Höchstdauer 3 heures"},"geometry":{"type":"Point","coordinates":[6.14848,46.1999]}},{"type":"Feature","properties":{"kind":"accessible","label":"Place du Pré-l'Evêque","detail":"1 Platz · Höchstdauer 3 heures · verbreitert"},"geometry":{"type":"Point","coordinates":[6.15833,46.20224]}},{"type":"Feature","properties":{"kind":"accessible","label":"Rue du Rhône 70","detail":"1 Platz"},"geometry":{"type":"Point","coordinates":[6.14901,46.20381]}},{"type":"Feature","properties":{"kind":"accessible","label":"Rue des Voisins 14","detail":"1 Platz"},"geometry":{"type":"Point","coordinates":[6.14435,46.19579]}},{"type":"Feature","properties":{"kind":"accessible","label":"Rue Plantamour 42","detail":"1 Platz"},"geometry":{"type":"Point","coordinates":[6.15165,46.21202]}},{"type":"Feature","properties":{"kind":"accessible","label":"Rue Jean-PETITOT 8","detail":"1 Platz · Höchstdauer 3 heures"},"geometry":{"type":"Point","coordinates":[6.14153,46.20313]}},{"type":"Feature","properties":{"kind":"accessible","label":"Rue du Diorama Face au 14","detail":"1 Platz"},"geometry":{"type":"Point","coordinates":[6.13904,46.20184]}},{"type":"Feature","properties":{"kind":"accessible","label":"Rue des Vieux-Grenadiers 1","detail":"1 Platz"},"geometry":{"type":"Point","coordinates":[6.1389,46.19833]}},{"type":"Feature","properties":{"kind":"accessible","label":"Rue MAUNOIR 16","detail":"1 Platz"},"geometry":{"type":"Point","coordinates":[6.16032,46.20371]}},{"type":"Feature","properties":{"kind":"accessible","label":"Rue MAUNOIR 14","detail":"1 Platz"},"geometry":{"type":"Point","coordinates":[6.16025,46.20377]}},{"type":"Feature","properties":{"kind":"accessible","label":"Route de Chêne 64A","detail":"1 Platz"},"geometry":{"type":"Point","coordinates":[6.17273,46.19943]}},{"type":"Feature","properties":{"kind":"accessible","label":"Avenue Henri-BORDIER 12","detail":"1 Platz"},"geometry":{"type":"Point","coordinates":[6.11187,46.20596]}},{"type":"Feature","properties":{"kind":"accessible","label":"Quai Ernest-ANSERMET 36","detail":"1 Platz"},"geometry":{"type":"Point","coordinates":[6.1304,46.1991]}},{"type":"Feature","properties":{"kind":"accessible","label":"Rue de la Rôtisserie 10","detail":"1 Platz"},"geometry":{"type":"Point","coordinates":[6.14649,46.20279]}},{"type":"Feature","properties":{"kind":"accessible","label":"Rue LIOTARD Face au 75","detail":"1 Platz"},"geometry":{"type":"Point","coordinates":[6.12528,46.21432]}},{"type":"Feature","properties":{"kind":"accessible","label":"Rue Guillaume-De-MARCOSSAY 14","detail":"2 Plätze"},"geometry":{"type":"Point","coordinates":[6.1424,46.19565]}},{"type":"Feature","properties":{"kind":"accessible","label":"François-BONIVARD,Rue Angle Rue du Mont-Blanc","detail":"1 Platz"},"geometry":{"type":"Point","coordinates":[6.14646,46.20787]}},{"type":"Feature","properties":{"kind":"accessible","label":"Avenue d' Aïre 36","detail":"1 Platz"},"geometry":{"type":"Point","coordinates":[6.123,46.20744]}},{"type":"Feature","properties":{"kind":"accessible","label":"Rue Ami-LULLIN 6","detail":"1 Platz"},"geometry":{"type":"Point","coordinates":[6.15468,46.2]}},{"type":"Feature","properties":{"kind":"accessible","label":"Rue Abraham Gevray 6","detail":"1 Platz"},"geometry":{"type":"Point","coordinates":[6.14984,46.21112]}},{"type":"Feature","properties":{"kind":"accessible","label":"Rue LOMBARD 5","detail":"1 Platz"},"geometry":{"type":"Point","coordinates":[6.14835,46.1953]}},{"type":"Feature","properties":{"kind":"accessible","label":"Rue du Nant Angle Rue de la Mairie","detail":"1 Platz"},"geometry":{"type":"Point","coordinates":[6.15948,46.20184]}},{"type":"Feature","properties":{"kind":"accessible","label":"Rue Ami-LULLIN 4","detail":"1 Platz"},"geometry":{"type":"Point","coordinates":[6.15339,46.20087]}},{"type":"Feature","properties":{"kind":"accessible","label":"Rue du Village-Suisse 14","detail":"1 Platz"},"geometry":{"type":"Point","coordinates":[6.13559,46.20045]}},{"type":"Feature","properties":{"kind":"accessible","label":"Rue du Village-Suisse 4","detail":"1 Platz"},"geometry":{"type":"Point","coordinates":[6.13597,46.2012]}},{"type":"Feature","properties":{"kind":"accessible","label":"Rue DANCET Angle Rue des Battoirs","detail":"2 Plätze · verbreitert"},"geometry":{"type":"Point","coordinates":[6.14256,46.19168]}},{"type":"Feature","properties":{"kind":"accessible","label":"Boulevard de la Cluse 55","detail":"2 Plätze · verbreitert"},"geometry":{"type":"Point","coordinates":[6.14644,46.19179]}},{"type":"Feature","properties":{"kind":"accessible","label":"Avenue Alice-et-William-FAVRE 1","detail":"1 Platz"},"geometry":{"type":"Point","coordinates":[6.16189,46.20736]}},{"type":"Feature","properties":{"kind":"accessible","label":"Avenue Alfred-BERTRAND 14","detail":"1 Platz"},"geometry":{"type":"Point","coordinates":[6.15452,46.19283]}},{"type":"Feature","properties":{"kind":"accessible","label":"Avenue de Chamonix 3","detail":"1 Platz · verbreitert"},"geometry":{"type":"Point","coordinates":[6.16401,46.20042]}},{"type":"Feature","properties":{"kind":"accessible","label":"Rue AGASSE Angle Route de Chêne","detail":"1 Platz"},"geometry":{"type":"Point","coordinates":[6.16249,46.19984]}},{"type":"Feature","properties":{"kind":"accessible","label":"Rue du Môle 38","detail":"1 Platz"},"geometry":{"type":"Point","coordinates":[6.14662,46.2132]}},{"type":"Feature","properties":{"kind":"accessible","label":"Rue de la Nouvelle-Héloïse 4","detail":"1 Platz"},"geometry":{"type":"Point","coordinates":[6.12375,46.20405]}},{"type":"Feature","properties":{"kind":"accessible","label":"Avenue de Miremont 8A","detail":"1 Platz · verbreitert"},"geometry":{"type":"Point","coordinates":[6.15484,46.19061]}},{"type":"Feature","properties":{"kind":"accessible","label":"Chemin de la Rochette 4","detail":"1 Platz"},"geometry":{"type":"Point","coordinates":[6.13428,46.22198]}},{"type":"Feature","properties":{"kind":"accessible","label":"Rue Jean-Robert-CHOUET 7","detail":"1 Platz"},"geometry":{"type":"Point","coordinates":[6.13512,46.21187]}},{"type":"Feature","properties":{"kind":"accessible","label":"Route de Meyrin 6","detail":"1 Platz"},"geometry":{"type":"Point","coordinates":[6.12864,46.2142]}},{"type":"Feature","properties":{"kind":"accessible","label":"Rue Giovanni-GAMBINI 8","detail":"1 Platz"},"geometry":{"type":"Point","coordinates":[6.16393,46.1912]}},{"type":"Feature","properties":{"kind":"accessible","label":"Quai du Seujet 32","detail":"1 Platz"},"geometry":{"type":"Point","coordinates":[6.13418,46.20432]}},{"type":"Feature","properties":{"kind":"accessible","label":"Rue Pierre-FATIO Face au 9","detail":"1 Platz · verbreitert"},"geometry":{"type":"Point","coordinates":[6.154,46.20344]}},{"type":"Feature","properties":{"kind":"accessible","label":"Avenue BLANC 44","detail":"1 Platz"},"geometry":{"type":"Point","coordinates":[6.14834,46.22131]}},{"type":"Feature","properties":{"kind":"accessible","label":"Route de Frontenex Angle Rue Alice-et-William-FAVRE","detail":"1 Platz"},"geometry":{"type":"Point","coordinates":[6.16783,46.20345]}},{"type":"Feature","properties":{"kind":"accessible","label":"Rue de l' Evêché 4","detail":"1 Platz · verbreitert"},"geometry":{"type":"Point","coordinates":[6.14892,46.20123]}},{"type":"Feature","properties":{"kind":"accessible","label":"Boulevard des Philosophes 8","detail":"1 Platz · Höchstdauer 3 heures"},"geometry":{"type":"Point","coordinates":[6.14411,46.19733]}},{"type":"Feature","properties":{"kind":"accessible","label":"Avenue de Beau-Séjour 26","detail":"1 Platz · verbreitert"},"geometry":{"type":"Point","coordinates":[6.14997,46.18874]}},{"type":"Feature","properties":{"kind":"accessible","label":"Rue du Village-Suisse 5","detail":"1 Platz · Höchstdauer 3 heures"},"geometry":{"type":"Point","coordinates":[6.13555,46.20017]}},{"type":"Feature","properties":{"kind":"accessible","label":"Quai Gustave-ADOR Entrée Parc des Eaux-Vives","detail":"1 Platz · verbreitert"},"geometry":{"type":"Point","coordinates":[6.16797,46.20965]}},{"type":"Feature","properties":{"kind":"accessible","label":"Rue Edouard-ROD 2","detail":"1 Platz · verbreitert"},"geometry":{"type":"Point","coordinates":[6.12111,46.21199]}},{"type":"Feature","properties":{"kind":"accessible","label":"Rue Louis-FAVRE 43","detail":"1 Platz"},"geometry":{"type":"Point","coordinates":[6.13794,46.21178]}},{"type":"Feature","properties":{"kind":"accessible","label":"Rue Jorge-Luis-BORGÈS 8","detail":"1 Platz"},"geometry":{"type":"Point","coordinates":[6.12782,46.20727]}},{"type":"Feature","properties":{"kind":"accessible","label":"Rue GOURGAS 24","detail":"1 Platz"},"geometry":{"type":"Point","coordinates":[6.13463,46.20023]}},{"type":"Feature","properties":{"kind":"accessible","label":"Avenue de Beau-Séjour 26","detail":"1 Platz · verbreitert"},"geometry":{"type":"Point","coordinates":[6.14977,46.18875]}},{"type":"Feature","properties":{"kind":"accessible","label":"Rue de Montchoisy 40","detail":"1 Platz"},"geometry":{"type":"Point","coordinates":[6.16136,46.20381]}},{"type":"Feature","properties":{"kind":"accessible","label":"Rue David-DUFOUR 10","detail":"1 Platz"},"geometry":{"type":"Point","coordinates":[6.13166,46.20053]}},{"type":"Feature","properties":{"kind":"accessible","label":"Rue DANCET 16","detail":"1 Platz · verbreitert"},"geometry":{"type":"Point","coordinates":[6.13013,46.20694]}},{"type":"Feature","properties":{"kind":"accessible","label":"Avenue Théodore-FLOURNOY Angle Rue de Montchoisy","detail":"1 Platz"},"geometry":{"type":"Point","coordinates":[6.16347,46.20479]}},{"type":"Feature","properties":{"kind":"accessible","label":"Cours de Bastions 4","detail":"1 Platz · Höchstdauer 3 heures"},"geometry":{"type":"Point","coordinates":[6.14749,46.19818]}},{"type":"Feature","properties":{"kind":"accessible","label":"Quai du Général-GUISAN 14","detail":"1 Platz"},"geometry":{"type":"Point","coordinates":[6.14821,46.20435]}}]}