{"type":"FeatureCollection","features":[{"type":"Feature","properties":{"zone":"P","district":"Servette Petit-Saconnex","rawHours":"","rawFee":"","note":"Secteur Petit-Saconnex — Macaron-Zone seit 2005-07-01","windows":[],"fee":{"kind":"unknown"},"unmodelledRules":[],"sourceDefect":null,"scheduleUnknown":true,"spaces":1365,"maxStayMinutes":null,"maxStay":"1h","maxStayShare":0.995,"maxStayValues":["1h","90min","4h","30min"],"chargingPoints":0,"carsharing":0},"geometry":{"type":"Polygon","coordinates":[[[6.13264,46.22517],[6.13129,46.22622],[6.12966,46.22731],[6.12954,46.22735],[6.12854,46.22661],[6.1276,46.22611],[6.12615,46.22505],[6.12566,46.22535],[6.12418,46.22586],[6.12331,46.22624],[6.12233,46.22679],[6.12229,46.22684],[6.12197,46.2267],[6.12128,46.22606],[6.12126,46.22601],[6.12125,46.22593],[6.12129,46.22586],[6.12209,46.22515],[6.12175,46.22484],[6.11985,46.22352],[6.1178,46.22219],[6.1174,46.22195],[6.11668,46.22156],[6.11514,46.22082],[6.11394,46.22018],[6.11427,46.21986],[6.11461,46.21949],[6.11487,46.21914],[6.11521,46.21863],[6.11587,46.21792],[6.1162,46.21761],[6.11659,46.21735],[6.11723,46.21699],[6.11843,46.2165],[6.11867,46.21642],[6.11856,46.21624],[6.12668,46.21472],[6.12721,46.21459],[6.12801,46.21434],[6.12853,46.21415],[6.12927,46.21385],[6.1296,46.21425],[6.13016,46.21513],[6.13032,46.2153],[6.13066,46.21585],[6.13088,46.21631],[6.13109,46.21662],[6.13144,46.21695],[6.13343,46.21858],[6.13592,46.22051],[6.13777,46.22199],[6.13801,46.22223],[6.1378,46.22231],[6.13562,46.22333],[6.13457,46.22385],[6.13412,46.22409],[6.13384,46.22426],[6.13264,46.22517]]]}},{"type":"Feature","properties":{"zone":"K","district":"Grottes Saint-Gervais","rawHours":"","rawFee":"","note":"Secteur Grand-Pré — Macaron-Zone seit 1999-11-01","windows":[],"fee":{"kind":"unknown"},"unmodelledRules":[],"sourceDefect":null,"scheduleUnknown":true,"spaces":1718,"maxStayMinutes":null,"maxStay":"1h","maxStayShare":1,"maxStayValues":["1h","90min"],"chargingPoints":0,"carsharing":0},"geometry":{"type":"Polygon","coordinates":[[[6.14296,46.21118],[6.14292,46.21114],[6.14183,46.21131],[6.1417,46.21129],[6.14153,46.2112],[6.14095,46.21141],[6.14066,46.21148],[6.13986,46.21156],[6.13971,46.21158],[6.13949,46.21164],[6.13845,46.21198],[6.13819,46.21211],[6.13758,46.21268],[6.13704,46.21316],[6.1367,46.21341],[6.13637,46.21358],[6.13564,46.21402],[6.13554,46.21405],[6.13492,46.21436],[6.13422,46.21466],[6.13065,46.21584],[6.13032,46.2153],[6.13016,46.21513],[6.1296,46.21425],[6.1292,46.21374],[6.12845,46.21291],[6.12822,46.2127],[6.12789,46.21234],[6.12727,46.21164],[6.12718,46.21145],[6.12704,46.21103],[6.1269,46.20953],[6.12686,46.20934],[6.12677,46.2085],[6.12678,46.2082],[6.1288,46.20831],[6.13186,46.20866],[6.13232,46.20869],[6.13276,46.20868],[6.13306,46.20864],[6.1348,46.20826],[6.13547,46.20816],[6.13627,46.20801],[6.13796,46.20761],[6.13856,46.20743],[6.13936,46.20699],[6.13949,46.20696],[6.1395,46.20707],[6.1437,46.21073],[6.14378,46.21082],[6.14359,46.21095],[6.14339,46.21105],[6.14318,46.21113],[6.14296,46.21118]]]}},{"type":"Feature","properties":{"zone":"J","district":"Saint-Jean Charmilles","rawHours":"","rawFee":"","note":"Secteur Saint-Jean — Macaron-Zone seit 2001-07-01","windows":[],"fee":{"kind":"unknown"},"unmodelledRules":[],"sourceDefect":null,"scheduleUnknown":true,"spaces":1505,"maxStayMinutes":null,"maxStay":"1h","maxStayShare":1,"maxStayValues":["1h","90min"],"chargingPoints":0,"carsharing":0},"geometry":{"type":"Polygon","coordinates":[[[6.13949,46.20696],[6.13936,46.20699],[6.13856,46.20743],[6.13796,46.20761],[6.13627,46.20801],[6.13547,46.20816],[6.1348,46.20826],[6.13306,46.20864],[6.13276,46.20868],[6.13246,46.20869],[6.13186,46.20866],[6.1288,46.20831],[6.12678,46.2082],[6.12631,46.20809],[6.12602,46.2081],[6.12575,46.20808],[6.12192,46.20722],[6.12123,46.20709],[6.12124,46.20704],[6.12118,46.20688],[6.12161,46.205],[6.12162,46.20374],[6.12153,46.20252],[6.12185,46.20192],[6.12543,46.20307],[6.12824,46.20361],[6.12986,46.20373],[6.13155,46.20348],[6.13173,46.20348],[6.13227,46.20351],[6.13262,46.20355],[6.13297,46.20363],[6.13349,46.20378],[6.13365,46.20385],[6.13385,46.20396],[6.13442,46.20431],[6.13554,46.20509],[6.13596,46.20525],[6.13625,46.20532],[6.1367,46.20538],[6.137,46.20538],[6.13956,46.20525],[6.13974,46.20525],[6.13949,46.20696]]]}},{"type":"Feature","properties":{"zone":"M","district":"Servette Petit-Saconnex","rawHours":"","rawFee":"","note":"Secteur Nations — Macaron-Zone seit 2002-04-15","windows":[],"fee":{"kind":"unknown"},"unmodelledRules":[],"sourceDefect":null,"scheduleUnknown":true,"spaces":539,"maxStayMinutes":null,"maxStay":"1h","maxStayShare":1,"maxStayValues":["1h","90min","30min"],"chargingPoints":0,"carsharing":0},"geometry":{"type":"Polygon","coordinates":[[[6.13863,46.22198],[6.13801,46.22223],[6.13777,46.22199],[6.13592,46.22051],[6.13343,46.21858],[6.13144,46.21695],[6.13109,46.21662],[6.13088,46.21631],[6.13065,46.21584],[6.13422,46.21466],[6.13492,46.21436],[6.13554,46.21405],[6.13564,46.21402],[6.13637,46.21358],[6.1367,46.21341],[6.13704,46.21316],[6.13758,46.21268],[6.13819,46.21211],[6.13845,46.21198],[6.13949,46.21164],[6.13971,46.21158],[6.13986,46.21156],[6.14066,46.21148],[6.14095,46.21141],[6.14153,46.2112],[6.1417,46.21129],[6.14183,46.21131],[6.14292,46.21114],[6.14376,46.21209],[6.14447,46.21507],[6.14442,46.22031],[6.14222,46.22079],[6.141,46.22114],[6.14036,46.22134],[6.13995,46.22151],[6.13896,46.22197],[6.13889,46.22186],[6.13863,46.22198]]]}},{"type":"Feature","properties":{"zone":"E","district":"Eaux-Vives Cité","rawHours":"","rawFee":"","note":"Secteur Tranchées Rive — Macaron-Zone seit 1999-07-01","windows":[],"fee":{"kind":"unknown"},"unmodelledRules":[],"sourceDefect":null,"scheduleUnknown":true,"spaces":1875,"maxStayMinutes":null,"maxStay":"1h","maxStayShare":1,"maxStayValues":["1h","90min","30min"],"chargingPoints":0,"carsharing":0},"geometry":{"type":"Polygon","coordinates":[[[6.16036,46.20115],[6.15666,46.20265],[6.15642,46.20271],[6.15408,46.2032],[6.15338,46.20153],[6.15298,46.201],[6.14951,46.19858],[6.14869,46.19851],[6.14844,46.19853],[6.14797,46.19875],[6.14778,46.19896],[6.14762,46.19888],[6.14595,46.19768],[6.14528,46.19723],[6.14497,46.197],[6.14561,46.19673],[6.14591,46.19666],[6.1497,46.1964],[6.14981,46.19637],[6.14991,46.19632],[6.15064,46.1958],[6.15365,46.19698],[6.15499,46.19796],[6.15525,46.19813],[6.15551,46.19828],[6.15624,46.19859],[6.15658,46.19879],[6.15689,46.19902],[6.1573,46.19945],[6.15753,46.19965],[6.15811,46.20005],[6.15859,46.20032],[6.15969,46.20082],[6.16036,46.20115]]]}},{"type":"Feature","properties":{"zone":"O","district":"Acacias Bâtie","rawHours":"","rawFee":"","note":"Secteur Acacias - Vernets — Macaron-Zone seit 2003-08-01","windows":[],"fee":{"kind":"unknown"},"unmodelledRules":[],"sourceDefect":null,"scheduleUnknown":true,"spaces":552,"maxStayMinutes":null,"maxStay":"1h","maxStayShare":1,"maxStayValues":["1h","90min"],"chargingPoints":0,"carsharing":0},"geometry":{"type":"Polygon","coordinates":[[[6.14027,46.19022],[6.13987,46.19105],[6.13926,46.19245],[6.13904,46.19281],[6.13867,46.19316],[6.13846,46.19332],[6.13673,46.19428],[6.13563,46.19487],[6.13427,46.19365],[6.13378,46.19327],[6.13411,46.19301],[6.13442,46.19274],[6.13573,46.19146],[6.13487,46.19101],[6.13565,46.19019],[6.13562,46.19018],[6.13596,46.18984],[6.13599,46.18985],[6.13701,46.18881],[6.13739,46.18885],[6.13956,46.18876],[6.1397,46.18864],[6.14092,46.18895],[6.14027,46.19022]]]}},{"type":"Feature","properties":{"zone":"I","district":"Plainpalais Jonction","rawHours":"","rawFee":"","note":"Secteur Jonction — Macaron-Zone seit 2000-03-01","windows":[],"fee":{"kind":"unknown"},"unmodelledRules":[],"sourceDefect":null,"scheduleUnknown":true,"spaces":1418,"maxStayMinutes":null,"maxStay":"1h","maxStayShare":1,"maxStayValues":["1h","90min","30min"],"chargingPoints":0,"carsharing":0},"geometry":{"type":"Polygon","coordinates":[[[6.1399,46.20423],[6.13609,46.20423],[6.13552,46.20411],[6.13435,46.20354],[6.13354,46.20323],[6.13299,46.20305],[6.13216,46.20284],[6.13187,46.20279],[6.13094,46.20271],[6.13032,46.20269],[6.12911,46.20271],[6.1282,46.20267],[6.1279,46.20264],[6.12578,46.20234],[6.12441,46.20206],[6.12234,46.20145],[6.12236,46.20137],[6.12578,46.20077],[6.12692,46.20048],[6.12843,46.19991],[6.12912,46.19957],[6.13086,46.19855],[6.13464,46.19641],[6.13715,46.19511],[6.13885,46.19421],[6.13936,46.19384],[6.13983,46.19343],[6.14171,46.19515],[6.14182,46.19536],[6.14188,46.19559],[6.14207,46.19862],[6.14204,46.19882],[6.14196,46.199],[6.1406,46.20094],[6.14052,46.20102],[6.14037,46.20129],[6.1399,46.20423]]]}},{"type":"Feature","properties":{"zone":"C","district":"Eaux-Vives Cité","rawHours":"","rawFee":"","note":"Secteur Bastions — Macaron-Zone seit 1997-06-01","windows":[],"fee":{"kind":"unknown"},"unmodelledRules":[],"sourceDefect":null,"scheduleUnknown":true,"spaces":274,"maxStayMinutes":null,"maxStay":"90min","maxStayShare":1,"maxStayValues":["90min","1h","30min"],"chargingPoints":0,"carsharing":0},"geometry":{"type":"Polygon","coordinates":[[[6.14052,46.20102],[6.1406,46.20094],[6.14116,46.20014],[6.14327,46.20084],[6.14371,46.2011],[6.14385,46.2014],[6.1439,46.20158],[6.14398,46.20202],[6.144,46.20224],[6.14402,46.2023],[6.14409,46.20237],[6.14441,46.20254],[6.14444,46.20259],[6.14451,46.20283],[6.14464,46.20308],[6.14517,46.20308],[6.14527,46.20311],[6.14533,46.20316],[6.14537,46.20323],[6.14538,46.2033],[6.14535,46.20344],[6.14534,46.20358],[6.14568,46.20402],[6.14604,46.2044],[6.14627,46.20485],[6.14581,46.20487],[6.14481,46.20481],[6.14399,46.20463],[6.14187,46.20424],[6.1399,46.20423],[6.14037,46.20129],[6.14052,46.20102]]]}},{"type":"Feature","properties":{"zone":"H","district":"Champel","rawHours":"","rawFee":"","note":"Secteur Cluse — Macaron-Zone seit 2000-07-01","windows":[],"fee":{"kind":"unknown"},"unmodelledRules":[],"sourceDefect":null,"scheduleUnknown":true,"spaces":2035,"maxStayMinutes":null,"maxStay":"1h","maxStayShare":1,"maxStayValues":["1h","90min","30min"],"chargingPoints":0,"carsharing":0},"geometry":{"type":"Polygon","coordinates":[[[6.14553,46.1974],[6.14595,46.19768],[6.14762,46.19888],[6.14774,46.19893],[6.14738,46.19948],[6.14729,46.19968],[6.1472,46.19979],[6.14612,46.20032],[6.14385,46.2014],[6.14371,46.2011],[6.14327,46.20084],[6.14116,46.20014],[6.14196,46.199],[6.14204,46.19882],[6.14207,46.19869],[6.14207,46.19855],[6.14187,46.19551],[6.14182,46.19536],[6.14171,46.19515],[6.13983,46.19343],[6.13991,46.19336],[6.14039,46.19247],[6.14233,46.18846],[6.14257,46.18807],[6.14283,46.18783],[6.14302,46.1877],[6.14323,46.18759],[6.14372,46.18741],[6.14431,46.18725],[6.14491,46.18714],[6.14536,46.1871],[6.14581,46.18709],[6.14758,46.18719],[6.14785,46.18749],[6.14809,46.18783],[6.14829,46.18817],[6.14843,46.1885],[6.14863,46.18916],[6.14876,46.18972],[6.14901,46.1916],[6.14909,46.19179],[6.14921,46.19195],[6.14937,46.19207],[6.15,46.19244],[6.15025,46.19265],[6.15039,46.19281],[6.1505,46.19298],[6.15058,46.19316],[6.1506,46.1933],[6.15147,46.19329],[6.15177,46.19327],[6.1522,46.19319],[6.15292,46.19286],[6.15343,46.19258],[6.15376,46.19343],[6.15377,46.19358],[6.15374,46.19368],[6.15369,46.19376],[6.15357,46.19386],[6.15347,46.19389],[6.15202,46.19452],[6.15182,46.19462],[6.15162,46.19474],[6.15145,46.19488],[6.15129,46.19504],[6.15065,46.1958],[6.14991,46.19632],[6.14981,46.19637],[6.1497,46.1964],[6.14591,46.19666],[6.14561,46.19673],[6.14497,46.197],[6.14555,46.19741],[6.14553,46.1974]]]}},{"type":"Feature","properties":{"zone":"B","district":"Eaux-Vives Cité","rawHours":"","rawFee":"","note":"Secteur Cité — Macaron-Zone seit 1999-06-01","windows":[],"fee":{"kind":"unknown"},"unmodelledRules":[],"sourceDefect":null,"scheduleUnknown":true,"spaces":191,"maxStayMinutes":null,"maxStay":"90min","maxStayShare":1,"maxStayValues":["90min","30min","1h"],"chargingPoints":0,"carsharing":0},"geometry":{"type":"Polygon","coordinates":[[[6.15412,46.20329],[6.14965,46.20418],[6.14652,46.20483],[6.14627,46.20485],[6.14604,46.2044],[6.14568,46.20402],[6.14534,46.20358],[6.14535,46.20344],[6.14538,46.2033],[6.14537,46.20323],[6.14533,46.20316],[6.14527,46.20311],[6.14517,46.20308],[6.14464,46.20308],[6.14451,46.20283],[6.14444,46.20259],[6.14441,46.20254],[6.14409,46.20237],[6.14402,46.2023],[6.144,46.20224],[6.14398,46.20202],[6.1439,46.20158],[6.14385,46.2014],[6.14612,46.20032],[6.1472,46.19979],[6.14729,46.19968],[6.14738,46.19948],[6.14774,46.19893],[6.14778,46.19896],[6.14792,46.19879],[6.14797,46.19875],[6.14806,46.1987],[6.14844,46.19853],[6.14869,46.19851],[6.14951,46.19858],[6.15298,46.201],[6.15338,46.20153],[6.15412,46.20329]]]}},{"type":"Feature","properties":{"zone":"G","district":"Champel","rawHours":"","rawFee":"","note":"Secteur Champel — Macaron-Zone seit 2000-12-01","windows":[],"fee":{"kind":"unknown"},"unmodelledRules":[],"sourceDefect":null,"scheduleUnknown":true,"spaces":1719,"maxStayMinutes":null,"maxStay":"1h","maxStayShare":1,"maxStayValues":["1h","90min","2h","30min"],"chargingPoints":0,"carsharing":0},"geometry":{"type":"Polygon","coordinates":[[[6.16415,46.1923],[6.16046,46.19397],[6.16034,46.19393],[6.16031,46.19391],[6.16007,46.19402],[6.15971,46.19421],[6.15769,46.19514],[6.15622,46.19578],[6.15537,46.19613],[6.15359,46.19679],[6.15379,46.19692],[6.15365,46.19698],[6.15065,46.1958],[6.15129,46.19504],[6.15145,46.19488],[6.15172,46.19468],[6.15202,46.19452],[6.15347,46.19389],[6.15357,46.19386],[6.15369,46.19376],[6.15374,46.19368],[6.15377,46.19358],[6.15376,46.19343],[6.15343,46.19258],[6.15292,46.19286],[6.1522,46.19319],[6.15177,46.19326],[6.15145,46.19329],[6.1506,46.1933],[6.15058,46.19316],[6.1505,46.19298],[6.15039,46.19281],[6.15025,46.19265],[6.15,46.19244],[6.14931,46.19204],[6.14916,46.1919],[6.14906,46.19173],[6.14901,46.1916],[6.14876,46.18972],[6.14863,46.18916],[6.1485,46.18872],[6.14834,46.18828],[6.14816,46.18794],[6.14793,46.1876],[6.14758,46.18719],[6.14798,46.18722],[6.15218,46.18713],[6.15265,46.18709],[6.15312,46.18702],[6.15358,46.18692],[6.15403,46.1868],[6.15426,46.18673],[6.15452,46.18655],[6.15488,46.18625],[6.1551,46.18603],[6.15529,46.18579],[6.15555,46.1854],[6.15569,46.18512],[6.15586,46.18468],[6.15672,46.18476],[6.1567,46.18512],[6.15671,46.18521],[6.15675,46.18529],[6.15768,46.1863],[6.15784,46.18622],[6.15747,46.18585],[6.15856,46.18522],[6.16048,46.18429],[6.1612,46.18404],[6.16162,46.1845],[6.16185,46.18529],[6.16176,46.18614],[6.16186,46.1872],[6.16248,46.18792],[6.16318,46.18827],[6.16431,46.18851],[6.16573,46.18845],[6.16661,46.18823],[6.16777,46.18778],[6.16757,46.18888],[6.16754,46.18897],[6.16762,46.18906],[6.16757,46.18916],[6.16714,46.18985],[6.16654,46.19068],[6.16632,46.19091],[6.16584,46.19134],[6.16547,46.19161],[6.16493,46.19192],[6.16415,46.1923]]]}},{"type":"Feature","properties":{"zone":"F","district":"Champel","rawHours":"","rawFee":"","note":"Secteur Florissant — Macaron-Zone seit 2000-06-01","windows":[],"fee":{"kind":"unknown"},"unmodelledRules":[],"sourceDefect":null,"scheduleUnknown":true,"spaces":1126,"maxStayMinutes":null,"maxStay":"1h","maxStayShare":0.988,"maxStayValues":["1h","90min"],"chargingPoints":0,"carsharing":0},"geometry":{"type":"Polygon","coordinates":[[[6.17484,46.20391],[6.17434,46.20394],[6.17367,46.20391],[6.17335,46.20387],[6.17274,46.20374],[6.17059,46.20318],[6.17029,46.20307],[6.16994,46.20291],[6.16948,46.20265],[6.16774,46.2016],[6.16505,46.20002],[6.1636,46.20001],[6.16305,46.2001],[6.16267,46.20022],[6.16036,46.20115],[6.15969,46.20082],[6.15859,46.20032],[6.15827,46.20015],[6.15795,46.19995],[6.15742,46.19955],[6.15719,46.19934],[6.15699,46.19911],[6.15669,46.19886],[6.15636,46.19865],[6.15612,46.19854],[6.15551,46.19828],[6.15512,46.19805],[6.15365,46.19698],[6.15379,46.19692],[6.15359,46.19679],[6.15537,46.19613],[6.15622,46.19578],[6.15769,46.19514],[6.15971,46.19421],[6.16007,46.19402],[6.16031,46.19391],[6.16034,46.19393],[6.16046,46.19397],[6.16415,46.1923],[6.16493,46.19192],[6.16547,46.19161],[6.16584,46.19134],[6.16632,46.19091],[6.16654,46.19068],[6.16714,46.18985],[6.16757,46.18916],[6.16739,46.18961],[6.16736,46.18973],[6.16735,46.18981],[6.16737,46.18987],[6.16745,46.18997],[6.16838,46.19058],[6.16903,46.19107],[6.16931,46.19123],[6.17064,46.19228],[6.17251,46.19372],[6.17259,46.19381],[6.17263,46.19389],[6.17237,46.19396],[6.17209,46.1941],[6.1714,46.19435],[6.17135,46.19439],[6.17134,46.19446],[6.17124,46.19451],[6.17246,46.1958],[6.17314,46.19658],[6.17345,46.197],[6.17435,46.19831],[6.17445,46.19851],[6.17467,46.19917],[6.17465,46.19918],[6.17473,46.19944],[6.17469,46.19948],[6.17422,46.19957],[6.17432,46.19984],[6.17498,46.20053],[6.17582,46.20133],[6.17373,46.20248],[6.17385,46.20261],[6.17339,46.20296],[6.17414,46.20345],[6.17423,46.20341],[6.17451,46.20366],[6.17448,46.20368],[6.17476,46.20387],[6.17479,46.20387],[6.17484,46.20391]]]}},{"type":"Feature","properties":{"zone":"D","district":"Eaux-Vives Cité","rawHours":"","rawFee":"","note":"Secteur Eaux-Vives — Macaron-Zone seit 1998-11-01","windows":[],"fee":{"kind":"unknown"},"unmodelledRules":[],"sourceDefect":null,"scheduleUnknown":true,"spaces":1577,"maxStayMinutes":null,"maxStay":"1h","maxStayShare":1,"maxStayValues":["1h","90min","30min"],"chargingPoints":0,"carsharing":0},"geometry":{"type":"Polygon","coordinates":[[[6.16878,46.20315],[6.1683,46.20347],[6.16739,46.20372],[6.16253,46.20685],[6.1625,46.20689],[6.16254,46.20693],[6.16336,46.20743],[6.16369,46.2076],[6.16737,46.20926],[6.16716,46.20946],[6.16468,46.20836],[6.16383,46.20809],[6.1623,46.2077],[6.16183,46.20753],[6.16137,46.20734],[6.15633,46.20493],[6.15467,46.20416],[6.15432,46.20376],[6.15408,46.2032],[6.15642,46.20271],[6.15666,46.20265],[6.16267,46.20022],[6.16318,46.20008],[6.1636,46.20001],[6.16505,46.20002],[6.16774,46.2016],[6.16948,46.20265],[6.16919,46.20288],[6.16878,46.20315]]]}},{"type":"Feature","properties":{"zone":"L","district":"Pâquis Sécheron","rawHours":"","rawFee":"","note":"Secteur Pâquis — Macaron-Zone seit 1999-01-01","windows":[],"fee":{"kind":"unknown"},"unmodelledRules":[],"sourceDefect":null,"scheduleUnknown":true,"spaces":1299,"maxStayMinutes":null,"maxStay":"1h","maxStayShare":1,"maxStayValues":["1h","90min","30min"],"chargingPoints":0,"carsharing":0},"geometry":{"type":"Polygon","coordinates":[[[6.14902,46.20789],[6.1527,46.21126],[6.15277,46.21134],[6.15282,46.21145],[6.15285,46.21155],[6.15285,46.21167],[6.15173,46.21577],[6.15147,46.21637],[6.15117,46.21685],[6.15105,46.21701],[6.15066,46.21747],[6.15046,46.21767],[6.14936,46.2187],[6.14901,46.21881],[6.14795,46.21933],[6.14751,46.21951],[6.14706,46.21967],[6.1466,46.21982],[6.14614,46.21994],[6.14442,46.22031],[6.14447,46.21507],[6.14376,46.21209],[6.14296,46.21118],[6.14329,46.21109],[6.14359,46.21095],[6.14378,46.21082],[6.14435,46.21038],[6.14902,46.20789]]]}},{"type":"Feature","properties":{"zone":"N","district":"Pâquis Sécheron","rawHours":"","rawFee":"","note":"Secteur Sécheron — Macaron-Zone seit 2002-01-01","windows":[],"fee":{"kind":"unknown"},"unmodelledRules":[],"sourceDefect":null,"scheduleUnknown":true,"spaces":115,"maxStayMinutes":null,"maxStay":"1h","maxStayShare":1,"maxStayValues":["1h","90min","30min"],"chargingPoints":0,"carsharing":0},"geometry":{"type":"Polygon","coordinates":[[[6.14901,46.21881],[6.14904,46.21896],[6.1499,46.22025],[6.15008,46.22068],[6.15,46.221],[6.14932,46.2224],[6.14847,46.22423],[6.14755,46.22407],[6.14584,46.22369],[6.14131,46.22291],[6.14075,46.22283],[6.14019,46.2228],[6.1399,46.22282],[6.13947,46.22289],[6.1394,46.22273],[6.13896,46.22197],[6.13995,46.22151],[6.14036,46.22134],[6.141,46.22114],[6.14222,46.22079],[6.14614,46.21994],[6.14683,46.21975],[6.14751,46.21951],[6.14795,46.21933],[6.14901,46.21881]]]}},{"type":"Feature","properties":{"zone":"A","district":"Grottes Saint-Gervais","rawHours":"","rawFee":"","note":"Secteur Saint-Gervais — Macaron-Zone seit 1998-06-01","windows":[],"fee":{"kind":"unknown"},"unmodelledRules":[],"sourceDefect":null,"scheduleUnknown":true,"spaces":404,"maxStayMinutes":null,"maxStay":"90min","maxStayShare":1,"maxStayValues":["90min","30min"],"chargingPoints":0,"carsharing":0},"geometry":{"type":"Polygon","coordinates":[[[6.13974,46.20525],[6.14043,46.20528],[6.14112,46.20533],[6.14181,46.2054],[6.14249,46.20549],[6.14321,46.20566],[6.14482,46.20613],[6.14751,46.20685],[6.14808,46.20703],[6.14902,46.20789],[6.14435,46.21038],[6.14378,46.21082],[6.1437,46.21073],[6.1395,46.20707],[6.13949,46.20696],[6.13974,46.20525]]]}},{"type":"Feature","properties":{"zone":"Q","district":"Saint-Jean Charmilles","rawHours":"","rawFee":"","note":"Secteur Vieusseux-Charmilles-Jardins d'Aïre — Macaron-Zone seit 2004-10-01","windows":[],"fee":{"kind":"unknown"},"unmodelledRules":[],"sourceDefect":null,"scheduleUnknown":true,"spaces":1360,"maxStayMinutes":null,"maxStay":"1h","maxStayShare":1,"maxStayValues":["1h","90min"],"chargingPoints":0,"carsharing":0},"geometry":{"type":"Polygon","coordinates":[[[6.11332,46.20944],[6.11249,46.20864],[6.11193,46.2078],[6.1107,46.20605],[6.11043,46.20598],[6.11033,46.20587],[6.11021,46.2057],[6.11036,46.20487],[6.11082,46.20494],[6.11294,46.20509],[6.11365,46.20525],[6.11579,46.20582],[6.12124,46.20704],[6.12123,46.20709],[6.12192,46.20722],[6.12575,46.20808],[6.12602,46.2081],[6.12631,46.20809],[6.12678,46.2082],[6.12677,46.2085],[6.12686,46.20934],[6.1269,46.20953],[6.12704,46.21103],[6.12718,46.21145],[6.12727,46.21164],[6.12822,46.2127],[6.12845,46.21291],[6.1292,46.21374],[6.12927,46.21385],[6.12853,46.21415],[6.12801,46.21434],[6.12721,46.21459],[6.12668,46.21472],[6.11856,46.21624],[6.11793,46.21523],[6.11627,46.21295],[6.11631,46.21287],[6.11602,46.21248],[6.11569,46.2121],[6.11505,46.21149],[6.11469,46.21108],[6.11456,46.21069],[6.11332,46.20944]]]}}]}