{"type":"FeatureCollection","features":[{"type":"Feature","properties":{"name":"Umweltzone"},"geometry":{"type":"MultiPolygon","coordinates":[[[[13.37114,52.54457],[13.37009,52.54415],[13.36992,52.54377],[13.37014,52.54193],[13.37004,52.54171],[13.36975,52.54148],[13.36801,52.54078],[13.3603,52.53721],[13.35675,52.5382],[13.35554,52.53766],[13.35412,52.53733],[13.34525,52.53653],[13.32325,52.53379],[13.319,52.53314],[13.29799,52.53028],[13.29446,52.52985],[13.29101,52.52965],[13.2883,52.52943],[13.28647,52.52905],[13.28494,52.52843],[13.28373,52.52771],[13.28281,52.52683],[13.28235,52.52589],[13.28248,52.52523],[13.28474,52.51816],[13.28555,52.51643],[13.28666,52.51423],[13.28689,52.51337],[13.28693,52.51293],[13.28689,52.51279],[13.28661,52.51232],[13.28627,52.51121],[13.28594,52.51047],[13.2845,52.5104],[13.2843,52.50999],[13.2837,52.50918],[13.28358,52.50904],[13.28343,52.50899],[13.28208,52.50891],[13.28208,52.50874],[13.28336,52.50882],[13.2836,52.50886],[13.28467,52.50861],[13.2834,52.50669],[13.28336,52.50666],[13.28305,52.50607],[13.28297,52.50582],[13.28288,52.50521],[13.2829,52.50456],[13.28283,52.50426],[13.28274,52.50408],[13.28235,52.50354],[13.2831,52.502],[13.28442,52.50032],[13.28516,52.49933],[13.28609,52.49859],[13.28824,52.49727],[13.29159,52.49524],[13.29402,52.49341],[13.29498,52.49248],[13.29681,52.49111],[13.3001,52.4887],[13.30248,52.48693],[13.30821,52.48258],[13.30923,52.48228],[13.30996,52.48203],[13.31249,52.48043],[13.31302,52.48069],[13.31354,52.48033],[13.31439,52.47987],[13.31507,52.47959],[13.31664,52.47911],[13.31752,52.47878],[13.31809,52.4788],[13.31857,52.4789],[13.319,52.47896],[13.31965,52.47893],[13.32014,52.47887],[13.32042,52.47887],[13.32041,52.47814],[13.32091,52.47806],[13.32531,52.47798],[13.3266,52.47797],[13.32829,52.478],[13.32826,52.47848],[13.32818,52.4788],[13.32994,52.4788],[13.33573,52.47877],[13.33668,52.47884],[13.33814,52.47899],[13.34008,52.47911],[13.34092,52.4791],[13.34279,52.4789],[13.34418,52.47867],[13.345,52.47839],[13.34578,52.47805],[13.34684,52.47815],[13.34892,52.47866],[13.35072,52.47912],[13.35276,52.47955],[13.35481,52.47985],[13.35665,52.47991],[13.35815,52.47982],[13.35994,52.47939],[13.3623,52.47845],[13.36358,52.47757],[13.36436,52.47647],[13.36515,52.47524],[13.36602,52.47377],[13.36671,52.47311],[13.36834,52.47226],[13.37001,52.4717],[13.37157,52.47147],[13.37372,52.47145],[13.37819,52.47146],[13.38132,52.4712],[13.38497,52.47081],[13.38649,52.47052],[13.39129,52.46924],[13.39479,52.46803],[13.4017,52.46541],[13.4037,52.46479],[13.40525,52.46456],[13.4066,52.4645],[13.4149,52.46537],[13.42903,52.46701],[13.43544,52.46794],[13.43808,52.46831],[13.44298,52.46921],[13.44653,52.46967],[13.44998,52.47023],[13.45213,52.4706],[13.45385,52.47119],[13.45494,52.47178],[13.45573,52.47254],[13.45615,52.47383],[13.45792,52.48084],[13.45864,52.48548],[13.45742,52.48644],[13.45381,52.48895],[13.455,52.48986],[13.45748,52.49167],[13.45762,52.4919],[13.45787,52.49216],[13.46101,52.49443],[13.46352,52.49651],[13.46421,52.49716],[13.46465,52.49765],[13.46547,52.49884],[13.46645,52.50115],[13.46645,52.50143],[13.46637,52.5021],[13.46656,52.50249],[13.46689,52.50276],[13.46711,52.50283],[13.46728,52.50282],[13.46788,52.50273],[13.46907,52.50252],[13.46921,52.50288],[13.46963,52.50385],[13.46987,52.50421],[13.47095,52.50541],[13.47033,52.50603],[13.47012,52.5062],[13.47207,52.50825],[13.47404,52.51048],[13.47555,52.51218],[13.47499,52.51421],[13.47479,52.51461],[13.47357,52.51659],[13.46979,52.522],[13.46905,52.5227],[13.46796,52.52325],[13.46666,52.52362],[13.46374,52.52417],[13.46148,52.52479],[13.45927,52.52564],[13.45797,52.52656],[13.4558,52.52863],[13.45466,52.52975],[13.45015,52.53439],[13.44814,52.53636],[13.44691,52.53718],[13.43993,52.5401],[13.43745,52.5409],[13.43314,52.54248],[13.4292,52.54358],[13.42738,52.54428],[13.42786,52.54545],[13.42453,52.54693],[13.42367,52.54591],[13.42129,52.54725],[13.42024,52.5477],[13.41585,52.54922],[13.41401,52.54958],[13.41175,52.54972],[13.40817,52.54981],[13.40181,52.54948],[13.39864,52.54937],[13.3914,52.5492],[13.38954,52.54922],[13.38447,52.54878],[13.3799,52.54793],[13.37752,52.54728],[13.37114,52.54457]]]]}}]}