{"type":"FeatureCollection","features":[{"type":"Feature","properties":{"name":"Mitte","bezirk":"Ortsbezirk 01"},"geometry":{"type":"Polygon","coordinates":[[[9.4762,51.32147],[9.47589,51.32172],[9.47386,51.32131],[9.47066,51.32119],[9.47038,51.321],[9.47037,51.32023],[9.47641,51.32005],[9.47861,51.31975],[9.48008,51.31936],[9.47983,51.3185],[9.47972,51.3173],[9.48063,51.31723],[9.48016,51.31349],[9.47962,51.31328],[9.47994,51.31182],[9.47843,51.3119],[9.47822,51.31006],[9.47861,51.30942],[9.4799,51.30959],[9.48285,51.30963],[9.48343,51.30934],[9.48332,51.30917],[9.48511,51.30879],[9.48507,51.30868],[9.48623,51.30851],[9.48635,51.30879],[9.48895,51.30841],[9.49076,51.30847],[9.49157,51.30875],[9.49196,51.30911],[9.49286,51.30892],[9.4979,51.31192],[9.49855,51.3116],[9.49909,51.31191],[9.50009,51.31202],[9.5003,51.31192],[9.50087,51.3125],[9.50082,51.31263],[9.50438,51.31385],[9.50476,51.31357],[9.50675,51.31512],[9.50191,51.31758],[9.49593,51.31902],[9.49192,51.32029],[9.48924,51.32019],[9.48877,51.31982],[9.48885,51.31969],[9.4883,51.31985],[9.48802,51.32052],[9.4879,51.32157],[9.48593,51.32148],[9.48129,51.32088],[9.4796,51.32095],[9.47743,51.32161],[9.4762,51.32147]]]}},{"type":"Feature","properties":{"name":"Südstadt","bezirk":"Ortsbezirk 02"},"geometry":{"type":"Polygon","coordinates":[[[9.50385,51.31191],[9.50431,51.31317],[9.50476,51.31357],[9.50438,51.31385],[9.50082,51.31263],[9.50087,51.3125],[9.5003,51.31192],[9.50009,51.31202],[9.49909,51.31191],[9.49855,51.3116],[9.4979,51.31192],[9.49286,51.30892],[9.49196,51.30911],[9.49114,51.30857],[9.48988,51.30837],[9.48635,51.30879],[9.48623,51.30851],[9.48507,51.30868],[9.48511,51.30879],[9.48332,51.30917],[9.48343,51.30934],[9.48285,51.30963],[9.4799,51.30959],[9.47861,51.30942],[9.47885,51.30928],[9.47882,51.30911],[9.47734,51.30463],[9.47701,51.30419],[9.47706,51.30398],[9.47671,51.30384],[9.47476,51.30401],[9.4748,51.30414],[9.47441,51.30419],[9.47447,51.30442],[9.47401,51.30448],[9.47385,51.30388],[9.47251,51.304],[9.47897,51.3001],[9.48084,51.29825],[9.48061,51.29783],[9.48002,51.29804],[9.47895,51.29689],[9.47815,51.297],[9.47787,51.29631],[9.47666,51.29637],[9.47315,51.29698],[9.47046,51.29689],[9.46896,51.29721],[9.46842,51.29708],[9.46746,51.29716],[9.46765,51.29746],[9.46528,51.29803],[9.46397,51.29751],[9.47274,51.29553],[9.47413,51.29494],[9.47499,51.29419],[9.47555,51.29331],[9.47638,51.28966],[9.47739,51.2887],[9.47856,51.28813],[9.48015,51.28779],[9.48135,51.28775],[9.48985,51.28851],[9.48857,51.292],[9.48872,51.29278],[9.48934,51.29349],[9.49064,51.29441],[9.49172,51.29483],[9.49647,51.29557],[9.49813,51.29607],[9.50089,51.29786],[9.50178,51.29876],[9.50209,51.29993],[9.50173,51.30405],[9.50371,51.31034],[9.50385,51.31191]]]}},{"type":"Feature","properties":{"name":"Vorderer Westen","bezirk":"Ortsbezirk 03"},"geometry":{"type":"Polygon","coordinates":[[[9.46095,51.32034],[9.45875,51.32043],[9.45873,51.32059],[9.4584,51.32062],[9.4584,51.32079],[9.45326,51.32017],[9.4527,51.32044],[9.44982,51.31947],[9.44781,51.31828],[9.44652,51.31676],[9.44597,51.31524],[9.44611,51.3135],[9.47994,51.31182],[9.47962,51.31328],[9.48016,51.31349],[9.48063,51.31723],[9.47972,51.3173],[9.47983,51.3185],[9.48008,51.31936],[9.47813,51.31984],[9.47534,51.32015],[9.46095,51.32034]]]}},{"type":"Feature","properties":{"name":"Wehlheiden","bezirk":"Ortsbezirk 04"},"geometry":{"type":"Polygon","coordinates":[[[9.45922,51.31286],[9.44943,51.31333],[9.44937,51.31288],[9.44879,51.31279],[9.44871,51.3125],[9.44871,51.31184],[9.4497,51.31049],[9.45017,51.30935],[9.44988,51.30915],[9.44978,51.30877],[9.45051,51.30748],[9.45159,51.30656],[9.45507,51.30293],[9.45912,51.29919],[9.46104,51.29822],[9.46397,51.29751],[9.46528,51.29803],[9.46765,51.29746],[9.46746,51.29716],[9.46842,51.29708],[9.46896,51.29721],[9.47046,51.29689],[9.47315,51.29698],[9.47704,51.29633],[9.47787,51.29631],[9.47815,51.297],[9.47895,51.29689],[9.48002,51.29804],[9.48061,51.29783],[9.48084,51.29825],[9.47897,51.3001],[9.47251,51.304],[9.47385,51.30388],[9.47401,51.30448],[9.47447,51.30442],[9.47441,51.30419],[9.4748,51.30414],[9.47476,51.30401],[9.47671,51.30384],[9.47706,51.30398],[9.47701,51.30419],[9.47734,51.30463],[9.47882,51.30911],[9.47885,51.30928],[9.47851,51.30952],[9.47822,51.31006],[9.47843,51.3119],[9.45922,51.31286]]]}},{"type":"Feature","properties":{"name":"Bad Wilhelmshöhe","bezirk":"Ortsbezirk 05"},"geometry":{"type":"Polygon","coordinates":[[[9.40102,51.3305],[9.37952,51.33057],[9.37971,51.33027],[9.37965,51.32974],[9.37979,51.32958],[9.38041,51.32987],[9.38072,51.32976],[9.38073,51.3292],[9.38031,51.32922],[9.38048,51.32916],[9.38032,51.32882],[9.38071,51.3287],[9.38069,51.32856],[9.38013,51.32855],[9.38015,51.32827],[9.38065,51.32811],[9.38027,51.32791],[9.38024,51.32779],[9.38058,51.32774],[9.3803,51.32731],[9.38056,51.32706],[9.38108,51.32709],[9.38033,51.32631],[9.38052,51.32609],[9.38036,51.32564],[9.38054,51.3254],[9.38031,51.32495],[9.38035,51.32474],[9.37991,51.32455],[9.3797,51.32408],[9.37923,51.32372],[9.37921,51.32342],[9.37891,51.3233],[9.38198,51.31973],[9.38113,51.31945],[9.3796,51.31809],[9.37915,51.31835],[9.3778,51.31825],[9.37755,51.31748],[9.36815,51.31685],[9.36124,51.31519],[9.35566,51.31614],[9.35568,51.313],[9.35634,51.31192],[9.35678,51.31014],[9.35744,51.30952],[9.35432,51.3082],[9.35102,51.30713],[9.35118,51.30698],[9.35494,51.30609],[9.35773,51.30608],[9.35732,51.30452],[9.3574,51.30366],[9.35837,51.30243],[9.36286,51.2994],[9.36285,51.29925],[9.41528,51.29907],[9.41618,51.29949],[9.41661,51.29997],[9.41675,51.30153],[9.41735,51.3024],[9.42167,51.30347],[9.42804,51.30394],[9.43267,51.30491],[9.43271,51.30422],[9.43231,51.30415],[9.43243,51.30285],[9.43336,51.30287],[9.43421,51.30269],[9.43558,51.30191],[9.43909,51.30196],[9.44137,51.30227],[9.44336,51.30202],[9.44465,51.30209],[9.44789,51.30237],[9.44665,51.30331],[9.45463,51.3035],[9.4533,51.30469],[9.45159,51.30656],[9.45077,51.30716],[9.45002,51.30823],[9.44978,51.30877],[9.44988,51.30915],[9.45017,51.30935],[9.4497,51.31049],[9.44871,51.31184],[9.44879,51.31279],[9.44937,51.31288],[9.44943,51.31333],[9.44611,51.3135],[9.44594,51.31504],[9.44649,51.31671],[9.44616,51.31677],[9.44471,51.318],[9.44368,51.31827],[9.44323,51.31808],[9.44275,51.31837],[9.44036,51.31883],[9.43749,51.31875],[9.43647,51.31891],[9.43612,51.31905],[9.4349,51.32012],[9.42957,51.32023],[9.4282,51.31999],[9.42598,51.32037],[9.42206,51.31916],[9.42103,51.31926],[9.42064,51.32067],[9.42269,51.32079],[9.42218,51.32378],[9.42121,51.32368],[9.41538,51.32202],[9.4133,51.32213],[9.41109,51.3227],[9.40939,51.32215],[9.40808,51.32224],[9.40641,51.32211],[9.40403,51.32146],[9.40104,51.31957],[9.40081,51.3196],[9.40061,51.32031],[9.40094,51.32092],[9.40102,51.3305]]]}},{"type":"Feature","properties":{"name":"Brasselsberg","bezirk":"Ortsbezirk 06"},"geometry":{"type":"MultiPolygon","coordinates":[[[[9.41635,51.29964],[9.41528,51.29907],[9.36285,51.29925],[9.3628,51.29722],[9.36322,51.29655],[9.36372,51.29515],[9.3635,51.29405],[9.3624,51.29257],[9.36832,51.29309],[9.36892,51.29331],[9.36968,51.29325],[9.36988,51.2917],[9.37003,51.29166],[9.37005,51.29143],[9.36772,51.28761],[9.36757,51.28602],[9.36797,51.28628],[9.36835,51.28614],[9.36841,51.28576],[9.36974,51.28512],[9.37031,51.2846],[9.37562,51.28144],[9.3761,51.2813],[9.37619,51.28173],[9.37654,51.28207],[9.37672,51.28197],[9.37957,51.28334],[9.38174,51.28479],[9.38199,51.2854],[9.38223,51.28556],[9.38702,51.28541],[9.38865,51.28554],[9.38899,51.28518],[9.38807,51.28457],[9.38771,51.28402],[9.38732,51.28271],[9.38764,51.28229],[9.389,51.28196],[9.38928,51.28207],[9.38974,51.2814],[9.39064,51.2813],[9.39122,51.28148],[9.39267,51.28137],[9.39361,51.28164],[9.3962,51.2818],[9.39705,51.28161],[9.39723,51.28136],[9.39712,51.28114],[9.3984,51.2803],[9.39801,51.27943],[9.40056,51.2803],[9.40155,51.28032],[9.40475,51.27953],[9.40498,51.27954],[9.40549,51.28008],[9.40463,51.27846],[9.40575,51.27797],[9.40817,51.27796],[9.41043,51.27859],[9.41026,51.28163],[9.42168,51.28175],[9.4221,51.28332],[9.42164,51.28347],[9.42175,51.28432],[9.42153,51.28474],[9.42161,51.28529],[9.42173,51.28523],[9.4223,51.28668],[9.42371,51.28844],[9.4239,51.28936],[9.42338,51.28935],[9.42245,51.2902],[9.42233,51.29086],[9.42256,51.29113],[9.42127,51.29569],[9.42162,51.29634],[9.42098,51.2975],[9.41741,51.29821],[9.41724,51.29868],[9.41635,51.29964]]],[[[9.43242,51.30291],[9.43231,51.30415],[9.43271,51.30422],[9.43267,51.30491],[9.42804,51.30394],[9.42082,51.30332],[9.41735,51.3024],[9.41675,51.30153],[9.41669,51.30022],[9.42351,51.30041],[9.4238,51.29826],[9.42402,51.29804],[9.4262,51.29815],[9.42623,51.298],[9.43091,51.29824],[9.43089,51.29882],[9.43107,51.29887],[9.43086,51.29972],[9.43124,51.30022],[9.43057,51.30053],[9.43122,51.30084],[9.43103,51.30092],[9.43229,51.30109],[9.43231,51.30132],[9.43277,51.30133],[9.43279,51.3019],[9.43339,51.30188],[9.43371,51.30205],[9.43363,51.30217],[9.43416,51.3027],[9.43242,51.30291]]]]}},{"type":"Feature","properties":{"name":"Süsterfeld-Helleböhn","bezirk":"Ortsbezirk 07"},"geometry":{"type":"Polygon","coordinates":[[[9.45567,51.30236],[9.45463,51.3035],[9.45345,51.30353],[9.44665,51.30331],[9.44789,51.30237],[9.44336,51.30202],[9.44137,51.30227],[9.43909,51.30196],[9.43558,51.30191],[9.43416,51.3027],[9.43363,51.30217],[9.43371,51.30205],[9.43339,51.30188],[9.43279,51.3019],[9.43277,51.30133],[9.43231,51.30132],[9.43229,51.30109],[9.43103,51.30092],[9.43122,51.30084],[9.43057,51.30053],[9.43644,51.29828],[9.4358,51.29772],[9.43537,51.29623],[9.43503,51.29619],[9.4355,51.29494],[9.43606,51.29493],[9.43738,51.29439],[9.43762,51.29415],[9.43783,51.29313],[9.43845,51.29227],[9.43963,51.2911],[9.4412,51.2907],[9.4415,51.29075],[9.44274,51.2903],[9.44666,51.28825],[9.4489,51.28534],[9.44935,51.28554],[9.4496,51.28596],[9.44935,51.28606],[9.44967,51.28761],[9.45009,51.28811],[9.45111,51.28878],[9.44841,51.29103],[9.44928,51.29124],[9.45182,51.29142],[9.45643,51.29152],[9.45988,51.29143],[9.45982,51.29336],[9.4592,51.29534],[9.45604,51.29972],[9.45668,51.2999],[9.4588,51.29943],[9.45567,51.30236]]]}},{"type":"Feature","properties":{"name":"Harleshausen","bezirk":"Ortsbezirk 08"},"geometry":{"type":"Polygon","coordinates":[[[9.4286,51.35185],[9.4248,51.35352],[9.42217,51.35417],[9.41363,51.3525],[9.4082,51.35191],[9.40447,51.35223],[9.4032,51.3516],[9.4002,51.35084],[9.39974,51.35019],[9.39912,51.34975],[9.39848,51.35005],[9.39735,51.35114],[9.39752,51.35278],[9.39741,51.35323],[9.39678,51.35376],[9.39387,51.35311],[9.3931,51.3528],[9.39229,51.35196],[9.39194,51.35177],[9.39075,51.35182],[9.38971,51.35086],[9.38935,51.35087],[9.38877,51.35157],[9.38799,51.35175],[9.38725,51.35138],[9.3871,51.35069],[9.38663,51.35049],[9.38574,51.35054],[9.38494,51.35083],[9.38393,51.3507],[9.38184,51.34872],[9.38098,51.34704],[9.38051,51.34695],[9.38022,51.34639],[9.37956,51.34581],[9.37915,51.34515],[9.3786,51.34469],[9.37829,51.34465],[9.37759,51.346],[9.3782,51.34695],[9.37835,51.34788],[9.37819,51.34858],[9.37704,51.34982],[9.37609,51.35028],[9.37425,51.35052],[9.37284,51.35033],[9.37156,51.34993],[9.37095,51.34998],[9.36906,51.34865],[9.36965,51.34848],[9.37049,51.34893],[9.37103,51.34867],[9.37065,51.34765],[9.37136,51.34635],[9.37226,51.34546],[9.37245,51.34381],[9.37232,51.34191],[9.3729,51.34197],[9.37379,51.34146],[9.37339,51.34138],[9.3734,51.34089],[9.37273,51.34024],[9.37268,51.33986],[9.37245,51.33957],[9.37271,51.33913],[9.37232,51.33878],[9.37254,51.33843],[9.37247,51.3382],[9.37326,51.33766],[9.37368,51.33764],[9.37389,51.33746],[9.37388,51.33717],[9.37412,51.33705],[9.37388,51.33682],[9.37424,51.33649],[9.37413,51.33582],[9.37436,51.33526],[9.37416,51.33493],[9.37473,51.33463],[9.37459,51.33448],[9.37473,51.33435],[9.37532,51.33425],[9.37551,51.33384],[9.37584,51.33371],[9.37612,51.33331],[9.37657,51.3332],[9.37721,51.33274],[9.37759,51.33217],[9.37793,51.33203],[9.37791,51.33161],[9.3786,51.33165],[9.37931,51.33111],[9.37952,51.33057],[9.40102,51.3305],[9.40094,51.32092],[9.40061,51.32031],[9.40081,51.3196],[9.40104,51.31957],[9.40403,51.32146],[9.40641,51.32211],[9.40808,51.32224],[9.40939,51.32215],[9.41109,51.3227],[9.41297,51.3223],[9.41335,51.3236],[9.41285,51.3264],[9.41247,51.32683],[9.41044,51.32785],[9.41031,51.32808],[9.412,51.32853],[9.41451,51.32857],[9.41784,51.32808],[9.41864,51.32848],[9.42012,51.3285],[9.42302,51.32994],[9.42491,51.33008],[9.42756,51.33002],[9.42887,51.32873],[9.42878,51.32748],[9.42945,51.32761],[9.43223,51.32913],[9.433,51.33054],[9.43817,51.33012],[9.44223,51.3294],[9.44204,51.32981],[9.44316,51.3298],[9.44334,51.32993],[9.4438,51.32981],[9.44374,51.32967],[9.44585,51.32942],[9.44581,51.32917],[9.45031,51.32893],[9.45067,51.33001],[9.45161,51.33177],[9.45549,51.33122],[9.45685,51.33066],[9.46218,51.33017],[9.46348,51.32985],[9.46266,51.32864],[9.46424,51.32864],[9.46415,51.32812],[9.46279,51.32587],[9.46372,51.32545],[9.46682,51.32469],[9.46724,51.32574],[9.47028,51.32907],[9.47185,51.33162],[9.47208,51.33279],[9.47235,51.33311],[9.47,51.3341],[9.46997,51.33388],[9.46968,51.3342],[9.46717,51.33479],[9.46663,51.33473],[9.46608,51.33444],[9.46591,51.33464],[9.46557,51.33441],[9.46323,51.33471],[9.4625,51.33488],[9.46182,51.33528],[9.4615,51.33584],[9.4608,51.33638],[9.45846,51.33639],[9.45785,51.33682],[9.45714,51.33688],[9.45673,51.33716],[9.45656,51.3375],[9.45643,51.33889],[9.45496,51.33976],[9.45251,51.33978],[9.45115,51.34029],[9.44827,51.34017],[9.44815,51.3404],[9.45006,51.34271],[9.44923,51.34276],[9.44291,51.34125],[9.44237,51.34096],[9.4434,51.34209],[9.44392,51.34294],[9.44402,51.34356],[9.44388,51.34555],[9.44409,51.3469],[9.44329,51.34679],[9.44311,51.34757],[9.4397,51.34774],[9.44114,51.3488],[9.43882,51.34985],[9.43419,51.35076],[9.43131,51.35066],[9.4286,51.35185]]]}},{"type":"Feature","properties":{"name":"Kirchditmold","bezirk":"Ortsbezirk 09"},"geometry":{"type":"Polygon","coordinates":[[[9.45186,51.33173],[9.45154,51.3317],[9.45053,51.3297],[9.45031,51.32893],[9.44581,51.32917],[9.44585,51.32942],[9.44374,51.32967],[9.4438,51.32981],[9.44334,51.32993],[9.44316,51.3298],[9.44204,51.32981],[9.44223,51.3294],[9.43817,51.33012],[9.433,51.33054],[9.43223,51.32913],[9.42945,51.32761],[9.42878,51.32748],[9.42887,51.32873],[9.42756,51.33002],[9.42491,51.33008],[9.42302,51.32994],[9.42012,51.3285],[9.41864,51.32848],[9.41784,51.32808],[9.41451,51.32857],[9.412,51.32853],[9.41031,51.32808],[9.41044,51.32785],[9.41247,51.32683],[9.41279,51.32652],[9.41335,51.3236],[9.41297,51.32245],[9.41316,51.32215],[9.41538,51.32202],[9.42121,51.32368],[9.42218,51.32378],[9.42269,51.32079],[9.42064,51.32067],[9.42103,51.31926],[9.42206,51.31916],[9.42598,51.32037],[9.4282,51.31999],[9.42957,51.32023],[9.4349,51.32012],[9.43612,51.31905],[9.43647,51.31891],[9.43749,51.31875],[9.44036,51.31883],[9.44275,51.31837],[9.44323,51.31808],[9.44368,51.31827],[9.44471,51.318],[9.44616,51.31677],[9.44649,51.31671],[9.448,51.31843],[9.45017,51.31962],[9.45295,51.32054],[9.45649,51.3212],[9.45823,51.32176],[9.45939,51.32231],[9.46031,51.32309],[9.46296,51.32602],[9.46341,51.32675],[9.46328,51.3268],[9.46415,51.32812],[9.46424,51.32864],[9.46266,51.32864],[9.46348,51.32985],[9.46218,51.33017],[9.45685,51.33066],[9.45549,51.33122],[9.45186,51.33173]]]}},{"type":"Feature","properties":{"name":"Rothenditmold","bezirk":"Ortsbezirk 10"},"geometry":{"type":"Polygon","coordinates":[[[9.48047,51.33991],[9.47931,51.34005],[9.47691,51.33962],[9.47528,51.33977],[9.47357,51.33967],[9.47367,51.33865],[9.47353,51.33865],[9.4734,51.33618],[9.47257,51.33351],[9.47208,51.33279],[9.47185,51.33162],[9.47028,51.32907],[9.46724,51.32574],[9.46682,51.32469],[9.46372,51.32545],[9.46279,51.32587],[9.46011,51.32288],[9.45912,51.32216],[9.45649,51.3212],[9.4527,51.32044],[9.45326,51.32017],[9.4584,51.32079],[9.4584,51.32062],[9.45873,51.32059],[9.45875,51.32043],[9.45933,51.32038],[9.47043,51.32016],[9.47038,51.321],[9.47056,51.32117],[9.47386,51.32131],[9.47589,51.32172],[9.47629,51.32146],[9.47763,51.32158],[9.4799,51.32091],[9.48234,51.32096],[9.48546,51.32138],[9.48557,51.3226],[9.48653,51.32295],[9.48791,51.32305],[9.48876,51.3234],[9.4882,51.32387],[9.49238,51.32466],[9.48875,51.32764],[9.48442,51.33046],[9.4839,51.33098],[9.48795,51.33146],[9.48774,51.33189],[9.48784,51.33367],[9.48603,51.33387],[9.48647,51.33457],[9.48639,51.33529],[9.48885,51.33586],[9.48766,51.33646],[9.48885,51.33723],[9.48858,51.33742],[9.48896,51.33778],[9.48246,51.33973],[9.48047,51.33991]]]}},{"type":"Feature","properties":{"name":"Nord-Holland","bezirk":"Ortsbezirk 11"},"geometry":{"type":"Polygon","coordinates":[[[9.48394,51.34615],[9.4839,51.34627],[9.48358,51.34631],[9.47893,51.34576],[9.47576,51.3459],[9.47521,51.34566],[9.4733,51.34548],[9.47338,51.33981],[9.47357,51.33967],[9.47528,51.33977],[9.47691,51.33962],[9.47931,51.34005],[9.48246,51.33973],[9.48896,51.33778],[9.48858,51.33742],[9.48885,51.33723],[9.48766,51.33646],[9.48885,51.33586],[9.48639,51.33529],[9.48647,51.33457],[9.48603,51.33387],[9.48784,51.33367],[9.48774,51.33189],[9.48795,51.33146],[9.4839,51.33098],[9.48442,51.33046],[9.48875,51.32764],[9.49238,51.32466],[9.4882,51.32387],[9.48876,51.3234],[9.48791,51.32305],[9.48579,51.32275],[9.48549,51.32251],[9.48546,51.32138],[9.4879,51.32157],[9.48818,51.32005],[9.4883,51.31985],[9.48885,51.31969],[9.48877,51.31982],[9.48924,51.32019],[9.49192,51.32029],[9.49593,51.31902],[9.50026,51.31805],[9.5022,51.32103],[9.50472,51.32053],[9.50727,51.31956],[9.50773,51.32017],[9.50844,51.32223],[9.50795,51.32225],[9.50804,51.32295],[9.50691,51.32319],[9.50728,51.32433],[9.507,51.32588],[9.5062,51.32703],[9.50604,51.32699],[9.50504,51.32829],[9.50582,51.3286],[9.50588,51.32875],[9.50545,51.32929],[9.50492,51.32915],[9.50466,51.32955],[9.50395,51.32967],[9.50463,51.33078],[9.5008,51.3315],[9.50076,51.3317],[9.50165,51.33187],[9.50118,51.33226],[9.50196,51.33258],[9.50144,51.33307],[9.50142,51.33369],[9.50128,51.33369],[9.50104,51.33432],[9.50119,51.33435],[9.50112,51.33461],[9.50061,51.33453],[9.50223,51.33496],[9.50272,51.33523],[9.50392,51.33608],[9.50541,51.33766],[9.50492,51.3383],[9.50476,51.33917],[9.50378,51.33861],[9.50389,51.3421],[9.5033,51.34206],[9.50384,51.3426],[9.50397,51.34331],[9.50448,51.34366],[9.50435,51.34414],[9.50197,51.34347],[9.50043,51.34429],[9.49959,51.34384],[9.49992,51.34329],[9.4985,51.34271],[9.49833,51.34277],[9.49577,51.34153],[9.49435,51.34069],[9.49445,51.34055],[9.49363,51.34024],[9.4937,51.33956],[9.49356,51.33897],[9.48604,51.34168],[9.48571,51.34206],[9.48575,51.3423],[9.4851,51.34253],[9.48521,51.34282],[9.4848,51.34306],[9.48493,51.34352],[9.48452,51.34448],[9.48414,51.34461],[9.48365,51.34522],[9.48418,51.34551],[9.48413,51.34582],[9.48377,51.34595],[9.48394,51.34615]]]}},{"type":"Feature","properties":{"name":"Philippinenhof-Warteberg","bezirk":"Ortsbezirk 12"},"geometry":{"type":"Polygon","coordinates":[[[9.50125,51.34918],[9.4996,51.35142],[9.49774,51.35189],[9.49669,51.35191],[9.49694,51.35252],[9.49615,51.35264],[9.49472,51.35175],[9.493,51.35099],[9.49203,51.35025],[9.49059,51.34873],[9.48995,51.34847],[9.48878,51.34838],[9.48864,51.34809],[9.48803,51.34777],[9.48778,51.34734],[9.48728,51.34703],[9.48628,51.34675],[9.48604,51.34653],[9.48557,51.34635],[9.48526,51.34649],[9.48467,51.34626],[9.48425,51.34632],[9.48393,51.34614],[9.48377,51.34595],[9.48413,51.34582],[9.48418,51.34551],[9.48365,51.34522],[9.48468,51.3442],[9.48494,51.34341],[9.4848,51.34306],[9.48521,51.34282],[9.4851,51.34253],[9.48569,51.34235],[9.48571,51.34206],[9.48613,51.34161],[9.49356,51.33897],[9.4937,51.33956],[9.49363,51.34024],[9.49445,51.34055],[9.49435,51.34069],[9.49577,51.34153],[9.49833,51.34277],[9.4985,51.34271],[9.49992,51.34329],[9.49959,51.34384],[9.50043,51.34429],[9.50197,51.34347],[9.50435,51.34414],[9.50422,51.3446],[9.50445,51.34616],[9.50442,51.34713],[9.50303,51.34687],[9.50125,51.34918]]]}},{"type":"Feature","properties":{"name":"Fasanenhof","bezirk":"Ortsbezirk 13"},"geometry":{"type":"Polygon","coordinates":[[[9.5234,51.34032],[9.52215,51.34047],[9.52169,51.34147],[9.51915,51.34178],[9.51846,51.34102],[9.51319,51.3423],[9.51096,51.34254],[9.51061,51.34316],[9.51053,51.34398],[9.50385,51.34278],[9.5033,51.34206],[9.50389,51.3421],[9.50378,51.33861],[9.50476,51.33917],[9.50492,51.3383],[9.50541,51.33766],[9.50392,51.33608],[9.50272,51.33523],[9.50223,51.33496],[9.50061,51.33453],[9.50112,51.33461],[9.50119,51.33435],[9.50104,51.33432],[9.50128,51.33369],[9.50142,51.33369],[9.50144,51.33307],[9.50196,51.33258],[9.50118,51.33226],[9.50165,51.33187],[9.50076,51.3317],[9.5008,51.3315],[9.50463,51.33078],[9.50395,51.32967],[9.50466,51.32955],[9.50492,51.32915],[9.50545,51.32929],[9.50588,51.32875],[9.50582,51.3286],[9.50504,51.32829],[9.50604,51.32699],[9.5062,51.32703],[9.507,51.32588],[9.50717,51.32509],[9.50832,51.32536],[9.50901,51.32533],[9.50964,51.3267],[9.50993,51.32785],[9.51326,51.32723],[9.51327,51.32749],[9.51543,51.32699],[9.51552,51.32713],[9.5159,51.327],[9.51614,51.32731],[9.51706,51.32688],[9.51781,51.32718],[9.51752,51.32746],[9.51946,51.32824],[9.5208,51.32724],[9.52259,51.32832],[9.52429,51.32886],[9.52387,51.32938],[9.52205,51.32962],[9.52088,51.33045],[9.52105,51.33062],[9.52092,51.33113],[9.5211,51.3316],[9.52167,51.33742],[9.52105,51.33757],[9.52167,51.33759],[9.52234,51.33911],[9.52303,51.33901],[9.5234,51.34032]]]}},{"type":"Feature","properties":{"name":"Wesertor","bezirk":"Ortsbezirk 14"},"geometry":{"type":"Polygon","coordinates":[[[9.52433,51.3275],[9.52293,51.32847],[9.5208,51.32724],[9.51946,51.32824],[9.5192,51.32822],[9.51752,51.32746],[9.51781,51.32718],[9.51706,51.32688],[9.51614,51.32731],[9.5159,51.327],[9.51552,51.32713],[9.51543,51.32699],[9.51327,51.32749],[9.51326,51.32723],[9.50993,51.32785],[9.50964,51.3267],[9.50901,51.32533],[9.50832,51.32536],[9.50717,51.32509],[9.50727,51.32427],[9.50691,51.32319],[9.50804,51.32295],[9.50795,51.32225],[9.50844,51.32223],[9.50773,51.32017],[9.50727,51.31956],[9.50472,51.32053],[9.5022,51.32103],[9.50026,51.31805],[9.50268,51.31726],[9.50675,51.31512],[9.50836,51.31647],[9.50926,51.31684],[9.51253,51.31708],[9.51546,51.31709],[9.52042,51.31819],[9.52122,51.31849],[9.52231,51.31941],[9.52395,51.3235],[9.52431,51.324],[9.52547,51.32454],[9.52644,51.32467],[9.5293,51.32404],[9.52874,51.3268],[9.52902,51.32694],[9.5278,51.32756],[9.52505,51.32701],[9.52433,51.3275]]]}},{"type":"Feature","properties":{"name":"Wolfsanger-Hasenhecke","bezirk":"Ortsbezirk 15"},"geometry":{"type":"MultiPolygon","coordinates":[[[[9.55782,51.35032],[9.55727,51.35182],[9.55597,51.3521],[9.55327,51.35237],[9.5512,51.35294],[9.54962,51.35275],[9.54923,51.35253],[9.54786,51.35158],[9.54677,51.35051],[9.54682,51.34988],[9.54576,51.34925],[9.54443,51.34915],[9.54126,51.34334],[9.53974,51.33958],[9.53817,51.3378],[9.53512,51.33878],[9.53014,51.33826],[9.52928,51.33996],[9.52924,51.34081],[9.52476,51.34017],[9.5234,51.34032],[9.52303,51.33901],[9.52234,51.33911],[9.52167,51.33759],[9.52105,51.33757],[9.52167,51.33742],[9.5211,51.3316],[9.52092,51.33113],[9.52105,51.33062],[9.52088,51.33045],[9.52194,51.32966],[9.52398,51.3293],[9.52429,51.32886],[9.52293,51.32847],[9.52505,51.32701],[9.5278,51.32756],[9.52902,51.32694],[9.52874,51.3268],[9.5293,51.32404],[9.53299,51.32243],[9.53792,51.32191],[9.5397,51.32211],[9.54016,51.32226],[9.54075,51.32282],[9.54085,51.32366],[9.54012,51.32445],[9.53954,51.32537],[9.53962,51.32643],[9.54059,51.32711],[9.54387,51.32828],[9.54865,51.32908],[9.55131,51.32845],[9.5543,51.32834],[9.55823,51.32855],[9.56111,51.32796],[9.56362,51.32773],[9.56622,51.32828],[9.567,51.32859],[9.56779,51.32906],[9.56895,51.33012],[9.56942,51.3308],[9.56978,51.33221],[9.57008,51.33434],[9.56966,51.33804],[9.56931,51.33893],[9.56801,51.34007],[9.56592,51.34244],[9.55921,51.34745],[9.55861,51.34838],[9.55782,51.35032]]],[[[9.54857,51.35808],[9.54875,51.35816],[9.54813,51.35795],[9.54857,51.35808]]],[[[9.53447,51.36934],[9.53389,51.3694],[9.53186,51.36882],[9.53147,51.36826],[9.53105,51.36648],[9.53069,51.36581],[9.53095,51.36573],[9.53031,51.36482],[9.53032,51.36448],[9.53102,51.36353],[9.53101,51.36309],[9.529,51.36425],[9.52894,51.36409],[9.5303,51.36324],[9.53047,51.36331],[9.53106,51.36303],[9.53105,51.36349],[9.53177,51.3628],[9.53262,51.36235],[9.53659,51.36084],[9.53749,51.36061],[9.53835,51.36084],[9.54065,51.36073],[9.54538,51.35953],[9.54533,51.35887],[9.5431,51.35913],[9.54497,51.35881],[9.54558,51.35853],[9.5457,51.35952],[9.54856,51.3588],[9.54858,51.3592],[9.5496,51.36042],[9.55083,51.36227],[9.54585,51.36352],[9.5435,51.36441],[9.54319,51.36465],[9.54252,51.366],[9.54082,51.36787],[9.53938,51.3688],[9.53848,51.36904],[9.53447,51.36934]]]]}},{"type":"Feature","properties":{"name":"Bettenhausen","bezirk":"Ortsbezirk 16"},"geometry":{"type":"Polygon","coordinates":[[[9.53162,51.31757],[9.53065,51.31812],[9.52707,51.31635],[9.52678,51.31582],[9.52686,51.31401],[9.52135,51.31429],[9.52014,51.31414],[9.51761,51.3135],[9.51766,51.31318],[9.51736,51.31239],[9.51742,51.31144],[9.51601,51.30982],[9.51808,51.30906],[9.51813,51.30738],[9.51872,51.30577],[9.51859,51.30428],[9.51802,51.3027],[9.51711,51.30153],[9.51598,51.30042],[9.5157,51.30055],[9.51366,51.29899],[9.51485,51.29858],[9.51644,51.29745],[9.52433,51.29494],[9.52524,51.29459],[9.52604,51.29401],[9.52851,51.29535],[9.53165,51.29515],[9.53397,51.29728],[9.53507,51.29656],[9.53767,51.29549],[9.53879,51.29693],[9.54322,51.295],[9.54505,51.29463],[9.54717,51.29467],[9.55178,51.29521],[9.55369,51.29511],[9.55574,51.29449],[9.55742,51.29371],[9.55859,51.29296],[9.55935,51.29351],[9.55945,51.29388],[9.56006,51.29451],[9.56039,51.29452],[9.56021,51.29462],[9.56125,51.29595],[9.56229,51.29862],[9.56177,51.30013],[9.56184,51.30115],[9.56095,51.30322],[9.56059,51.30483],[9.55982,51.30612],[9.55927,51.30852],[9.56159,51.30841],[9.56167,51.30858],[9.56139,51.30872],[9.56147,51.30954],[9.5603,51.31032],[9.56058,51.31141],[9.56026,51.3115],[9.55988,51.31138],[9.55964,51.31076],[9.55665,51.31179],[9.55653,51.3118],[9.5564,51.31086],[9.55185,51.31115],[9.54701,51.31205],[9.54657,51.31141],[9.54335,51.31257],[9.54359,51.31282],[9.53899,51.31444],[9.53851,51.31423],[9.53719,51.31536],[9.5355,51.31476],[9.53453,51.31658],[9.53226,51.31591],[9.53243,51.31687],[9.53227,51.3169],[9.53211,51.31769],[9.53162,51.31757]]]}},{"type":"Feature","properties":{"name":"Forstfeld","bezirk":"Ortsbezirk 17"},"geometry":{"type":"Polygon","coordinates":[[[9.53706,51.29574],[9.53507,51.29656],[9.53397,51.29728],[9.53165,51.29515],[9.52851,51.29535],[9.52604,51.29401],[9.52682,51.29327],[9.52755,51.29182],[9.5285,51.29131],[9.52995,51.2902],[9.53277,51.28941],[9.53405,51.28879],[9.53527,51.28857],[9.5351,51.2885],[9.53626,51.28851],[9.53782,51.28818],[9.53808,51.28806],[9.53879,51.28714],[9.53891,51.28726],[9.54031,51.28628],[9.54047,51.28563],[9.54159,51.28506],[9.54374,51.28466],[9.54462,51.28489],[9.545,51.28513],[9.54503,51.28539],[9.54861,51.28723],[9.55196,51.28932],[9.55659,51.29187],[9.55815,51.29296],[9.55843,51.29284],[9.55859,51.29296],[9.55742,51.29371],[9.55574,51.29449],[9.5544,51.29497],[9.5533,51.29517],[9.5514,51.29518],[9.54631,51.29461],[9.54466,51.29467],[9.54322,51.295],[9.53879,51.29693],[9.53767,51.29549],[9.53706,51.29574]]]}},{"type":"Feature","properties":{"name":"Waldau","bezirk":"Ortsbezirk 18"},"geometry":{"type":"Polygon","coordinates":[[[9.50922,51.30251],[9.50781,51.30501],[9.50691,51.30508],[9.5062,51.30364],[9.50455,51.30224],[9.503,51.30266],[9.50306,51.30307],[9.50173,51.30296],[9.50207,51.30031],[9.50201,51.29941],[9.5015,51.29836],[9.50089,51.29786],[9.4987,51.29638],[9.4975,51.29583],[9.49268,51.29503],[9.491,51.2946],[9.48934,51.29349],[9.48872,51.29278],[9.48855,51.29239],[9.48864,51.2916],[9.48981,51.28865],[9.49028,51.28647],[9.49019,51.28411],[9.49676,51.28331],[9.49538,51.27978],[9.49513,51.27866],[9.49542,51.27698],[9.49626,51.27582],[9.50077,51.27586],[9.50721,51.2745],[9.508,51.27471],[9.50811,51.27444],[9.50827,51.27474],[9.51337,51.27448],[9.5135,51.27412],[9.51343,51.27275],[9.52054,51.27256],[9.52148,51.27195],[9.52496,51.27408],[9.52641,51.27476],[9.53138,51.2776],[9.53154,51.2778],[9.53044,51.27766],[9.52817,51.27792],[9.5268,51.27957],[9.52505,51.28105],[9.52353,51.28211],[9.52057,51.28378],[9.52476,51.28539],[9.52781,51.286],[9.53002,51.28704],[9.53224,51.28719],[9.53264,51.28757],[9.53371,51.28784],[9.53527,51.28857],[9.53405,51.28879],[9.53277,51.28941],[9.5305,51.28997],[9.52968,51.29034],[9.5285,51.29131],[9.52755,51.29182],[9.52682,51.29327],[9.52524,51.29459],[9.51644,51.29745],[9.51485,51.29858],[9.51366,51.29899],[9.51288,51.29825],[9.51215,51.2972],[9.51142,51.29727],[9.51159,51.29832],[9.50922,51.30251]]]}},{"type":"Feature","properties":{"name":"Niederzwehren","bezirk":"Ortsbezirk 19"},"geometry":{"type":"Polygon","coordinates":[[[9.47601,51.29158],[9.47575,51.29272],[9.47526,51.29384],[9.4744,51.29475],[9.47341,51.2953],[9.46138,51.29811],[9.45995,51.29869],[9.4588,51.29943],[9.45668,51.2999],[9.45604,51.29972],[9.4592,51.29534],[9.45982,51.29336],[9.45988,51.29143],[9.45643,51.29152],[9.45182,51.29142],[9.44928,51.29124],[9.44841,51.29103],[9.45111,51.28878],[9.45009,51.28811],[9.44967,51.28761],[9.44935,51.28606],[9.4496,51.28596],[9.44935,51.28554],[9.4489,51.28534],[9.44893,51.28511],[9.45077,51.28535],[9.45017,51.28482],[9.45162,51.28491],[9.45172,51.28463],[9.45422,51.28471],[9.45429,51.28424],[9.45724,51.28444],[9.45519,51.2795],[9.45679,51.27935],[9.45766,51.27719],[9.45746,51.27699],[9.45762,51.27627],[9.45848,51.27636],[9.45804,51.27381],[9.45884,51.27379],[9.45833,51.27363],[9.45841,51.27317],[9.45759,51.27178],[9.45767,51.27053],[9.45751,51.2701],[9.45774,51.26998],[9.45323,51.26657],[9.45238,51.2657],[9.45255,51.26556],[9.45256,51.26513],[9.45376,51.26464],[9.45436,51.26383],[9.45512,51.2634],[9.45605,51.26305],[9.46003,51.26216],[9.46525,51.26169],[9.47159,51.2615],[9.47171,51.26137],[9.4722,51.26148],[9.4754,51.26136],[9.47678,51.26103],[9.48271,51.26038],[9.48324,51.26129],[9.48261,51.2614],[9.48285,51.26343],[9.48601,51.26576],[9.48548,51.26627],[9.48611,51.26772],[9.48638,51.26786],[9.48659,51.2683],[9.48688,51.26925],[9.48683,51.26962],[9.49005,51.26981],[9.48994,51.2704],[9.49082,51.27046],[9.49031,51.27331],[9.49059,51.27403],[9.49066,51.27516],[9.49103,51.27623],[9.491,51.2777],[9.49019,51.28386],[9.4903,51.28592],[9.49007,51.28761],[9.48985,51.28851],[9.48135,51.28775],[9.48015,51.28779],[9.47875,51.28807],[9.47739,51.2887],[9.47638,51.28966],[9.47601,51.29158]]]}},{"type":"Feature","properties":{"name":"Oberzwehren","bezirk":"Ortsbezirk 20"},"geometry":{"type":"Polygon","coordinates":[[[9.4505,51.28518],[9.45077,51.28535],[9.44905,51.28511],[9.44806,51.28515],[9.44055,51.28376],[9.44141,51.28348],[9.44118,51.28316],[9.44095,51.28056],[9.43869,51.28063],[9.43865,51.28103],[9.43773,51.281],[9.43782,51.27992],[9.43818,51.2798],[9.43819,51.27943],[9.436,51.27935],[9.43611,51.2793],[9.43489,51.27806],[9.43169,51.27887],[9.42999,51.27764],[9.42922,51.27698],[9.4288,51.27631],[9.42867,51.27558],[9.42883,51.2736],[9.42727,51.27097],[9.42728,51.27005],[9.4282,51.2682],[9.43155,51.26773],[9.43435,51.26758],[9.43405,51.26742],[9.43448,51.26739],[9.43494,51.26753],[9.44017,51.2671],[9.44064,51.26717],[9.4442,51.26631],[9.44816,51.26564],[9.44967,51.26613],[9.45023,51.26614],[9.45141,51.26576],[9.45214,51.26588],[9.45238,51.2657],[9.45437,51.26753],[9.45774,51.26998],[9.45751,51.2701],[9.45767,51.27053],[9.45759,51.27178],[9.45841,51.27317],[9.45833,51.27363],[9.45884,51.27379],[9.45804,51.27381],[9.45848,51.27636],[9.45762,51.27627],[9.45746,51.27699],[9.45766,51.27719],[9.45679,51.27935],[9.45519,51.2795],[9.45724,51.28444],[9.45429,51.28424],[9.45422,51.28471],[9.45172,51.28463],[9.45162,51.28491],[9.45017,51.28482],[9.4505,51.28518]]]}},{"type":"Feature","properties":{"name":"Nordshausen","bezirk":"Ortsbezirk 21"},"geometry":{"type":"Polygon","coordinates":[[[9.44055,51.28376],[9.43943,51.28361],[9.43994,51.28534],[9.43675,51.28626],[9.4311,51.28637],[9.4299,51.28607],[9.42771,51.28654],[9.42339,51.28804],[9.4223,51.28668],[9.42173,51.28523],[9.42161,51.28529],[9.42153,51.28474],[9.42175,51.28432],[9.42164,51.28347],[9.4221,51.28332],[9.42168,51.28175],[9.41026,51.28163],[9.41043,51.27859],[9.40817,51.27796],[9.40575,51.27797],[9.40463,51.27846],[9.4044,51.27819],[9.40924,51.27648],[9.41163,51.27541],[9.41583,51.27288],[9.41707,51.27243],[9.41883,51.27217],[9.41863,51.27115],[9.41914,51.27092],[9.41913,51.27073],[9.41935,51.27081],[9.42248,51.26949],[9.42368,51.26928],[9.42363,51.26912],[9.4282,51.2682],[9.42739,51.26976],[9.42722,51.27068],[9.42747,51.27145],[9.42883,51.2736],[9.42868,51.27581],[9.42903,51.27675],[9.42965,51.27738],[9.43169,51.27887],[9.43489,51.27806],[9.43611,51.2793],[9.436,51.27935],[9.43819,51.27943],[9.43818,51.2798],[9.43782,51.27992],[9.43773,51.281],[9.43865,51.28103],[9.43869,51.28063],[9.44095,51.28056],[9.44118,51.28316],[9.44141,51.28348],[9.44055,51.28376]]]}},{"type":"Feature","properties":{"name":"Jungfernkopf","bezirk":"Ortsbezirk 22"},"geometry":{"type":"Polygon","coordinates":[[[9.4595,51.3438],[9.44844,51.3472],[9.44409,51.3469],[9.44388,51.34555],[9.44402,51.34356],[9.44392,51.34294],[9.4434,51.34209],[9.44237,51.34096],[9.44291,51.34125],[9.44923,51.34276],[9.45006,51.34271],[9.44815,51.3404],[9.44827,51.34017],[9.45115,51.34029],[9.45251,51.33978],[9.45481,51.33981],[9.45634,51.339],[9.45658,51.33743],[9.45714,51.33688],[9.45785,51.33682],[9.45846,51.33639],[9.4608,51.33638],[9.4615,51.33584],[9.46182,51.33528],[9.46268,51.33483],[9.46557,51.33441],[9.46591,51.33464],[9.46608,51.33444],[9.46663,51.33473],[9.46735,51.33477],[9.46968,51.3342],[9.46997,51.33388],[9.47,51.3341],[9.47235,51.33311],[9.4734,51.33618],[9.47353,51.33865],[9.47367,51.33865],[9.47357,51.33967],[9.47338,51.33981],[9.47328,51.34156],[9.4733,51.34548],[9.47212,51.34518],[9.47011,51.34509],[9.4683,51.34248],[9.46609,51.34246],[9.46653,51.34489],[9.46273,51.34507],[9.46241,51.34659],[9.46094,51.34663],[9.46068,51.34517],[9.46008,51.34378],[9.45999,51.34365],[9.4595,51.3438]]]}},{"type":"Feature","properties":{"name":"Unterneustadt","bezirk":"Ortsbezirk 23"},"geometry":{"type":"Polygon","coordinates":[[[9.53016,51.31788],[9.53193,51.31917],[9.53379,51.31949],[9.53467,51.32018],[9.53559,51.32038],[9.53637,51.32079],[9.53687,51.32122],[9.53731,51.32196],[9.53299,51.32243],[9.52964,51.32395],[9.52702,51.32462],[9.52578,51.32461],[9.52478,51.32429],[9.52413,51.32381],[9.52231,51.31941],[9.52122,51.31849],[9.52042,51.31819],[9.51546,51.31709],[9.50996,51.31693],[9.50926,51.31684],[9.50836,51.31647],[9.50431,51.31317],[9.50385,51.31191],[9.50354,51.30973],[9.50183,51.30461],[9.50173,51.30296],[9.50306,51.30307],[9.503,51.30266],[9.50455,51.30224],[9.5062,51.30364],[9.50691,51.30508],[9.50781,51.30501],[9.51159,51.29832],[9.51142,51.29727],[9.51215,51.2972],[9.51325,51.29864],[9.5157,51.30055],[9.51598,51.30042],[9.51711,51.30153],[9.51802,51.3027],[9.51859,51.30428],[9.51872,51.30577],[9.51813,51.30738],[9.51808,51.30906],[9.51601,51.30982],[9.51742,51.31144],[9.51736,51.31239],[9.51766,51.31318],[9.51761,51.3135],[9.52014,51.31414],[9.52135,51.31429],[9.52686,51.31401],[9.52674,51.3145],[9.5269,51.31621],[9.53016,51.31788]]]}},{"type":"Feature","properties":{"name":"Dönchelandschaft (ortsbezirksfrei)","bezirk":"Ortsbezirk 25"},"geometry":{"type":"Polygon","coordinates":[[[9.42387,51.2981],[9.42351,51.30041],[9.41669,51.30022],[9.41635,51.29964],[9.41724,51.29868],[9.41741,51.29821],[9.42098,51.2975],[9.42162,51.29634],[9.42127,51.29569],[9.42256,51.29113],[9.42233,51.29086],[9.42245,51.2902],[9.42338,51.28935],[9.4239,51.28936],[9.42371,51.28844],[9.42339,51.28804],[9.42771,51.28654],[9.4299,51.28607],[9.4311,51.28637],[9.43675,51.28626],[9.43994,51.28534],[9.43943,51.28361],[9.44806,51.28515],[9.44893,51.28511],[9.44886,51.28545],[9.44666,51.28825],[9.44274,51.2903],[9.4415,51.29075],[9.4412,51.2907],[9.43963,51.2911],[9.43845,51.29227],[9.43783,51.29313],[9.43762,51.29415],[9.43738,51.29439],[9.43606,51.29493],[9.4355,51.29494],[9.43503,51.29619],[9.43537,51.29623],[9.4358,51.29772],[9.43644,51.29828],[9.43124,51.30022],[9.43086,51.29972],[9.43107,51.29887],[9.43089,51.29882],[9.43091,51.29824],[9.42623,51.298],[9.4262,51.29815],[9.42387,51.2981]]]}}]}