{"type":"FeatureCollection","features":[{"type":"Feature","properties":{"zone":"BW1","district":"Bad Wilhelmshöhe","rawHours":"","rawFee":"","note":"Bewohnerparkbezirk BW1 (Quartierskürzel) — Beträge nennt die Parkgebührenordnung der Stadt Kassel je Gebührenzone, nicht je Bezirk","windows":[],"fee":{"kind":"unknown"},"unmodelledRules":[],"sourceDefect":null,"scheduleUnknown":true,"spaces":null,"maxStayMinutes":null,"maxStay":null,"maxStayShare":0,"maxStayValues":[],"chargingPoints":0,"carsharing":0},"geometry":{"type":"Polygon","coordinates":[[[9.44594,51.31552],[9.44592,51.3154],[9.44579,51.3154],[9.44571,51.31491],[9.44564,51.31465],[9.44554,51.31459],[9.445,51.3145],[9.44497,51.31431],[9.44492,51.31426],[9.44488,51.31421],[9.44471,51.31359],[9.43219,51.31417],[9.43233,51.31549],[9.43036,51.31591],[9.43006,51.31601],[9.42983,51.3161],[9.42952,51.31627],[9.42927,51.31645],[9.42912,51.31659],[9.42893,51.31685],[9.42896,51.31689],[9.42944,51.3168],[9.43042,51.31658],[9.43028,51.31633],[9.43162,51.31605],[9.432,51.31599],[9.43236,51.31597],[9.43236,51.31594],[9.4329,51.31586],[9.43291,51.31604],[9.43293,51.31611],[9.43365,51.31608],[9.43416,51.31612],[9.43474,51.31622],[9.436,51.31638],[9.43639,51.31641],[9.43685,51.3165],[9.43695,51.31656],[9.43735,51.31665],[9.43768,51.31671],[9.43779,51.31671],[9.43836,51.31682],[9.43866,51.31689],[9.43868,51.31693],[9.43927,51.31708],[9.43945,51.31711],[9.43973,51.31719],[9.44047,51.31732],[9.44046,51.31733],[9.44083,51.31742],[9.44177,51.31778],[9.44201,51.31784],[9.44202,51.31781],[9.44231,51.31788],[9.44239,51.31788],[9.44256,51.31781],[9.44258,51.31779],[9.44256,51.31777],[9.44301,51.31812],[9.4431,51.3181],[9.44264,51.31771],[9.44233,51.31751],[9.44218,51.31743],[9.44251,51.31714],[9.44196,51.31686],[9.44199,51.31682],[9.44212,51.31674],[9.44232,51.31667],[9.44271,51.31675],[9.44287,51.31675],[9.44276,51.31643],[9.44264,51.3163],[9.44316,51.31627],[9.44356,51.31627],[9.44372,51.31622],[9.44377,51.31622],[9.44409,51.31633],[9.44478,51.31631],[9.44502,51.31633],[9.44534,51.3163],[9.44532,51.3162],[9.44533,51.31613],[9.44585,51.31608],[9.44585,51.31594],[9.44581,51.31551],[9.44594,51.31552]]]}},{"type":"Feature","properties":{"zone":"BW2","district":"Bad Wilhelmshöhe","rawHours":"","rawFee":"","note":"Bewohnerparkbezirk BW2 (Quartierskürzel) — Beträge nennt die Parkgebührenordnung der Stadt Kassel je Gebührenzone, nicht je Bezirk","windows":[],"fee":{"kind":"unknown"},"unmodelledRules":[],"sourceDefect":null,"scheduleUnknown":true,"spaces":null,"maxStayMinutes":null,"maxStay":null,"maxStayShare":0,"maxStayValues":[],"chargingPoints":0,"carsharing":0},"geometry":{"type":"Polygon","coordinates":[[[9.44002,51.31258],[9.44003,51.31245],[9.43956,51.31241],[9.43959,51.31225],[9.43861,51.31214],[9.43865,51.31201],[9.43889,51.31204],[9.43895,51.31188],[9.43942,51.31195],[9.43941,51.31182],[9.44011,51.31188],[9.44014,51.31164],[9.44009,51.31142],[9.44006,51.3111],[9.43965,51.31111],[9.4396,51.31057],[9.43939,51.31057],[9.43935,51.30984],[9.43995,51.30982],[9.43991,51.3093],[9.43988,51.30929],[9.4395,51.3093],[9.43951,51.30948],[9.43891,51.30951],[9.43889,51.30928],[9.43835,51.30931],[9.43837,51.30953],[9.43782,51.30955],[9.43779,51.30958],[9.43732,51.3096],[9.4373,51.30959],[9.43727,51.30943],[9.43719,51.30934],[9.43719,51.30929],[9.43686,51.30931],[9.43685,51.30928],[9.43652,51.30929],[9.43606,51.30934],[9.43613,51.30957],[9.43616,51.3096],[9.43611,51.30968],[9.43593,51.30968],[9.43591,51.30964],[9.43526,51.30966],[9.43532,51.31023],[9.43522,51.31024],[9.43524,51.31039],[9.43464,51.31042],[9.43465,51.31058],[9.43456,51.31057],[9.43452,51.31016],[9.43315,51.31022],[9.43319,51.31062],[9.43311,51.31062],[9.43309,51.31066],[9.43305,51.31067],[9.43256,51.31069],[9.43253,51.31031],[9.43224,51.31032],[9.43228,51.3107],[9.43179,51.31072],[9.43175,51.31071],[9.43172,51.31068],[9.43173,51.31073],[9.43108,51.31075],[9.43082,51.31092],[9.43091,51.31097],[9.43077,51.31105],[9.43071,51.31101],[9.43042,51.31118],[9.43061,51.31125],[9.43077,51.31135],[9.43081,51.31143],[9.43092,51.31153],[9.43108,51.31163],[9.4311,51.3117],[9.43128,51.31177],[9.43123,51.3118],[9.43134,51.31185],[9.43152,51.31198],[9.43168,51.3122],[9.43192,51.31244],[9.43194,51.31243],[9.43198,51.31244],[9.43221,51.31244],[9.43283,51.31291],[9.43299,51.31298],[9.43344,51.31296],[9.43348,51.31294],[9.43349,51.31292],[9.43377,51.31332],[9.43432,51.31407],[9.43979,51.31382],[9.43981,51.31338],[9.43964,51.31337],[9.43971,51.31306],[9.43935,51.31303],[9.43937,51.31293],[9.43964,51.31296],[9.43966,51.31286],[9.43975,51.31285],[9.43977,51.31281],[9.43994,51.31283],[9.44002,51.31258]]]}},{"type":"Feature","properties":{"zone":"BW3","district":"Bad Wilhelmshöhe","rawHours":"","rawFee":"","note":"Bewohnerparkbezirk BW3 (Quartierskürzel) — Beträge nennt die Parkgebührenordnung der Stadt Kassel je Gebührenzone, nicht je Bezirk","windows":[],"fee":{"kind":"unknown"},"unmodelledRules":[],"sourceDefect":null,"scheduleUnknown":true,"spaces":null,"maxStayMinutes":null,"maxStay":null,"maxStayShare":0,"maxStayValues":[],"chargingPoints":0,"carsharing":0},"geometry":{"type":"Polygon","coordinates":[[[9.44536,51.31356],[9.44521,51.31228],[9.44614,51.31048],[9.44613,51.31045],[9.44614,51.31046],[9.44632,51.30975],[9.44645,51.30914],[9.44651,51.30896],[9.4466,51.30877],[9.44674,51.30855],[9.4469,51.30837],[9.44628,51.30843],[9.44617,51.30793],[9.44557,51.30798],[9.44555,51.30778],[9.44489,51.30774],[9.4448,51.30788],[9.44254,51.30746],[9.44252,51.30756],[9.44265,51.30763],[9.44264,51.30765],[9.44216,51.3076],[9.44209,51.30797],[9.44207,51.30833],[9.44213,51.30902],[9.44196,51.30903],[9.44197,51.3092],[9.44185,51.30924],[9.44186,51.30938],[9.44135,51.3094],[9.44141,51.30935],[9.44139,51.30916],[9.4402,51.3092],[9.44023,51.3091],[9.43949,51.30912],[9.4395,51.3093],[9.43988,51.30929],[9.43991,51.3093],[9.43995,51.30982],[9.43935,51.30984],[9.43939,51.31057],[9.4396,51.31057],[9.43965,51.31111],[9.44006,51.3111],[9.44009,51.31142],[9.44014,51.31164],[9.44011,51.31188],[9.43941,51.31182],[9.43942,51.31195],[9.43895,51.31188],[9.43889,51.31204],[9.43865,51.31201],[9.43861,51.31214],[9.43959,51.31225],[9.43956,51.31241],[9.44003,51.31245],[9.44002,51.31257],[9.43994,51.31283],[9.43977,51.31281],[9.43975,51.31285],[9.43966,51.31286],[9.43964,51.31296],[9.43937,51.31293],[9.43935,51.31303],[9.43971,51.31306],[9.43964,51.31337],[9.43981,51.31338],[9.43979,51.31382],[9.44536,51.31356]]]}},{"type":"Feature","properties":{"zone":"VW7","district":"Vorderer Westen","rawHours":"","rawFee":"","note":"Bewohnerparkbezirk VW7 (Quartierskürzel) — Beträge nennt die Parkgebührenordnung der Stadt Kassel je Gebührenzone, nicht je Bezirk","windows":[],"fee":{"kind":"unknown"},"unmodelledRules":[],"sourceDefect":null,"scheduleUnknown":true,"spaces":null,"maxStayMinutes":null,"maxStay":null,"maxStayShare":0,"maxStayValues":[],"chargingPoints":0,"carsharing":0},"geometry":{"type":"Polygon","coordinates":[[[9.45481,51.31601],[9.45489,51.31598],[9.4549,51.31595],[9.45489,51.31592],[9.45453,51.31572],[9.45426,51.31591],[9.45413,51.31591],[9.45412,51.31567],[9.45426,51.31557],[9.45341,51.31509],[9.45343,51.31482],[9.45193,51.31485],[9.45173,51.31436],[9.45171,51.31387],[9.45312,51.31384],[9.45338,51.31315],[9.44687,51.31348],[9.44657,51.3144],[9.4465,51.31491],[9.44662,51.31536],[9.44592,51.3154],[9.44594,51.31552],[9.44672,51.31546],[9.44732,51.31652],[9.44778,51.31729],[9.44808,51.31756],[9.44858,51.31798],[9.44917,51.31842],[9.44941,51.31837],[9.44926,51.31835],[9.4491,51.31825],[9.44934,51.31812],[9.4494,51.31801],[9.44968,51.31792],[9.44976,51.31805],[9.45008,51.31795],[9.45024,51.31812],[9.45025,51.31815],[9.45021,51.31817],[9.4512,51.31792],[9.45102,51.31764],[9.45109,51.31762],[9.45101,51.31751],[9.45274,51.31718],[9.45294,51.31748],[9.45317,51.31742],[9.45323,51.31737],[9.45323,51.31734],[9.45372,51.31735],[9.45481,51.31672],[9.45448,51.31649],[9.45465,51.31648],[9.45492,51.31641],[9.45511,51.31654],[9.45554,51.31629],[9.45554,51.31628],[9.45505,51.31601],[9.45481,51.31601]],[[9.4501,51.31343],[9.4506,51.31341],[9.4507,51.31492],[9.45024,51.31493],[9.4501,51.31343]]]}},{"type":"Feature","properties":{"zone":"VW6","district":"Vorderer Westen","rawHours":"","rawFee":"","note":"Bewohnerparkbezirk VW6 (Quartierskürzel) — Beträge nennt die Parkgebührenordnung der Stadt Kassel je Gebührenzone, nicht je Bezirk","windows":[],"fee":{"kind":"unknown"},"unmodelledRules":[],"sourceDefect":null,"scheduleUnknown":true,"spaces":null,"maxStayMinutes":null,"maxStay":null,"maxStayShare":0,"maxStayValues":[],"chargingPoints":0,"carsharing":0},"geometry":{"type":"Polygon","coordinates":[[[9.46069,51.31992],[9.4606,51.31985],[9.4606,51.31978],[9.4602,51.31983],[9.46018,51.31958],[9.4601,51.3191],[9.46032,51.31909],[9.46033,51.31905],[9.4603,51.31901],[9.46019,51.31869],[9.4607,51.31849],[9.46069,51.31806],[9.46055,51.31806],[9.46055,51.3178],[9.46083,51.3178],[9.46085,51.3161],[9.45524,51.31611],[9.45554,51.31628],[9.45554,51.31629],[9.45511,51.31654],[9.45492,51.31641],[9.45465,51.31648],[9.45448,51.31649],[9.45481,51.31672],[9.45372,51.31735],[9.45323,51.31734],[9.45323,51.31737],[9.45317,51.31742],[9.45294,51.31748],[9.45274,51.31718],[9.45101,51.31751],[9.45109,51.31762],[9.45102,51.31764],[9.4512,51.31792],[9.45021,51.31817],[9.45025,51.31815],[9.45024,51.31812],[9.45008,51.31795],[9.44976,51.31805],[9.44968,51.31792],[9.4494,51.31801],[9.44934,51.31812],[9.4491,51.31825],[9.44926,51.31835],[9.44941,51.31837],[9.44917,51.31842],[9.44958,51.31868],[9.45017,51.319],[9.45088,51.31935],[9.45109,51.31945],[9.45179,51.31972],[9.45225,51.31989],[9.45311,51.32011],[9.45376,51.32023],[9.45383,51.32013],[9.45413,51.32021],[9.45513,51.32027],[9.45512,51.32032],[9.45548,51.32035],[9.45692,51.32042],[9.45694,51.32033],[9.45825,51.32046],[9.4586,51.32046],[9.45858,51.32028],[9.45874,51.32026],[9.45875,51.32023],[9.45991,51.32009],[9.46019,51.32004],[9.46069,51.31992]]]}},{"type":"Feature","properties":{"zone":"VW5","district":"Vorderer Westen","rawHours":"","rawFee":"","note":"Bewohnerparkbezirk VW5 (Quartierskürzel) — Beträge nennt die Parkgebührenordnung der Stadt Kassel je Gebührenzone, nicht je Bezirk","windows":[],"fee":{"kind":"unknown"},"unmodelledRules":[],"sourceDefect":null,"scheduleUnknown":true,"spaces":null,"maxStayMinutes":null,"maxStay":null,"maxStayShare":0,"maxStayValues":[],"chargingPoints":0,"carsharing":0},"geometry":{"type":"Polygon","coordinates":[[[9.45381,51.31532],[9.45426,51.31557],[9.45412,51.31567],[9.45413,51.31591],[9.45426,51.31591],[9.45453,51.31572],[9.45489,51.31592],[9.4549,51.31595],[9.45489,51.31598],[9.45481,51.31601],[9.45505,51.31601],[9.45524,51.31611],[9.46369,51.3161],[9.46369,51.316],[9.46377,51.31591],[9.4639,51.31584],[9.46346,51.31545],[9.46352,51.31541],[9.46353,51.3153],[9.4638,51.31534],[9.46379,51.31516],[9.46408,51.31512],[9.46443,51.31515],[9.46444,51.3151],[9.46445,51.31493],[9.46441,51.31452],[9.46422,51.31354],[9.46417,51.31357],[9.46392,51.31358],[9.46392,51.31341],[9.4639,51.31341],[9.46389,51.31336],[9.46392,51.31332],[9.46379,51.31328],[9.46383,51.31316],[9.46394,51.31318],[9.46403,51.31294],[9.4642,51.31292],[9.46428,51.31293],[9.46428,51.31289],[9.46429,51.31289],[9.46429,51.3126],[9.45338,51.31315],[9.45312,51.31384],[9.45171,51.31387],[9.45173,51.31436],[9.45193,51.31485],[9.45343,51.31482],[9.45341,51.31509],[9.45381,51.31532]]]}},{"type":"Feature","properties":{"zone":"VW2","district":"Vorderer Westen","rawHours":"","rawFee":"","note":"Bewohnerparkbezirk VW2 (Quartierskürzel) — Beträge nennt die Parkgebührenordnung der Stadt Kassel je Gebührenzone, nicht je Bezirk","windows":[],"fee":{"kind":"unknown"},"unmodelledRules":[],"sourceDefect":null,"scheduleUnknown":true,"spaces":null,"maxStayMinutes":null,"maxStay":null,"maxStayShare":0,"maxStayValues":[],"chargingPoints":0,"carsharing":0},"geometry":{"type":"Polygon","coordinates":[[[9.47503,51.31984],[9.47544,51.31981],[9.47582,51.3198],[9.47759,51.31965],[9.47787,51.31961],[9.47906,51.31936],[9.47924,51.31933],[9.48,51.31929],[9.48002,51.31938],[9.48075,51.31924],[9.48164,51.31878],[9.48162,51.31866],[9.48156,51.31866],[9.48145,51.31818],[9.48152,51.31818],[9.48146,51.3178],[9.48111,51.31782],[9.4811,51.31776],[9.48067,51.31779],[9.48061,51.31732],[9.48053,51.31732],[9.48049,51.31698],[9.47997,51.31702],[9.47991,51.31669],[9.48045,51.31665],[9.48038,51.3161],[9.48034,51.31613],[9.48009,51.31615],[9.48008,51.31592],[9.47989,51.31593],[9.47986,51.31554],[9.4801,51.31543],[9.4801,51.3154],[9.48023,51.31539],[9.48023,51.31536],[9.48019,51.31534],[9.48029,51.31533],[9.48028,51.31521],[9.47453,51.31577],[9.46943,51.31623],[9.46954,51.31676],[9.46956,51.31676],[9.46956,51.31678],[9.46978,51.31676],[9.46984,51.31703],[9.46962,51.31705],[9.46963,51.31715],[9.46968,51.3173],[9.4699,51.31728],[9.46996,51.31753],[9.46974,51.31755],[9.47001,51.31873],[9.47079,51.31859],[9.47089,51.31858],[9.47099,51.31885],[9.47066,51.31889],[9.47079,51.3193],[9.47085,51.31939],[9.47119,51.31934],[9.47125,51.31949],[9.47131,51.31954],[9.47035,51.32009],[9.47032,51.32015],[9.47027,51.32018],[9.47027,51.32021],[9.47052,51.32019],[9.47061,51.32016],[9.47277,51.31999],[9.47446,51.31989],[9.47503,51.31984]]]}},{"type":"Feature","properties":{"zone":"WH3","district":"Wehlheiden","rawHours":"","rawFee":"","note":"Bewohnerparkbezirk WH3 (Quartierskürzel) — Beträge nennt die Parkgebührenordnung der Stadt Kassel je Gebührenzone, nicht je Bezirk","windows":[],"fee":{"kind":"unknown"},"unmodelledRules":[],"sourceDefect":null,"scheduleUnknown":true,"spaces":null,"maxStayMinutes":null,"maxStay":null,"maxStayShare":0,"maxStayValues":[],"chargingPoints":0,"carsharing":0},"geometry":{"type":"Polygon","coordinates":[[[9.44989,51.30916],[9.44998,51.30921],[9.45027,51.30926],[9.45017,51.30948],[9.45054,51.30954],[9.4505,51.30957],[9.4503,51.30962],[9.45013,51.30977],[9.4499,51.31029],[9.4499,51.31032],[9.44978,51.31034],[9.44959,51.31065],[9.44937,51.31106],[9.44928,51.31106],[9.4492,51.31117],[9.44914,51.31116],[9.44912,51.31118],[9.44908,51.31133],[9.44894,51.31156],[9.44872,51.31183],[9.44871,51.3125],[9.44875,51.31249],[9.44879,51.31279],[9.44902,51.3129],[9.44928,51.31289],[9.44935,51.31336],[9.4579,51.31292],[9.45762,51.30898],[9.45736,51.30896],[9.45743,51.30883],[9.45741,51.30851],[9.4572,51.30851],[9.45708,51.30859],[9.45661,51.3085],[9.45652,51.3078],[9.45602,51.30793],[9.45525,51.30809],[9.45476,51.30824],[9.4546,51.30832],[9.45373,51.30814],[9.45379,51.30802],[9.45355,51.30743],[9.45273,51.30753],[9.45282,51.30793],[9.45271,51.30793],[9.45261,51.30753],[9.45162,51.30746],[9.45154,51.30726],[9.45162,51.30693],[9.45114,51.30689],[9.4508,51.30716],[9.4504,51.30761],[9.45037,51.30785],[9.45008,51.30815],[9.44978,51.30877],[9.44983,51.30906],[9.44989,51.30916]]]}},{"type":"Feature","properties":{"zone":"VW3","district":"Vorderer Westen","rawHours":"","rawFee":"","note":"Bewohnerparkbezirk VW3 (Quartierskürzel) — Beträge nennt die Parkgebührenordnung der Stadt Kassel je Gebührenzone, nicht je Bezirk","windows":[],"fee":{"kind":"unknown"},"unmodelledRules":[],"sourceDefect":null,"scheduleUnknown":true,"spaces":null,"maxStayMinutes":null,"maxStay":null,"maxStayShare":0,"maxStayValues":[],"chargingPoints":0,"carsharing":0},"geometry":{"type":"Polygon","coordinates":[[[9.47524,51.3157],[9.47522,51.3156],[9.47487,51.31564],[9.47478,51.31525],[9.47467,51.31524],[9.47463,51.31503],[9.47466,51.31502],[9.47465,51.31499],[9.4749,51.31498],[9.47489,51.31471],[9.47508,51.31471],[9.47499,51.31431],[9.47494,51.31435],[9.47476,51.31435],[9.47475,51.31425],[9.47467,51.31421],[9.47466,51.31413],[9.47464,51.31413],[9.47464,51.3141],[9.47449,51.31411],[9.47447,51.31394],[9.47434,51.31395],[9.47429,51.31361],[9.47426,51.31353],[9.47486,51.31349],[9.47482,51.31327],[9.47476,51.31324],[9.47461,51.31312],[9.47454,51.31266],[9.47491,51.31264],[9.4749,51.3126],[9.47497,51.31259],[9.47519,51.31267],[9.47537,51.31244],[9.47541,51.31246],[9.47542,51.31245],[9.47536,51.31206],[9.4676,51.31245],[9.46429,51.3126],[9.46429,51.31289],[9.46428,51.31289],[9.46428,51.31293],[9.4642,51.31292],[9.46403,51.31294],[9.46394,51.31318],[9.46383,51.31316],[9.46379,51.31328],[9.46392,51.31332],[9.46389,51.31336],[9.4639,51.31341],[9.46392,51.31341],[9.46392,51.31358],[9.46417,51.31357],[9.46422,51.31354],[9.46441,51.31452],[9.46445,51.31493],[9.46443,51.31515],[9.46408,51.31512],[9.46379,51.31516],[9.4638,51.31534],[9.46353,51.3153],[9.46352,51.31541],[9.46346,51.31545],[9.4639,51.31584],[9.46377,51.31591],[9.46369,51.316],[9.46369,51.3161],[9.46851,51.3161],[9.46863,51.31611],[9.46929,51.31624],[9.4695,51.31623],[9.47524,51.3157]]]}},{"type":"Feature","properties":{"zone":"WH2","district":"Wehlheiden","rawHours":"","rawFee":"","note":"Bewohnerparkbezirk WH2 (Quartierskürzel) — Beträge nennt die Parkgebührenordnung der Stadt Kassel je Gebührenzone, nicht je Bezirk","windows":[],"fee":{"kind":"unknown"},"unmodelledRules":[],"sourceDefect":null,"scheduleUnknown":true,"spaces":null,"maxStayMinutes":null,"maxStay":null,"maxStayShare":0,"maxStayValues":[],"chargingPoints":0,"carsharing":0},"geometry":{"type":"Polygon","coordinates":[[[9.46887,51.30915],[9.46874,51.30804],[9.46873,51.30783],[9.4686,51.30783],[9.46859,51.30797],[9.46855,51.30798],[9.46816,51.30793],[9.46818,51.30778],[9.46817,51.30778],[9.46816,51.30731],[9.46789,51.30728],[9.46719,51.30725],[9.46704,51.30761],[9.4667,51.30755],[9.46659,51.30786],[9.46572,51.30779],[9.46569,51.30775],[9.46448,51.30779],[9.46395,51.30779],[9.46392,51.30795],[9.46403,51.30795],[9.46402,51.30804],[9.46349,51.30807],[9.4631,51.30805],[9.46303,51.30835],[9.4628,51.30833],[9.46288,51.30802],[9.46263,51.30794],[9.46254,51.3083],[9.46223,51.30828],[9.46232,51.30787],[9.46217,51.30784],[9.46182,51.30785],[9.46167,51.3086],[9.46103,51.30857],[9.46104,51.30848],[9.4605,51.30846],[9.46045,51.30885],[9.46042,51.30883],[9.46048,51.30827],[9.46049,51.30812],[9.46013,51.30807],[9.45987,51.30806],[9.45984,51.30837],[9.45798,51.30826],[9.45799,51.30813],[9.45738,51.30815],[9.45743,51.30883],[9.45737,51.30895],[9.45762,51.30898],[9.4579,51.31292],[9.47118,51.31227],[9.47057,51.31141],[9.47015,51.31075],[9.46935,51.3101],[9.46918,51.30993],[9.46908,51.30974],[9.46887,51.30915]]]}},{"type":"Feature","properties":{"zone":"WH1","district":"Wehlheiden","rawHours":"","rawFee":"","note":"Bewohnerparkbezirk WH1 (Quartierskürzel) — Beträge nennt die Parkgebührenordnung der Stadt Kassel je Gebührenzone, nicht je Bezirk","windows":[],"fee":{"kind":"unknown"},"unmodelledRules":[],"sourceDefect":null,"scheduleUnknown":true,"spaces":null,"maxStayMinutes":null,"maxStay":null,"maxStayShare":0,"maxStayValues":[],"chargingPoints":0,"carsharing":0},"geometry":{"type":"Polygon","coordinates":[[[9.47536,51.31206],[9.47985,51.31183],[9.47976,51.31166],[9.47972,51.31122],[9.47883,51.31125],[9.47881,51.31107],[9.47886,51.31107],[9.47879,51.31059],[9.47895,51.3106],[9.47891,51.31048],[9.47882,51.31049],[9.4787,51.31032],[9.47866,51.31032],[9.47864,51.31014],[9.47886,51.31013],[9.47888,51.31011],[9.47882,51.30994],[9.47909,51.30988],[9.47899,51.30971],[9.47855,51.30962],[9.47868,51.30939],[9.4787,51.30938],[9.47887,51.30944],[9.47941,51.30953],[9.47978,51.30956],[9.47964,51.30918],[9.47985,51.30913],[9.47995,51.30936],[9.48016,51.30931],[9.47994,51.30882],[9.47988,51.30883],[9.47976,51.30846],[9.47967,51.30848],[9.47964,51.30839],[9.47971,51.30838],[9.47963,51.30813],[9.47914,51.30823],[9.47928,51.30861],[9.47918,51.30863],[9.47924,51.30879],[9.47879,51.30885],[9.47885,51.30904],[9.47874,51.30906],[9.47868,51.30888],[9.47821,51.30895],[9.47815,51.30877],[9.47791,51.3088],[9.47792,51.30886],[9.47771,51.30888],[9.4777,51.30884],[9.47751,51.30888],[9.47728,51.3089],[9.4772,51.30861],[9.4767,51.30862],[9.47672,51.30868],[9.47621,51.30879],[9.47536,51.30882],[9.47542,51.30904],[9.47504,51.30906],[9.4751,51.30943],[9.47505,51.30944],[9.475,51.30913],[9.47467,51.30915],[9.47462,51.30888],[9.47398,51.30893],[9.47396,51.30886],[9.4736,51.30889],[9.47305,51.30856],[9.47279,51.3086],[9.4714,51.30822],[9.47155,51.30801],[9.47143,51.30798],[9.47112,51.30799],[9.47113,51.30815],[9.47092,51.30809],[9.47096,51.30801],[9.47097,51.30793],[9.47096,51.30763],[9.47068,51.30763],[9.47011,51.30759],[9.47013,51.30742],[9.46972,51.30741],[9.46952,51.30742],[9.46952,51.30785],[9.46873,51.30783],[9.46874,51.30804],[9.46887,51.30915],[9.46908,51.30974],[9.46918,51.30993],[9.46935,51.3101],[9.47015,51.31075],[9.47057,51.31141],[9.47118,51.31227],[9.47536,51.31206]]]}},{"type":"Feature","properties":{"zone":"SÜ1","district":"Südstadt","rawHours":"","rawFee":"","note":"Bewohnerparkbezirk SÜ1 (Quartierskürzel) — Beträge nennt die Parkgebührenordnung der Stadt Kassel je Gebührenzone, nicht je Bezirk","windows":[],"fee":{"kind":"unknown"},"unmodelledRules":[],"sourceDefect":null,"scheduleUnknown":true,"spaces":null,"maxStayMinutes":null,"maxStay":null,"maxStayShare":0,"maxStayValues":[],"chargingPoints":0,"carsharing":0},"geometry":{"type":"Polygon","coordinates":[[[9.48475,51.30401],[9.48455,51.30409],[9.48417,51.30413],[9.48351,51.30416],[9.48349,51.30413],[9.4834,51.3041],[9.4825,51.30472],[9.48251,51.30473],[9.48238,51.30479],[9.48244,51.30482],[9.48229,51.30492],[9.48244,51.30501],[9.48221,51.30517],[9.48239,51.30534],[9.4826,51.30539],[9.48348,51.30635],[9.48373,51.30717],[9.48417,51.30713],[9.48412,51.30727],[9.48418,51.30751],[9.48285,51.30769],[9.48287,51.30774],[9.48214,51.30789],[9.48177,51.308],[9.48184,51.30812],[9.48164,51.30787],[9.4816,51.30777],[9.48107,51.30783],[9.48115,51.3081],[9.48059,51.30817],[9.48072,51.3086],[9.48061,51.30864],[9.48056,51.30848],[9.48018,51.30853],[9.48003,51.30811],[9.47965,51.30819],[9.47971,51.30838],[9.47964,51.30839],[9.47967,51.30848],[9.47976,51.30846],[9.47988,51.30883],[9.47994,51.30882],[9.48017,51.30934],[9.48044,51.30929],[9.48029,51.30902],[9.48053,51.30896],[9.48065,51.30919],[9.48164,51.3092],[9.48171,51.30917],[9.48178,51.30918],[9.48184,51.30922],[9.48211,51.30921],[9.48212,51.30927],[9.48266,51.30925],[9.48294,51.30921],[9.48329,51.3091],[9.48333,51.30917],[9.48405,51.309],[9.48389,51.30872],[9.48417,51.30867],[9.48433,51.30893],[9.48473,51.30884],[9.48512,51.30879],[9.48507,51.30868],[9.48863,51.30817],[9.48855,51.3081],[9.48865,51.30818],[9.48972,51.30758],[9.4899,51.30729],[9.48997,51.30698],[9.49018,51.30696],[9.49018,51.30672],[9.49035,51.30666],[9.49054,51.30666],[9.49052,51.3062],[9.49026,51.3062],[9.49022,51.30575],[9.49055,51.30566],[9.49142,51.30508],[9.49128,51.305],[9.49132,51.30498],[9.48807,51.30308],[9.48762,51.30317],[9.4874,51.30319],[9.48719,51.3032],[9.48682,51.30318],[9.48649,51.30312],[9.4861,51.3033],[9.48618,51.30334],[9.48596,51.30345],[9.48599,51.30347],[9.48592,51.30347],[9.48574,51.30355],[9.48593,51.30372],[9.4859,51.30373],[9.48595,51.30377],[9.48582,51.30383],[9.48593,51.30392],[9.4858,51.30401],[9.48569,51.30405],[9.48566,51.30402],[9.48553,51.30407],[9.48559,51.30413],[9.48536,51.30421],[9.48527,51.30414],[9.48505,51.30422],[9.48479,51.30399],[9.48475,51.30401]]]}},{"type":"Feature","properties":{"zone":"SÜ2","district":"Südstadt","rawHours":"","rawFee":"","note":"Bewohnerparkbezirk SÜ2 (Quartierskürzel) — Beträge nennt die Parkgebührenordnung der Stadt Kassel je Gebührenzone, nicht je Bezirk","windows":[],"fee":{"kind":"unknown"},"unmodelledRules":[],"sourceDefect":null,"scheduleUnknown":true,"spaces":null,"maxStayMinutes":null,"maxStay":null,"maxStayShare":0,"maxStayValues":[],"chargingPoints":0,"carsharing":0},"geometry":{"type":"Polygon","coordinates":[[[9.48326,51.3042],[9.4834,51.3041],[9.48349,51.30413],[9.48351,51.30416],[9.48417,51.30413],[9.48455,51.30409],[9.48479,51.30399],[9.48505,51.30422],[9.48527,51.30414],[9.48536,51.30421],[9.48559,51.30413],[9.48553,51.30407],[9.48566,51.30402],[9.48569,51.30405],[9.4858,51.30401],[9.48593,51.30392],[9.48582,51.30383],[9.48595,51.30377],[9.4859,51.30373],[9.48593,51.30372],[9.48574,51.30355],[9.48592,51.30347],[9.48599,51.30347],[9.48596,51.30345],[9.48618,51.30334],[9.4861,51.3033],[9.48649,51.30312],[9.48616,51.30302],[9.48564,51.3028],[9.48548,51.3027],[9.48519,51.30243],[9.48505,51.30222],[9.48498,51.30207],[9.48494,51.30191],[9.48493,51.30175],[9.48496,51.30157],[9.48502,51.30139],[9.4851,51.30123],[9.48521,51.30108],[9.48534,51.30095],[9.48495,51.30064],[9.48506,51.30051],[9.48507,51.30005],[9.48506,51.29984],[9.48536,51.2998],[9.48526,51.29965],[9.48512,51.29952],[9.48677,51.29864],[9.48666,51.29839],[9.48661,51.29813],[9.4866,51.29788],[9.48664,51.29762],[9.48617,51.29763],[9.48496,51.29742],[9.48479,51.29772],[9.48458,51.29766],[9.48438,51.29762],[9.48371,51.29761],[9.48342,51.29754],[9.48324,51.29786],[9.48311,51.29788],[9.48296,51.29814],[9.48299,51.29819],[9.48295,51.29828],[9.48288,51.29832],[9.48276,51.29854],[9.48266,51.29852],[9.48261,51.29862],[9.48251,51.2986],[9.48256,51.2985],[9.4815,51.29827],[9.48155,51.29818],[9.48154,51.29816],[9.48145,51.2982],[9.48142,51.2982],[9.48135,51.29838],[9.48131,51.29857],[9.48066,51.29847],[9.48009,51.29905],[9.47899,51.30008],[9.47913,51.30015],[9.4797,51.30013],[9.47981,51.30049],[9.47937,51.30054],[9.47938,51.30062],[9.47915,51.30066],[9.47917,51.30078],[9.47948,51.30072],[9.47951,51.3008],[9.47926,51.30084],[9.47939,51.30121],[9.47946,51.3013],[9.47957,51.30138],[9.47969,51.30144],[9.47983,51.30148],[9.48012,51.3015],[9.48037,51.30147],[9.4811,51.30132],[9.4812,51.30153],[9.48019,51.30174],[9.48035,51.30199],[9.48068,51.30192],[9.48132,51.30284],[9.48123,51.30288],[9.48189,51.30375],[9.48273,51.30456],[9.48326,51.3042]]]}},{"type":"Feature","properties":{"zone":"RO2","district":"Rothenditmold","rawHours":"","rawFee":"","note":"Bewohnerparkbezirk RO2 (Quartierskürzel) — Beträge nennt die Parkgebührenordnung der Stadt Kassel je Gebührenzone, nicht je Bezirk","windows":[],"fee":{"kind":"unknown"},"unmodelledRules":[],"sourceDefect":null,"scheduleUnknown":true,"spaces":null,"maxStayMinutes":null,"maxStay":null,"maxStayShare":0,"maxStayValues":[],"chargingPoints":0,"carsharing":0},"geometry":{"type":"Polygon","coordinates":[[[9.48644,51.32752],[9.48632,51.32779],[9.48604,51.32776],[9.4859,51.32811],[9.48591,51.32827],[9.48687,51.32877],[9.487,51.32887],[9.4886,51.32781],[9.4888,51.32793],[9.48909,51.32767],[9.48905,51.32765],[9.48929,51.32741],[9.48922,51.32738],[9.4898,51.32693],[9.49242,51.32481],[9.49217,51.32469],[9.49219,51.32473],[9.49203,51.32486],[9.49197,51.32483],[9.49198,51.32479],[9.49193,51.32478],[9.49189,51.32482],[9.4918,51.3248],[9.49176,51.32491],[9.49137,51.32486],[9.4913,51.32505],[9.49015,51.3249],[9.48965,51.32564],[9.48885,51.32543],[9.48875,51.32564],[9.48805,51.32551],[9.48804,51.32553],[9.48786,51.32549],[9.48777,51.32565],[9.48764,51.32563],[9.48761,51.32568],[9.48735,51.32563],[9.48705,51.32535],[9.48705,51.32531],[9.48737,51.32517],[9.48754,51.32503],[9.4876,51.32495],[9.48789,51.32431],[9.48836,51.32384],[9.48789,51.32383],[9.48573,51.32386],[9.4846,51.32399],[9.48369,51.32412],[9.48349,51.32377],[9.48277,51.32384],[9.48287,51.32426],[9.48136,51.32456],[9.48009,51.32491],[9.47934,51.32506],[9.47932,51.32529],[9.47942,51.32541],[9.48178,51.32539],[9.48182,51.32554],[9.48255,51.3255],[9.48306,51.32552],[9.48328,51.32556],[9.48373,51.32568],[9.48408,51.32581],[9.48433,51.32592],[9.48456,51.32606],[9.48508,51.32623],[9.48592,51.32619],[9.48655,51.3262],[9.48647,51.32647],[9.48648,51.32648],[9.4863,51.32706],[9.48621,51.3273],[9.48652,51.32734],[9.48644,51.32752]]]}},{"type":"Feature","properties":{"zone":"UN2","district":"Unterneustadt","rawHours":"","rawFee":"","note":"Bewohnerparkbezirk UN2 (Quartierskürzel) — Beträge nennt die Parkgebührenordnung der Stadt Kassel je Gebührenzone, nicht je Bezirk","windows":[],"fee":{"kind":"unknown"},"unmodelledRules":[],"sourceDefect":null,"scheduleUnknown":true,"spaces":null,"maxStayMinutes":null,"maxStay":null,"maxStayShare":0,"maxStayValues":[],"chargingPoints":0,"carsharing":0},"geometry":{"type":"Polygon","coordinates":[[[9.51519,51.3131],[9.51513,51.31316],[9.51501,51.31326],[9.51474,51.31314],[9.51457,51.31329],[9.5145,51.31325],[9.51445,51.3133],[9.51424,51.3132],[9.51403,51.31339],[9.51384,51.3133],[9.51371,51.31331],[9.51363,51.31319],[9.51285,51.3125],[9.51262,51.31233],[9.51259,51.31234],[9.51206,51.31189],[9.51242,51.31155],[9.51224,51.31148],[9.51196,51.31145],[9.51179,51.31146],[9.51158,51.31153],[9.51187,51.3113],[9.51175,51.31125],[9.51157,51.31134],[9.51143,51.31145],[9.51021,51.3125],[9.50898,51.31378],[9.50875,51.31398],[9.5082,51.31436],[9.5071,51.31494],[9.50717,51.31507],[9.50735,51.31514],[9.50775,51.3155],[9.50834,51.31597],[9.50872,51.31619],[9.50902,51.31631],[9.50979,51.31651],[9.5113,51.31665],[9.51358,51.31677],[9.51492,51.31681],[9.51615,51.31694],[9.51655,51.31604],[9.51687,51.31516],[9.51689,51.31499],[9.517,51.31464],[9.51709,51.31426],[9.51494,51.31349],[9.51532,51.31315],[9.51519,51.3131]]]}},{"type":"Feature","properties":{"zone":"WT1","district":"Wesertor","rawHours":"","rawFee":"","note":"Bewohnerparkbezirk WT1 (Quartierskürzel) — Beträge nennt die Parkgebührenordnung der Stadt Kassel je Gebührenzone, nicht je Bezirk","windows":[],"fee":{"kind":"unknown"},"unmodelledRules":[],"sourceDefect":null,"scheduleUnknown":true,"spaces":null,"maxStayMinutes":null,"maxStay":null,"maxStayShare":0,"maxStayValues":[],"chargingPoints":0,"carsharing":0},"geometry":{"type":"Polygon","coordinates":[[[9.51089,51.32004],[9.51096,51.32011],[9.51072,51.3202],[9.51097,51.32044],[9.51109,51.3204],[9.51137,51.32068],[9.51094,51.32084],[9.51094,51.32085],[9.51108,51.32099],[9.51167,51.32075],[9.51198,51.32084],[9.5117,51.32124],[9.51205,51.32158],[9.51206,51.32161],[9.51246,51.3215],[9.51262,51.32173],[9.51203,51.32191],[9.51215,51.32203],[9.51216,51.32202],[9.51226,51.32212],[9.51259,51.32239],[9.51288,51.3226],[9.51339,51.32235],[9.51356,51.32247],[9.51355,51.32247],[9.51368,51.32255],[9.51355,51.32267],[9.5135,51.32277],[9.51349,51.32284],[9.51323,51.32292],[9.51311,51.32298],[9.51332,51.32361],[9.51324,51.32359],[9.5132,51.3236],[9.51321,51.32391],[9.51331,51.3239],[9.51373,51.32447],[9.51348,51.32448],[9.51349,51.32468],[9.51326,51.32468],[9.51329,51.32534],[9.51367,51.32533],[9.51377,51.32537],[9.51403,51.32536],[9.51404,51.32546],[9.51412,51.32546],[9.51413,51.32556],[9.51422,51.32556],[9.51437,51.32552],[9.51452,51.32575],[9.51474,51.32571],[9.51451,51.32538],[9.51531,51.32515],[9.51503,51.32501],[9.51508,51.32497],[9.5149,51.32482],[9.51516,51.32473],[9.51502,51.32467],[9.51516,51.32457],[9.51482,51.32444],[9.51513,51.32433],[9.51532,51.32424],[9.51514,51.32409],[9.51518,51.32407],[9.51513,51.32402],[9.51698,51.32311],[9.5172,51.32325],[9.51723,51.32323],[9.51731,51.3233],[9.51748,51.32321],[9.51766,51.32312],[9.51768,51.32281],[9.51836,51.32241],[9.51782,51.32221],[9.51749,51.32238],[9.51668,51.32193],[9.51693,51.32177],[9.5165,51.3215],[9.5164,51.32156],[9.51597,51.3212],[9.51631,51.32102],[9.51625,51.32076],[9.51638,51.3207],[9.51649,51.32063],[9.51628,51.32046],[9.51635,51.32049],[9.51644,51.32047],[9.51653,51.32037],[9.51658,51.32026],[9.51618,51.32022],[9.51629,51.32003],[9.51599,51.31996],[9.516,51.31994],[9.5159,51.31987],[9.51591,51.31986],[9.51584,51.31984],[9.51576,51.31979],[9.51583,51.31974],[9.51543,51.31965],[9.5154,51.31967],[9.51588,51.3186],[9.51405,51.31861],[9.5125,51.31849],[9.51212,51.31846],[9.51215,51.3183],[9.51205,51.31829],[9.51156,51.31832],[9.50986,51.31848],[9.50963,51.31853],[9.50888,51.31876],[9.509,51.31887],[9.50909,51.31883],[9.50925,51.319],[9.50961,51.31887],[9.50959,51.31885],[9.50967,51.31883],[9.50992,51.31909],[9.50985,51.31912],[9.50988,51.31914],[9.50985,51.31919],[9.5102,51.31955],[9.51013,51.31958],[9.51022,51.3196],[9.5105,51.31974],[9.51093,51.32002],[9.51089,51.32004]]]}},{"type":"Feature","properties":{"zone":"UN1","district":"Unterneustadt","rawHours":"","rawFee":"","note":"Bewohnerparkbezirk UN1 (Quartierskürzel) — Beträge nennt die Parkgebührenordnung der Stadt Kassel je Gebührenzone, nicht je Bezirk","windows":[],"fee":{"kind":"unknown"},"unmodelledRules":[],"sourceDefect":null,"scheduleUnknown":true,"spaces":null,"maxStayMinutes":null,"maxStay":null,"maxStayShare":0,"maxStayValues":[],"chargingPoints":0,"carsharing":0},"geometry":{"type":"Polygon","coordinates":[[[9.50368,51.30872],[9.5038,51.30897],[9.50407,51.30968],[9.50421,51.31039],[9.50428,51.31097],[9.50428,51.31152],[9.50432,51.31175],[9.50445,51.31222],[9.50458,51.31254],[9.50468,51.31273],[9.50488,51.31303],[9.50523,51.31346],[9.50572,51.31375],[9.50607,51.31413],[9.50621,51.31424],[9.50644,51.31435],[9.507,51.31478],[9.5071,51.31494],[9.5082,51.31436],[9.50875,51.31398],[9.50898,51.31378],[9.51021,51.3125],[9.51143,51.31145],[9.51157,51.31134],[9.51175,51.31125],[9.51027,51.31059],[9.51003,51.31063],[9.50943,51.31079],[9.50832,51.31006],[9.50823,51.31003],[9.50842,51.3099],[9.50862,51.30979],[9.50828,51.30954],[9.5084,51.30948],[9.50811,51.30922],[9.50788,51.30892],[9.50747,51.30826],[9.50743,51.30827],[9.50708,51.30807],[9.50705,51.30809],[9.50706,51.30804],[9.50699,51.30807],[9.50692,51.30822],[9.50662,51.30854],[9.50641,51.30839],[9.50635,51.30844],[9.50621,51.30849],[9.50614,51.30846],[9.50613,51.30864],[9.50606,51.30864],[9.50608,51.30852],[9.50606,51.30851],[9.50579,51.30866],[9.50543,51.3085],[9.50543,51.30847],[9.50509,51.30829],[9.50494,51.30841],[9.50464,51.30829],[9.50478,51.30816],[9.50432,51.30796],[9.50402,51.30781],[9.50373,51.30762],[9.50353,51.30745],[9.50342,51.30727],[9.50329,51.30726],[9.50328,51.30732],[9.50373,51.30867],[9.50375,51.30871],[9.50368,51.30872]]]}},{"type":"Feature","properties":{"zone":"RO3","district":"Rothenditmold","rawHours":"","rawFee":"","note":"Bewohnerparkbezirk RO3 (Quartierskürzel) — Beträge nennt die Parkgebührenordnung der Stadt Kassel je Gebührenzone, nicht je Bezirk","windows":[],"fee":{"kind":"unknown"},"unmodelledRules":[],"sourceDefect":null,"scheduleUnknown":true,"spaces":null,"maxStayMinutes":null,"maxStay":null,"maxStayShare":0,"maxStayValues":[],"chargingPoints":0,"carsharing":0},"geometry":{"type":"Polygon","coordinates":[[[9.48182,51.32554],[9.48178,51.32539],[9.47942,51.32541],[9.47932,51.32529],[9.47934,51.32506],[9.47893,51.32283],[9.48041,51.32237],[9.48058,51.32123],[9.47995,51.32121],[9.47995,51.32123],[9.47992,51.32123],[9.47985,51.32168],[9.47987,51.32168],[9.47982,51.32204],[9.47975,51.32213],[9.4796,51.32219],[9.47949,51.32221],[9.47935,51.32221],[9.47849,51.32207],[9.47851,51.322],[9.47709,51.32179],[9.47618,51.32169],[9.47599,51.32165],[9.47583,51.32173],[9.47563,51.32175],[9.47547,51.32172],[9.47547,51.32175],[9.47477,51.32169],[9.47498,51.32229],[9.47444,51.32236],[9.4746,51.32279],[9.47479,51.32277],[9.47477,51.32295],[9.47446,51.32297],[9.47448,51.32332],[9.47519,51.32327],[9.47526,51.32349],[9.4744,51.32354],[9.47434,51.32297],[9.47301,51.32309],[9.47301,51.32303],[9.47285,51.3231],[9.47279,51.32287],[9.47254,51.32292],[9.47222,51.3233],[9.47037,51.32341],[9.47044,51.32374],[9.47004,51.32376],[9.47015,51.32477],[9.46998,51.32477],[9.4696,51.32524],[9.47011,51.32542],[9.47063,51.32551],[9.47097,51.3256],[9.47085,51.32574],[9.47129,51.3259],[9.47132,51.32601],[9.47184,51.32595],[9.47231,51.32575],[9.47232,51.3257],[9.47253,51.32572],[9.47372,51.32758],[9.47384,51.32758],[9.47398,51.3277],[9.47463,51.32757],[9.47491,51.32777],[9.47511,51.32789],[9.47543,51.32804],[9.47894,51.32945],[9.47898,51.32946],[9.47897,51.3293],[9.47958,51.32769],[9.48021,51.32689],[9.48183,51.32559],[9.48182,51.32554]]]}},{"type":"Feature","properties":{"zone":"RO4","district":"Rothenditmold","rawHours":"","rawFee":"","note":"Bewohnerparkbezirk RO4 (Quartierskürzel) — Beträge nennt die Parkgebührenordnung der Stadt Kassel je Gebührenzone, nicht je Bezirk","windows":[],"fee":{"kind":"unknown"},"unmodelledRules":[],"sourceDefect":null,"scheduleUnknown":true,"spaces":null,"maxStayMinutes":null,"maxStay":null,"maxStayShare":0,"maxStayValues":[],"chargingPoints":0,"carsharing":0},"geometry":{"type":"Polygon","coordinates":[[[9.48201,51.33026],[9.48269,51.3299],[9.48279,51.33017],[9.48312,51.33012],[9.48311,51.3301],[9.48313,51.3301],[9.48307,51.32996],[9.48305,51.32993],[9.48299,51.32974],[9.48314,51.32966],[9.48372,51.32952],[9.48433,51.32941],[9.4847,51.32933],[9.48487,51.32927],[9.48528,51.32911],[9.48544,51.32902],[9.48562,51.32889],[9.48571,51.32878],[9.48582,51.32861],[9.48591,51.32827],[9.4859,51.32811],[9.48604,51.32776],[9.48632,51.32779],[9.48652,51.32734],[9.48621,51.3273],[9.4863,51.32706],[9.48648,51.32648],[9.48647,51.32647],[9.48655,51.3262],[9.48592,51.32619],[9.48508,51.32623],[9.48456,51.32606],[9.48433,51.32592],[9.48408,51.32581],[9.48373,51.32568],[9.48328,51.32556],[9.48306,51.32552],[9.48283,51.3255],[9.48236,51.32551],[9.48182,51.32554],[9.48183,51.32559],[9.48021,51.32689],[9.47958,51.32769],[9.47897,51.3293],[9.47908,51.33103],[9.47913,51.33154],[9.47958,51.33153],[9.48152,51.3305],[9.48201,51.33026]]]}},{"type":"Feature","properties":{"zone":"RO1","district":"Nord-Holland","rawHours":"","rawFee":"","note":"Bewohnerparkbezirk RO1 (Quartierskürzel) — Beträge nennt die Parkgebührenordnung der Stadt Kassel je Gebührenzone, nicht je Bezirk","windows":[],"fee":{"kind":"unknown"},"unmodelledRules":[],"sourceDefect":null,"scheduleUnknown":true,"spaces":null,"maxStayMinutes":null,"maxStay":null,"maxStayShare":0,"maxStayValues":[],"chargingPoints":0,"carsharing":0},"geometry":{"type":"Polygon","coordinates":[[[9.49808,51.3252],[9.49748,51.32521],[9.49743,51.32534],[9.49672,51.3252],[9.49636,51.32517],[9.49611,51.32517],[9.49532,51.32503],[9.49451,51.32491],[9.49446,51.32495],[9.49423,51.32489],[9.4928,51.3247],[9.49257,51.32461],[9.49095,51.32439],[9.48939,51.32401],[9.48836,51.32384],[9.48789,51.32431],[9.4876,51.32495],[9.48754,51.32503],[9.48737,51.32517],[9.48705,51.32531],[9.48705,51.32535],[9.48735,51.32563],[9.48761,51.32568],[9.48764,51.32563],[9.48777,51.32565],[9.48786,51.32549],[9.48804,51.32553],[9.48805,51.32551],[9.48875,51.32564],[9.48885,51.32543],[9.48965,51.32564],[9.49015,51.3249],[9.4913,51.32505],[9.49137,51.32486],[9.49176,51.32491],[9.4918,51.3248],[9.49189,51.32482],[9.49193,51.32478],[9.49198,51.32479],[9.49197,51.32483],[9.49203,51.32486],[9.49219,51.32473],[9.49217,51.32469],[9.49242,51.32481],[9.49169,51.32539],[9.49468,51.32587],[9.49526,51.32598],[9.49537,51.32564],[9.49635,51.32576],[9.49643,51.32556],[9.49776,51.32584],[9.49767,51.32609],[9.49786,51.32611],[9.49778,51.32638],[9.49865,51.32648],[9.49908,51.32656],[9.4991,51.32654],[9.49942,51.32659],[9.49944,51.32655],[9.49953,51.32645],[9.49973,51.32653],[9.49979,51.32662],[9.49986,51.32639],[9.49951,51.32625],[9.4997,51.32582],[9.49954,51.32579],[9.4996,51.32565],[9.49945,51.32564],[9.49942,51.3257],[9.49938,51.32564],[9.49901,51.32559],[9.49903,51.32554],[9.4983,51.32537],[9.49831,51.32535],[9.49803,51.32529],[9.49808,51.3252]]]}},{"type":"Feature","properties":{"zone":"II","district":"Mitte","rawHours":"","rawFee":"","note":"Bewohnerparkbezirk II — Beträge nennt die Parkgebührenordnung der Stadt Kassel je Gebührenzone, nicht je Bezirk","windows":[],"fee":{"kind":"unknown"},"unmodelledRules":[],"sourceDefect":null,"scheduleUnknown":true,"spaces":null,"maxStayMinutes":null,"maxStay":null,"maxStayShare":0,"maxStayValues":[],"chargingPoints":0,"carsharing":0},"geometry":{"type":"Polygon","coordinates":[[[9.4929,51.3097],[9.49286,51.30965],[9.49282,51.30957],[9.49282,51.30953],[9.49271,51.30947],[9.49271,51.30943],[9.49258,51.30932],[9.49256,51.3093],[9.49257,51.30929],[9.4925,51.30925],[9.49241,51.30911],[9.49248,51.30908],[9.49261,51.309],[9.49246,51.30895],[9.49174,51.30917],[9.49141,51.30924],[9.49009,51.30929],[9.48997,51.30892],[9.4885,51.30897],[9.48865,51.30934],[9.48856,51.30935],[9.48843,51.30902],[9.48837,51.30896],[9.4882,51.30889],[9.48784,51.30886],[9.48735,51.30892],[9.48724,51.30894],[9.48725,51.30895],[9.48656,51.30906],[9.48576,51.30914],[9.4853,51.3092],[9.48528,51.30924],[9.48518,51.30926],[9.48515,51.30923],[9.48509,51.30924],[9.48481,51.30932],[9.4848,51.30929],[9.48452,51.30933],[9.48383,51.30928],[9.48344,51.30939],[9.48365,51.30959],[9.48301,51.30967],[9.48305,51.3097],[9.48306,51.30973],[9.48303,51.30975],[9.48306,51.30975],[9.48311,51.30989],[9.48316,51.30996],[9.48252,51.30991],[9.48234,51.30987],[9.48228,51.30984],[9.48224,51.30984],[9.48224,51.30975],[9.4817,51.30976],[9.48171,51.30978],[9.48169,51.30978],[9.48167,51.30975],[9.48162,51.30974],[9.48162,51.30972],[9.48156,51.30974],[9.48153,51.30978],[9.48148,51.3098],[9.48135,51.30983],[9.48135,51.30984],[9.48099,51.30985],[9.48068,51.30985],[9.48068,51.30983],[9.48065,51.30983],[9.48036,51.30982],[9.47988,51.30983],[9.47986,51.30979],[9.4798,51.30977],[9.47975,51.30978],[9.47971,51.30981],[9.47934,51.30982],[9.47933,51.30958],[9.47906,51.30954],[9.47901,51.30968],[9.47896,51.30967],[9.47909,51.30988],[9.47882,51.30994],[9.47888,51.31011],[9.47886,51.31013],[9.47864,51.31014],[9.47866,51.31032],[9.4787,51.31032],[9.47882,51.31049],[9.47891,51.31048],[9.47895,51.3106],[9.47879,51.31059],[9.47886,51.31107],[9.47881,51.31107],[9.47883,51.31125],[9.47972,51.31122],[9.47976,51.31166],[9.47985,51.31183],[9.47992,51.31191],[9.4799,51.31201],[9.47984,51.31201],[9.47978,51.31226],[9.47928,51.31223],[9.47932,51.31242],[9.47939,51.31243],[9.47935,51.3126],[9.47927,51.31259],[9.47924,51.31274],[9.47918,51.31273],[9.47911,51.31284],[9.47934,51.31296],[9.47962,51.31298],[9.47957,51.31322],[9.48003,51.31343],[9.48005,51.31353],[9.48149,51.3135],[9.48193,51.31345],[9.48337,51.31317],[9.48455,51.31296],[9.48575,51.3129],[9.48714,51.31289],[9.48902,51.31289],[9.48923,51.31292],[9.48974,51.31319],[9.49386,51.31054],[9.49322,51.31008],[9.49335,51.30999],[9.49328,51.30996],[9.49325,51.30998],[9.49307,51.30987],[9.4929,51.3097]]]}},{"type":"Feature","properties":{"zone":"III","district":"Vorderer Westen","rawHours":"","rawFee":"","note":"Bewohnerparkbezirk III — Beträge nennt die Parkgebührenordnung der Stadt Kassel je Gebührenzone, nicht je Bezirk","windows":[],"fee":{"kind":"unknown"},"unmodelledRules":[],"sourceDefect":null,"scheduleUnknown":true,"spaces":null,"maxStayMinutes":null,"maxStay":null,"maxStayShare":0,"maxStayValues":[],"chargingPoints":0,"carsharing":0},"geometry":{"type":"Polygon","coordinates":[[[9.48021,51.31486],[9.47979,51.3149],[9.47972,51.31438],[9.47957,51.31436],[9.47972,51.314],[9.47987,51.31399],[9.48013,51.31413],[9.48003,51.31343],[9.47957,51.31322],[9.47962,51.31298],[9.47934,51.31296],[9.47911,51.31284],[9.47918,51.31273],[9.47924,51.31274],[9.47927,51.31259],[9.47935,51.3126],[9.47939,51.31243],[9.47932,51.31242],[9.47928,51.31223],[9.47978,51.31226],[9.47984,51.31201],[9.4799,51.31201],[9.47992,51.31191],[9.47985,51.31183],[9.47536,51.31206],[9.47542,51.31245],[9.47541,51.31246],[9.47537,51.31244],[9.47519,51.31267],[9.47497,51.31259],[9.4749,51.3126],[9.47491,51.31264],[9.47454,51.31266],[9.47461,51.31312],[9.47476,51.31324],[9.47482,51.31327],[9.47486,51.31349],[9.47426,51.31353],[9.47429,51.31361],[9.47434,51.31395],[9.47447,51.31394],[9.47449,51.31411],[9.47464,51.3141],[9.47464,51.31413],[9.47466,51.31413],[9.47467,51.31421],[9.47475,51.31425],[9.47476,51.31435],[9.47494,51.31435],[9.47499,51.31431],[9.47508,51.31471],[9.47489,51.31471],[9.4749,51.31498],[9.47465,51.31499],[9.47466,51.31502],[9.47463,51.31503],[9.47467,51.31524],[9.47478,51.31525],[9.47487,51.31564],[9.47522,51.3156],[9.47524,51.3157],[9.48028,51.31521],[9.48021,51.31486]]]}},{"type":"Feature","properties":{"zone":"IV","district":"Mitte","rawHours":"","rawFee":"","note":"Bewohnerparkbezirk IV — Beträge nennt die Parkgebührenordnung der Stadt Kassel je Gebührenzone, nicht je Bezirk","windows":[],"fee":{"kind":"unknown"},"unmodelledRules":[],"sourceDefect":null,"scheduleUnknown":true,"spaces":null,"maxStayMinutes":null,"maxStay":null,"maxStayShare":0,"maxStayValues":[],"chargingPoints":0,"carsharing":0},"geometry":{"type":"Polygon","coordinates":[[[9.48005,51.31353],[9.48013,51.31413],[9.47987,51.31399],[9.47972,51.314],[9.47957,51.31436],[9.47972,51.31438],[9.47979,51.3149],[9.48022,51.31486],[9.48029,51.31533],[9.48019,51.31534],[9.48023,51.31536],[9.48023,51.31539],[9.4801,51.3154],[9.4801,51.31543],[9.47986,51.31554],[9.47989,51.31593],[9.48008,51.31592],[9.48009,51.31615],[9.48034,51.31613],[9.48038,51.3161],[9.48045,51.31665],[9.47991,51.31669],[9.47997,51.31702],[9.48049,51.31698],[9.48053,51.31732],[9.48061,51.31732],[9.48067,51.31779],[9.4811,51.31776],[9.48111,51.31782],[9.48146,51.3178],[9.4815,51.31805],[9.48185,51.318],[9.48187,51.31806],[9.48339,51.31803],[9.48338,51.31782],[9.4834,51.31781],[9.4838,51.31779],[9.48382,51.31791],[9.4838,51.31795],[9.48458,51.31795],[9.48647,51.31763],[9.48665,51.31762],[9.48664,51.31759],[9.48724,51.31748],[9.48756,51.31745],[9.48766,51.31754],[9.48885,51.31733],[9.48923,51.31747],[9.48973,51.31737],[9.49,51.31753],[9.49019,51.3175],[9.49088,51.31763],[9.49272,51.31632],[9.49128,51.31542],[9.4889,51.31401],[9.48974,51.31319],[9.48923,51.31292],[9.48902,51.31289],[9.48714,51.31289],[9.48575,51.3129],[9.48455,51.31296],[9.48337,51.31317],[9.48193,51.31345],[9.48149,51.3135],[9.48005,51.31353]]]}},{"type":"Feature","properties":{"zone":"VI","district":"Nord-Holland","rawHours":"","rawFee":"","note":"Bewohnerparkbezirk VI — Beträge nennt die Parkgebührenordnung der Stadt Kassel je Gebührenzone, nicht je Bezirk","windows":[],"fee":{"kind":"unknown"},"unmodelledRules":[],"sourceDefect":null,"scheduleUnknown":true,"spaces":null,"maxStayMinutes":null,"maxStay":null,"maxStayShare":0,"maxStayValues":[],"chargingPoints":0,"carsharing":0},"geometry":{"type":"Polygon","coordinates":[[[9.49856,51.32204],[9.49857,51.32205],[9.49916,51.32179],[9.49921,51.32209],[9.4993,51.32208],[9.49926,51.3219],[9.49927,51.32188],[9.4995,51.32185],[9.49969,51.32178],[9.49968,51.32173],[9.49981,51.32172],[9.49981,51.32166],[9.49979,51.32165],[9.49979,51.32157],[9.49983,51.32153],[9.50024,51.32147],[9.50028,51.32158],[9.50027,51.32158],[9.50033,51.32183],[9.50042,51.32182],[9.50043,51.32196],[9.50052,51.32196],[9.50053,51.32235],[9.50099,51.32236],[9.50103,51.32176],[9.50174,51.32149],[9.50174,51.32124],[9.50193,51.32121],[9.50194,51.32109],[9.50223,51.321],[9.50407,51.32065],[9.50551,51.32028],[9.50786,51.31932],[9.50648,51.31745],[9.50563,51.31667],[9.50557,51.3167],[9.50502,51.31631],[9.50517,51.31623],[9.50481,51.3162],[9.50389,51.31669],[9.50288,51.31717],[9.50213,51.31749],[9.50127,51.31778],[9.50026,51.31805],[9.49622,51.31905],[9.49636,51.31933],[9.49672,51.31925],[9.49676,51.31938],[9.49702,51.31932],[9.49704,51.31969],[9.49721,51.31993],[9.49686,51.32003],[9.49724,51.32055],[9.49831,51.32179],[9.49856,51.32204]]]}},{"type":"Feature","properties":{"zone":"V","district":"Nord-Holland","rawHours":"","rawFee":"","note":"Bewohnerparkbezirk V — Beträge nennt die Parkgebührenordnung der Stadt Kassel je Gebührenzone, nicht je Bezirk","windows":[],"fee":{"kind":"unknown"},"unmodelledRules":[],"sourceDefect":null,"scheduleUnknown":true,"spaces":null,"maxStayMinutes":null,"maxStay":null,"maxStayShare":0,"maxStayValues":[],"chargingPoints":0,"carsharing":0},"geometry":{"type":"Polygon","coordinates":[[[9.49623,51.32359],[9.49576,51.32331],[9.49607,51.32312],[9.49723,51.32313],[9.49812,51.32253],[9.49813,51.32228],[9.49811,51.32229],[9.49868,51.32201],[9.49857,51.32205],[9.49831,51.32179],[9.49724,51.32055],[9.49686,51.32003],[9.49721,51.31993],[9.49704,51.31969],[9.49702,51.31932],[9.49676,51.31938],[9.49672,51.31925],[9.49636,51.31933],[9.49607,51.31872],[9.49601,51.31864],[9.49571,51.31826],[9.49535,51.31788],[9.49485,51.31745],[9.49508,51.31732],[9.49493,51.31722],[9.49495,51.31706],[9.49482,51.317],[9.49484,51.31689],[9.49462,51.31687],[9.49463,51.31683],[9.4945,51.31682],[9.4942,51.31665],[9.49411,51.31664],[9.49412,51.31661],[9.4939,51.31659],[9.49388,51.31664],[9.49374,51.31656],[9.4936,51.31665],[9.49341,51.31654],[9.49307,51.31674],[9.4929,51.31664],[9.49253,51.31646],[9.49088,51.31763],[9.49019,51.3175],[9.49053,51.3182],[9.49064,51.31819],[9.49083,51.3185],[9.49071,51.31853],[9.49074,51.31859],[9.49014,51.31877],[9.48926,51.31895],[9.4892,51.31899],[9.48712,51.31938],[9.48722,51.3196],[9.48474,51.32005],[9.48467,51.3199],[9.48197,51.32019],[9.48215,51.32098],[9.48421,51.32126],[9.48454,51.32137],[9.48537,51.32148],[9.48546,51.32153],[9.48549,51.32251],[9.4856,51.32263],[9.48603,51.32278],[9.48777,51.32283],[9.48876,51.323],[9.48874,51.323],[9.48872,51.32312],[9.48897,51.32314],[9.48879,51.32318],[9.48877,51.32325],[9.48881,51.32331],[9.48905,51.32325],[9.48914,51.32332],[9.48948,51.32338],[9.49092,51.32336],[9.49264,51.32328],[9.49503,51.32328],[9.49521,51.32352],[9.49517,51.32365],[9.49533,51.32359],[9.49533,51.32357],[9.49587,51.32379],[9.49623,51.32359]]]}},{"type":"Feature","properties":{"zone":"VIII","district":"Nord-Holland","rawHours":"","rawFee":"","note":"Bewohnerparkbezirk VIII — Beträge nennt die Parkgebührenordnung der Stadt Kassel je Gebührenzone, nicht je Bezirk","windows":[],"fee":{"kind":"unknown"},"unmodelledRules":[],"sourceDefect":null,"scheduleUnknown":true,"spaces":null,"maxStayMinutes":null,"maxStay":null,"maxStayShare":0,"maxStayValues":[],"chargingPoints":0,"carsharing":0},"geometry":{"type":"Polygon","coordinates":[[[9.50358,51.33141],[9.5036,51.33144],[9.50388,51.33164],[9.50455,51.3312],[9.50544,51.33102],[9.5061,51.33101],[9.50615,51.33103],[9.50623,51.33096],[9.50629,51.33088],[9.50636,51.33073],[9.50634,51.3307],[9.50654,51.3307],[9.50649,51.33074],[9.50641,51.3309],[9.50676,51.33104],[9.50684,51.33097],[9.50722,51.33097],[9.50727,51.33108],[9.50786,51.3309],[9.50787,51.33072],[9.50872,51.33074],[9.50866,51.33077],[9.50864,51.33082],[9.50869,51.33099],[9.50875,51.33116],[9.50995,51.33117],[9.50999,51.33112],[9.5104,51.33113],[9.51041,51.33103],[9.51058,51.33103],[9.51082,51.33077],[9.5116,51.33078],[9.51018,51.3282],[9.50977,51.32738],[9.50968,51.3268],[9.50901,51.32536],[9.50886,51.32524],[9.50885,51.32522],[9.50882,51.32525],[9.50788,51.32528],[9.50787,51.32517],[9.50786,51.32517],[9.50738,51.32572],[9.50714,51.32612],[9.50667,51.32604],[9.50688,51.32573],[9.50702,51.32514],[9.50699,51.32352],[9.50717,51.3235],[9.50714,51.3233],[9.50786,51.32326],[9.50785,51.32321],[9.50783,51.32321],[9.50783,51.32315],[9.5078,51.32315],[9.50779,51.32314],[9.50784,51.32313],[9.50784,51.3231],[9.50733,51.32312],[9.50734,51.32317],[9.50697,51.32318],[9.50697,51.32304],[9.50693,51.3229],[9.50692,51.32274],[9.50686,51.32259],[9.50673,51.32245],[9.50664,51.3224],[9.5064,51.32234],[9.50635,51.32231],[9.50633,51.32227],[9.50631,51.32198],[9.50791,51.32197],[9.50797,51.32189],[9.50649,51.32047],[9.50688,51.32],[9.50689,51.31989],[9.50741,51.31977],[9.50739,51.31977],[9.50726,51.31958],[9.50551,51.32028],[9.50407,51.32065],[9.50223,51.321],[9.50194,51.32109],[9.50193,51.32121],[9.50174,51.32124],[9.50174,51.32149],[9.50103,51.32176],[9.50099,51.32236],[9.50053,51.32235],[9.50052,51.32196],[9.50043,51.32196],[9.50042,51.32182],[9.50033,51.32183],[9.50027,51.32158],[9.50028,51.32158],[9.50024,51.32147],[9.49983,51.32153],[9.49979,51.32157],[9.49979,51.32165],[9.49981,51.32166],[9.49981,51.32172],[9.49968,51.32173],[9.49969,51.32178],[9.4995,51.32185],[9.49927,51.32188],[9.49926,51.3219],[9.4993,51.32208],[9.49921,51.32209],[9.49916,51.32179],[9.49856,51.32206],[9.49811,51.32229],[9.49813,51.32228],[9.49812,51.32253],[9.49723,51.32313],[9.49607,51.32312],[9.49576,51.32331],[9.49851,51.32489],[9.49834,51.32521],[9.49808,51.3252],[9.49803,51.32529],[9.49831,51.32535],[9.4983,51.32537],[9.49903,51.32554],[9.49901,51.32559],[9.49938,51.32564],[9.49942,51.3257],[9.49945,51.32564],[9.4996,51.32565],[9.49954,51.32579],[9.4997,51.32582],[9.49951,51.32625],[9.49986,51.32639],[9.49979,51.32662],[9.49973,51.32653],[9.49953,51.32645],[9.49944,51.32655],[9.49942,51.32659],[9.49935,51.32659],[9.4992,51.32701],[9.49965,51.32706],[9.49922,51.32836],[9.49851,51.3299],[9.49821,51.32983],[9.49806,51.33006],[9.49825,51.33011],[9.49811,51.33027],[9.49834,51.33035],[9.4984,51.33033],[9.4983,51.33048],[9.49827,51.33044],[9.4981,51.33039],[9.49779,51.3308],[9.49801,51.33087],[9.49806,51.3308],[9.49848,51.3309],[9.49831,51.33113],[9.49957,51.3315],[9.4996,51.33145],[9.49963,51.33146],[9.49984,51.3312],[9.50041,51.33143],[9.50025,51.33154],[9.50044,51.33164],[9.5006,51.33152],[9.5007,51.33157],[9.50069,51.33156],[9.50076,51.33156],[9.50088,51.33159],[9.50126,51.33175],[9.5014,51.33177],[9.50143,51.33167],[9.50178,51.33161],[9.50177,51.33166],[9.50196,51.33163],[9.50193,51.33155],[9.50206,51.33153],[9.50207,51.33157],[9.50242,51.33152],[9.50245,51.33158],[9.50275,51.33154],[9.50285,51.3313],[9.50319,51.33122],[9.50358,51.33141],[9.5036,51.33138],[9.50358,51.33141]]]}},{"type":"Feature","properties":{"zone":"IX","district":"Wesertor","rawHours":"","rawFee":"","note":"Bewohnerparkbezirk IX — Beträge nennt die Parkgebührenordnung der Stadt Kassel je Gebührenzone, nicht je Bezirk","windows":[],"fee":{"kind":"unknown"},"unmodelledRules":[],"sourceDefect":null,"scheduleUnknown":true,"spaces":null,"maxStayMinutes":null,"maxStay":null,"maxStayShare":0,"maxStayValues":[],"chargingPoints":0,"carsharing":0},"geometry":{"type":"Polygon","coordinates":[[[9.51269,51.3308],[9.51268,51.33068],[9.5131,51.33068],[9.51314,51.3307],[9.51314,51.33077],[9.51349,51.33075],[9.51348,51.33067],[9.51361,51.33067],[9.51367,51.33057],[9.5141,51.33056],[9.51406,51.3297],[9.51426,51.32969],[9.51425,51.32959],[9.5141,51.3296],[9.5141,51.32947],[9.5137,51.32948],[9.51369,51.32929],[9.51352,51.3293],[9.51353,51.32924],[9.51388,51.32923],[9.51388,51.32908],[9.51423,51.32907],[9.51419,51.32829],[9.51377,51.32829],[9.51376,51.32814],[9.51347,51.32814],[9.51348,51.32806],[9.5139,51.32806],[9.51389,51.3278],[9.51411,51.3278],[9.5141,51.32761],[9.51412,51.32761],[9.51388,51.32735],[9.51498,51.32711],[9.51474,51.32678],[9.51459,51.32662],[9.5145,51.3265],[9.5142,51.32658],[9.51412,51.32676],[9.51376,51.3267],[9.51402,51.32613],[9.51389,51.32594],[9.51453,51.32576],[9.51437,51.32552],[9.51422,51.32556],[9.51413,51.32556],[9.51412,51.32546],[9.51404,51.32546],[9.51403,51.32536],[9.51377,51.32537],[9.51367,51.32533],[9.51329,51.32534],[9.51326,51.32468],[9.51349,51.32468],[9.51348,51.32448],[9.51373,51.32447],[9.51331,51.3239],[9.51321,51.32391],[9.5132,51.3236],[9.51324,51.32359],[9.51332,51.32361],[9.51311,51.32298],[9.51323,51.32292],[9.51349,51.32284],[9.5135,51.32277],[9.51355,51.32267],[9.51368,51.32255],[9.51355,51.32247],[9.51356,51.32247],[9.51339,51.32235],[9.51288,51.3226],[9.51259,51.32239],[9.51226,51.32212],[9.51203,51.32191],[9.51262,51.32173],[9.51246,51.3215],[9.51206,51.32161],[9.51205,51.32158],[9.5117,51.32124],[9.51198,51.32084],[9.51167,51.32075],[9.51108,51.32099],[9.51094,51.32085],[9.51094,51.32084],[9.51137,51.32068],[9.51109,51.3204],[9.51097,51.32044],[9.51072,51.3202],[9.51096,51.32011],[9.51089,51.32004],[9.51093,51.32002],[9.51043,51.3197],[9.51042,51.31971],[9.51022,51.3196],[9.51013,51.31958],[9.5102,51.31955],[9.50985,51.31919],[9.50988,51.31914],[9.50985,51.31912],[9.50992,51.31909],[9.50967,51.31883],[9.50959,51.31885],[9.50961,51.31887],[9.50925,51.319],[9.50909,51.31883],[9.509,51.31887],[9.5089,51.31877],[9.50882,51.31873],[9.50843,51.3189],[9.50858,51.31902],[9.50726,51.31958],[9.50739,51.31977],[9.50741,51.31977],[9.50689,51.31989],[9.50688,51.32],[9.50649,51.32047],[9.50797,51.32189],[9.50791,51.32197],[9.50631,51.32198],[9.50633,51.32227],[9.50635,51.32231],[9.50641,51.32235],[9.50669,51.32242],[9.50677,51.32248],[9.50686,51.32259],[9.50692,51.32274],[9.50693,51.3229],[9.50697,51.32304],[9.50697,51.32318],[9.50734,51.32317],[9.50733,51.32312],[9.50784,51.3231],[9.50784,51.32313],[9.50779,51.32314],[9.5078,51.32315],[9.50783,51.32315],[9.50783,51.32321],[9.50785,51.32321],[9.50786,51.32326],[9.50714,51.3233],[9.50717,51.3235],[9.50699,51.32352],[9.50702,51.32514],[9.50688,51.32573],[9.50667,51.32604],[9.50714,51.32612],[9.50738,51.32572],[9.50786,51.32517],[9.50787,51.32517],[9.50788,51.32528],[9.50882,51.32525],[9.50885,51.32522],[9.50886,51.32524],[9.50901,51.32536],[9.50968,51.3268],[9.50977,51.32738],[9.51018,51.3282],[9.51159,51.33076],[9.51199,51.33076],[9.5124,51.33071],[9.51241,51.33093],[9.51256,51.33093],[9.51256,51.33089],[9.51269,51.33088],[9.51269,51.3308]]]}},{"type":"Feature","properties":{"zone":"Zentrum","district":"Mitte","rawHours":"","rawFee":"","note":"Bewohnerparkbezirk Zentrum — Beträge nennt die Parkgebührenordnung der Stadt Kassel je Gebührenzone, nicht je Bezirk","windows":[],"fee":{"kind":"unknown"},"unmodelledRules":[],"sourceDefect":null,"scheduleUnknown":true,"spaces":null,"maxStayMinutes":null,"maxStay":null,"maxStayShare":0,"maxStayValues":[],"chargingPoints":0,"carsharing":0},"geometry":{"type":"Polygon","coordinates":[[[9.49328,51.30996],[9.49335,51.30999],[9.49322,51.31008],[9.49386,51.31054],[9.48974,51.31319],[9.4889,51.31401],[9.49128,51.31542],[9.49272,51.31632],[9.49253,51.31646],[9.4929,51.31664],[9.49307,51.31674],[9.49341,51.31654],[9.4936,51.31665],[9.49374,51.31656],[9.49388,51.31664],[9.4939,51.31659],[9.49412,51.31661],[9.49411,51.31664],[9.4942,51.31665],[9.4945,51.31682],[9.49463,51.31683],[9.49462,51.31687],[9.49484,51.31689],[9.49482,51.317],[9.49495,51.31706],[9.49493,51.31722],[9.49508,51.31732],[9.49485,51.31745],[9.49535,51.31788],[9.49571,51.31826],[9.49607,51.31872],[9.49622,51.31905],[9.50026,51.31805],[9.50127,51.31778],[9.50213,51.31749],[9.50288,51.31717],[9.50389,51.31669],[9.50481,51.3162],[9.50517,51.31623],[9.50502,51.31631],[9.50557,51.3167],[9.50563,51.31667],[9.50648,51.31745],[9.50786,51.31932],[9.50858,51.31902],[9.50843,51.3189],[9.50882,51.31873],[9.5086,51.31851],[9.50835,51.3183],[9.50878,51.31808],[9.50884,51.31788],[9.509,51.31778],[9.50906,51.3178],[9.50965,51.31782],[9.51033,51.31777],[9.5102,51.3174],[9.50988,51.31738],[9.50984,51.31736],[9.50871,51.31728],[9.50872,51.31727],[9.50865,51.31722],[9.50866,51.31719],[9.50861,51.31717],[9.50854,51.31719],[9.50843,51.31717],[9.50829,51.31718],[9.50823,51.31716],[9.50823,51.31722],[9.50818,51.31722],[9.50816,51.31725],[9.50819,51.31729],[9.50806,51.31733],[9.50797,51.31725],[9.50791,51.31713],[9.50793,51.31712],[9.50763,51.31673],[9.50761,51.31674],[9.50754,51.31663],[9.50755,51.31661],[9.50691,51.31602],[9.50662,51.31579],[9.50642,51.31556],[9.50661,51.31547],[9.50578,51.31478],[9.50481,51.31409],[9.50484,51.314],[9.50481,51.31393],[9.50477,51.3139],[9.5047,51.31386],[9.5046,51.31384],[9.50421,51.31359],[9.50396,51.31346],[9.50392,51.31342],[9.50368,51.31304],[9.5036,51.3128],[9.50345,51.31249],[9.50334,51.31211],[9.50328,51.31213],[9.50283,51.31199],[9.50193,51.31226],[9.50172,51.31221],[9.50127,51.31183],[9.50097,51.31152],[9.50027,51.31086],[9.50023,51.31088],[9.50003,51.31069],[9.50177,51.31008],[9.50153,51.30981],[9.50182,51.30971],[9.50171,51.30959],[9.50152,51.30966],[9.5015,51.30965],[9.49958,51.31033],[9.49959,51.31034],[9.49942,51.31041],[9.49952,51.31052],[9.49941,51.31064],[9.49933,51.3107],[9.49915,51.31075],[9.49915,51.31076],[9.49906,51.3108],[9.49908,51.31085],[9.49901,51.31089],[9.49908,51.31093],[9.49918,51.31104],[9.50004,51.31168],[9.50018,51.31181],[9.50026,51.31196],[9.50008,51.31201],[9.49956,51.31192],[9.49924,51.3119],[9.49895,51.31193],[9.4986,51.31198],[9.49815,51.31208],[9.49415,51.30969],[9.49429,51.30957],[9.49394,51.30937],[9.49381,51.30945],[9.49264,51.30875],[9.49262,51.30876],[9.49236,51.30863],[9.49189,51.3086],[9.49209,51.30875],[9.49229,51.30897],[9.49239,51.30894],[9.49239,51.30889],[9.49245,51.30889],[9.49246,51.30895],[9.49261,51.309],[9.49248,51.30908],[9.49241,51.30911],[9.4925,51.30925],[9.49257,51.30929],[9.49256,51.3093],[9.49258,51.30932],[9.49271,51.30943],[9.49271,51.30947],[9.49282,51.30953],[9.49282,51.30957],[9.49286,51.30965],[9.49307,51.30987],[9.49325,51.30998],[9.49328,51.30996]]]}},{"type":"Feature","properties":{"zone":"VW4","district":"Vorderer Westen","rawHours":"","rawFee":"","note":"Bewohnerparkbezirk VW4 (Quartierskürzel) — Beträge nennt die Parkgebührenordnung der Stadt Kassel je Gebührenzone, nicht je Bezirk","windows":[],"fee":{"kind":"unknown"},"unmodelledRules":[],"sourceDefect":null,"scheduleUnknown":true,"spaces":null,"maxStayMinutes":null,"maxStay":null,"maxStayShare":0,"maxStayValues":[],"chargingPoints":0,"carsharing":0},"geometry":{"type":"Polygon","coordinates":[[[9.47027,51.32021],[9.47027,51.32018],[9.47032,51.32015],[9.47035,51.32009],[9.47131,51.31954],[9.47125,51.31949],[9.47119,51.31934],[9.47085,51.31939],[9.47079,51.3193],[9.47066,51.31889],[9.47099,51.31885],[9.47089,51.31858],[9.47079,51.31859],[9.47001,51.31873],[9.46974,51.31755],[9.46996,51.31753],[9.4699,51.31728],[9.46968,51.3173],[9.46963,51.31715],[9.46962,51.31705],[9.46984,51.31703],[9.46978,51.31676],[9.46956,51.31678],[9.46956,51.31676],[9.46954,51.31676],[9.46943,51.31623],[9.46929,51.31624],[9.46863,51.31611],[9.46851,51.3161],[9.46085,51.3161],[9.46083,51.3178],[9.46055,51.3178],[9.46055,51.31806],[9.46069,51.31806],[9.4607,51.31849],[9.46019,51.31869],[9.4603,51.31901],[9.46033,51.31905],[9.46032,51.31909],[9.4601,51.3191],[9.46018,51.31958],[9.4602,51.31983],[9.4606,51.31978],[9.4606,51.31985],[9.46069,51.31992],[9.47027,51.32021]]]}}]}