{"type":"FeatureCollection","features":[{"type":"Feature","properties":{"name":"Lehen"},"geometry":{"type":"Polygon","coordinates":[[[7.80867,48.01438],[7.80659,48.01161],[7.80355,48.00896],[7.80143,48.012],[7.80094,48.01209],[7.8006,48.01186],[7.79886,48.01227],[7.79775,48.01198],[7.79479,48.01495],[7.79389,48.01477],[7.79325,48.01451],[7.79292,48.01421],[7.79316,48.01458],[7.79432,48.0155],[7.79416,48.01565],[7.79302,48.0147],[7.79344,48.01532],[7.79324,48.01548],[7.7931,48.01538],[7.79226,48.01602],[7.79193,48.01657],[7.79163,48.01789],[7.79149,48.01778],[7.79165,48.01763],[7.79127,48.01687],[7.79109,48.01678],[7.79088,48.01689],[7.7906,48.0166],[7.79148,48.01631],[7.79193,48.01593],[7.79165,48.01494],[7.79201,48.01466],[7.79144,48.01355],[7.79041,48.01454],[7.78877,48.0148],[7.78731,48.01457],[7.78699,48.01478],[7.7859,48.01501],[7.78507,48.01567],[7.78452,48.01648],[7.78475,48.01726],[7.78445,48.01856],[7.78475,48.01926],[7.78622,48.01928],[7.78755,48.0195],[7.78646,48.02058],[7.78599,48.02137],[7.78613,48.02155],[7.78557,48.02166],[7.78517,48.02201],[7.78208,48.02204],[7.7801,48.02128],[7.77971,48.02163],[7.78087,48.02245],[7.78114,48.02285],[7.78121,48.02339],[7.78109,48.02451],[7.78016,48.02534],[7.781,48.0259],[7.78224,48.02534],[7.78603,48.02528],[7.7877,48.0259],[7.79032,48.02735],[7.78697,48.03206],[7.78738,48.03277],[7.78809,48.03275],[7.7879,48.03319],[7.78986,48.03602],[7.79581,48.03443],[7.798,48.03566],[7.8012,48.03437],[7.80193,48.03363],[7.80361,48.03274],[7.8014,48.03154],[7.80199,48.03111],[7.80239,48.03052],[7.80269,48.02924],[7.80419,48.02823],[7.80371,48.02756],[7.8034,48.02739],[7.80429,48.02606],[7.80446,48.02462],[7.80415,48.02408],[7.80362,48.02411],[7.80357,48.02379],[7.80352,48.02321],[7.80373,48.02317],[7.80374,48.01828],[7.80983,48.01664],[7.80978,48.01655],[7.81024,48.01635],[7.80867,48.01438]]]}},{"type":"Feature","properties":{"name":"Opfingen"},"geometry":{"type":"Polygon","coordinates":[[[7.76091,47.99942],[7.76034,47.99862],[7.76114,47.99626],[7.76221,47.9953],[7.76247,47.99464],[7.76267,47.993],[7.76179,47.99276],[7.76222,47.99215],[7.75853,47.99291],[7.75707,47.99231],[7.75592,47.99205],[7.75352,47.99255],[7.74993,47.99191],[7.74765,47.99095],[7.74389,47.9899],[7.74204,47.9887],[7.73798,47.98999],[7.73469,47.99043],[7.73267,47.99109],[7.73205,47.9911],[7.73144,47.98986],[7.73064,47.98947],[7.72904,47.98938],[7.7277,47.98965],[7.72744,47.99011],[7.7273,47.99137],[7.72662,47.99286],[7.72591,47.99338],[7.7237,47.99438],[7.72316,47.99383],[7.72126,47.99393],[7.72167,47.99309],[7.71996,47.9932],[7.71986,47.99218],[7.71897,47.99229],[7.71839,47.99183],[7.71571,47.99319],[7.7153,47.99294],[7.7157,47.99252],[7.71578,47.9916],[7.71433,47.99089],[7.71119,47.9933],[7.70833,47.99235],[7.7073,47.99274],[7.70676,47.99335],[7.7061,47.99279],[7.70569,47.9918],[7.70349,47.99185],[7.7017,47.99129],[7.70103,47.99212],[7.70066,47.9921],[7.69963,47.99131],[7.69667,47.99256],[7.69534,47.99175],[7.69451,47.99241],[7.69277,47.99138],[7.69231,47.99168],[7.69157,47.99125],[7.69066,47.99169],[7.69051,47.99157],[7.68866,47.99227],[7.68797,47.99154],[7.6847,47.98961],[7.68433,47.9898],[7.68358,47.98935],[7.68274,47.98964],[7.68213,47.98917],[7.68088,47.98994],[7.68147,47.99045],[7.68116,47.9906],[7.68129,47.99072],[7.67965,47.99133],[7.67975,47.99162],[7.67896,47.99185],[7.67921,47.99222],[7.67928,47.99288],[7.6797,47.99299],[7.67866,47.99392],[7.67832,47.99469],[7.67847,47.99515],[7.67925,47.99622],[7.68143,47.99811],[7.68618,48.00017],[7.68941,48.00234],[7.69266,48.00366],[7.69376,48.00392],[7.69394,48.00433],[7.69316,48.00443],[7.69323,48.00472],[7.69385,48.00463],[7.6943,48.00549],[7.69492,48.00561],[7.69587,48.00656],[7.69915,48.00847],[7.69977,48.00806],[7.70163,48.00887],[7.70831,48.01093],[7.70833,48.01116],[7.70776,48.0112],[7.70914,48.01155],[7.70882,48.01176],[7.70995,48.01235],[7.71104,48.0127],[7.71197,48.01379],[7.71087,48.01378],[7.71063,48.01429],[7.70978,48.014],[7.7089,48.01501],[7.71032,48.01541],[7.71158,48.01471],[7.71204,48.01394],[7.71236,48.01414],[7.71276,48.01401],[7.71283,48.01313],[7.71331,48.01234],[7.71453,48.01294],[7.71481,48.01384],[7.71535,48.01443],[7.71555,48.01434],[7.71597,48.0149],[7.7168,48.01653],[7.71682,48.01689],[7.71701,48.01702],[7.7174,48.01669],[7.71845,48.01655],[7.71913,48.01797],[7.7199,48.01876],[7.72142,48.01781],[7.7227,48.01898],[7.72268,48.01929],[7.7233,48.01932],[7.72335,48.01909],[7.72354,48.0191],[7.72356,48.01921],[7.7258,48.01956],[7.72578,48.01944],[7.72651,48.01947],[7.72648,48.01897],[7.72868,48.01883],[7.72888,48.01901],[7.72935,48.01827],[7.72967,48.01813],[7.7311,48.01857],[7.73274,48.01778],[7.73247,48.01687],[7.73392,48.01567],[7.73639,48.01432],[7.73917,48.01357],[7.74089,48.01365],[7.74251,48.01345],[7.74335,48.01503],[7.74437,48.01564],[7.74512,48.01636],[7.74693,48.01734],[7.74976,48.01746],[7.75061,48.01733],[7.75202,48.01693],[7.7543,48.01557],[7.75534,48.01473],[7.75593,48.01387],[7.75656,48.01346],[7.75734,48.01335],[7.75804,48.01306],[7.7587,48.01225],[7.76076,48.01175],[7.76215,48.01114],[7.76384,48.01003],[7.76537,48.00938],[7.7656,48.00802],[7.76645,48.0071],[7.76892,48.00702],[7.77353,48.00608],[7.77505,48.00592],[7.7731,48.00112],[7.76693,48.00204],[7.76636,48.00146],[7.76597,48.00022],[7.7658,47.99805],[7.76391,47.99921],[7.76091,47.99942]]]}},{"type":"Feature","properties":{"name":"Kappel"},"geometry":{"type":"Polygon","coordinates":[[[7.90563,47.91362],[7.90487,47.91344],[7.90462,47.91305],[7.90281,47.91231],[7.90018,47.9119],[7.89854,47.91193],[7.89791,47.91281],[7.89586,47.9149],[7.8952,47.91594],[7.89411,47.91713],[7.8924,47.91828],[7.89219,47.91883],[7.8915,47.91908],[7.89105,47.9196],[7.89017,47.92189],[7.89036,47.92265],[7.88996,47.92392],[7.89157,47.92691],[7.89179,47.92812],[7.89145,47.92962],[7.89086,47.93076],[7.89085,47.93127],[7.89047,47.93226],[7.89014,47.9339],[7.88991,47.93425],[7.89079,47.93561],[7.8906,47.93604],[7.89073,47.93787],[7.8913,47.93946],[7.89149,47.94095],[7.89097,47.94202],[7.89123,47.94312],[7.88704,47.94427],[7.88559,47.94539],[7.8849,47.94689],[7.8843,47.94735],[7.8822,47.94793],[7.88176,47.94876],[7.88138,47.95137],[7.88074,47.95217],[7.8804,47.95302],[7.88274,47.95413],[7.88447,47.95542],[7.8859,47.95601],[7.88561,47.95637],[7.88568,47.95706],[7.88525,47.95847],[7.88493,47.95901],[7.885,47.96042],[7.8854,47.9613],[7.8855,47.96247],[7.88612,47.96294],[7.88716,47.96351],[7.88784,47.96351],[7.88971,47.96527],[7.89151,47.96621],[7.89211,47.96626],[7.89455,47.96707],[7.89773,47.96838],[7.89808,47.96908],[7.89849,47.96937],[7.90152,47.97026],[7.90187,47.97054],[7.90208,47.97171],[7.90273,47.97224],[7.90676,47.97353],[7.9076,47.97389],[7.90803,47.97436],[7.90953,47.97514],[7.91138,47.97568],[7.91247,47.97629],[7.91264,47.9762],[7.91376,47.97647],[7.91667,47.97534],[7.91779,47.9745],[7.92148,47.97359],[7.92167,47.97347],[7.92111,47.97258],[7.92329,47.97166],[7.92452,47.97075],[7.92372,47.96987],[7.92263,47.96967],[7.92202,47.96831],[7.92187,47.96746],[7.91979,47.96734],[7.91803,47.96761],[7.91788,47.96724],[7.91558,47.9655],[7.91526,47.9649],[7.91519,47.96342],[7.91479,47.96294],[7.91569,47.9618],[7.9161,47.96027],[7.91724,47.95902],[7.91706,47.95865],[7.91724,47.958],[7.91912,47.95725],[7.91882,47.95663],[7.91902,47.95595],[7.91896,47.95568],[7.91985,47.95423],[7.92382,47.95135],[7.9248,47.95105],[7.92418,47.95017],[7.92441,47.95009],[7.92425,47.94962],[7.92437,47.94865],[7.9243,47.94733],[7.92474,47.9461],[7.92485,47.94488],[7.92439,47.94312],[7.92417,47.94124],[7.92478,47.94017],[7.92392,47.93885],[7.92214,47.93691],[7.9198,47.93563],[7.91713,47.93507],[7.91598,47.93373],[7.91484,47.93141],[7.9127,47.92982],[7.91122,47.9294],[7.90905,47.92907],[7.9083,47.92848],[7.90664,47.92434],[7.90744,47.92316],[7.90919,47.91958],[7.91005,47.91823],[7.90952,47.91544],[7.90844,47.91431],[7.90563,47.91362]]]}},{"type":"Feature","properties":{"name":"Waltershofen"},"geometry":{"type":"Polygon","coordinates":[[[7.76537,48.00938],[7.76384,48.01003],[7.76215,48.01114],[7.76076,48.01175],[7.7587,48.01225],[7.75804,48.01306],[7.75734,48.01335],[7.75656,48.01346],[7.75593,48.01387],[7.75534,48.01473],[7.7543,48.01557],[7.75202,48.01693],[7.75061,48.01733],[7.74976,48.01746],[7.74693,48.01734],[7.74512,48.01636],[7.74437,48.01564],[7.74335,48.01503],[7.74251,48.01345],[7.74089,48.01365],[7.73917,48.01357],[7.73639,48.01432],[7.73392,48.01567],[7.73247,48.01687],[7.73274,48.01778],[7.7311,48.01857],[7.72967,48.01813],[7.72935,48.01827],[7.72888,48.01901],[7.72868,48.01883],[7.72648,48.01897],[7.72651,48.01947],[7.72578,48.01944],[7.7258,48.01956],[7.72356,48.01921],[7.72354,48.0191],[7.72335,48.01909],[7.7233,48.01932],[7.72268,48.01929],[7.7227,48.01898],[7.72142,48.01781],[7.7199,48.01876],[7.71913,48.01797],[7.71845,48.01655],[7.7174,48.01669],[7.71701,48.01702],[7.71682,48.01689],[7.7168,48.01653],[7.71597,48.0149],[7.71555,48.01434],[7.71535,48.01443],[7.71481,48.01384],[7.71453,48.01294],[7.71331,48.01234],[7.71283,48.01313],[7.71276,48.01401],[7.71236,48.01414],[7.71204,48.01394],[7.71158,48.01471],[7.71032,48.01541],[7.7089,48.01501],[7.70978,48.014],[7.71063,48.01429],[7.71087,48.01378],[7.71197,48.01379],[7.71104,48.0127],[7.70995,48.01235],[7.70882,48.01176],[7.70914,48.01155],[7.70812,48.01124],[7.70747,48.01122],[7.70469,48.01183],[7.70578,48.01407],[7.70535,48.01431],[7.70565,48.0152],[7.70512,48.01543],[7.70603,48.01627],[7.70422,48.0167],[7.70503,48.01757],[7.70399,48.01783],[7.70456,48.01855],[7.70357,48.01865],[7.70359,48.01897],[7.7036,48.01911],[7.70381,48.01909],[7.70458,48.02039],[7.70378,48.0205],[7.70401,48.02144],[7.70291,48.02142],[7.70403,48.02311],[7.70327,48.02332],[7.70364,48.02394],[7.70372,48.0251],[7.70354,48.0252],[7.70346,48.02596],[7.70196,48.02618],[7.70167,48.02663],[7.70184,48.02689],[7.70306,48.02713],[7.7028,48.02756],[7.70227,48.02754],[7.70222,48.02778],[7.70357,48.0288],[7.7042,48.02898],[7.70429,48.02914],[7.70411,48.02922],[7.70481,48.02984],[7.70522,48.03065],[7.70475,48.0308],[7.70692,48.0331],[7.70672,48.03319],[7.70755,48.03421],[7.70721,48.03438],[7.70837,48.03536],[7.71227,48.0339],[7.71384,48.03386],[7.71364,48.03309],[7.71672,48.03345],[7.71674,48.03448],[7.71856,48.03431],[7.71865,48.03476],[7.71963,48.03461],[7.71956,48.03434],[7.72061,48.03426],[7.7216,48.03381],[7.7227,48.0343],[7.72291,48.03416],[7.72311,48.0343],[7.72331,48.03421],[7.72397,48.03514],[7.72533,48.03501],[7.72589,48.03572],[7.72706,48.0357],[7.72735,48.03633],[7.72785,48.03681],[7.72881,48.03743],[7.72915,48.03733],[7.7303,48.03822],[7.73064,48.03825],[7.7315,48.03787],[7.73181,48.03845],[7.73255,48.03832],[7.73353,48.03873],[7.73364,48.03846],[7.73326,48.03747],[7.73448,48.03645],[7.73398,48.03419],[7.7337,48.0336],[7.73375,48.03287],[7.73554,48.0319],[7.73592,48.03147],[7.73686,48.03092],[7.7378,48.03091],[7.73945,48.02979],[7.74013,48.02997],[7.74041,48.02894],[7.74106,48.02836],[7.74173,48.02812],[7.74183,48.02767],[7.74253,48.02762],[7.74303,48.02738],[7.74325,48.02706],[7.74387,48.02695],[7.74388,48.02667],[7.74631,48.02637],[7.74613,48.0258],[7.74625,48.0257],[7.7471,48.02555],[7.74872,48.02445],[7.75162,48.02284],[7.75145,48.02144],[7.75455,48.02008],[7.75827,48.01884],[7.75897,48.02018],[7.75899,48.02101],[7.75873,48.02179],[7.75899,48.02222],[7.76044,48.02156],[7.76269,48.02095],[7.76247,48.02072],[7.76266,48.0204],[7.76365,48.01991],[7.76522,48.01943],[7.7664,48.01929],[7.7675,48.01859],[7.76783,48.01788],[7.76952,48.01705],[7.76976,48.01503],[7.76889,48.01374],[7.76795,48.01186],[7.76764,48.01054],[7.76695,48.00989],[7.76537,48.00938]]]}},{"type":"Feature","properties":{"name":"Günterstal"},"geometry":{"type":"Polygon","coordinates":[[[7.88984,47.90581],[7.88741,47.90483],[7.88448,47.90396],[7.88224,47.90428],[7.87498,47.9036],[7.87268,47.90409],[7.87147,47.9045],[7.87024,47.90627],[7.86962,47.90777],[7.86804,47.90922],[7.86679,47.91142],[7.86633,47.91157],[7.86593,47.91218],[7.86431,47.91312],[7.86304,47.91326],[7.86286,47.91412],[7.86248,47.91457],[7.86235,47.91566],[7.86478,47.91664],[7.86363,47.91744],[7.86335,47.91783],[7.86342,47.91885],[7.86313,47.91958],[7.86271,47.92005],[7.86274,47.92049],[7.86245,47.92078],[7.86278,47.92226],[7.86301,47.92253],[7.86249,47.92326],[7.86255,47.92355],[7.86241,47.92389],[7.86301,47.92399],[7.86435,47.92378],[7.86474,47.9242],[7.86476,47.9246],[7.86753,47.92349],[7.86774,47.92347],[7.86795,47.92376],[7.86789,47.92431],[7.86624,47.92555],[7.86603,47.92609],[7.86621,47.92692],[7.86577,47.92773],[7.86576,47.92829],[7.86606,47.92865],[7.86646,47.92879],[7.86739,47.92852],[7.86769,47.92931],[7.86843,47.92961],[7.86814,47.93025],[7.86867,47.93085],[7.86791,47.93106],[7.86768,47.93142],[7.8677,47.93218],[7.86794,47.93291],[7.86859,47.93373],[7.86888,47.93389],[7.87013,47.93351],[7.86998,47.93303],[7.87131,47.93222],[7.87205,47.93203],[7.87251,47.93228],[7.87385,47.93127],[7.87494,47.93134],[7.87551,47.93203],[7.87599,47.93344],[7.87725,47.9353],[7.87763,47.93732],[7.87754,47.93793],[7.87723,47.93835],[7.87799,47.94007],[7.87698,47.94008],[7.87636,47.94029],[7.87703,47.94099],[7.87756,47.94218],[7.87806,47.94272],[7.8785,47.94293],[7.87897,47.94352],[7.8787,47.94411],[7.87836,47.94574],[7.87892,47.94641],[7.87941,47.94757],[7.87885,47.94856],[7.87769,47.94895],[7.87582,47.94903],[7.87242,47.95078],[7.87115,47.95127],[7.86871,47.95101],[7.86884,47.95074],[7.86948,47.95028],[7.86938,47.94983],[7.86673,47.94981],[7.86658,47.95018],[7.8636,47.95012],[7.85826,47.94887],[7.85611,47.94986],[7.85399,47.95253],[7.85407,47.95337],[7.85394,47.95395],[7.85417,47.95478],[7.85058,47.95648],[7.84939,47.95678],[7.8486,47.95851],[7.84905,47.96045],[7.84869,47.96155],[7.84406,47.96376],[7.84295,47.96411],[7.8394,47.96386],[7.83741,47.96567],[7.83463,47.9666],[7.83665,47.96939],[7.83742,47.97117],[7.83786,47.97122],[7.83837,47.97168],[7.83963,47.97239],[7.84064,47.97271],[7.84266,47.97296],[7.84325,47.97265],[7.84339,47.97271],[7.84407,47.97363],[7.84394,47.97428],[7.84531,47.97505],[7.84769,47.97477],[7.86487,47.97381],[7.87299,47.97249],[7.88784,47.96351],[7.88716,47.96351],[7.8855,47.96247],[7.8854,47.9613],[7.885,47.96042],[7.88493,47.95901],[7.88525,47.95847],[7.88568,47.95706],[7.88561,47.95637],[7.8859,47.95601],[7.88447,47.95542],[7.88274,47.95413],[7.8804,47.95302],[7.88074,47.95217],[7.88138,47.95137],[7.88176,47.94876],[7.8822,47.94793],[7.8843,47.94735],[7.8849,47.94689],[7.88559,47.94539],[7.88704,47.94427],[7.89123,47.94312],[7.89097,47.94202],[7.89149,47.94095],[7.8913,47.93946],[7.89073,47.93787],[7.8906,47.93604],[7.89079,47.93561],[7.88991,47.93425],[7.89014,47.9339],[7.89047,47.93226],[7.89085,47.93127],[7.89086,47.93076],[7.89145,47.92962],[7.89179,47.92812],[7.89157,47.92691],[7.88996,47.92392],[7.89036,47.92265],[7.89017,47.92189],[7.89105,47.9196],[7.8915,47.91908],[7.89219,47.91883],[7.8924,47.91828],[7.89411,47.91713],[7.8952,47.91594],[7.89586,47.9149],[7.89791,47.91281],[7.89854,47.91193],[7.89809,47.91137],[7.89698,47.91078],[7.89494,47.91031],[7.89337,47.91015],[7.89291,47.90993],[7.89245,47.90783],[7.89219,47.90739],[7.8909,47.90628],[7.88984,47.90581]]]}},{"type":"Feature","properties":{"name":"St. Georgen"},"geometry":{"type":"Polygon","coordinates":[[[7.82248,47.97236],[7.82258,47.9723],[7.82127,47.97152],[7.82007,47.97048],[7.8187,47.97018],[7.81795,47.9686],[7.81661,47.96766],[7.81313,47.96772],[7.81211,47.96713],[7.80906,47.96589],[7.80761,47.96568],[7.80676,47.96525],[7.80613,47.96463],[7.80216,47.96406],[7.80042,47.96454],[7.79929,47.96526],[7.79566,47.96623],[7.79218,47.96834],[7.79054,47.96885],[7.78871,47.96884],[7.7868,47.9693],[7.78645,47.96918],[7.78593,47.96953],[7.78567,47.96934],[7.78514,47.96967],[7.78496,47.96947],[7.78427,47.96997],[7.78392,47.96975],[7.7829,47.97017],[7.78276,47.97007],[7.78209,47.97046],[7.78112,47.97037],[7.78041,47.97065],[7.77805,47.97215],[7.77581,47.9727],[7.77627,47.97387],[7.77228,47.9749],[7.77265,47.97544],[7.77204,47.97566],[7.76991,47.97764],[7.7679,47.97847],[7.76575,47.97704],[7.76348,47.97682],[7.75994,47.97764],[7.75597,47.97878],[7.75504,47.97874],[7.75687,47.98071],[7.75818,47.98315],[7.7585,47.98434],[7.76155,47.98473],[7.76305,47.98511],[7.76388,47.9875],[7.76319,47.98834],[7.76267,47.98942],[7.7637,47.99111],[7.76224,47.99189],[7.76179,47.99276],[7.76267,47.993],[7.76247,47.99464],[7.76221,47.9953],[7.76114,47.99626],[7.76034,47.99862],[7.76091,47.99942],[7.7634,47.99932],[7.76442,47.99902],[7.76652,47.9976],[7.76874,47.99699],[7.77359,47.99509],[7.77503,47.99481],[7.77921,47.99519],[7.78251,47.99497],[7.79853,47.99521],[7.80049,47.99504],[7.7982,47.9923],[7.79792,47.99148],[7.79774,47.99153],[7.79681,47.98857],[7.79611,47.98566],[7.79889,47.98559],[7.80197,47.98528],[7.80951,47.9838],[7.81166,47.98355],[7.81445,47.98361],[7.81938,47.98422],[7.82016,47.98158],[7.82057,47.98083],[7.82183,47.9795],[7.82357,47.97834],[7.8209,47.97775],[7.81633,47.97717],[7.81617,47.97642],[7.81826,47.97575],[7.81876,47.97516],[7.81965,47.97481],[7.82004,47.97446],[7.82416,47.97341],[7.82546,47.97279],[7.82537,47.97222],[7.82313,47.97279],[7.82248,47.97236]]]}},{"type":"Feature","properties":{"name":"Weingarten"},"geometry":{"type":"Polygon","coordinates":[[[7.81097,47.99267],[7.80618,47.99358],[7.8019,47.99477],[7.79906,47.99519],[7.79919,47.99713],[7.79864,48.00121],[7.79888,48.00299],[7.79965,48.00478],[7.80057,48.00614],[7.8017,48.00739],[7.80355,48.00896],[7.80654,48.00462],[7.80714,48.0039],[7.8078,48.00341],[7.82149,47.99808],[7.81327,47.99203],[7.81097,47.99267]]]}},{"type":"Feature","properties":{"name":"Munzingen"},"geometry":{"type":"Polygon","coordinates":[[[7.70453,47.96263],[7.69839,47.95973],[7.69535,47.96206],[7.69066,47.96333],[7.69054,47.96324],[7.68933,47.96351],[7.68772,47.96104],[7.6837,47.96226],[7.67965,47.96075],[7.67764,47.95918],[7.67559,47.96091],[7.67362,47.96222],[7.67259,47.96331],[7.67137,47.96426],[7.67006,47.96436],[7.66804,47.9625],[7.66481,47.96501],[7.6619,47.96569],[7.66291,47.9666],[7.66324,47.9675],[7.66373,47.96742],[7.66386,47.9678],[7.66368,47.96784],[7.66404,47.96869],[7.66429,47.96866],[7.66474,47.9701],[7.66536,47.97001],[7.66562,47.97037],[7.66545,47.97043],[7.66608,47.97132],[7.66658,47.97121],[7.66685,47.97206],[7.66673,47.97241],[7.66685,47.97238],[7.66753,47.97365],[7.66939,47.97318],[7.66909,47.97356],[7.67009,47.97395],[7.67027,47.97377],[7.67138,47.97386],[7.67125,47.97407],[7.67497,47.97444],[7.67517,47.9742],[7.67655,47.97458],[7.67684,47.97488],[7.67716,47.97473],[7.67854,47.97506],[7.67761,47.97564],[7.6785,47.9759],[7.67827,47.97632],[7.67827,47.97678],[7.67872,47.97682],[7.67906,47.97778],[7.67893,47.97804],[7.67815,47.97832],[7.6782,47.97878],[7.67869,47.97987],[7.67944,47.9808],[7.67954,47.9807],[7.68018,47.98223],[7.68009,47.98285],[7.68021,47.98319],[7.68088,47.98355],[7.68217,47.98323],[7.68259,47.98351],[7.68326,47.98452],[7.6846,47.98418],[7.6845,47.98307],[7.68525,47.98309],[7.68538,47.98289],[7.69115,47.98373],[7.69275,47.98181],[7.69339,47.98203],[7.69376,47.98156],[7.69572,47.98357],[7.69607,47.98343],[7.69579,47.98307],[7.69634,47.98269],[7.69626,47.98261],[7.6976,47.98178],[7.69798,47.98216],[7.70034,47.98152],[7.70414,47.97996],[7.70447,47.98019],[7.70501,47.97994],[7.70513,47.98013],[7.70805,47.97938],[7.70767,47.97887],[7.70853,47.97802],[7.70964,47.97771],[7.70928,47.97736],[7.71085,47.97697],[7.71085,47.97669],[7.71029,47.9755],[7.71025,47.97464],[7.71192,47.97439],[7.71168,47.9742],[7.71364,47.97362],[7.71202,47.97111],[7.71315,47.97083],[7.71278,47.97022],[7.717,47.96996],[7.71709,47.96899],[7.70904,47.96477],[7.70453,47.96263]]]}},{"type":"Feature","properties":{"name":"Mundenhof"},"geometry":{"type":"Polygon","coordinates":[[[7.78224,48.00947],[7.7819,48.00842],[7.78077,48.00774],[7.78002,48.00807],[7.78011,48.00817],[7.77656,48.00973],[7.77647,48.0095],[7.7725,48.01019],[7.76764,48.01054],[7.76795,48.01186],[7.76923,48.01424],[7.77283,48.01706],[7.77654,48.01971],[7.77971,48.02163],[7.78015,48.02127],[7.78208,48.02204],[7.78517,48.02201],[7.78557,48.02166],[7.78613,48.02155],[7.78599,48.02137],[7.78646,48.02058],[7.78755,48.0195],[7.78622,48.01928],[7.78475,48.01926],[7.78445,48.01856],[7.78475,48.01726],[7.78452,48.01648],[7.78507,48.01567],[7.7859,48.01501],[7.78699,48.01478],[7.78954,48.01311],[7.79083,48.01266],[7.78907,48.01181],[7.78528,48.01053],[7.78385,48.01028],[7.78224,48.00947]]]}},{"type":"Feature","properties":{"name":"Brühl"},"geometry":{"type":"Polygon","coordinates":[[[7.84467,48.00224],[7.84449,48.00232],[7.84452,48.0032],[7.84422,48.00412],[7.84374,48.00479],[7.84302,48.00541],[7.80391,48.03382],[7.80502,48.03419],[7.80781,48.03351],[7.80918,48.03301],[7.81098,48.03271],[7.81524,48.03372],[7.81711,48.03381],[7.82224,48.0355],[7.82575,48.03542],[7.82753,48.036],[7.83036,48.03606],[7.83111,48.03638],[7.83145,48.03705],[7.83324,48.03889],[7.8339,48.04035],[7.83378,48.04209],[7.83324,48.04327],[7.83283,48.04369],[7.83335,48.04488],[7.83403,48.04561],[7.83374,48.04611],[7.83379,48.04654],[7.83296,48.04825],[7.83133,48.05332],[7.83478,48.05869],[7.83891,48.05588],[7.84335,48.05434],[7.84572,48.05249],[7.84787,48.05213],[7.85044,48.05136],[7.8515,48.04996],[7.85316,48.04665],[7.85365,48.04478],[7.85386,48.0447],[7.85417,48.04399],[7.85416,48.04263],[7.85445,48.04189],[7.85451,48.04056],[7.85452,48.03997],[7.8543,48.03992],[7.85444,48.03668],[7.8555,48.03682],[7.85634,48.03667],[7.8572,48.03645],[7.85721,48.03622],[7.85877,48.03543],[7.86044,48.035],[7.86107,48.03506],[7.86105,48.03358],[7.86072,48.03221],[7.85987,48.03055],[7.85699,48.02601],[7.85665,48.02513],[7.85648,48.0239],[7.8526,48.02099],[7.85501,48.0195],[7.85683,48.01908],[7.85548,48.01605],[7.85776,48.0154],[7.84765,48.00473],[7.84486,48.00216],[7.84467,48.00224]]]}},{"type":"Feature","properties":{"name":"Zähringen"},"geometry":{"type":"Polygon","coordinates":[[[7.86656,48.01675],[7.86523,48.01696],[7.86498,48.01618],[7.8634,48.01633],[7.86302,48.01652],[7.86249,48.01635],[7.85901,48.01672],[7.85776,48.0154],[7.85548,48.01605],[7.85683,48.01908],[7.85501,48.0195],[7.8526,48.02099],[7.85648,48.0239],[7.85665,48.02513],[7.85699,48.02601],[7.85987,48.03055],[7.86072,48.03221],[7.86105,48.03358],[7.86107,48.03506],[7.86178,48.03521],[7.86356,48.03511],[7.86504,48.03476],[7.867,48.03405],[7.86794,48.03326],[7.87029,48.03217],[7.87102,48.03121],[7.87063,48.03111],[7.87111,48.03032],[7.87102,48.02986],[7.87184,48.02972],[7.87241,48.02983],[7.87303,48.02956],[7.87359,48.03042],[7.87547,48.03129],[7.87785,48.02842],[7.87853,48.02685],[7.8808,48.02496],[7.88128,48.02386],[7.88226,48.0225],[7.88379,48.02215],[7.88492,48.02289],[7.88599,48.02262],[7.88666,48.02162],[7.88736,48.02113],[7.88878,48.02029],[7.88964,48.02012],[7.89093,48.0193],[7.89341,48.01927],[7.895,48.01849],[7.89608,48.01779],[7.89702,48.01692],[7.89798,48.01556],[7.89755,48.01539],[7.89641,48.01551],[7.89571,48.01578],[7.89493,48.01639],[7.89214,48.01687],[7.88942,48.0165],[7.88902,48.01657],[7.88851,48.01684],[7.88845,48.01723],[7.88654,48.01843],[7.8862,48.01888],[7.88641,48.01937],[7.88609,48.01991],[7.88477,48.02081],[7.8844,48.02137],[7.88093,48.01977],[7.87985,48.01899],[7.87919,48.01933],[7.87852,48.01994],[7.87783,48.02012],[7.8776,48.02047],[7.87608,48.02107],[7.87567,48.02109],[7.87442,48.02037],[7.87347,48.02012],[7.87284,48.01965],[7.87256,48.01915],[7.87237,48.01757],[7.87254,48.01653],[7.86656,48.01675]]]}},{"type":"Feature","properties":{"name":"Betzenhausen"},"geometry":{"type":"Polygon","coordinates":[[[7.82187,47.99836],[7.82149,47.99808],[7.8078,48.00341],[7.80714,48.0039],[7.80654,48.00462],[7.80376,48.00863],[7.80355,48.00896],[7.80659,48.01161],[7.81024,48.01635],[7.81105,48.01588],[7.81153,48.01525],[7.81232,48.01553],[7.81265,48.01509],[7.81333,48.01466],[7.81301,48.01443],[7.81919,48.01131],[7.81948,48.01134],[7.81986,48.0117],[7.82093,48.01198],[7.82163,48.01207],[7.82257,48.01188],[7.82521,48.0103],[7.82863,48.00785],[7.82544,48.00563],[7.82966,48.00412],[7.82187,47.99836]]]}},{"type":"Feature","properties":{"name":"Ebnet"},"geometry":{"type":"Polygon","coordinates":[[[7.90993,47.98054],[7.9066,47.98166],[7.90162,47.98484],[7.90142,47.98473],[7.89889,47.98652],[7.89877,47.98645],[7.89777,47.98698],[7.8977,47.98734],[7.89325,47.9897],[7.89485,47.99015],[7.89697,47.99023],[7.89903,47.99084],[7.90256,47.99124],[7.90545,47.99287],[7.90649,47.99415],[7.90774,47.99526],[7.9079,47.99574],[7.90735,47.99672],[7.9053,47.99744],[7.90514,47.99849],[7.9054,47.99894],[7.9055,48.00068],[7.90604,48.00154],[7.90546,48.00237],[7.90467,48.00402],[7.90471,48.00489],[7.90391,48.00505],[7.9028,48.00616],[7.90242,48.00676],[7.90188,48.00716],[7.90125,48.0083],[7.90122,48.00919],[7.90208,48.01046],[7.9035,48.01154],[7.9036,48.01192],[7.90401,48.01238],[7.90492,48.01282],[7.90651,48.01297],[7.90719,48.01325],[7.90951,48.01291],[7.91073,48.01302],[7.91298,48.01187],[7.91421,48.01213],[7.91649,48.01358],[7.92007,48.01504],[7.92189,48.01561],[7.92424,48.01418],[7.92627,48.01385],[7.9273,48.01268],[7.92786,48.01121],[7.9284,48.01055],[7.92838,48.00909],[7.9287,48.00854],[7.92784,48.00572],[7.92818,48.00491],[7.92839,48.00272],[7.92731,48.00124],[7.92734,48.00082],[7.92753,48.00014],[7.92799,47.99936],[7.92795,47.99869],[7.92941,47.99745],[7.9292,47.99727],[7.92905,47.99667],[7.92975,47.9961],[7.93023,47.99539],[7.92998,47.99378],[7.93055,47.99275],[7.93068,47.99232],[7.93055,47.99177],[7.93086,47.99113],[7.93035,47.99059],[7.93027,47.99],[7.92928,47.98862],[7.92765,47.98923],[7.92753,47.98867],[7.92687,47.98774],[7.92667,47.98724],[7.92781,47.98639],[7.9283,47.98583],[7.92519,47.98553],[7.92531,47.98303],[7.92521,47.98166],[7.92489,47.98088],[7.91493,47.97941],[7.91342,47.97944],[7.90993,47.98054]]]}},{"type":"Feature","properties":{"name":"Tiengen"},"geometry":{"type":"Polygon","coordinates":[[[7.71711,47.96912],[7.717,47.96996],[7.71278,47.97022],[7.71315,47.97083],[7.71202,47.97111],[7.71364,47.97362],[7.71168,47.9742],[7.71192,47.97439],[7.71025,47.97464],[7.71029,47.9755],[7.71085,47.97669],[7.71085,47.97697],[7.70928,47.97736],[7.70964,47.97771],[7.70853,47.97802],[7.70767,47.97887],[7.70805,47.97938],[7.70513,47.98013],[7.70501,47.97994],[7.70447,47.98019],[7.70414,47.97996],[7.70034,47.98152],[7.69798,47.98216],[7.6976,47.98178],[7.69626,47.98261],[7.69634,47.98269],[7.69579,47.98307],[7.69607,47.98343],[7.69572,47.98357],[7.69376,47.98156],[7.69339,47.98203],[7.69275,47.98181],[7.69115,47.98373],[7.68538,47.98289],[7.68525,47.98309],[7.6845,47.98307],[7.6846,47.98418],[7.68281,47.98475],[7.68368,47.98703],[7.68386,47.98703],[7.68484,47.98805],[7.68373,47.9885],[7.68401,47.98886],[7.68343,47.98912],[7.68433,47.9898],[7.6847,47.98961],[7.6875,47.99124],[7.68866,47.99227],[7.69051,47.99157],[7.69066,47.99169],[7.69157,47.99125],[7.69231,47.99168],[7.69277,47.99138],[7.69451,47.99241],[7.69534,47.99175],[7.69667,47.99256],[7.69963,47.99131],[7.70066,47.9921],[7.70103,47.99212],[7.7017,47.99129],[7.70349,47.99185],[7.70569,47.9918],[7.7061,47.99279],[7.70676,47.99335],[7.7073,47.99274],[7.70833,47.99235],[7.71119,47.9933],[7.71425,47.99088],[7.71578,47.9916],[7.7157,47.99252],[7.7153,47.99294],[7.71571,47.99319],[7.71839,47.99183],[7.71897,47.99229],[7.71986,47.99218],[7.71996,47.9932],[7.72167,47.99309],[7.72126,47.99393],[7.72316,47.99383],[7.7237,47.99438],[7.72641,47.99308],[7.7273,47.99137],[7.72744,47.99011],[7.7277,47.98965],[7.72904,47.98938],[7.73064,47.98947],[7.73144,47.98986],[7.73205,47.9911],[7.73267,47.99109],[7.73469,47.99043],[7.73798,47.98999],[7.74204,47.9887],[7.74389,47.9899],[7.74765,47.99095],[7.74993,47.99191],[7.75352,47.99255],[7.75592,47.99205],[7.75707,47.99231],[7.75853,47.99291],[7.76222,47.99215],[7.76224,47.99189],[7.7637,47.99111],[7.76267,47.98942],[7.76319,47.98834],[7.76388,47.9875],[7.76305,47.98511],[7.76155,47.98473],[7.7585,47.98434],[7.75818,47.98315],[7.75672,47.98053],[7.75061,47.97949],[7.74822,47.97888],[7.74567,47.97868],[7.74446,47.97887],[7.74211,47.97963],[7.74079,47.97975],[7.74083,47.97987],[7.73881,47.98008],[7.73629,47.98007],[7.73531,47.97931],[7.73281,47.9788],[7.73132,47.97777],[7.73078,47.97812],[7.72914,47.97702],[7.72761,47.97811],[7.7267,47.97715],[7.72658,47.97721],[7.7244,47.97558],[7.72393,47.97576],[7.72353,47.97569],[7.72516,47.97447],[7.72224,47.97259],[7.72278,47.97222],[7.72057,47.97063],[7.71928,47.96868],[7.71711,47.96912]]]}},{"type":"Feature","properties":{"name":"Hochdorf"},"geometry":{"type":"Polygon","coordinates":[[[7.80997,48.03286],[7.80502,48.03419],[7.80262,48.0333],[7.8018,48.03372],[7.8012,48.03437],[7.798,48.03566],[7.79581,48.03443],[7.78986,48.03602],[7.79041,48.03669],[7.79166,48.04217],[7.79196,48.04245],[7.79129,48.04293],[7.7934,48.04379],[7.79406,48.04478],[7.79312,48.04505],[7.79422,48.047],[7.79423,48.04818],[7.7944,48.04835],[7.79485,48.04985],[7.79523,48.05226],[7.79599,48.05254],[7.7963,48.05346],[7.79305,48.05365],[7.79553,48.05536],[7.79528,48.0555],[7.79698,48.05898],[7.79553,48.05903],[7.79626,48.06089],[7.79727,48.06103],[7.8035,48.06099],[7.80573,48.06181],[7.80607,48.06237],[7.80583,48.06299],[7.80519,48.06375],[7.81493,48.07104],[7.81761,48.06949],[7.82015,48.07034],[7.82226,48.0699],[7.82473,48.06886],[7.82708,48.06591],[7.82829,48.06483],[7.83243,48.06188],[7.83412,48.05989],[7.83478,48.05869],[7.83133,48.05332],[7.83296,48.04825],[7.83379,48.04654],[7.83374,48.04611],[7.83403,48.04561],[7.83335,48.04488],[7.83283,48.04369],[7.83324,48.04327],[7.83378,48.04209],[7.8339,48.04035],[7.83324,48.03889],[7.83145,48.03705],[7.83111,48.03638],[7.83036,48.03606],[7.82753,48.036],[7.82575,48.03542],[7.82224,48.0355],[7.81711,48.03381],[7.81524,48.03372],[7.81098,48.03271],[7.80997,48.03286]]]}},{"type":"Feature","properties":{"name":"Herdern"},"geometry":{"type":"Polygon","coordinates":[[[7.86298,48.00189],[7.86251,48.00145],[7.86115,48.00216],[7.8596,48.00241],[7.85969,48.00314],[7.85472,48.00351],[7.84828,48.00538],[7.85901,48.01672],[7.86249,48.01635],[7.86302,48.01652],[7.8634,48.01633],[7.86498,48.01618],[7.86523,48.01696],[7.86588,48.01676],[7.86599,48.01687],[7.86822,48.01662],[7.87254,48.01653],[7.87303,48.01593],[7.87406,48.01519],[7.87465,48.01509],[7.87615,48.0141],[7.87938,48.01292],[7.88213,48.01237],[7.88436,48.0117],[7.88483,48.01127],[7.88776,48.01026],[7.88965,48.01018],[7.89124,48.0103],[7.90173,48.01002],[7.89108,48.00332],[7.88051,48.00053],[7.87889,48.00022],[7.87036,48.00124],[7.86913,48.00189],[7.86639,48.00256],[7.86505,48.00233],[7.86427,48.00184],[7.86389,48.0014],[7.86298,48.00189]]]}},{"type":"Feature","properties":{"name":"Haslach"},"geometry":{"type":"Polygon","coordinates":[[[7.82271,47.97887],[7.82149,47.97979],[7.82038,47.98113],[7.81938,47.98422],[7.81445,47.98361],[7.81166,47.98355],[7.80951,47.9838],[7.80197,47.98528],[7.79889,47.98559],[7.79611,47.98566],[7.79681,47.98857],[7.79774,47.99153],[7.79792,47.99148],[7.7982,47.9923],[7.80049,47.99504],[7.80618,47.99358],[7.81058,47.99276],[7.81327,47.99203],[7.82149,47.99808],[7.83659,47.99233],[7.83524,47.99094],[7.83315,47.98936],[7.83074,47.98629],[7.83029,47.98549],[7.83005,47.98461],[7.83002,47.98378],[7.83024,47.98282],[7.8289,47.98131],[7.82709,47.97992],[7.82471,47.97874],[7.82357,47.97834],[7.82271,47.97887]]]}},{"type":"Feature","properties":{"name":"Neuburg"},"geometry":{"type":"Polygon","coordinates":[[[7.85846,47.99339],[7.85868,47.99366],[7.85794,47.9941],[7.85906,47.99557],[7.85943,47.99642],[7.85813,47.9969],[7.85793,47.99662],[7.85761,47.99687],[7.85331,47.99812],[7.84712,47.99886],[7.84284,47.99969],[7.84517,48.00249],[7.84828,48.00538],[7.85472,48.00351],[7.85969,48.00314],[7.8596,48.00241],[7.86115,48.00216],[7.86251,48.00145],[7.86298,48.00189],[7.86389,48.0014],[7.86427,48.00184],[7.86505,48.00233],[7.86639,48.00256],[7.86913,48.00189],[7.87036,48.00124],[7.87889,48.00022],[7.87807,47.99963],[7.87743,47.9994],[7.87699,47.99927],[7.87633,47.99933],[7.87562,47.99905],[7.87481,47.99833],[7.87519,47.99767],[7.87317,47.99636],[7.872,47.9962],[7.87078,47.99671],[7.86847,47.99629],[7.86834,47.99613],[7.86842,47.99533],[7.86772,47.99499],[7.86664,47.99477],[7.86621,47.99398],[7.86518,47.99406],[7.86443,47.99443],[7.86223,47.99365],[7.8604,47.99373],[7.85846,47.99339]]]}},{"type":"Feature","properties":{"name":"Littenweiler"},"geometry":{"type":"Polygon","coordinates":[[[7.92148,47.97359],[7.91779,47.9745],[7.91667,47.97534],[7.91376,47.97647],[7.91264,47.9762],[7.91247,47.97629],[7.91138,47.97568],[7.90953,47.97514],[7.90803,47.97436],[7.9076,47.97389],[7.90676,47.97353],[7.90307,47.9724],[7.90234,47.97204],[7.90208,47.97171],[7.90187,47.97054],[7.90152,47.97026],[7.89849,47.96937],[7.89808,47.96908],[7.89773,47.96838],[7.89455,47.96707],[7.89211,47.96626],[7.89151,47.96621],[7.88971,47.96527],[7.88784,47.96351],[7.87299,47.97249],[7.88258,47.98042],[7.883,47.98099],[7.88278,47.98108],[7.88306,47.98283],[7.88388,47.984],[7.88705,47.98359],[7.89408,47.98202],[7.89398,47.98303],[7.89459,47.98453],[7.89506,47.98438],[7.89678,47.98705],[7.89768,47.98716],[7.89777,47.98698],[7.89877,47.98645],[7.89889,47.98652],[7.90142,47.98473],[7.90162,47.98484],[7.9066,47.98166],[7.91342,47.97944],[7.91399,47.97941],[7.91444,47.97905],[7.91531,47.97785],[7.9159,47.97746],[7.91645,47.97668],[7.91773,47.97597],[7.91773,47.97566],[7.91735,47.97514],[7.91767,47.97469],[7.92048,47.97448],[7.92148,47.97359]]]}},{"type":"Feature","properties":{"name":"Mooswald"},"geometry":{"type":"Polygon","coordinates":[[[7.82966,48.00412],[7.82544,48.00563],[7.82863,48.00785],[7.82521,48.0103],[7.82257,48.01188],[7.82197,48.01201],[7.82093,48.01198],[7.81986,48.0117],[7.81948,48.01134],[7.81919,48.01131],[7.81301,48.01443],[7.81333,48.01466],[7.81265,48.01509],[7.81232,48.01553],[7.81153,48.01525],[7.81105,48.01588],[7.81024,48.01635],[7.81213,48.01812],[7.81614,48.02107],[7.81854,48.02321],[7.83713,48.00967],[7.82966,48.00412]]]}},{"type":"Feature","properties":{"name":"Oberau"},"geometry":{"type":"Polygon","coordinates":[[[7.87097,47.98833],[7.86826,47.98866],[7.86264,47.98857],[7.85849,47.98923],[7.85669,47.99004],[7.85459,47.99056],[7.85435,47.9923],[7.85503,47.99209],[7.8551,47.99228],[7.85696,47.99234],[7.85846,47.99339],[7.8604,47.99373],[7.86223,47.99365],[7.86432,47.99442],[7.86518,47.99406],[7.86621,47.99398],[7.86664,47.99477],[7.86772,47.99499],[7.86842,47.99533],[7.86834,47.99613],[7.86847,47.99629],[7.87078,47.99671],[7.872,47.9962],[7.87317,47.99636],[7.87519,47.99767],[7.87481,47.99833],[7.87562,47.99905],[7.87633,47.99933],[7.87699,47.99927],[7.87743,47.9994],[7.87807,47.99963],[7.87889,48.00022],[7.87991,47.99184],[7.87756,47.99091],[7.87466,47.9908],[7.87472,47.98961],[7.87402,47.98788],[7.87097,47.98833]]]}},{"type":"Feature","properties":{"name":"Stühlinger"},"geometry":{"type":"Polygon","coordinates":[[[7.83683,47.99263],[7.83659,47.99233],[7.8346,47.99299],[7.82149,47.99808],[7.83713,48.00967],[7.84374,48.00479],[7.84441,48.00369],[7.84449,48.00232],[7.84486,48.00216],[7.84066,47.99686],[7.83683,47.99263]]]}},{"type":"Feature","properties":{"name":"Rieselfeld"},"geometry":{"type":"Polygon","coordinates":[[[7.79648,47.99516],[7.78251,47.99497],[7.77921,47.99519],[7.77503,47.99481],[7.77359,47.99509],[7.76874,47.99699],[7.76652,47.9976],[7.7658,47.99805],[7.76597,48.00022],[7.76636,48.00146],[7.76693,48.00204],[7.7731,48.00112],[7.77505,48.00592],[7.77353,48.00608],[7.76892,48.00702],[7.76645,48.0071],[7.7656,48.00802],[7.76537,48.00938],[7.76695,48.00989],[7.76764,48.01054],[7.7725,48.01019],[7.77647,48.0095],[7.77656,48.00973],[7.78011,48.00817],[7.78002,48.00807],[7.78077,48.00774],[7.78187,48.00839],[7.78224,48.00947],[7.78318,48.00998],[7.78907,48.01181],[7.79083,48.01266],[7.78954,48.01311],[7.78731,48.01457],[7.78877,48.0148],[7.79041,48.01454],[7.79144,48.01355],[7.79201,48.01466],[7.79165,48.01494],[7.79193,48.01593],[7.79148,48.01631],[7.7906,48.0166],[7.79088,48.01689],[7.79109,48.01678],[7.79127,48.01687],[7.79165,48.01763],[7.79149,48.01778],[7.79163,48.01789],[7.79193,48.01657],[7.79226,48.01602],[7.7931,48.01538],[7.79324,48.01548],[7.79344,48.01532],[7.79302,48.0147],[7.79416,48.01565],[7.79432,48.0155],[7.79316,48.01458],[7.79292,48.01421],[7.79325,48.01451],[7.79389,48.01477],[7.79479,48.01495],[7.79775,48.01198],[7.79886,48.01227],[7.8006,48.01186],[7.80094,48.01209],[7.80143,48.012],[7.80355,48.00896],[7.8017,48.00739],[7.80057,48.00614],[7.79965,48.00478],[7.79888,48.00299],[7.79864,48.00121],[7.79919,47.99713],[7.79906,47.99519],[7.79648,47.99516]]]}},{"type":"Feature","properties":{"name":"Vauban"},"geometry":{"type":"Polygon","coordinates":[[[7.82836,47.97293],[7.82748,47.97321],[7.82661,47.97216],[7.82645,47.97243],[7.82416,47.97341],[7.8224,47.97379],[7.8209,47.97434],[7.82014,47.97443],[7.81965,47.97481],[7.81876,47.97516],[7.81826,47.97575],[7.81617,47.97642],[7.81633,47.97717],[7.8209,47.97775],[7.82357,47.97834],[7.82451,47.97795],[7.82617,47.9777],[7.82776,47.97714],[7.8289,47.97694],[7.82874,47.97559],[7.82972,47.97545],[7.8303,47.97553],[7.83111,47.97472],[7.83043,47.97398],[7.83002,47.9728],[7.82836,47.97293]]]}},{"type":"Feature","properties":{"name":"Waldsee"},"geometry":{"type":"Polygon","coordinates":[[[7.88288,47.98098],[7.88258,47.98042],[7.87299,47.97249],[7.87338,47.98555],[7.87429,47.98787],[7.87402,47.98788],[7.87467,47.98937],[7.87466,47.9908],[7.87756,47.99091],[7.87991,47.99184],[7.87889,48.00022],[7.88523,48.0017],[7.89108,48.00332],[7.90173,48.01002],[7.90114,48.00895],[7.90125,48.0083],[7.90168,48.00745],[7.90391,48.00505],[7.90471,48.00489],[7.90467,48.00402],[7.90546,48.00237],[7.90604,48.00154],[7.9055,48.00068],[7.9054,47.99894],[7.90514,47.99849],[7.9053,47.99744],[7.90735,47.99672],[7.9079,47.99574],[7.90766,47.99506],[7.90649,47.99415],[7.90545,47.99287],[7.90256,47.99124],[7.89903,47.99084],[7.89697,47.99023],[7.89485,47.99015],[7.89325,47.9897],[7.8977,47.98734],[7.89768,47.98716],[7.89678,47.98705],[7.89506,47.98438],[7.89459,47.98453],[7.89398,47.98303],[7.89408,47.98202],[7.88734,47.98353],[7.8842,47.98404],[7.88388,47.984],[7.88306,47.98283],[7.88278,47.98108],[7.883,47.98099],[7.88288,47.98098]]]}},{"type":"Feature","properties":{"name":"Altstadt"},"geometry":{"type":"Polygon","coordinates":[[[7.85188,47.99025],[7.84622,47.99015],[7.84106,47.99146],[7.83818,47.99192],[7.83659,47.99233],[7.83934,47.99529],[7.84284,47.99969],[7.84712,47.99886],[7.85331,47.99812],[7.85761,47.99687],[7.85793,47.99662],[7.85813,47.9969],[7.85943,47.99642],[7.85906,47.99557],[7.85794,47.9941],[7.85861,47.99375],[7.85869,47.9936],[7.85857,47.99346],[7.85696,47.99234],[7.8551,47.99228],[7.85503,47.99209],[7.85435,47.9923],[7.85453,47.99093],[7.85188,47.99025]]]}},{"type":"Feature","properties":{"name":"Wiehre"},"geometry":{"type":"Polygon","coordinates":[[[7.83742,47.97117],[7.83651,47.97256],[7.8353,47.97242],[7.83002,47.9728],[7.83043,47.97398],[7.83111,47.97472],[7.8303,47.97553],[7.82972,47.97545],[7.82874,47.97559],[7.8289,47.97694],[7.82776,47.97714],[7.82617,47.9777],[7.82451,47.97795],[7.82357,47.97834],[7.82661,47.97964],[7.82808,47.98061],[7.8293,47.98173],[7.83024,47.98282],[7.83002,47.98378],[7.83005,47.98461],[7.83029,47.98549],[7.83074,47.98629],[7.83315,47.98936],[7.83524,47.99094],[7.83659,47.99233],[7.83818,47.99192],[7.84106,47.99146],[7.84622,47.99015],[7.85148,47.9902],[7.85453,47.99093],[7.85459,47.99056],[7.85669,47.99004],[7.85783,47.98944],[7.85902,47.98911],[7.86264,47.98857],[7.86867,47.98863],[7.87429,47.98787],[7.87338,47.98555],[7.87299,47.97249],[7.86487,47.97381],[7.84769,47.97477],[7.84531,47.97505],[7.84394,47.97428],[7.84407,47.97363],[7.84339,47.97271],[7.84325,47.97265],[7.84266,47.97296],[7.84064,47.97271],[7.83963,47.97239],[7.83837,47.97168],[7.83786,47.97122],[7.83742,47.97117]]]}},{"type":"Feature","properties":{"name":"Landwasser"},"geometry":{"type":"Polygon","coordinates":[[[7.81444,48.01982],[7.81213,48.01812],[7.81024,48.01635],[7.80978,48.01655],[7.80983,48.01664],[7.80374,48.01828],[7.80373,48.02317],[7.80352,48.02321],[7.80357,48.02379],[7.80362,48.02411],[7.80415,48.02408],[7.80446,48.02462],[7.80429,48.02606],[7.8034,48.02739],[7.80371,48.02756],[7.80419,48.02823],[7.80269,48.02924],[7.80239,48.03052],[7.80199,48.03111],[7.8014,48.03154],[7.80361,48.03274],[7.80256,48.03322],[7.80269,48.03342],[7.80391,48.03382],[7.81854,48.02321],[7.81635,48.02123],[7.81444,48.01982]]]}}]}