{"type":"FeatureCollection","features":[{"type":"Feature","properties":{"kind":"accessible","label":"St.Erentrudis-Straße","detail":"1 Platz · auf REWE-PP"},"geometry":{"type":"Point","coordinates":[7.83603,48.00055]}},{"type":"Feature","properties":{"kind":"accessible","label":"Habsburgerstrasse 124","detail":"2 Plätze · vor St. Carolushaus"},"geometry":{"type":"Point","coordinates":[7.85373,48.00069]}},{"type":"Feature","properties":{"kind":"accessible","label":"Ingeborg-Drewitz-Allee 22","detail":"2 Plätze"},"geometry":{"type":"Point","coordinates":[7.79137,47.99676]}},{"type":"Feature","properties":{"kind":"accessible","label":"Moltkestraße 3","detail":"2 Plätze"},"geometry":{"type":"Point","coordinates":[7.84354,47.99554]}},{"type":"Feature","properties":{"kind":"accessible","label":"Hermannstraße 14","detail":"2 Plätze · Einbahnstraße"},"geometry":{"type":"Point","coordinates":[7.85706,47.99585]}},{"type":"Feature","properties":{"kind":"accessible","label":"Fahnenbergplatz 3","detail":"2 Plätze · Einbahnstraße"},"geometry":{"type":"Point","coordinates":[7.84828,47.99779]}},{"type":"Feature","properties":{"kind":"accessible","label":"Lise-Meitner-Strasse 14","detail":"1 Platz · vor dem Vaubanaise"},"geometry":{"type":"Point","coordinates":[7.82203,47.97749]}},{"type":"Feature","properties":{"kind":"accessible","label":"Neumattenstraße 43","detail":"1 Platz"},"geometry":{"type":"Point","coordinates":[7.88008,47.9903]}},{"type":"Feature","properties":{"kind":"accessible","label":"Wannerstrasse 1","detail":"1 Platz"},"geometry":{"type":"Point","coordinates":[7.83919,47.9971]}},{"type":"Feature","properties":{"kind":"accessible","label":"Erasmusstraße 6","detail":"1 Platz · Einbahnstraße"},"geometry":{"type":"Point","coordinates":[7.85619,47.99696]}},{"type":"Feature","properties":{"kind":"accessible","label":"Münchhofstraße 3","detail":"1 Platz"},"geometry":{"type":"Point","coordinates":[7.85451,48.00616]}},{"type":"Feature","properties":{"kind":"accessible","label":"Gerberau 14","detail":"1 Platz · Einbahnstraße"},"geometry":{"type":"Point","coordinates":[7.85015,47.9934]}},{"type":"Feature","properties":{"kind":"accessible","label":"Schwarzwaldstrasse 195","detail":"2 Plätze · Parkplatz Strandbad"},"geometry":{"type":"Point","coordinates":[7.8944,47.98786]}},{"type":"Feature","properties":{"kind":"accessible","label":"Meckelhof 3","detail":"1 Platz"},"geometry":{"type":"Point","coordinates":[7.81356,48.01087]}},{"type":"Feature","properties":{"kind":"accessible","label":"Bugginger Strasse 37","detail":"2 Plätze"},"geometry":{"type":"Point","coordinates":[7.803,47.99721]}},{"type":"Feature","properties":{"kind":"accessible","label":"Zehntsteinweg 29","detail":"2 Plätze"},"geometry":{"type":"Point","coordinates":[7.82593,48.00309]}},{"type":"Feature","properties":{"kind":"accessible","label":"Leisnerstrasse 1","detail":"2 Plätze · Parkplatz Leisnerstrasse"},"geometry":{"type":"Point","coordinates":[7.8142,48.01412]}},{"type":"Feature","properties":{"kind":"accessible","label":"Laufener Straße 15","detail":"1 Platz"},"geometry":{"type":"Point","coordinates":[7.81544,47.99736]}},{"type":"Feature","properties":{"kind":"accessible","label":"Rheinstrasse 19","detail":"1 Platz"},"geometry":{"type":"Point","coordinates":[7.84779,48.00017]}},{"type":"Feature","properties":{"kind":"accessible","label":"Kunzenweg 1","detail":"1 Platz · Parkplatz Friedhof"},"geometry":{"type":"Point","coordinates":[7.88948,47.98145]}},{"type":"Feature","properties":{"kind":"accessible","label":"Friedhofstrasse 4","detail":"2 Plätze · Eingang Hauptfriedhof"},"geometry":{"type":"Point","coordinates":[7.84512,48.00746]}},{"type":"Feature","properties":{"kind":"accessible","label":"Auf der Kinzig 12","detail":"1 Platz"},"geometry":{"type":"Point","coordinates":[7.70926,47.98383]}},{"type":"Feature","properties":{"kind":"accessible","label":"Dreisamstraße 5","detail":"1 Platz · Einbahnstraße"},"geometry":{"type":"Point","coordinates":[7.84924,47.99056]}},{"type":"Feature","properties":{"kind":"accessible","label":"Langemarckstraße 105","detail":"1 Platz · gekiester Seitenstreifen"},"geometry":{"type":"Point","coordinates":[7.83069,47.98077]}},{"type":"Feature","properties":{"kind":"accessible","label":"Humboldstraße 1","detail":"1 Platz · Einbahnstraße"},"geometry":{"type":"Point","coordinates":[7.84836,47.99346]}},{"type":"Feature","properties":{"kind":"accessible","label":"Laengenhardstrasse 5","detail":"1 Platz"},"geometry":{"type":"Point","coordinates":[7.8643,48.00367]}},{"type":"Feature","properties":{"kind":"accessible","label":"Im Maierbruehl 2","detail":"3 Plätze · Parkplatz Tuniberghaus"},"geometry":{"type":"Point","coordinates":[7.71919,47.98277]}},{"type":"Feature","properties":{"kind":"accessible","label":"Kronenmattenstraße 2","detail":"1 Platz"},"geometry":{"type":"Point","coordinates":[7.83863,47.98924]}},{"type":"Feature","properties":{"kind":"accessible","label":"Kehler Strasse 40","detail":"1 Platz"},"geometry":{"type":"Point","coordinates":[7.8531,48.01927]}},{"type":"Feature","properties":{"kind":"accessible","label":"Heinrich-Heine-Strasse 10","detail":"1 Platz"},"geometry":{"type":"Point","coordinates":[7.89542,47.98603]}},{"type":"Feature","properties":{"kind":"accessible","label":"Rieselfeldallee 12","detail":"1 Platz"},"geometry":{"type":"Point","coordinates":[7.79447,47.99786]}},{"type":"Feature","properties":{"kind":"accessible","label":"Max-Josef-Metzger-Strasse 1","detail":"1 Platz"},"geometry":{"type":"Point","coordinates":[7.79383,47.99828]}},{"type":"Feature","properties":{"kind":"accessible","label":"Rabenkopfstrasse 8","detail":"1 Platz · Sackgasse"},"geometry":{"type":"Point","coordinates":[7.87315,47.99193]}},{"type":"Feature","properties":{"kind":"accessible","label":"Sautierstrasse 55","detail":"1 Platz"},"geometry":{"type":"Point","coordinates":[7.85334,48.00739]}},{"type":"Feature","properties":{"kind":"accessible","label":"Eisenbahnstraße 58","detail":"1 Platz · Parkplätze vor Hauptpost"},"geometry":{"type":"Point","coordinates":[7.84499,47.99701]}},{"type":"Feature","properties":{"kind":"accessible","label":"Wirthstrasse 9","detail":"1 Platz"},"geometry":{"type":"Point","coordinates":[7.81483,48.02518]}},{"type":"Feature","properties":{"kind":"accessible","label":"Herrenstraße 1","detail":"2 Plätze · Parkplatz"},"geometry":{"type":"Point","coordinates":[7.85438,47.99681]}},{"type":"Feature","properties":{"kind":"accessible","label":"Zaehringer Strasse 336","detail":"1 Platz · Ecke Denzlinger Strasse"},"geometry":{"type":"Point","coordinates":[7.85806,48.02215]}},{"type":"Feature","properties":{"kind":"accessible","label":"Walter-Benjamin-Strasse 11","detail":"1 Platz"},"geometry":{"type":"Point","coordinates":[7.79518,47.99719]}},{"type":"Feature","properties":{"kind":"accessible","label":"Hermannstraße 21","detail":"1 Platz · Einbahnstraße"},"geometry":{"type":"Point","coordinates":[7.85711,47.99588]}},{"type":"Feature","properties":{"kind":"accessible","label":"Spechtweg 9","detail":"1 Platz"},"geometry":{"type":"Point","coordinates":[7.80773,48.01986]}},{"type":"Feature","properties":{"kind":"accessible","label":"Max-Josef-Metzger-Strasse 3","detail":"1 Platz"},"geometry":{"type":"Point","coordinates":[7.79414,47.99859]}},{"type":"Feature","properties":{"kind":"accessible","label":"Kunzenweg 12","detail":"1 Platz · Fahrbahnrand"},"geometry":{"type":"Point","coordinates":[7.89035,47.98125]}},{"type":"Feature","properties":{"kind":"accessible","label":"Zehntsteinweg 17","detail":"1 Platz"},"geometry":{"type":"Point","coordinates":[7.82517,48.00355]}},{"type":"Feature","properties":{"kind":"accessible","label":"Birsmarckallee 8","detail":"4 Plätze · Parkplatz"},"geometry":{"type":"Point","coordinates":[7.8426,47.99722]}},{"type":"Feature","properties":{"kind":"accessible","label":"Franz-Geiler-Platz 1","detail":"1 Platz · Ecke Draisstrasse"},"geometry":{"type":"Point","coordinates":[7.83417,47.99988]}},{"type":"Feature","properties":{"kind":"accessible","label":"Reutebachgasse 2","detail":"1 Platz · Ecke Zaehringer Strasse"},"geometry":{"type":"Point","coordinates":[7.85876,48.02272]}},{"type":"Feature","properties":{"kind":"accessible","label":"Dreisamstraße 13","detail":"2 Plätze · Einbahnstraße"},"geometry":{"type":"Point","coordinates":[7.85081,47.99045]}},{"type":"Feature","properties":{"kind":"accessible","label":"Sulzburger Strasse 37","detail":"1 Platz"},"geometry":{"type":"Point","coordinates":[7.80895,47.99702]}},{"type":"Feature","properties":{"kind":"accessible","label":"Schwimmbadstrasse 5","detail":"1 Platz"},"geometry":{"type":"Point","coordinates":[7.84241,47.98833]}},{"type":"Feature","properties":{"kind":"accessible","label":"Vaubanallee 9","detail":"1 Platz"},"geometry":{"type":"Point","coordinates":[7.82469,47.97465]}},{"type":"Feature","properties":{"kind":"accessible","label":"Ernst-Zermelo-Strasse 1","detail":"2 Plätze · vor Mathematik Institut"},"geometry":{"type":"Point","coordinates":[7.84623,48.00099]}},{"type":"Feature","properties":{"kind":"accessible","label":"Humbergweg 8","detail":"1 Platz · vor Friedhof"},"geometry":{"type":"Point","coordinates":[7.80285,48.02114]}},{"type":"Feature","properties":{"kind":"accessible","label":"Konradin-Kreutzer-Strasse 10","detail":"1 Platz"},"geometry":{"type":"Point","coordinates":[7.84754,48.00687]}},{"type":"Feature","properties":{"kind":"accessible","label":"Erbprinzenstraße 11","detail":"2 Plätze · Einbahnstraße"},"geometry":{"type":"Point","coordinates":[7.84657,47.99213]}},{"type":"Feature","properties":{"kind":"accessible","label":"Rieselfeldallee 35","detail":"1 Platz"},"geometry":{"type":"Point","coordinates":[7.79274,47.99845]}},{"type":"Feature","properties":{"kind":"accessible","label":"Jean-Monnet-Strasse 3","detail":"2 Plätze"},"geometry":{"type":"Point","coordinates":[7.79746,47.99691]}},{"type":"Feature","properties":{"kind":"accessible","label":"Günterstalstrasse 40","detail":"1 Platz"},"geometry":{"type":"Point","coordinates":[7.84743,47.98566]}},{"type":"Feature","properties":{"kind":"accessible","label":"Granatgässle 15","detail":"1 Platz · Sackgasse"},"geometry":{"type":"Point","coordinates":[7.85582,47.99148]}},{"type":"Feature","properties":{"kind":"accessible","label":"August-Ganther-Strasse 11","detail":"1 Platz"},"geometry":{"type":"Point","coordinates":[7.89219,47.98569]}},{"type":"Feature","properties":{"kind":"accessible","label":"Schwarzwaldstrasse 74","detail":"1 Platz · Knöpflehaus 74k"},"geometry":{"type":"Point","coordinates":[7.86862,47.98759]}},{"type":"Feature","properties":{"kind":"accessible","label":"Hilde-Mangold-Strasse 7","detail":"1 Platz"},"geometry":{"type":"Point","coordinates":[7.83745,48.00335]}},{"type":"Feature","properties":{"kind":"accessible","label":"Buchenstrasse 12","detail":"1 Platz"},"geometry":{"type":"Point","coordinates":[7.85633,48.02191]}},{"type":"Feature","properties":{"kind":"accessible","label":"Eugen-Martin-Straße 8","detail":"1 Platz"},"geometry":{"type":"Point","coordinates":[7.85003,48.01296]}},{"type":"Feature","properties":{"kind":"accessible","label":"Schwendistrasse 3","detail":"1 Platz"},"geometry":{"type":"Point","coordinates":[7.8639,47.9887]}},{"type":"Feature","properties":{"kind":"accessible","label":"Egonstrasse 56","detail":"1 Platz"},"geometry":{"type":"Point","coordinates":[7.83636,48.00019]}},{"type":"Feature","properties":{"kind":"accessible","label":"Rotteckring 3","detail":"2 Plätze · bei Fahrradstellplaetzen"},"geometry":{"type":"Point","coordinates":[7.84622,47.99617]}},{"type":"Feature","properties":{"kind":"accessible","label":"Beurbarungsstraße 37","detail":"1 Platz"},"geometry":{"type":"Point","coordinates":[7.84656,48.00407]}},{"type":"Feature","properties":{"kind":"accessible","label":"Rehlingstraße 13","detail":"1 Platz"},"geometry":{"type":"Point","coordinates":[7.83925,47.9898]}},{"type":"Feature","properties":{"kind":"accessible","label":"Haslacher Strasse 100","detail":"1 Platz"},"geometry":{"type":"Point","coordinates":[7.82755,47.99437]}},{"type":"Feature","properties":{"kind":"accessible","label":"Brombergstrasse 17","detail":"1 Platz"},"geometry":{"type":"Point","coordinates":[7.85073,47.98755]}},{"type":"Feature","properties":{"kind":"accessible","label":"Zunftstraße 7","detail":"1 Platz"},"geometry":{"type":"Point","coordinates":[7.84623,48.00525]}},{"type":"Feature","properties":{"kind":"accessible","label":"Lorettostraße 22","detail":"1 Platz"},"geometry":{"type":"Point","coordinates":[7.8432,47.98478]}},{"type":"Feature","properties":{"kind":"accessible","label":"Barbarastrasse 2","detail":"1 Platz"},"geometry":{"type":"Point","coordinates":[7.84034,48.00356]}},{"type":"Feature","properties":{"kind":"accessible","label":"Ferdinand-Weiß-Straße 90","detail":"1 Platz"},"geometry":{"type":"Point","coordinates":[7.82599,47.99778]}},{"type":"Feature","properties":{"kind":"accessible","label":"Günterstalstrasse 8","detail":"1 Platz"},"geometry":{"type":"Point","coordinates":[7.84772,47.98812]}},{"type":"Feature","properties":{"kind":"accessible","label":"Rieselfeldallee 23","detail":"1 Platz"},"geometry":{"type":"Point","coordinates":[7.79493,47.99739]}},{"type":"Feature","properties":{"kind":"accessible","label":"Uffhauser Strasse 5","detail":"1 Platz"},"geometry":{"type":"Point","coordinates":[7.81537,47.99094]}},{"type":"Feature","properties":{"kind":"accessible","label":"Hartkirchweg 15","detail":"1 Platz"},"geometry":{"type":"Point","coordinates":[7.80259,47.98017]}},{"type":"Feature","properties":{"kind":"accessible","label":"Im Grün 5","detail":"2 Plätze"},"geometry":{"type":"Point","coordinates":[7.84162,47.99248]}},{"type":"Feature","properties":{"kind":"accessible","label":"Sautierstrasse 1","detail":"1 Platz · St. Josephs Krankenhaus"},"geometry":{"type":"Point","coordinates":[7.8517,48.00174]}},{"type":"Feature","properties":{"kind":"accessible","label":"Ferrandstrasse 1","detail":"1 Platz"},"geometry":{"type":"Point","coordinates":[7.84784,48.00531]}},{"type":"Feature","properties":{"kind":"accessible","label":"Kappler Strasse 46","detail":"1 Platz · Friedhof Alt-Littenweiler"},"geometry":{"type":"Point","coordinates":[7.90009,47.98167]}},{"type":"Feature","properties":{"kind":"accessible","label":"Ensisheimer Straße 1","detail":"2 Plätze · vor Eisstadion"},"geometry":{"type":"Point","coordinates":[7.82777,48.00833]}},{"type":"Feature","properties":{"kind":"accessible","label":"Wallstraße 3","detail":"1 Platz"},"geometry":{"type":"Point","coordinates":[7.85144,47.99207]}},{"type":"Feature","properties":{"kind":"accessible","label":"Bernhardstrasse 14","detail":"2 Plätze · vor Stadthotel Kolpinghau"},"geometry":{"type":"Point","coordinates":[7.8553,47.99876]}},{"type":"Feature","properties":{"kind":"accessible","label":"Ingeborg-Drewitz-Allee 18","detail":"2 Plätze"},"geometry":{"type":"Point","coordinates":[7.7936,47.99631]}},{"type":"Feature","properties":{"kind":"accessible","label":"Cornelia-Schlosser-Allee 7","detail":"1 Platz"},"geometry":{"type":"Point","coordinates":[7.79209,47.99773]}},{"type":"Feature","properties":{"kind":"accessible","label":"Carl-von-Ossietzky-Straße 1","detail":"1 Platz"},"geometry":{"type":"Point","coordinates":[7.79054,47.99982]}},{"type":"Feature","properties":{"kind":"accessible","label":"Woelflinstrasse 13","detail":"2 Plätze"},"geometry":{"type":"Point","coordinates":[7.85867,48.00315]}},{"type":"Feature","properties":{"kind":"accessible","label":"Ludwigstraße 29","detail":"1 Platz"},"geometry":{"type":"Point","coordinates":[7.85874,47.99866]}},{"type":"Feature","properties":{"kind":"accessible","label":"Emmendinger Strasse 36","detail":"1 Platz"},"geometry":{"type":"Point","coordinates":[7.84926,48.00828]}},{"type":"Feature","properties":{"kind":"accessible","label":"Weismannstrasse 3","detail":"1 Platz"},"geometry":{"type":"Point","coordinates":[7.88615,47.9853]}},{"type":"Feature","properties":{"kind":"accessible","label":"Egonstrasse 51","detail":"1 Platz"},"geometry":{"type":"Point","coordinates":[7.83676,48.00013]}},{"type":"Feature","properties":{"kind":"accessible","label":"Rieselfeldallee 50","detail":"1 Platz"},"geometry":{"type":"Point","coordinates":[7.78667,48.00124]}},{"type":"Feature","properties":{"kind":"accessible","label":"Zu den Mühlmatten 16","detail":"1 Platz · beim Hallenbadeingang"},"geometry":{"type":"Point","coordinates":[7.80091,48.04729]}},{"type":"Feature","properties":{"kind":"accessible","label":"Ludwigstraße 14","detail":"1 Platz"},"geometry":{"type":"Point","coordinates":[7.85577,47.9994]}},{"type":"Feature","properties":{"kind":"accessible","label":"Lassbergstrasse 2","detail":"2 Plätze"},"geometry":{"type":"Point","coordinates":[7.89355,47.9847]}},{"type":"Feature","properties":{"kind":"accessible","label":"Bugginger Straße 6","detail":"1 Platz"},"geometry":{"type":"Point","coordinates":[7.80242,47.99712]}},{"type":"Feature","properties":{"kind":"accessible","label":"Zollhallenstrasse 4","detail":"3 Plätze"},"geometry":{"type":"Point","coordinates":[7.8477,48.01143]}},{"type":"Feature","properties":{"kind":"accessible","label":"Gaussstrasse 1","detail":"1 Platz · neben Rechtsabbiegerspur"},"geometry":{"type":"Point","coordinates":[7.82102,48.00542]}},{"type":"Feature","properties":{"kind":"accessible","label":"Karlstrasse 85","detail":"1 Platz · vor Blindenwohnheim"},"geometry":{"type":"Point","coordinates":[7.8574,48.00704]}},{"type":"Feature","properties":{"kind":"accessible","label":"Milchstraße 7","detail":"2 Plätze · hinter UniBibliothek"},"geometry":{"type":"Point","coordinates":[7.84451,47.99396]}},{"type":"Feature","properties":{"kind":"accessible","label":"Sulzburger Straße 8","detail":"2 Plätze"},"geometry":{"type":"Point","coordinates":[7.80863,47.99572]}},{"type":"Feature","properties":{"kind":"accessible","label":"Talstrasse 62","detail":"1 Platz"},"geometry":{"type":"Point","coordinates":[7.85835,47.98885]}},{"type":"Feature","properties":{"kind":"accessible","label":"Hornusstrasse 16","detail":"2 Plätze · Einbahnstrasse"},"geometry":{"type":"Point","coordinates":[7.85426,48.01533]}},{"type":"Feature","properties":{"kind":"accessible","label":"Auwaldstrasse 1","detail":"2 Plätze · Parkplatz am See"},"geometry":{"type":"Point","coordinates":[7.8045,48.0282]}},{"type":"Feature","properties":{"kind":"accessible","label":"Weierweg 12","detail":"2 Plätze"},"geometry":{"type":"Point","coordinates":[7.82015,47.97378]}},{"type":"Feature","properties":{"kind":"accessible","label":"Andreas-Hofer-Strasse 41","detail":"1 Platz"},"geometry":{"type":"Point","coordinates":[7.80788,47.97926]}},{"type":"Feature","properties":{"kind":"accessible","label":"Wannerstrasse 25","detail":"2 Plätze · Parkplatz Sparkasse"},"geometry":{"type":"Point","coordinates":[7.8356,47.99863]}},{"type":"Feature","properties":{"kind":"accessible","label":"An den Heilquellen 4","detail":"4 Plätze · vor Eugen-Keidel-Bad"},"geometry":{"type":"Point","coordinates":[7.76632,47.98366]}},{"type":"Feature","properties":{"kind":"accessible","label":"Bussardweg 40","detail":"1 Platz"},"geometry":{"type":"Point","coordinates":[7.80503,48.02684]}},{"type":"Feature","properties":{"kind":"accessible","label":"Engelbergerstraße 8","detail":"1 Platz"},"geometry":{"type":"Point","coordinates":[7.8339,47.99733]}},{"type":"Feature","properties":{"kind":"accessible","label":"Clara-Immerwahr-Straße 2","detail":"1 Platz"},"geometry":{"type":"Point","coordinates":[7.82446,47.97703]}},{"type":"Feature","properties":{"kind":"accessible","label":"Rotteckring 16","detail":"2 Plätze · Einbahnstraße"},"geometry":{"type":"Point","coordinates":[7.84774,47.99726]}},{"type":"Feature","properties":{"kind":"accessible","label":"Bayernstrasse 5","detail":"1 Platz"},"geometry":{"type":"Point","coordinates":[7.84085,47.98552]}},{"type":"Feature","properties":{"kind":"accessible","label":"Bertha-von-Suttner-Straße 2","detail":"1 Platz"},"geometry":{"type":"Point","coordinates":[7.79256,47.99683]}},{"type":"Feature","properties":{"kind":"accessible","label":"Willy-Brandt-Allee 7","detail":"1 Platz"},"geometry":{"type":"Point","coordinates":[7.79351,47.99918]}},{"type":"Feature","properties":{"kind":"accessible","label":"Hauptstrasse 41","detail":"2 Plätze · Kirche St. Urban"},"geometry":{"type":"Point","coordinates":[7.86407,48.00694]}},{"type":"Feature","properties":{"kind":"accessible","label":"Idingerstrasse 6","detail":"1 Platz"},"geometry":{"type":"Point","coordinates":[7.82385,48.00521]}},{"type":"Feature","properties":{"kind":"accessible","label":"Maienstrasse 2","detail":"1 Platz · Einbahnstrasse"},"geometry":{"type":"Point","coordinates":[7.84898,47.98749]}},{"type":"Feature","properties":{"kind":"accessible","label":"Adlerstraße 10","detail":"1 Platz"},"geometry":{"type":"Point","coordinates":[7.84084,47.99325]}},{"type":"Feature","properties":{"kind":"accessible","label":"Egonstraße 23","detail":"1 Platz"},"geometry":{"type":"Point","coordinates":[7.83939,47.99922]}},{"type":"Feature","properties":{"kind":"accessible","label":"Schönbergstrasse 10","detail":"1 Platz"},"geometry":{"type":"Point","coordinates":[7.82744,47.98665]}},{"type":"Feature","properties":{"kind":"accessible","label":"Kandelstrasse 27","detail":"1 Platz · Kandelhokino"},"geometry":{"type":"Point","coordinates":[7.85026,48.00785]}},{"type":"Feature","properties":{"kind":"accessible","label":"Carl-Kistner-Strasse 63","detail":"2 Plätze · am Hallenbad"},"geometry":{"type":"Point","coordinates":[7.82327,47.98973]}},{"type":"Feature","properties":{"kind":"accessible","label":"Dreikönigstraße 27","detail":"1 Platz"},"geometry":{"type":"Point","coordinates":[7.85735,47.98671]}},{"type":"Feature","properties":{"kind":"accessible","label":"Auf der Haid 31","detail":"1 Platz"},"geometry":{"type":"Point","coordinates":[7.80709,47.99246]}},{"type":"Feature","properties":{"kind":"accessible","label":"Sautierstrasse 32","detail":"2 Plätze"},"geometry":{"type":"Point","coordinates":[7.85308,48.00685]}},{"type":"Feature","properties":{"kind":"accessible","label":"Ensisheimer Straße 5","detail":"2 Plätze · Parkplatz Sportpark"},"geometry":{"type":"Point","coordinates":[7.82549,48.00961]}},{"type":"Feature","properties":{"kind":"accessible","label":"Gruberhof 2","detail":"1 Platz · Westseite Ernst-Winter-Wo"},"geometry":{"type":"Point","coordinates":[7.81268,48.01123]}},{"type":"Feature","properties":{"kind":"accessible","label":"St.-Stephan-Straße 12","detail":"1 Platz · Friedhof"},"geometry":{"type":"Point","coordinates":[7.70361,47.96942]}},{"type":"Feature","properties":{"kind":"accessible","label":"Vaubanallee 55","detail":"1 Platz"},"geometry":{"type":"Point","coordinates":[7.81906,47.97608]}},{"type":"Feature","properties":{"kind":"accessible","label":"Sautierstrasse 34","detail":"2 Plätze"},"geometry":{"type":"Point","coordinates":[7.85307,48.00682]}},{"type":"Feature","properties":{"kind":"accessible","label":"Wentzingerstrasse 6","detail":"1 Platz"},"geometry":{"type":"Point","coordinates":[7.84171,47.9994]}},{"type":"Feature","properties":{"kind":"accessible","label":"Bugginger Strasse 46","detail":"2 Plätze"},"geometry":{"type":"Point","coordinates":[7.80567,47.9982]}},{"type":"Feature","properties":{"kind":"accessible","label":"Gärtnerweg 3","detail":"1 Platz · Einbahnstrasse"},"geometry":{"type":"Point","coordinates":[7.84141,48.00212]}},{"type":"Feature","properties":{"kind":"accessible","label":"Sautierstrasse 24","detail":"1 Platz"},"geometry":{"type":"Point","coordinates":[7.85254,48.00453]}},{"type":"Feature","properties":{"kind":"accessible","label":"Zasiusstrasse 103","detail":"1 Platz"},"geometry":{"type":"Point","coordinates":[7.86207,47.98702]}},{"type":"Feature","properties":{"kind":"accessible","label":"Rieselfeldallee 63","detail":"1 Platz"},"geometry":{"type":"Point","coordinates":[7.78678,48.00096]}},{"type":"Feature","properties":{"kind":"accessible","label":"Laufener Strasse 3","detail":"1 Platz"},"geometry":{"type":"Point","coordinates":[7.81642,47.99763]}},{"type":"Feature","properties":{"kind":"accessible","label":"Friedrichring 36","detail":"3 Plätze · Parkplatz"},"geometry":{"type":"Point","coordinates":[7.84966,47.99828]}},{"type":"Feature","properties":{"kind":"accessible","label":"Fehrenbachallee 69","detail":"1 Platz"},"geometry":{"type":"Point","coordinates":[7.8292,47.99575]}},{"type":"Feature","properties":{"kind":"accessible","label":"Günterstalstrasse 14","detail":"1 Platz"},"geometry":{"type":"Point","coordinates":[7.84763,47.98758]}},{"type":"Feature","properties":{"kind":"accessible","label":"Bugginger Strasse 61","detail":"2 Plätze · Sackgasse"},"geometry":{"type":"Point","coordinates":[7.80366,47.99868]}},{"type":"Feature","properties":{"kind":"accessible","label":"Mathias-Blank-Strasse 22","detail":"1 Platz"},"geometry":{"type":"Point","coordinates":[7.81978,47.99484]}},{"type":"Feature","properties":{"kind":"accessible","label":"Hornusstrasse 20","detail":"2 Plätze · Einbahnstrasse"},"geometry":{"type":"Point","coordinates":[7.85482,48.01528]}},{"type":"Feature","properties":{"kind":"accessible","label":"Bugginger Straße 2","detail":"1 Platz"},"geometry":{"type":"Point","coordinates":[7.80419,47.99616]}},{"type":"Feature","properties":{"kind":"accessible","label":"Zaehringer Strasse 353","detail":"1 Platz · Ecke Johannesgasse"},"geometry":{"type":"Point","coordinates":[7.85905,48.02322]}},{"type":"Feature","properties":{"kind":"accessible","label":"Charlottenburger Strasse 5","detail":null},"geometry":{"type":"Point","coordinates":[7.81891,48.00439]}},{"type":"Feature","properties":{"kind":"accessible","label":"Schwabentorplatz 6","detail":"1 Platz"},"geometry":{"type":"Point","coordinates":[7.85389,47.99282]}},{"type":"Feature","properties":{"kind":"accessible","label":"Ferdinand-Weiß-Straße 115","detail":"1 Platz"},"geometry":{"type":"Point","coordinates":[7.82932,47.99676]}},{"type":"Feature","properties":{"kind":"accessible","label":"Schreiberstraße 1","detail":"2 Plätze · Parkplatz"},"geometry":{"type":"Point","coordinates":[7.84755,47.99053]}},{"type":"Feature","properties":{"kind":"accessible","label":"Innsbrucker Straße 42","detail":"1 Platz"},"geometry":{"type":"Point","coordinates":[7.81575,47.97258]}},{"type":"Feature","properties":{"kind":"accessible","label":"Schwendistrasse 19","detail":"1 Platz"},"geometry":{"type":"Point","coordinates":[7.8637,47.98951]}},{"type":"Feature","properties":{"kind":"accessible","label":"Münsterplatz 30","detail":"4 Plätze"},"geometry":{"type":"Point","coordinates":[7.85309,47.99505]}},{"type":"Feature","properties":{"kind":"accessible","label":"Krozinger Strasse 17","detail":"1 Platz"},"geometry":{"type":"Point","coordinates":[7.81366,47.99492]}},{"type":"Feature","properties":{"kind":"accessible","label":"Vaubanallee 4","detail":"2 Plätze"},"geometry":{"type":"Point","coordinates":[7.82762,47.97447]}},{"type":"Feature","properties":{"kind":"accessible","label":"Meckelhof 1","detail":"1 Platz · vor Ernst-Winter-Wohnanla"},"geometry":{"type":"Point","coordinates":[7.81332,48.01069]}},{"type":"Feature","properties":{"kind":"accessible","label":"Freiligrathstrasse 78","detail":"1 Platz · Einbahnstrasse"},"geometry":{"type":"Point","coordinates":[7.82434,47.98638]}},{"type":"Feature","properties":{"kind":"accessible","label":"Ingeborg-Drewitz-Allee 2","detail":"1 Platz"},"geometry":{"type":"Point","coordinates":[7.79687,47.99574]}},{"type":"Feature","properties":{"kind":"accessible","label":"Fasanenstraße 11","detail":"1 Platz"},"geometry":{"type":"Point","coordinates":[7.8058,48.01464]}},{"type":"Feature","properties":{"kind":"accessible","label":"Arne-Torgersen-Straße 9","detail":"1 Platz"},"geometry":{"type":"Point","coordinates":[7.82969,47.98777]}},{"type":"Feature","properties":{"kind":"accessible","label":"Eisenbahnstraße 35","detail":"1 Platz"},"geometry":{"type":"Point","coordinates":[7.84535,47.99705]}},{"type":"Feature","properties":{"kind":"accessible","label":"Sulzburger Straße 3","detail":"1 Platz · im Wendehammer"},"geometry":{"type":"Point","coordinates":[7.80724,47.99563]}},{"type":"Feature","properties":{"kind":"accessible","label":"Krozinger Strasse 8","detail":"1 Platz"},"geometry":{"type":"Point","coordinates":[7.81056,47.99399]}},{"type":"Feature","properties":{"kind":"accessible","label":"Klarastrasse 18","detail":"1 Platz"},"geometry":{"type":"Point","coordinates":[7.84031,47.99938]}},{"type":"Feature","properties":{"kind":"accessible","label":"Ellen-Gottlieb-Strasse 18","detail":"1 Platz"},"geometry":{"type":"Point","coordinates":[7.84852,48.01498]}},{"type":"Feature","properties":{"kind":"accessible","label":"Freytagstraße 7","detail":"1 Platz"},"geometry":{"type":"Point","coordinates":[7.8099,48.01058]}},{"type":"Feature","properties":{"kind":"accessible","label":"Auf der Zinnen 6","detail":"1 Platz"},"geometry":{"type":"Point","coordinates":[7.85375,47.99715]}},{"type":"Feature","properties":{"kind":"accessible","label":"Faulerstrasse 14","detail":"2 Plätze · Einbahnstraße"},"geometry":{"type":"Point","coordinates":[7.84008,47.99267]}},{"type":"Feature","properties":{"kind":"accessible","label":"Fahnenbergplatz 4","detail":"1 Platz · bei Fahrradstellplaetzen"},"geometry":{"type":"Point","coordinates":[7.84793,47.99821]}},{"type":"Feature","properties":{"kind":"accessible","label":"Klosterstraße 3","detail":"1 Platz · im Hof"},"geometry":{"type":"Point","coordinates":[7.72052,48.02139]}},{"type":"Feature","properties":{"kind":"accessible","label":"Adelhauser Straße 8","detail":"3 Plätze · Einbahnstraße"},"geometry":{"type":"Point","coordinates":[7.8507,47.99271]}},{"type":"Feature","properties":{"kind":"accessible","label":"Schuetzenallee 72","detail":"2 Plätze · Am Ensemblehaus"},"geometry":{"type":"Point","coordinates":[7.87275,47.9862]}},{"type":"Feature","properties":{"kind":"accessible","label":"Zollhallenstrasse 6","detail":"3 Plätze"},"geometry":{"type":"Point","coordinates":[7.84773,48.01157]}},{"type":"Feature","properties":{"kind":"accessible","label":"Richard-Kuenzer-Strasse 8","detail":"1 Platz"},"geometry":{"type":"Point","coordinates":[7.85951,47.98451]}},{"type":"Feature","properties":{"kind":"accessible","label":"Immentalstrasse 9","detail":"1 Platz"},"geometry":{"type":"Point","coordinates":[7.86488,48.00392]}},{"type":"Feature","properties":{"kind":"accessible","label":"Gauchstraße 12","detail":"2 Plätze"},"geometry":{"type":"Point","coordinates":[7.8489,47.99693]}},{"type":"Feature","properties":{"kind":"accessible","label":"Sautierstrasse 26","detail":"1 Platz"},"geometry":{"type":"Point","coordinates":[7.8527,48.00521]}},{"type":"Feature","properties":{"kind":"accessible","label":"Uhlandstrasse 2","detail":"2 Plätze · Pflasterbelag"},"geometry":{"type":"Point","coordinates":[7.85178,47.98936]}},{"type":"Feature","properties":{"kind":"accessible","label":"Offenburger Straße 67","detail":"1 Platz"},"geometry":{"type":"Point","coordinates":[7.85423,48.01968]}},{"type":"Feature","properties":{"kind":"accessible","label":"Urachstrasse 25","detail":"2 Plätze · Parkplatz Ecke Hildastr"},"geometry":{"type":"Point","coordinates":[7.8537,47.98503]}},{"type":"Feature","properties":{"kind":"accessible","label":"Vaubanallee 3","detail":"1 Platz · Rahel-Varnhagen-Straße"},"geometry":{"type":"Point","coordinates":[7.8262,47.97427]}},{"type":"Feature","properties":{"kind":"accessible","label":"Münsterplatz 36","detail":"4 Plätze"},"geometry":{"type":"Point","coordinates":[7.85329,47.99508]}},{"type":"Feature","properties":{"kind":"accessible","label":"Staufener Strasse 4","detail":"1 Platz · vor St. Laurentiushaus"},"geometry":{"type":"Point","coordinates":[7.82073,47.99123]}},{"type":"Feature","properties":{"kind":"accessible","label":"Ensisheimer Strasse 9","detail":"2 Plätze · vor Hallenbad West"},"geometry":{"type":"Point","coordinates":[7.82305,48.0115]}},{"type":"Feature","properties":{"kind":"accessible","label":"Gartenstraße 28","detail":"2 Plätze · Einbahnstraße"},"geometry":{"type":"Point","coordinates":[7.84629,47.9912]}},{"type":"Feature","properties":{"kind":"accessible","label":"Am Sportplatz 20","detail":"1 Platz"},"geometry":{"type":"Point","coordinates":[7.72047,48.00309]}},{"type":"Feature","properties":{"kind":"accessible","label":"Thannhauserstraße 43","detail":"1 Platz"},"geometry":{"type":"Point","coordinates":[7.81469,48.00625]}},{"type":"Feature","properties":{"kind":"accessible","label":"Stadtstrasse 3","detail":"3 Plätze · vor Landratsamt"},"geometry":{"type":"Point","coordinates":[7.85814,47.99939]}},{"type":"Feature","properties":{"kind":"accessible","label":"Krozinger Strasse 58","detail":"1 Platz · direkt am Haus"},"geometry":{"type":"Point","coordinates":[7.81213,47.99392]}},{"type":"Feature","properties":{"kind":"accessible","label":"Moltkestraße 1","detail":"2 Plätze"},"geometry":{"type":"Point","coordinates":[7.84355,47.99559]}},{"type":"Feature","properties":{"kind":"accessible","label":"Maxim-Gorkij-Strasse 12","detail":"1 Platz"},"geometry":{"type":"Point","coordinates":[7.79031,47.99907]}},{"type":"Feature","properties":{"kind":"accessible","label":"Idingerstrasse 1","detail":"1 Platz · vor Haus Lehener Str. 117"},"geometry":{"type":"Point","coordinates":[7.82416,48.00565]}}]}