{"type":"FeatureCollection","features":[{"type":"Feature","properties":{"zone":"3 (Fläche 12)","district":"Betzenhausen","rawHours":"durchgehend","rawFee":"--","note":"Tagespauschale 9,00 € oder ÖPNV-Ticket","windows":[{"weekdays":[0,1,2,3,4,5,6],"fromMinute":0,"toMinute":1440}],"fee":{"kind":"unknown"},"unmodelledRules":[],"sourceDefect":null,"spaces":null,"maxStayMinutes":null,"maxStay":null,"maxStayShare":0,"maxStayValues":[],"chargingPoints":0,"carsharing":0},"geometry":{"type":"Polygon","coordinates":[[[7.82066,48.00231],[7.81995,48.00181],[7.81961,48.00204],[7.81884,48.00184],[7.81832,48.00174],[7.81836,48.00161],[7.819,48.00133],[7.81919,48.00126],[7.81935,48.00126],[7.81961,48.0013],[7.81974,48.00135],[7.81984,48.00146],[7.81991,48.00157],[7.82006,48.00164],[7.82105,48.00177],[7.82115,48.00184],[7.82066,48.00231]]]}},{"type":"Feature","properties":{"zone":"3 (Fläche 42)","district":"Oberau","rawHours":"werktags 09:00-19:00 Uhr","rawFee":"1,80 €","note":"Tagespauschale 9,00 €","windows":[{"weekdays":[1,2,3,4,5,6],"fromMinute":540,"toMinute":1140}],"fee":{"kind":"exact","centsPerHour":180},"unmodelledRules":[],"sourceDefect":null,"spaces":null,"maxStayMinutes":null,"maxStay":null,"maxStayShare":0,"maxStayValues":[],"chargingPoints":0,"carsharing":0},"geometry":{"type":"Polygon","coordinates":[[[7.86224,47.98876],[7.863,47.98867],[7.863,47.98865],[7.86355,47.98862],[7.86486,47.98858],[7.86511,47.98859],[7.86534,47.98863],[7.86825,47.98875],[7.86826,47.98866],[7.86867,47.98863],[7.86923,47.98854],[7.87056,47.98839],[7.87097,47.98833],[7.871,47.98846],[7.87139,47.9884],[7.87147,47.98865],[7.87169,47.98958],[7.87197,47.99035],[7.872,47.99066],[7.872,47.99095],[7.87089,47.99102],[7.86826,47.99113],[7.86824,47.99129],[7.86815,47.9913],[7.86813,47.99145],[7.8681,47.99156],[7.86796,47.99186],[7.8679,47.99195],[7.86636,47.99205],[7.86519,47.99197],[7.86494,47.99199],[7.86456,47.99208],[7.86423,47.9922],[7.86347,47.99255],[7.86256,47.99251],[7.86245,47.99152],[7.86238,47.99149],[7.86234,47.99143],[7.86232,47.99093],[7.86229,47.99088],[7.8623,47.99068],[7.86235,47.99047],[7.86232,47.99046],[7.86229,47.99043],[7.86222,47.98912],[7.86224,47.98912],[7.86222,47.98885],[7.86224,47.98885],[7.86224,47.98876]]]}},{"type":"Feature","properties":{"zone":"3 (Fläche 43)","district":"Neuburg","rawHours":"werktags 09:00-19:00 Uhr","rawFee":"1,80 €","note":"Tagespauschale 9,00 €","windows":[{"weekdays":[1,2,3,4,5,6],"fromMinute":540,"toMinute":1140}],"fee":{"kind":"exact","centsPerHour":180},"unmodelledRules":[],"sourceDefect":null,"spaces":null,"maxStayMinutes":null,"maxStay":null,"maxStayShare":0,"maxStayValues":[],"chargingPoints":0,"carsharing":0},"geometry":{"type":"Polygon","coordinates":[[[7.85858,47.9973],[7.85969,47.99689],[7.85994,47.99726],[7.85999,47.99725],[7.86009,47.99737],[7.86053,47.9971],[7.8608,47.99732],[7.86112,47.99737],[7.8611,47.9973],[7.86111,47.99726],[7.86118,47.99721],[7.86129,47.99718],[7.86138,47.9972],[7.86142,47.99722],[7.86146,47.99728],[7.86154,47.99759],[7.86144,47.9976],[7.86145,47.99766],[7.86161,47.99797],[7.86169,47.99807],[7.8618,47.99815],[7.86202,47.99823],[7.8626,47.99831],[7.86249,47.99848],[7.86259,47.99895],[7.86261,47.99923],[7.86248,47.99923],[7.86253,47.99949],[7.86261,47.99949],[7.86291,47.9998],[7.8624,47.99998],[7.86218,47.99987],[7.86219,47.99985],[7.86212,47.99981],[7.86208,47.99982],[7.86181,47.99961],[7.86154,47.99931],[7.86143,47.99922],[7.86101,47.99898],[7.86086,47.99893],[7.86054,47.99887],[7.8604,47.99881],[7.8603,47.99868],[7.86018,47.99846],[7.86014,47.99841],[7.85953,47.99794],[7.85858,47.9973]]]}},{"type":"Feature","properties":{"zone":"3 (Fläche 14)","district":"Landwasser","rawHours":"durchgehend","rawFee":"--","note":"Tagespauschale 9,00 € oder ÖPNV-Ticket","windows":[{"weekdays":[0,1,2,3,4,5,6],"fromMinute":0,"toMinute":1440}],"fee":{"kind":"unknown"},"unmodelledRules":[],"sourceDefect":null,"spaces":null,"maxStayMinutes":null,"maxStay":null,"maxStayShare":0,"maxStayValues":[],"chargingPoints":0,"carsharing":0},"geometry":{"type":"Polygon","coordinates":[[[7.80759,48.02986],[7.80743,48.02982],[7.80733,48.02974],[7.8073,48.02964],[7.8074,48.02951],[7.8075,48.02946],[7.80764,48.02946],[7.80849,48.02856],[7.80858,48.02859],[7.80843,48.02878],[7.80848,48.0288],[7.80837,48.02896],[7.80858,48.02907],[7.80771,48.02984],[7.80759,48.02986]]]}},{"type":"Feature","properties":{"zone":"3 (Fläche 13)","district":"Lehen","rawHours":"durchgehend","rawFee":"--","note":"Tagespauschale 9,00 € oder ÖPNV-Ticket","windows":[{"weekdays":[0,1,2,3,4,5,6],"fromMinute":0,"toMinute":1440}],"fee":{"kind":"unknown"},"unmodelledRules":[],"sourceDefect":null,"spaces":null,"maxStayMinutes":null,"maxStay":null,"maxStayShare":0,"maxStayValues":[],"chargingPoints":0,"carsharing":0},"geometry":{"type":"Polygon","coordinates":[[[7.80708,48.01322],[7.80652,48.01291],[7.80596,48.01216],[7.80564,48.01197],[7.80508,48.01192],[7.80526,48.01088],[7.8054,48.01081],[7.8059,48.01129],[7.80649,48.01209],[7.80723,48.01292],[7.80732,48.01308],[7.80708,48.01322]]]}},{"type":"Feature","properties":{"zone":"3 (Fläche 9)","district":"Stühlinger","rawHours":"werktags 09:00-19:00 Uhr","rawFee":"1,80 €","note":"Tagespauschale 9,00 €","windows":[{"weekdays":[1,2,3,4,5,6],"fromMinute":540,"toMinute":1140}],"fee":{"kind":"exact","centsPerHour":180},"unmodelledRules":[],"sourceDefect":null,"spaces":null,"maxStayMinutes":null,"maxStay":null,"maxStayShare":0,"maxStayValues":[],"chargingPoints":0,"carsharing":0},"geometry":{"type":"Polygon","coordinates":[[[7.83202,48.00208],[7.83173,48.00173],[7.83229,48.00151],[7.83262,48.00188],[7.83206,48.00213],[7.83202,48.00208]]]}},{"type":"Feature","properties":{"zone":"3 (Fläche 10)","district":"Stühlinger","rawHours":"werktags 08:00-18:00 Uhr","rawFee":"1,80 €","note":"Tagespauschale 9,00 €","windows":[{"weekdays":[1,2,3,4,5,6],"fromMinute":480,"toMinute":1080}],"fee":{"kind":"exact","centsPerHour":180},"unmodelledRules":[],"sourceDefect":null,"spaces":null,"maxStayMinutes":null,"maxStay":null,"maxStayShare":0,"maxStayValues":[],"chargingPoints":0,"carsharing":0},"geometry":{"type":"Polygon","coordinates":[[[7.83109,48.00356],[7.83107,48.00354],[7.83222,48.00311],[7.83223,48.00313],[7.83109,48.00356]]]}},{"type":"Feature","properties":{"zone":"3 (Fläche 45)","district":"Herdern","rawHours":"werktags 09:00-19:00 Uhr","rawFee":"1,80 €","note":"Tagespauschale 9,00 €","windows":[{"weekdays":[1,2,3,4,5,6],"fromMinute":540,"toMinute":1140}],"fee":{"kind":"exact","centsPerHour":180},"unmodelledRules":[],"sourceDefect":null,"spaces":null,"maxStayMinutes":null,"maxStay":null,"maxStayShare":0,"maxStayValues":[],"chargingPoints":0,"carsharing":0},"geometry":{"type":"Polygon","coordinates":[[[7.86468,48.00681],[7.86481,48.007],[7.86457,48.00705],[7.8646,48.00713],[7.86446,48.00717],[7.86465,48.00757],[7.8647,48.00772],[7.86462,48.00772],[7.86463,48.00777],[7.86472,48.00805],[7.86466,48.0082],[7.86403,48.0082],[7.86405,48.00832],[7.86409,48.0084],[7.86408,48.0084],[7.86425,48.00861],[7.86418,48.00865],[7.86372,48.00855],[7.86368,48.00868],[7.8637,48.00869],[7.8637,48.00877],[7.8635,48.00895],[7.86319,48.0088],[7.86318,48.00874],[7.86306,48.00866],[7.86285,48.00878],[7.86252,48.00893],[7.86254,48.00891],[7.86245,48.00876],[7.8621,48.00885],[7.86209,48.00883],[7.86186,48.00892],[7.86128,48.00903],[7.86127,48.00901],[7.86097,48.00908],[7.86099,48.00913],[7.86018,48.00938],[7.86021,48.00945],[7.86035,48.00965],[7.85953,48.00991],[7.85963,48.00979],[7.85963,48.00935],[7.8591,48.00936],[7.85913,48.00862],[7.85964,48.00859],[7.85964,48.0075],[7.86073,48.00726],[7.86182,48.00691],[7.86209,48.00688],[7.86246,48.00688],[7.8637,48.00694],[7.86388,48.00693],[7.86447,48.00681],[7.86457,48.0068],[7.86468,48.00681]]]}},{"type":"Feature","properties":{"zone":"3 (Fläche 32)","district":"Wiehre","rawHours":"werktags 09:00-19:00 Uhrä","rawFee":"1,80 €","note":"Tagespauschale 9,00 €","windows":[{"weekdays":[1,2,3,4,5,6],"fromMinute":540,"toMinute":1140}],"fee":{"kind":"exact","centsPerHour":180},"unmodelledRules":[],"sourceDefect":"die Quelle schreibt „werktags 09:00-19:00 Uhrä\"; gelesen als „werktags 09:00-19:00 Uhr\"","spaces":null,"maxStayMinutes":null,"maxStay":null,"maxStayShare":0,"maxStayValues":[],"chargingPoints":0,"carsharing":0},"geometry":{"type":"Polygon","coordinates":[[[7.82546,47.97784],[7.82491,47.97791],[7.82468,47.97797],[7.82467,47.97794],[7.82515,47.97786],[7.82545,47.97782],[7.82546,47.97784]]]}},{"type":"Feature","properties":{"zone":"2 (Fläche 5)","district":"Wiehre","rawHours":"werktags 09:00-19:00 Uhr","rawFee":"3,50 €","note":"Tagespauschale 17,50 €","windows":[{"weekdays":[1,2,3,4,5,6],"fromMinute":540,"toMinute":1140}],"fee":{"kind":"exact","centsPerHour":350},"unmodelledRules":[],"sourceDefect":null,"spaces":null,"maxStayMinutes":null,"maxStay":null,"maxStayShare":0,"maxStayValues":[],"chargingPoints":0,"carsharing":0},"geometry":{"type":"Polygon","coordinates":[[[7.83821,47.99102],[7.83877,47.99093],[7.83892,47.99095],[7.83902,47.99097],[7.83915,47.99103],[7.83941,47.99121],[7.83953,47.99127],[7.83959,47.99126],[7.83973,47.99127],[7.83991,47.99127],[7.84099,47.99108],[7.84208,47.99085],[7.84296,47.99059],[7.8436,47.99036],[7.84396,47.99024],[7.84402,47.99019],[7.84403,47.99017],[7.84432,47.99],[7.84439,47.99001],[7.84457,47.98995],[7.8448,47.99],[7.84491,47.99],[7.8456,47.98988],[7.84663,47.98976],[7.84778,47.9897],[7.84777,47.9896],[7.84768,47.9896],[7.84762,47.98911],[7.84756,47.98911],[7.84752,47.98877],[7.8482,47.98895],[7.85091,47.98869],[7.85448,47.98841],[7.85524,47.98851],[7.85521,47.98853],[7.85527,47.99027],[7.8553,47.99032],[7.85535,47.9905],[7.85482,47.99064],[7.85484,47.99067],[7.85476,47.9907],[7.85469,47.99076],[7.85469,47.99084],[7.85457,47.99106],[7.85458,47.99118],[7.85445,47.99224],[7.85449,47.99223],[7.8545,47.99224],[7.85449,47.99233],[7.8545,47.99255],[7.85477,47.99235],[7.85474,47.99232],[7.85482,47.99227],[7.85489,47.99226],[7.85556,47.99225],[7.8568,47.99234],[7.85783,47.99239],[7.85857,47.99241],[7.85882,47.99239],[7.85953,47.99244],[7.86018,47.99244],[7.86105,47.99251],[7.86166,47.99248],[7.86195,47.99251],[7.86194,47.99248],[7.86201,47.99247],[7.86217,47.99249],[7.86218,47.99245],[7.86256,47.99251],[7.86245,47.99152],[7.86238,47.99149],[7.86234,47.99143],[7.86232,47.99093],[7.86229,47.99088],[7.8623,47.99068],[7.86235,47.99047],[7.86232,47.99046],[7.86229,47.99043],[7.86222,47.98912],[7.86224,47.98912],[7.86222,47.98885],[7.86224,47.98885],[7.86223,47.98849],[7.86165,47.9886],[7.8608,47.98869],[7.85921,47.98878],[7.85789,47.98882],[7.85754,47.98878],[7.85595,47.98847],[7.85457,47.98829],[7.85451,47.98823],[7.85446,47.9881],[7.85427,47.98642],[7.85406,47.98527],[7.85408,47.98514],[7.85411,47.98511],[7.8542,47.98507],[7.85406,47.98489],[7.85381,47.98488],[7.85378,47.98491],[7.85159,47.98497],[7.85117,47.98495],[7.85013,47.98483],[7.85007,47.98478],[7.84989,47.98476],[7.84972,47.98478],[7.84918,47.98471],[7.84884,47.98426],[7.84873,47.98432],[7.84858,47.98432],[7.84803,47.98439],[7.84779,47.98444],[7.84769,47.98448],[7.84737,47.98446],[7.84732,47.98449],[7.8467,47.98446],[7.8464,47.98446],[7.84527,47.98472],[7.8451,47.98475],[7.84216,47.98467],[7.84102,47.98462],[7.8401,47.98467],[7.83978,47.98474],[7.83966,47.98473],[7.83963,47.98478],[7.83907,47.98465],[7.83907,47.98467],[7.83902,47.98467],[7.83869,47.98456],[7.83794,47.98423],[7.83785,47.98421],[7.8371,47.98425],[7.83701,47.98424],[7.83667,47.98436],[7.83672,47.9846],[7.83672,47.98477],[7.83666,47.98506],[7.83653,47.98536],[7.83621,47.9859],[7.83612,47.9861],[7.83713,47.98634],[7.83754,47.98645],[7.83774,47.98653],[7.83831,47.98679],[7.83945,47.98745],[7.84002,47.98732],[7.84032,47.98731],[7.8407,47.98735],[7.84064,47.98742],[7.84054,47.98749],[7.84028,47.9876],[7.84003,47.98766],[7.8399,47.98767],[7.83966,47.98766],[7.83967,47.98772],[7.83975,47.98777],[7.83978,47.98786],[7.83971,47.98782],[7.83946,47.98779],[7.83934,47.98788],[7.84009,47.98829],[7.84017,47.98822],[7.84033,47.9883],[7.84045,47.98819],[7.84056,47.98824],[7.84028,47.98849],[7.84049,47.9886],[7.84062,47.98848],[7.84091,47.98863],[7.84099,47.98871],[7.84132,47.98888],[7.84119,47.989],[7.84135,47.98908],[7.84124,47.98917],[7.84131,47.98925],[7.84137,47.9896],[7.84098,47.98971],[7.84066,47.98998],[7.84074,47.99013],[7.84058,47.99019],[7.84007,47.99026],[7.83981,47.99031],[7.83923,47.99038],[7.83905,47.99043],[7.83886,47.99045],[7.83859,47.99056],[7.83829,47.99056],[7.8379,47.99054],[7.83803,47.99089],[7.83819,47.99096],[7.83821,47.99102]]]}},{"type":"Feature","properties":{"zone":"3 (Fläche 23)","district":"Wiehre","rawHours":"werktags 09:00-19:00 Uhr","rawFee":"1,80 €","note":"Tagespauschale 9,00 €","windows":[{"weekdays":[1,2,3,4,5,6],"fromMinute":540,"toMinute":1140}],"fee":{"kind":"exact","centsPerHour":180},"unmodelledRules":[],"sourceDefect":null,"spaces":null,"maxStayMinutes":null,"maxStay":null,"maxStayShare":0,"maxStayValues":[],"chargingPoints":0,"carsharing":0},"geometry":{"type":"Polygon","coordinates":[[[7.84087,47.98289],[7.8409,47.98317],[7.84099,47.98354],[7.84101,47.98367],[7.84098,47.98367],[7.84097,47.98357],[7.84088,47.98318],[7.84085,47.98289],[7.84087,47.98289]]]}},{"type":"Feature","properties":{"zone":"3 (Fläche 44)","district":"Herdern","rawHours":"werktags 09:00-19:00 Uhr","rawFee":"1,80 €","note":"Tagespauschale 9,00 €","windows":[{"weekdays":[1,2,3,4,5,6],"fromMinute":540,"toMinute":1140}],"fee":{"kind":"exact","centsPerHour":180},"unmodelledRules":[],"sourceDefect":null,"spaces":null,"maxStayMinutes":null,"maxStay":null,"maxStayShare":0,"maxStayValues":[],"chargingPoints":0,"carsharing":0},"geometry":{"type":"Polygon","coordinates":[[[7.8654,48.00303],[7.86664,48.00263],[7.86822,48.00222],[7.8691,48.00195],[7.86937,48.00186],[7.8697,48.00171],[7.87,48.00153],[7.87014,48.00142],[7.87041,48.00135],[7.87047,48.00137],[7.87019,48.00172],[7.87005,48.00188],[7.86979,48.00211],[7.86959,48.00224],[7.86927,48.00242],[7.86892,48.00258],[7.86854,48.00269],[7.86797,48.00284],[7.86814,48.00301],[7.86727,48.00337],[7.86654,48.00379],[7.86617,48.00395],[7.86597,48.00434],[7.86617,48.00464],[7.86646,48.00492],[7.86672,48.00506],[7.8675,48.00538],[7.86776,48.00538],[7.86835,48.00553],[7.86844,48.00535],[7.86862,48.00538],[7.86911,48.00541],[7.86935,48.00546],[7.86938,48.00548],[7.86938,48.00551],[7.86934,48.00554],[7.86932,48.00562],[7.86938,48.0059],[7.86924,48.00591],[7.86927,48.00608],[7.86928,48.00607],[7.86929,48.00613],[7.86932,48.00616],[7.86935,48.00645],[7.86931,48.00645],[7.86934,48.00672],[7.86911,48.00681],[7.86907,48.00685],[7.8692,48.00715],[7.86913,48.00725],[7.86889,48.00727],[7.86872,48.00736],[7.86842,48.00749],[7.86822,48.00753],[7.86714,48.00743],[7.86704,48.00763],[7.86693,48.00807],[7.86696,48.00824],[7.86689,48.00823],[7.86649,48.00832],[7.86633,48.00806],[7.86626,48.00792],[7.86625,48.00785],[7.86629,48.00764],[7.86619,48.00764],[7.86615,48.00756],[7.86607,48.00751],[7.86577,48.00747],[7.86533,48.00731],[7.86511,48.0072],[7.86498,48.00708],[7.86483,48.00684],[7.86481,48.00676],[7.86479,48.00673],[7.8648,48.00643],[7.86478,48.00636],[7.86472,48.00634],[7.86466,48.00618],[7.86423,48.00555],[7.86385,48.00485],[7.8645,48.00458],[7.86457,48.00457],[7.86471,48.00458],[7.8647,48.00433],[7.86465,48.00412],[7.8646,48.00401],[7.86436,48.00363],[7.8647,48.00332],[7.86492,48.0032],[7.86527,48.00309],[7.8654,48.00303]]]}},{"type":"Feature","properties":{"zone":"3 (Fläche 37)","district":"Zähringen","rawHours":"werktags 09:00-19:00 Uhr","rawFee":"1,80 €","note":"Tagespauschale 9,00 €","windows":[{"weekdays":[1,2,3,4,5,6],"fromMinute":540,"toMinute":1140}],"fee":{"kind":"exact","centsPerHour":180},"unmodelledRules":[],"sourceDefect":null,"spaces":null,"maxStayMinutes":null,"maxStay":null,"maxStayShare":0,"maxStayValues":[],"chargingPoints":0,"carsharing":0},"geometry":{"type":"Polygon","coordinates":[[[7.85759,48.02316],[7.85773,48.02338],[7.85767,48.0234],[7.85752,48.02318],[7.85759,48.02316]]]}},{"type":"Feature","properties":{"zone":"3 (Fläche 38)","district":"Zähringen","rawHours":"werktags 09:00-19:00 Uhr","rawFee":"1,80 €","note":"Tagespauschale 9,00 €","windows":[{"weekdays":[1,2,3,4,5,6],"fromMinute":540,"toMinute":1140}],"fee":{"kind":"exact","centsPerHour":180},"unmodelledRules":[],"sourceDefect":null,"spaces":null,"maxStayMinutes":null,"maxStay":null,"maxStayShare":0,"maxStayValues":[],"chargingPoints":0,"carsharing":0},"geometry":{"type":"Polygon","coordinates":[[[7.85829,48.02277],[7.85813,48.02241],[7.85816,48.0224],[7.85831,48.02276],[7.85829,48.02277]]]}},{"type":"Feature","properties":{"zone":"3 (Fläche 18)","district":"Waldsee","rawHours":"werktags 09:00-19:00 Uhr","rawFee":"1,80 €","note":"Tagespauschale 9,00 €","windows":[{"weekdays":[1,2,3,4,5,6],"fromMinute":540,"toMinute":1140}],"fee":{"kind":"exact","centsPerHour":180},"unmodelledRules":[],"sourceDefect":null,"spaces":null,"maxStayMinutes":null,"maxStay":null,"maxStayShare":0,"maxStayValues":[],"chargingPoints":0,"carsharing":0},"geometry":{"type":"Polygon","coordinates":[[[7.88497,47.98653],[7.88496,47.98657],[7.8852,47.98654],[7.88521,47.98651],[7.88497,47.98653]]]}},{"type":"Feature","properties":{"zone":"2 (Fläche 6)","district":"Neuburg","rawHours":"werktags 09:00-19:00 Uhr","rawFee":"3,50 €","note":"Tagespauschale 17,50 €","windows":[{"weekdays":[1,2,3,4,5,6],"fromMinute":540,"toMinute":1140}],"fee":{"kind":"exact","centsPerHour":350},"unmodelledRules":[],"sourceDefect":null,"spaces":null,"maxStayMinutes":null,"maxStay":"1h","maxStayShare":0.007,"maxStayValues":["1h"],"chargingPoints":0,"carsharing":0},"geometry":{"type":"Polygon","coordinates":[[[7.83313,47.994],[7.83272,47.99417],[7.83251,47.99417],[7.8324,47.99419],[7.83151,47.99453],[7.82891,47.99557],[7.83135,47.99865],[7.8323,47.99971],[7.83249,47.99984],[7.83397,48.00148],[7.83473,48.00221],[7.83472,48.00224],[7.83477,48.00241],[7.83477,48.00247],[7.83599,48.00337],[7.8361,48.00348],[7.8367,48.00392],[7.83701,48.00412],[7.83751,48.00388],[7.83772,48.00376],[7.83777,48.00376],[7.83939,48.00535],[7.83957,48.00546],[7.84074,48.00634],[7.84132,48.00674],[7.84259,48.0058],[7.84305,48.00552],[7.84325,48.00568],[7.84469,48.00706],[7.845,48.00747],[7.84544,48.00766],[7.84558,48.00759],[7.8478,48.00936],[7.84813,48.00931],[7.85035,48.00809],[7.85055,48.00796],[7.85055,48.00794],[7.85057,48.00792],[7.85087,48.00779],[7.85089,48.00781],[7.8511,48.00779],[7.85478,48.00802],[7.85481,48.00804],[7.85514,48.00807],[7.85526,48.00759],[7.85529,48.00755],[7.85536,48.00753],[7.85733,48.00741],[7.85806,48.00753],[7.85883,48.00761],[7.85909,48.00761],[7.85932,48.00757],[7.86073,48.00726],[7.86182,48.00691],[7.86209,48.00688],[7.86246,48.00688],[7.8637,48.00694],[7.86388,48.00693],[7.86457,48.0068],[7.86483,48.00684],[7.86481,48.00676],[7.86479,48.00673],[7.8648,48.00643],[7.86478,48.00636],[7.86472,48.00634],[7.86466,48.00618],[7.86423,48.00555],[7.86385,48.00485],[7.8645,48.00458],[7.86457,48.00457],[7.86471,48.00458],[7.8647,48.00433],[7.86465,48.00412],[7.8646,48.00401],[7.86436,48.00363],[7.8647,48.00332],[7.86492,48.0032],[7.86527,48.00309],[7.8654,48.00303],[7.86563,48.00276],[7.86588,48.00251],[7.86541,48.0024],[7.86514,48.00231],[7.86497,48.00223],[7.86454,48.00198],[7.86433,48.00182],[7.86415,48.00165],[7.86398,48.00143],[7.86384,48.00119],[7.86368,48.00098],[7.86358,48.00089],[7.86321,48.00061],[7.86301,48.00034],[7.8629,48.00024],[7.8627,48.00011],[7.86222,47.99989],[7.86218,47.99987],[7.86219,47.99985],[7.86212,47.99981],[7.86208,47.99982],[7.86199,47.99976],[7.86176,47.99956],[7.86151,47.99927],[7.86108,47.99901],[7.86086,47.99893],[7.86054,47.99887],[7.8604,47.99881],[7.8603,47.99868],[7.86018,47.99846],[7.86014,47.99841],[7.86004,47.99849],[7.85989,47.99855],[7.85978,47.99857],[7.85948,47.99855],[7.85931,47.99858],[7.8593,47.9986],[7.85912,47.99866],[7.85568,47.99952],[7.854,48.00013],[7.84669,48.00147],[7.84595,48.00175],[7.84594,48.00178],[7.84574,48.00189],[7.84498,48.00218],[7.8449,48.00209],[7.84491,48.00199],[7.84481,48.00193],[7.84476,48.00188],[7.84405,48.00089],[7.8435,48.00092],[7.84255,48.00126],[7.84102,48.00188],[7.84049,48.00206],[7.84032,48.00211],[7.8395,48.0024],[7.83942,48.00241],[7.83934,48.00239],[7.83923,48.00229],[7.83917,48.0023],[7.83912,48.00227],[7.83898,48.00211],[7.83887,48.00193],[7.83841,48.00105],[7.83827,48.0009],[7.83824,48.0009],[7.83528,47.99701],[7.83515,47.99687],[7.83447,47.99598],[7.834,47.99531],[7.8339,47.9951],[7.83386,47.99496],[7.83376,47.9948],[7.83355,47.99465],[7.83345,47.99451],[7.8332,47.99414],[7.83313,47.994]]]}},{"type":"Feature","properties":{"zone":"3 (Fläche 26)","district":"Brühl","rawHours":"werktags 09:00-19:00 Uhr","rawFee":"1,80 €","note":"Tagespauschale 9,00 €","windows":[{"weekdays":[1,2,3,4,5,6],"fromMinute":540,"toMinute":1140}],"fee":{"kind":"exact","centsPerHour":180},"unmodelledRules":[],"sourceDefect":null,"spaces":null,"maxStayMinutes":null,"maxStay":null,"maxStayShare":0,"maxStayValues":[],"chargingPoints":0,"carsharing":0},"geometry":{"type":"Polygon","coordinates":[[[7.83733,48.00935],[7.83997,48.01125],[7.84212,48.0124],[7.84205,48.01246],[7.84023,48.01149],[7.83979,48.01124],[7.83729,48.00937],[7.83733,48.00935]]]}},{"type":"Feature","properties":{"zone":"3 (Fläche 39)","district":"Zähringen","rawHours":"werktags 09:00-19:00 Uhr","rawFee":"1,80 €","note":"Tagespauschale 9,00 €","windows":[{"weekdays":[1,2,3,4,5,6],"fromMinute":540,"toMinute":1140}],"fee":{"kind":"exact","centsPerHour":180},"unmodelledRules":[],"sourceDefect":null,"spaces":null,"maxStayMinutes":null,"maxStay":null,"maxStayShare":0,"maxStayValues":[],"chargingPoints":0,"carsharing":0},"geometry":{"type":"Polygon","coordinates":[[[7.858,48.02202],[7.85787,48.02171],[7.85791,48.0217],[7.85803,48.02201],[7.858,48.02202]]]}},{"type":"Feature","properties":{"zone":"1 (Fläche 7)","district":"Altstadt","rawHours":"Beschilderung beachten! — laut den 109 Automaten darin: werktags 09:00 - 23:00 (92); täglich 09:00 - 19:00 (7); werktags 09:00 - 19:00 (5); täglich 09:00 - 23:00 (3); werktags 9:00 - 23:00 (1); werktags 07:30 - 23:00 (1)","rawFee":"4,20 €","note":"Tagespauschale 21,00 €","windows":[{"weekdays":[1,2,3,4,5,6],"fromMinute":540,"toMinute":1140},{"weekdays":[1,2,3,4,5,6],"fromMinute":540,"toMinute":1380},{"weekdays":[0,1,2,3,4,5,6],"fromMinute":540,"toMinute":1140},{"weekdays":[0,1,2,3,4,5,6],"fromMinute":540,"toMinute":1380},{"weekdays":[1,2,3,4,5,6],"fromMinute":450,"toMinute":1380}],"fee":{"kind":"exact","centsPerHour":420},"unmodelledRules":[],"sourceDefect":"die Fläche nennt keine Zeit, sondern „Beschilderung beachten!\"; die Zeiten hier stammen von den 109 Parkscheinautomaten in der Fläche","spaces":null,"maxStayMinutes":null,"maxStay":"1h","maxStayShare":0.275,"maxStayValues":["1h","2h"],"chargingPoints":0,"carsharing":0},"geometry":{"type":"Polygon","coordinates":[[[7.84498,48.00218],[7.84574,48.00189],[7.84594,48.00178],[7.84595,48.00175],[7.84669,48.00147],[7.854,48.00013],[7.85568,47.99952],[7.85912,47.99866],[7.8593,47.9986],[7.85931,47.99858],[7.85948,47.99855],[7.85978,47.99857],[7.85989,47.99855],[7.86004,47.99849],[7.86014,47.99841],[7.85953,47.99794],[7.85858,47.9973],[7.85851,47.99732],[7.85834,47.99702],[7.85832,47.99701],[7.85827,47.99691],[7.85819,47.99662],[7.85816,47.99637],[7.85813,47.99626],[7.85804,47.99609],[7.85798,47.99601],[7.85782,47.99587],[7.85706,47.99527],[7.85692,47.99513],[7.8564,47.99453],[7.85507,47.9933],[7.85482,47.99301],[7.8548,47.99295],[7.85475,47.99286],[7.85476,47.99278],[7.85465,47.99271],[7.85459,47.99263],[7.85461,47.99261],[7.8545,47.99255],[7.85449,47.99233],[7.8545,47.99224],[7.85449,47.99223],[7.85445,47.99224],[7.85458,47.99118],[7.85457,47.99106],[7.85469,47.99084],[7.85469,47.99076],[7.85476,47.9907],[7.85484,47.99067],[7.85482,47.99064],[7.85535,47.9905],[7.8553,47.99032],[7.85527,47.99027],[7.85521,47.98853],[7.85524,47.98851],[7.85448,47.98841],[7.85091,47.98869],[7.8482,47.98895],[7.84752,47.98877],[7.84756,47.98911],[7.84762,47.98911],[7.84768,47.9896],[7.84777,47.9896],[7.84778,47.9897],[7.84663,47.98976],[7.8456,47.98988],[7.84491,47.99],[7.8448,47.99],[7.84457,47.98995],[7.84439,47.99001],[7.84432,47.99],[7.84403,47.99017],[7.84402,47.99019],[7.84396,47.99024],[7.8436,47.99036],[7.84296,47.99059],[7.84208,47.99085],[7.84099,47.99108],[7.84004,47.99125],[7.83973,47.99127],[7.83959,47.99126],[7.83956,47.99134],[7.83914,47.99142],[7.83906,47.99137],[7.83895,47.99142],[7.83858,47.99149],[7.83857,47.99144],[7.83837,47.99148],[7.83835,47.99147],[7.83829,47.99148],[7.83829,47.99149],[7.83819,47.99152],[7.83818,47.9915],[7.83788,47.99157],[7.83808,47.99204],[7.83822,47.99227],[7.83697,47.99258],[7.83601,47.99287],[7.83441,47.99343],[7.83387,47.99364],[7.83386,47.99363],[7.83322,47.99388],[7.83315,47.99395],[7.83313,47.994],[7.83316,47.99406],[7.83326,47.99423],[7.83355,47.99465],[7.83376,47.9948],[7.83386,47.99496],[7.8339,47.9951],[7.834,47.99531],[7.83447,47.99598],[7.83515,47.99687],[7.83528,47.99701],[7.83824,48.0009],[7.83827,48.0009],[7.83841,48.00105],[7.83892,48.00202],[7.83912,48.00227],[7.83917,48.0023],[7.83923,48.00229],[7.83934,48.00239],[7.8395,48.0024],[7.84032,48.00211],[7.84049,48.00206],[7.84102,48.00188],[7.84255,48.00126],[7.8435,48.00092],[7.84405,48.00089],[7.84476,48.00188],[7.84481,48.00193],[7.84491,48.00199],[7.8449,48.00209],[7.84498,48.00218]]]}},{"type":"Feature","properties":{"zone":"3 (Fläche 15)","district":"Zähringen","rawHours":"durchgehend","rawFee":"--","note":"Tagespauschale 9,00 € oder ÖPNV-Ticket","windows":[{"weekdays":[0,1,2,3,4,5,6],"fromMinute":0,"toMinute":1440}],"fee":{"kind":"unknown"},"unmodelledRules":[],"sourceDefect":null,"spaces":null,"maxStayMinutes":null,"maxStay":null,"maxStayShare":0,"maxStayValues":[],"chargingPoints":0,"carsharing":0},"geometry":{"type":"Polygon","coordinates":[[[7.86206,48.03553],[7.86154,48.0352],[7.86162,48.03455],[7.86186,48.03445],[7.8629,48.03444],[7.86278,48.03545],[7.86221,48.03556],[7.86206,48.03553]]]}},{"type":"Feature","properties":{"zone":"3 (Fläche 36)","district":"Zähringen","rawHours":"werktags 09:00-19:00 Uhr","rawFee":"1,80 €","note":"Tagespauschale 9,00 €","windows":[{"weekdays":[1,2,3,4,5,6],"fromMinute":540,"toMinute":1140}],"fee":{"kind":"exact","centsPerHour":180},"unmodelledRules":[],"sourceDefect":null,"spaces":null,"maxStayMinutes":null,"maxStay":null,"maxStayShare":0,"maxStayValues":[],"chargingPoints":0,"carsharing":0},"geometry":{"type":"Polygon","coordinates":[[[7.85732,48.02236],[7.85726,48.02221],[7.85743,48.02218],[7.85747,48.02233],[7.85732,48.02236]]]}},{"type":"Feature","properties":{"zone":"3 (Fläche 16)","district":"St. Georgen","rawHours":"durchgehend","rawFee":"--","note":"Tagespauschale 9,00 € oder ÖPNV-Ticket","windows":[{"weekdays":[0,1,2,3,4,5,6],"fromMinute":0,"toMinute":1440}],"fee":{"kind":"unknown"},"unmodelledRules":[],"sourceDefect":null,"spaces":null,"maxStayMinutes":null,"maxStay":null,"maxStayShare":0,"maxStayValues":[],"chargingPoints":0,"carsharing":0},"geometry":{"type":"Polygon","coordinates":[[[7.79594,47.98853],[7.79602,47.98882],[7.79628,47.98879],[7.79634,47.98873],[7.79628,47.98855],[7.79617,47.98849],[7.79594,47.98853]]]}},{"type":"Feature","properties":{"zone":"3 (Fläche 17)","district":"St. Georgen","rawHours":"durchgehend","rawFee":"--","note":"Tagespauschale 9,00 € oder ÖPNV-Ticket","windows":[{"weekdays":[0,1,2,3,4,5,6],"fromMinute":0,"toMinute":1440}],"fee":{"kind":"unknown"},"unmodelledRules":[],"sourceDefect":null,"spaces":null,"maxStayMinutes":null,"maxStay":null,"maxStayShare":0,"maxStayValues":[],"chargingPoints":0,"carsharing":0},"geometry":{"type":"Polygon","coordinates":[[[7.79599,47.98755],[7.7959,47.98707],[7.79559,47.98677],[7.79549,47.98633],[7.79587,47.9863],[7.79608,47.98693],[7.79616,47.98702],[7.79625,47.98753],[7.79599,47.98755]]]}},{"type":"Feature","properties":{"zone":"3 (Fläche 25)","district":"Haslach","rawHours":"werktags 09:00-19:00 Uhr","rawFee":"1,80 €","note":"Tagespauschale 9,00 €","windows":[{"weekdays":[1,2,3,4,5,6],"fromMinute":540,"toMinute":1140}],"fee":{"kind":"exact","centsPerHour":180},"unmodelledRules":[],"sourceDefect":null,"spaces":null,"maxStayMinutes":null,"maxStay":null,"maxStayShare":0,"maxStayValues":[],"chargingPoints":0,"carsharing":0},"geometry":{"type":"Polygon","coordinates":[[[7.816,47.99153],[7.81586,47.99159],[7.81624,47.99192],[7.81671,47.99236],[7.81676,47.99233],[7.81654,47.99214],[7.81661,47.99211],[7.81616,47.9917],[7.816,47.99153]]]}},{"type":"Feature","properties":{"zone":"3 (Fläche 24)","district":"Haslach","rawHours":"werktags 09:00-19:00 Uhr","rawFee":"1,80 €","note":"Tagespauschale 9,00 €","windows":[{"weekdays":[1,2,3,4,5,6],"fromMinute":540,"toMinute":1140}],"fee":{"kind":"exact","centsPerHour":180},"unmodelledRules":[],"sourceDefect":null,"spaces":null,"maxStayMinutes":null,"maxStay":null,"maxStayShare":0,"maxStayValues":[],"chargingPoints":0,"carsharing":0},"geometry":{"type":"Polygon","coordinates":[[[7.81522,47.99073],[7.81539,47.99092],[7.81532,47.99093],[7.81514,47.99074],[7.81522,47.99073]]]}},{"type":"Feature","properties":{"zone":"3 (Fläche 28)","district":"St. Georgen","rawHours":"werktags 09:00-19:00 Uhr","rawFee":"1,80 €","note":"Tagespauschale 9,00 €","windows":[{"weekdays":[1,2,3,4,5,6],"fromMinute":540,"toMinute":1140}],"fee":{"kind":"exact","centsPerHour":180},"unmodelledRules":[],"sourceDefect":null,"spaces":null,"maxStayMinutes":null,"maxStay":null,"maxStayShare":0,"maxStayValues":[],"chargingPoints":0,"carsharing":0},"geometry":{"type":"Polygon","coordinates":[[[7.80339,47.97937],[7.80349,47.97965],[7.80364,47.97988],[7.80386,47.98016],[7.80382,47.98017],[7.80387,47.98025],[7.80381,47.98026],[7.80358,47.97995],[7.80362,47.97994],[7.80344,47.97966],[7.80334,47.97937],[7.80339,47.97937]]]}},{"type":"Feature","properties":{"zone":"3 (Fläche 29)","district":"St. Georgen","rawHours":"werktags 09:00-19:00 Uhr","rawFee":"1,80 €","note":"Tagespauschale 9,00 €","windows":[{"weekdays":[1,2,3,4,5,6],"fromMinute":540,"toMinute":1140}],"fee":{"kind":"exact","centsPerHour":180},"unmodelledRules":[],"sourceDefect":null,"spaces":null,"maxStayMinutes":null,"maxStay":null,"maxStayShare":0,"maxStayValues":[],"chargingPoints":0,"carsharing":0},"geometry":{"type":"Polygon","coordinates":[[[7.80355,47.98054],[7.80388,47.98066],[7.80382,47.98074],[7.80349,47.98062],[7.80355,47.98054]]]}},{"type":"Feature","properties":{"zone":"3 (Fläche 30)","district":"St. Georgen","rawHours":"werktags 09:00-19:00 Uhr","rawFee":"1,80 €","note":"Tagespauschale 9,00 €","windows":[{"weekdays":[1,2,3,4,5,6],"fromMinute":540,"toMinute":1140}],"fee":{"kind":"exact","centsPerHour":180},"unmodelledRules":[],"sourceDefect":null,"spaces":null,"maxStayMinutes":null,"maxStay":null,"maxStayShare":0,"maxStayValues":[],"chargingPoints":0,"carsharing":0},"geometry":{"type":"Polygon","coordinates":[[[7.80364,47.98145],[7.80342,47.982],[7.80339,47.982],[7.80347,47.98176],[7.80361,47.98144],[7.80364,47.98145]]]}},{"type":"Feature","properties":{"zone":"3 (Fläche 31)","district":"St. Georgen","rawHours":"werktags 09:00-19:00 Uhr","rawFee":"1,80 €","note":"Tagespauschale 9,00 €","windows":[{"weekdays":[1,2,3,4,5,6],"fromMinute":540,"toMinute":1140}],"fee":{"kind":"exact","centsPerHour":180},"unmodelledRules":[],"sourceDefect":null,"spaces":null,"maxStayMinutes":null,"maxStay":null,"maxStayShare":0,"maxStayValues":[],"chargingPoints":0,"carsharing":0},"geometry":{"type":"Polygon","coordinates":[[[7.80287,47.98246],[7.80152,47.98237],[7.8015,47.98236],[7.80287,47.98244],[7.80287,47.98246]]]}},{"type":"Feature","properties":{"zone":"3 (Fläche 40)","district":"Brühl","rawHours":"werktags 09:00-19:00 Uhr","rawFee":"1,80 €","note":"Tagespauschale 9,00 €","windows":[{"weekdays":[1,2,3,4,5,6],"fromMinute":540,"toMinute":1140}],"fee":{"kind":"exact","centsPerHour":180},"unmodelledRules":[],"sourceDefect":null,"spaces":null,"maxStayMinutes":null,"maxStay":null,"maxStayShare":0,"maxStayValues":[],"chargingPoints":0,"carsharing":0},"geometry":{"type":"Polygon","coordinates":[[[7.84238,48.0127],[7.84252,48.01258],[7.84248,48.01257],[7.84224,48.01241],[7.84233,48.0124],[7.84718,48.00891],[7.8478,48.00936],[7.84813,48.00931],[7.85035,48.00809],[7.85055,48.00796],[7.85055,48.00794],[7.85057,48.00792],[7.85087,48.00779],[7.85089,48.00781],[7.8511,48.00779],[7.85478,48.00802],[7.85481,48.00804],[7.85514,48.00807],[7.85526,48.00759],[7.85528,48.00756],[7.85536,48.00753],[7.85571,48.00751],[7.85566,48.00817],[7.85512,48.00814],[7.85504,48.00843],[7.85521,48.00876],[7.85534,48.00891],[7.85557,48.00909],[7.85601,48.0094],[7.85626,48.0096],[7.85649,48.00982],[7.85668,48.01006],[7.85716,48.01079],[7.85721,48.0108],[7.85634,48.01114],[7.85632,48.01094],[7.85575,48.01098],[7.85578,48.01117],[7.85562,48.01127],[7.85513,48.0113],[7.85516,48.0115],[7.85522,48.01157],[7.85496,48.01167],[7.85489,48.01167],[7.8548,48.01165],[7.8545,48.01174],[7.85455,48.01225],[7.85481,48.01243],[7.85488,48.01251],[7.85494,48.01266],[7.85489,48.01267],[7.85683,48.01481],[7.85748,48.01551],[7.85745,48.01564],[7.85709,48.01579],[7.85663,48.01594],[7.85587,48.01613],[7.85579,48.01619],[7.85577,48.01627],[7.856,48.01678],[7.85603,48.0168],[7.85613,48.01679],[7.85632,48.01722],[7.8577,48.01702],[7.85769,48.01696],[7.85829,48.01686],[7.85847,48.01679],[7.85859,48.01692],[7.85871,48.01685],[7.85886,48.01685],[7.85891,48.01695],[7.85883,48.01702],[7.85873,48.01702],[7.85863,48.01713],[7.85859,48.01713],[7.8584,48.01729],[7.85816,48.01745],[7.85791,48.01756],[7.85765,48.01761],[7.85718,48.01767],[7.85673,48.01774],[7.85651,48.0178],[7.85669,48.01811],[7.85693,48.01868],[7.85738,48.0186],[7.85744,48.01871],[7.85773,48.01863],[7.85841,48.01852],[7.85856,48.01856],[7.8586,48.01869],[7.85852,48.01872],[7.85768,48.01882],[7.85766,48.01877],[7.85748,48.01881],[7.85756,48.01898],[7.85762,48.01907],[7.85782,48.01919],[7.8579,48.01928],[7.85797,48.01938],[7.85829,48.02006],[7.85943,48.01989],[7.85949,48.02008],[7.85977,48.02005],[7.86003,48.02164],[7.86001,48.02167],[7.86002,48.02171],[7.85882,48.02174],[7.85892,48.02197],[7.85878,48.02199],[7.85874,48.02189],[7.85851,48.02193],[7.85853,48.02199],[7.85862,48.02197],[7.85869,48.02214],[7.85838,48.02221],[7.85817,48.02164],[7.85799,48.02166],[7.85783,48.02134],[7.85764,48.02122],[7.85746,48.02124],[7.85735,48.02147],[7.85712,48.02189],[7.85666,48.02289],[7.85655,48.02317],[7.85643,48.0232],[7.85631,48.02299],[7.85616,48.02279],[7.85572,48.02235],[7.85554,48.02222],[7.85517,48.02197],[7.85496,48.02185],[7.85375,48.02129],[7.85314,48.02086],[7.85306,48.02085],[7.85298,48.02087],[7.85286,48.02076],[7.85289,48.02071],[7.85288,48.02065],[7.85259,48.02037],[7.85244,48.02016],[7.85226,48.01984],[7.85212,48.01948],[7.85136,48.01635],[7.85134,48.01618],[7.85135,48.01601],[7.85137,48.01585],[7.85143,48.01568],[7.8515,48.01551],[7.85137,48.01535],[7.85128,48.01552],[7.8512,48.01576],[7.85115,48.01597],[7.85113,48.01618],[7.85116,48.01642],[7.85174,48.01874],[7.85174,48.01878],[7.85081,48.01934],[7.85029,48.0189],[7.85034,48.01888],[7.85031,48.01885],[7.85027,48.01888],[7.84989,48.01852],[7.84991,48.0185],[7.84989,48.01849],[7.84987,48.0185],[7.84971,48.01835],[7.84974,48.01833],[7.84971,48.0183],[7.84968,48.01832],[7.84891,48.01761],[7.84868,48.01742],[7.84723,48.01636],[7.84446,48.01476],[7.84424,48.01462],[7.84431,48.01457],[7.8438,48.01428],[7.84379,48.01425],[7.84357,48.01412],[7.8435,48.01417],[7.84304,48.01384],[7.84306,48.01383],[7.84303,48.01381],[7.84301,48.01382],[7.84251,48.01344],[7.84252,48.01344],[7.84249,48.01341],[7.84248,48.01342],[7.84227,48.01327],[7.84228,48.01326],[7.84225,48.01324],[7.84224,48.01325],[7.84193,48.01302],[7.84238,48.0127]]]}},{"type":"Feature","properties":{"zone":"3 (Fläche 35)","district":"Vauban","rawHours":"werktags 09:00-19:00 Uhr","rawFee":"1,80 €","note":"Tagespauschale 9,00 €","windows":[{"weekdays":[1,2,3,4,5,6],"fromMinute":540,"toMinute":1140}],"fee":{"kind":"exact","centsPerHour":180},"unmodelledRules":[],"sourceDefect":null,"spaces":null,"maxStayMinutes":null,"maxStay":null,"maxStayShare":0,"maxStayValues":[],"chargingPoints":0,"carsharing":0},"geometry":{"type":"Polygon","coordinates":[[[7.82856,47.9769],[7.82771,47.97704],[7.8271,47.97732],[7.82642,47.97756],[7.82615,47.97762],[7.82506,47.97776],[7.82336,47.97805],[7.82302,47.97801],[7.82246,47.97788],[7.81973,47.97742],[7.81967,47.97736],[7.8185,47.97582],[7.819,47.97529],[7.81986,47.97502],[7.82014,47.97473],[7.82044,47.9746],[7.82152,47.97436],[7.82226,47.97406],[7.82289,47.97386],[7.82366,47.97368],[7.82429,47.97347],[7.82561,47.97288],[7.82657,47.97252],[7.82686,47.97243],[7.82832,47.97407],[7.82847,47.97514],[7.82856,47.97616],[7.8286,47.97686],[7.82856,47.9769]]]}},{"type":"Feature","properties":{"zone":"3 (Fläche 21)","district":"Littenweiler","rawHours":"werktags 09:00-19:00 Uhr","rawFee":"1,80 €","note":"Tagespauschale 9,00 €","windows":[{"weekdays":[1,2,3,4,5,6],"fromMinute":540,"toMinute":1140}],"fee":{"kind":"exact","centsPerHour":180},"unmodelledRules":[],"sourceDefect":null,"spaces":null,"maxStayMinutes":null,"maxStay":null,"maxStayShare":0,"maxStayValues":[],"chargingPoints":0,"carsharing":0},"geometry":{"type":"Polygon","coordinates":[[[7.89537,47.97957],[7.89483,47.97971],[7.89477,47.97972],[7.89477,47.97971],[7.89536,47.97956],[7.89537,47.97957]]]}},{"type":"Feature","properties":{"zone":"3 (Fläche 27)","district":"Stühlinger","rawHours":"Montag - Freitag 07:30-19:00 Uhr; Samstag 09:00-19:00 Uhr","rawFee":"1,80 €","note":"Tagespauschale 9,00 €","windows":[{"weekdays":[1,2,3,4,5],"fromMinute":450,"toMinute":1140},{"weekdays":[6],"fromMinute":540,"toMinute":1140}],"fee":{"kind":"exact","centsPerHour":180},"unmodelledRules":[],"sourceDefect":null,"spaces":null,"maxStayMinutes":null,"maxStay":null,"maxStayShare":0,"maxStayValues":[],"chargingPoints":0,"carsharing":0},"geometry":{"type":"Polygon","coordinates":[[[7.82607,47.99997],[7.82549,48.00019],[7.82565,48.00043],[7.82542,48.00051],[7.82585,48.00084],[7.8259,48.0008],[7.82642,48.00116],[7.82751,48.00089],[7.82767,48.00116],[7.82698,48.00134],[7.82659,48.00136],[7.82634,48.00134],[7.82528,48.00059],[7.82519,48.00042],[7.82514,48.00024],[7.82519,48.00015],[7.82525,48.00011],[7.82595,47.99983],[7.82607,47.99997]]]}},{"type":"Feature","properties":{"zone":"3 (Fläche 19)","district":"Waldsee","rawHours":"werktags 09:00-19:00 Uhr","rawFee":"1,80 €","note":"Tagespauschale 9,00 €","windows":[{"weekdays":[1,2,3,4,5,6],"fromMinute":540,"toMinute":1140}],"fee":{"kind":"exact","centsPerHour":180},"unmodelledRules":[],"sourceDefect":null,"spaces":null,"maxStayMinutes":null,"maxStay":null,"maxStayShare":0,"maxStayValues":[],"chargingPoints":0,"carsharing":0},"geometry":{"type":"Polygon","coordinates":[[[7.89407,47.98485],[7.8941,47.98481],[7.89428,47.98476],[7.89425,47.9848],[7.89407,47.98485]]]}},{"type":"Feature","properties":{"zone":"3 (Fläche 20)","district":"Littenweiler","rawHours":"werktags 07:00-19:00 Uhr","rawFee":"1,80 €","note":"Tagespauschale 9,00 €","windows":[{"weekdays":[1,2,3,4,5,6],"fromMinute":420,"toMinute":1140}],"fee":{"kind":"exact","centsPerHour":180},"unmodelledRules":[],"sourceDefect":null,"spaces":null,"maxStayMinutes":null,"maxStay":null,"maxStayShare":0,"maxStayValues":[],"chargingPoints":0,"carsharing":0},"geometry":{"type":"Polygon","coordinates":[[[7.88967,47.98201],[7.88953,47.98148],[7.88946,47.98148],[7.88943,47.98137],[7.88952,47.98136],[7.8897,47.982],[7.88967,47.98201]]]}},{"type":"Feature","properties":{"zone":"3 (Fläche 22)","district":"Littenweiler","rawHours":"werktags 09:00-19:00 Uhr","rawFee":"1,80 €","note":"Tagespauschale 9,00 €","windows":[{"weekdays":[1,2,3,4,5,6],"fromMinute":540,"toMinute":1140}],"fee":{"kind":"exact","centsPerHour":180},"unmodelledRules":[],"sourceDefect":null,"spaces":null,"maxStayMinutes":null,"maxStay":null,"maxStayShare":0,"maxStayValues":[],"chargingPoints":0,"carsharing":0},"geometry":{"type":"Polygon","coordinates":[[[7.89545,47.97994],[7.89524,47.98026],[7.89521,47.98025],[7.89543,47.97994],[7.89545,47.97994]]]}},{"type":"Feature","properties":{"zone":"3 (Fläche 41)","district":"Wiehre","rawHours":"werktags 09:00-19:00 Uhr","rawFee":"1,80 €","note":"Tagespauschale 9,00 €","windows":[{"weekdays":[1,2,3,4,5,6],"fromMinute":540,"toMinute":1140}],"fee":{"kind":"exact","centsPerHour":180},"unmodelledRules":[],"sourceDefect":null,"spaces":null,"maxStayMinutes":null,"maxStay":null,"maxStayShare":0,"maxStayValues":[],"chargingPoints":0,"carsharing":0},"geometry":{"type":"Polygon","coordinates":[[[7.84088,47.98271],[7.84081,47.98246],[7.84073,47.98229],[7.84095,47.98224],[7.84128,47.98081],[7.84079,47.98067],[7.84074,47.98062],[7.8407,47.98045],[7.84066,47.98036],[7.84059,47.98023],[7.84044,47.98008],[7.84042,47.98003],[7.84043,47.97995],[7.84045,47.9799],[7.84049,47.97985],[7.84056,47.9798],[7.84053,47.97974],[7.84068,47.97962],[7.84059,47.97956],[7.84056,47.9793],[7.84021,47.9793],[7.84019,47.97892],[7.84023,47.97892],[7.84028,47.97816],[7.84058,47.97817],[7.84068,47.97781],[7.84038,47.97777],[7.8405,47.97753],[7.84071,47.97753],[7.84081,47.9772],[7.84064,47.97717],[7.84085,47.97699],[7.84102,47.97675],[7.84149,47.97686],[7.84132,47.9772],[7.84122,47.97753],[7.84119,47.97774],[7.84118,47.97795],[7.84123,47.9783],[7.84137,47.97826],[7.84191,47.97822],[7.8419,47.97818],[7.84261,47.97816],[7.84293,47.97817],[7.84356,47.97823],[7.84419,47.97832],[7.8448,47.97846],[7.84565,47.97875],[7.84592,47.97886],[7.84644,47.97911],[7.8472,47.97954],[7.84724,47.97959],[7.84704,47.97964],[7.84732,47.97983],[7.84772,47.97991],[7.84779,47.9799],[7.84793,47.97997],[7.848,47.98051],[7.84803,47.98089],[7.84802,47.98111],[7.84796,47.98149],[7.84812,47.98146],[7.84893,47.98154],[7.84903,47.98153],[7.84911,47.98147],[7.84913,47.98143],[7.84996,47.98131],[7.85021,47.98129],[7.85047,47.9813],[7.85083,47.98136],[7.85126,47.98148],[7.85171,47.98166],[7.85215,47.9819],[7.85231,47.98176],[7.85363,47.9822],[7.85362,47.98222],[7.85367,47.98224],[7.85368,47.98221],[7.854,47.98231],[7.85399,47.98232],[7.85423,47.9824],[7.85417,47.98248],[7.85473,47.98267],[7.85476,47.98264],[7.85698,47.9834],[7.85701,47.98336],[7.86016,47.98446],[7.86091,47.9847],[7.86111,47.98475],[7.86099,47.98508],[7.86079,47.9851],[7.86036,47.98506],[7.86029,47.98521],[7.86029,47.98527],[7.86065,47.98539],[7.86134,47.98545],[7.86224,47.9855],[7.86228,47.98546],[7.8626,47.98541],[7.86335,47.98543],[7.86343,47.98536],[7.86344,47.98525],[7.86461,47.98529],[7.86692,47.9854],[7.86765,47.98545],[7.86839,47.98553],[7.86911,47.98563],[7.87036,47.98586],[7.87119,47.98596],[7.87116,47.98603],[7.87138,47.98651],[7.87126,47.98654],[7.87119,47.98652],[7.87087,47.98659],[7.87129,47.98737],[7.87159,47.9875],[7.87177,47.98804],[7.87151,47.9881],[7.87118,47.98813],[7.87119,47.98819],[7.87097,47.98833],[7.87056,47.98839],[7.86923,47.98854],[7.86867,47.98863],[7.86826,47.98866],[7.86602,47.98855],[7.86603,47.98843],[7.8652,47.98839],[7.86503,47.98833],[7.86464,47.98794],[7.86298,47.98836],[7.86264,47.9885],[7.86249,47.98858],[7.86223,47.98862],[7.86223,47.98849],[7.86165,47.9886],[7.8608,47.98869],[7.85921,47.98878],[7.85802,47.98882],[7.8578,47.98881],[7.85754,47.98878],[7.85595,47.98847],[7.85457,47.98829],[7.85451,47.98823],[7.85446,47.9881],[7.85427,47.98642],[7.85406,47.98527],[7.85408,47.98514],[7.85411,47.98511],[7.8542,47.98507],[7.85406,47.98489],[7.85381,47.98488],[7.85378,47.98491],[7.85159,47.98497],[7.85117,47.98495],[7.85013,47.98483],[7.85007,47.98478],[7.84989,47.98476],[7.84972,47.98478],[7.84918,47.98471],[7.84884,47.98426],[7.84873,47.98432],[7.84858,47.98432],[7.84803,47.98439],[7.84779,47.98444],[7.84769,47.98448],[7.84737,47.98446],[7.84732,47.98449],[7.8467,47.98446],[7.8464,47.98446],[7.84527,47.98472],[7.8451,47.98475],[7.84386,47.98472],[7.84391,47.9847],[7.84393,47.98425],[7.84348,47.98443],[7.84343,47.98441],[7.84342,47.98401],[7.8434,47.98401],[7.8434,47.98385],[7.84227,47.98383],[7.84234,47.98254],[7.84113,47.98249],[7.84088,47.98271]]]}}]}