{"type":"FeatureCollection","features":[{"type":"Feature","properties":{"name":"Robertsau-Wacken","bezirk":"Ville de Strasbourg"},"geometry":{"type":"Polygon","coordinates":[[[7.78567,48.6193],[7.78587,48.61977],[7.78588,48.62079],[7.78494,48.62306],[7.78501,48.62435],[7.78527,48.62495],[7.78696,48.6274],[7.78834,48.62833],[7.79044,48.62869],[7.79206,48.62857],[7.79374,48.62801],[7.7961,48.62687],[7.7974,48.62643],[7.79968,48.62605],[7.80202,48.62635],[7.80369,48.62725],[7.80188,48.63144],[7.80073,48.63326],[7.80026,48.63363],[7.79933,48.634],[7.7951,48.63505],[7.79392,48.6357],[7.79315,48.63678],[7.79273,48.6376],[7.79246,48.63861],[7.7927,48.6409],[7.79293,48.64147],[7.79345,48.64206],[7.7946,48.64262],[7.79586,48.64267],[7.79656,48.64242],[7.79749,48.64062],[7.79838,48.64028],[7.79958,48.64024],[7.80105,48.64072],[7.80261,48.64204],[7.80453,48.64322],[7.80531,48.64393],[7.80633,48.64522],[7.80688,48.64554],[7.80803,48.6459],[7.80973,48.64614],[7.81132,48.6462],[7.8133,48.64593],[7.81415,48.64555],[7.81522,48.64424],[7.81581,48.64382],[7.81263,48.64305],[7.81148,48.6421],[7.81104,48.6412],[7.80987,48.64074],[7.80914,48.6408],[7.80902,48.6407],[7.80872,48.63922],[7.80867,48.63707],[7.80899,48.63704],[7.80984,48.63619],[7.81097,48.63669],[7.81234,48.63676],[7.81997,48.63624],[7.82005,48.63577],[7.82086,48.63539],[7.82233,48.63482],[7.82261,48.63503],[7.82504,48.63255],[7.82667,48.63214],[7.8336,48.6337],[7.83602,48.63337],[7.83356,48.62631],[7.83126,48.62126],[7.82931,48.61826],[7.82761,48.61618],[7.80455,48.59258],[7.80235,48.58953],[7.79746,48.58929],[7.7945,48.58955],[7.79143,48.5899],[7.7911,48.59012],[7.78981,48.59027],[7.78848,48.59022],[7.78765,48.59067],[7.78159,48.59142],[7.78014,48.59205],[7.77268,48.59662],[7.77119,48.59691],[7.76878,48.59592],[7.76768,48.59525],[7.76689,48.59422],[7.76661,48.59255],[7.76623,48.5926],[7.76638,48.59328],[7.76398,48.59382],[7.75919,48.59375],[7.75903,48.595],[7.75792,48.5949],[7.75774,48.59527],[7.75361,48.5985],[7.75486,48.59978],[7.7549,48.60111],[7.75601,48.60198],[7.75753,48.60234],[7.76052,48.60207],[7.76188,48.60253],[7.76287,48.60253],[7.76278,48.60265],[7.7654,48.60312],[7.76509,48.60435],[7.7654,48.60527],[7.76654,48.60609],[7.76844,48.60671],[7.76986,48.60766],[7.77055,48.60882],[7.77045,48.60973],[7.76786,48.61302],[7.76753,48.61422],[7.76765,48.61465],[7.76805,48.61516],[7.77163,48.61864],[7.77303,48.61919],[7.77451,48.6191],[7.77669,48.61853],[7.7784,48.61771],[7.78073,48.61739],[7.7828,48.61761],[7.78375,48.61789],[7.7847,48.61836],[7.78567,48.6193]]]}},{"type":"Feature","properties":{"name":"Meinau","bezirk":"Ville de Strasbourg"},"geometry":{"type":"Polygon","coordinates":[[[7.74021,48.54754],[7.73809,48.54846],[7.73668,48.54821],[7.73562,48.54847],[7.73412,48.5497],[7.73438,48.55109],[7.73379,48.55122],[7.73309,48.55115],[7.73262,48.55033],[7.73248,48.55033],[7.73449,48.56552],[7.73513,48.57172],[7.7359,48.57331],[7.73587,48.5736],[7.73642,48.57415],[7.73655,48.57475],[7.73795,48.5745],[7.73774,48.57304],[7.7371,48.57237],[7.74487,48.56847],[7.75006,48.56483],[7.7543,48.56268],[7.75889,48.56008],[7.75859,48.55983],[7.75849,48.5595],[7.75958,48.55835],[7.76046,48.55508],[7.75987,48.55432],[7.75786,48.55438],[7.75821,48.54587],[7.75979,48.54556],[7.75955,48.54487],[7.76022,48.54425],[7.76066,48.54333],[7.76083,48.54252],[7.76078,48.54077],[7.75836,48.53933],[7.75803,48.5405],[7.75563,48.54143],[7.75313,48.54194],[7.75145,48.54189],[7.75039,48.54149],[7.75034,48.54381],[7.75086,48.54424],[7.74836,48.54486],[7.74856,48.54517],[7.7485,48.54541],[7.74639,48.54575],[7.74021,48.54754]]]}},{"type":"Feature","properties":{"name":"Conseil des XV","bezirk":"Ville de Strasbourg"},"geometry":{"type":"Polygon","coordinates":[[[7.76222,48.58654],[7.76184,48.58665],[7.76335,48.58786],[7.76362,48.58839],[7.76384,48.58971],[7.76619,48.59168],[7.76664,48.59263],[7.76689,48.59422],[7.76721,48.59473],[7.7682,48.59562],[7.77119,48.59691],[7.77268,48.59662],[7.78093,48.59163],[7.78322,48.59118],[7.78765,48.59067],[7.78848,48.59022],[7.78802,48.58975],[7.78685,48.58737],[7.78655,48.5871],[7.78639,48.58642],[7.78579,48.58533],[7.78321,48.58196],[7.78204,48.57896],[7.77944,48.58035],[7.77687,48.58023],[7.7702,48.58093],[7.75879,48.58411],[7.75982,48.58509],[7.76098,48.58555],[7.76222,48.58654]]]}},{"type":"Feature","properties":{"name":"Neudorf-Musau-Port du Rhin","bezirk":"Ville de Strasbourg"},"geometry":{"type":"Polygon","coordinates":[[[7.74101,48.57048],[7.7371,48.57237],[7.73774,48.57304],[7.73792,48.57416],[7.74252,48.57386],[7.74339,48.5736],[7.7457,48.5736],[7.7472,48.57368],[7.75065,48.57446],[7.7548,48.57497],[7.75838,48.5749],[7.77594,48.57346],[7.77822,48.57471],[7.78018,48.57636],[7.78104,48.57681],[7.78191,48.57861],[7.78321,48.58196],[7.78579,48.58533],[7.78639,48.58642],[7.78655,48.5871],[7.78685,48.58737],[7.78802,48.58975],[7.78848,48.59022],[7.78981,48.59027],[7.7911,48.59012],[7.79143,48.5899],[7.79746,48.58929],[7.80235,48.58953],[7.80124,48.58724],[7.80026,48.5839],[7.80003,48.58186],[7.80004,48.57983],[7.80078,48.57637],[7.80321,48.57014],[7.80454,48.56545],[7.80534,48.56102],[7.80572,48.5555],[7.80308,48.55438],[7.80184,48.55369],[7.80025,48.55509],[7.80017,48.55537],[7.7996,48.55588],[7.79959,48.5561],[7.7978,48.55746],[7.79658,48.55655],[7.79589,48.55518],[7.79508,48.5561],[7.78907,48.56071],[7.78062,48.55567],[7.78035,48.55794],[7.77884,48.55935],[7.77738,48.55932],[7.77453,48.56022],[7.77402,48.5608],[7.76971,48.55932],[7.76675,48.55876],[7.7653,48.55871],[7.76518,48.55889],[7.76159,48.55937],[7.75988,48.55993],[7.7598,48.5603],[7.75889,48.56008],[7.7543,48.56268],[7.75033,48.56467],[7.74487,48.56847],[7.74101,48.57048]]]}},{"type":"Feature","properties":{"name":"Neuhof","bezirk":"Ville de Strasbourg"},"geometry":{"type":"Polygon","coordinates":[[[7.75979,48.54556],[7.75823,48.54579],[7.75808,48.54847],[7.75786,48.55438],[7.75987,48.55432],[7.76046,48.55508],[7.75958,48.55835],[7.75849,48.5595],[7.75859,48.55983],[7.75917,48.56023],[7.7598,48.5603],[7.75988,48.55993],[7.76248,48.55918],[7.76518,48.55889],[7.7653,48.55871],[7.76625,48.55873],[7.76792,48.55891],[7.76971,48.55932],[7.77402,48.5608],[7.77453,48.56022],[7.77738,48.55932],[7.77884,48.55935],[7.78035,48.55794],[7.78062,48.55567],[7.78907,48.56071],[7.79508,48.5561],[7.79589,48.55518],[7.79658,48.55655],[7.7978,48.55746],[7.79959,48.5561],[7.7996,48.55588],[7.80017,48.55537],[7.80025,48.55509],[7.80184,48.55369],[7.80308,48.55438],[7.80572,48.5555],[7.80575,48.55202],[7.80543,48.54837],[7.80342,48.53905],[7.80316,48.53637],[7.80336,48.53397],[7.80383,48.53181],[7.80607,48.52643],[7.80655,48.52461],[7.80677,48.52322],[7.80679,48.51931],[7.80578,48.51537],[7.80432,48.51204],[7.80298,48.50997],[7.79997,48.50609],[7.7967,48.5031],[7.79306,48.50101],[7.79068,48.50003],[7.77743,48.49565],[7.77395,48.49395],[7.77074,48.49198],[7.7694,48.49325],[7.76734,48.49359],[7.76006,48.49351],[7.75739,48.49315],[7.75468,48.4949],[7.75292,48.49461],[7.75142,48.49401],[7.75085,48.49402],[7.75044,48.49431],[7.75017,48.49464],[7.75018,48.49491],[7.7516,48.49633],[7.75182,48.49688],[7.75262,48.49734],[7.75386,48.49744],[7.75604,48.49633],[7.75696,48.49627],[7.75747,48.49639],[7.75927,48.49801],[7.75947,48.49867],[7.76053,48.49991],[7.76055,48.50161],[7.75954,48.50271],[7.75904,48.50463],[7.75878,48.50507],[7.75821,48.50568],[7.75591,48.50724],[7.75591,48.50809],[7.75615,48.50847],[7.7566,48.50876],[7.75724,48.50875],[7.75882,48.5082],[7.75923,48.5083],[7.75986,48.50875],[7.75996,48.50916],[7.7594,48.50968],[7.75923,48.51016],[7.75929,48.51059],[7.75967,48.51095],[7.76055,48.51135],[7.7608,48.51201],[7.76267,48.51256],[7.76305,48.51321],[7.76331,48.51432],[7.76324,48.51485],[7.76286,48.51557],[7.76295,48.51581],[7.76415,48.516],[7.76495,48.51537],[7.76542,48.51531],[7.76673,48.51605],[7.7658,48.51637],[7.76547,48.51684],[7.76431,48.51732],[7.76422,48.518],[7.76395,48.51818],[7.76243,48.51846],[7.76097,48.51836],[7.75981,48.51883],[7.75955,48.51931],[7.75972,48.52013],[7.75966,48.52069],[7.75998,48.52087],[7.76203,48.521],[7.76269,48.52118],[7.7632,48.52241],[7.76313,48.52294],[7.76256,48.52353],[7.76179,48.52404],[7.76131,48.52463],[7.76074,48.52494],[7.7577,48.52508],[7.75679,48.52613],[7.7566,48.52666],[7.75659,48.52751],[7.75708,48.52835],[7.757,48.52897],[7.75712,48.52916],[7.75759,48.52929],[7.75988,48.52916],[7.76046,48.53086],[7.7615,48.53172],[7.76133,48.53237],[7.76065,48.5331],[7.75911,48.53325],[7.75848,48.5337],[7.75766,48.53394],[7.75762,48.53411],[7.75807,48.53468],[7.75797,48.5352],[7.75783,48.5355],[7.75686,48.53639],[7.7562,48.53828],[7.75683,48.53878],[7.75867,48.53949],[7.76078,48.54077],[7.76083,48.54252],[7.76066,48.54333],[7.76022,48.54425],[7.75955,48.54487],[7.75979,48.54556]]]}},{"type":"Feature","properties":{"name":"Cronenbourg-Hautepierre-Poteries-Hohberg","bezirk":"Ville de Strasbourg"},"geometry":{"type":"Polygon","coordinates":[[[7.70739,48.60296],[7.70952,48.60478],[7.71032,48.60425],[7.71225,48.60588],[7.71405,48.6052],[7.71615,48.60631],[7.71618,48.60615],[7.71819,48.60679],[7.71852,48.60567],[7.72048,48.6065],[7.72055,48.60605],[7.72118,48.60625],[7.72157,48.60567],[7.72174,48.60575],[7.72185,48.6054],[7.72217,48.6053],[7.72179,48.60475],[7.72302,48.60448],[7.72207,48.60293],[7.7241,48.6031],[7.72387,48.60262],[7.72976,48.60128],[7.73081,48.60174],[7.73359,48.60114],[7.73511,48.60031],[7.73751,48.59933],[7.73969,48.59813],[7.74046,48.5976],[7.74135,48.59665],[7.74172,48.59501],[7.74162,48.59413],[7.74119,48.59323],[7.74022,48.59205],[7.73739,48.59139],[7.73319,48.58991],[7.72901,48.58678],[7.72653,48.58277],[7.72646,48.58077],[7.72492,48.58083],[7.72339,48.58161],[7.72301,48.58238],[7.72306,48.58447],[7.72271,48.58509],[7.72198,48.58561],[7.71932,48.5864],[7.71256,48.5874],[7.71228,48.58617],[7.71116,48.58374],[7.70734,48.58331],[7.70708,48.58361],[7.70656,48.58377],[7.70439,48.58341],[7.70383,48.5835],[7.70344,48.58277],[7.7035,48.58185],[7.69704,48.58095],[7.69536,48.58089],[7.69037,48.58321],[7.6912,48.5841],[7.69096,48.58432],[7.68989,48.58465],[7.68986,48.58623],[7.6887,48.58617],[7.68886,48.58902],[7.68854,48.59225],[7.69057,48.59269],[7.68896,48.59461],[7.68859,48.59446],[7.68812,48.59947],[7.69457,48.6011],[7.69522,48.60194],[7.69746,48.60104],[7.70043,48.6032],[7.70224,48.60203],[7.70262,48.60231],[7.70434,48.60125],[7.70702,48.6032],[7.70739,48.60296]]]}},{"type":"Feature","properties":{"name":"Gare-Kléber","bezirk":"Ville de Strasbourg"},"geometry":{"type":"Polygon","coordinates":[[[7.73863,48.58761],[7.74011,48.58894],[7.74075,48.58798],[7.7417,48.58823],[7.74192,48.5877],[7.74342,48.58589],[7.7442,48.58438],[7.74641,48.58433],[7.74722,48.58264],[7.75092,48.57937],[7.7487,48.57857],[7.74907,48.57798],[7.74918,48.57728],[7.7494,48.57726],[7.74976,48.57677],[7.7503,48.57686],[7.75051,48.57611],[7.75049,48.57583],[7.74976,48.57508],[7.74989,48.5743],[7.7472,48.57368],[7.74339,48.5736],[7.74252,48.57386],[7.73792,48.57416],[7.73795,48.5745],[7.73655,48.57475],[7.73642,48.57415],[7.73587,48.5736],[7.73381,48.57258],[7.73231,48.57229],[7.73058,48.57246],[7.73004,48.57375],[7.72941,48.57464],[7.72646,48.5775],[7.72674,48.57778],[7.72616,48.57864],[7.72643,48.58027],[7.72653,48.58277],[7.72745,48.58408],[7.72879,48.58656],[7.73129,48.58837],[7.73258,48.58952],[7.73319,48.58991],[7.73739,48.59139],[7.74022,48.59205],[7.73911,48.59078],[7.73944,48.59079],[7.73821,48.58932],[7.73864,48.58903],[7.73802,48.5891],[7.73727,48.58831],[7.73863,48.58761]]]}},{"type":"Feature","properties":{"name":"Koenigshoffen-Montagne Verte-Elsau","bezirk":"Ville de Strasbourg"},"geometry":{"type":"Polygon","coordinates":[[[7.69658,48.5759],[7.69644,48.57625],[7.69579,48.57614],[7.69541,48.57696],[7.69575,48.57869],[7.69613,48.57989],[7.69641,48.58026],[7.69598,48.5804],[7.69536,48.58089],[7.69704,48.58095],[7.7035,48.58185],[7.70344,48.58277],[7.70383,48.5835],[7.70439,48.58341],[7.70656,48.58377],[7.70708,48.58361],[7.70734,48.58331],[7.71116,48.58374],[7.71228,48.58617],[7.71256,48.5874],[7.71932,48.5864],[7.71951,48.58624],[7.72154,48.58579],[7.72238,48.58537],[7.72306,48.58447],[7.72301,48.58238],[7.72316,48.58191],[7.72377,48.58132],[7.72492,48.58083],[7.72646,48.58077],[7.72616,48.57864],[7.72674,48.57778],[7.72646,48.5775],[7.72941,48.57464],[7.73004,48.57375],[7.73058,48.57246],[7.73311,48.57234],[7.73559,48.57354],[7.73587,48.5736],[7.73591,48.57347],[7.73513,48.57172],[7.73449,48.56552],[7.73248,48.55033],[7.73118,48.55029],[7.73055,48.55055],[7.731,48.55101],[7.73023,48.55117],[7.73122,48.55293],[7.73166,48.5544],[7.73123,48.55672],[7.73075,48.55796],[7.72968,48.55919],[7.72829,48.56035],[7.72538,48.56176],[7.72233,48.56231],[7.71664,48.56266],[7.71448,48.5622],[7.71396,48.56224],[7.71399,48.56182],[7.71423,48.56152],[7.71527,48.56081],[7.71638,48.56033],[7.71621,48.55969],[7.71536,48.55935],[7.70439,48.55769],[7.70442,48.5584],[7.70492,48.55888],[7.70538,48.55919],[7.70623,48.55924],[7.70672,48.55961],[7.70681,48.55998],[7.70656,48.56074],[7.70391,48.56051],[7.69832,48.56141],[7.69753,48.56142],[7.6964,48.56122],[7.69394,48.56038],[7.69297,48.56166],[7.69254,48.56283],[7.69773,48.56376],[7.69767,48.56389],[7.70049,48.56445],[7.70095,48.56459],[7.70088,48.56538],[7.70182,48.56543],[7.70174,48.56733],[7.70202,48.56763],[7.70164,48.56785],[7.70189,48.56807],[7.70153,48.56837],[7.70164,48.56888],[7.70128,48.56932],[7.70136,48.5696],[7.70103,48.57059],[7.70042,48.57095],[7.69956,48.57096],[7.69955,48.57133],[7.69889,48.57141],[7.69777,48.57215],[7.69789,48.57264],[7.69771,48.57287],[7.69776,48.57312],[7.6975,48.57326],[7.69744,48.57356],[7.69756,48.57365],[7.69482,48.57454],[7.69576,48.57571],[7.69658,48.5759]]]}},{"type":"Feature","properties":{"name":"Bourse-Esplanade-Krutenau","bezirk":"Ville de Strasbourg"},"geometry":{"type":"Polygon","coordinates":[[[7.75092,48.57937],[7.75633,48.58192],[7.75674,48.58229],[7.75649,48.58239],[7.75722,48.58306],[7.75728,48.58334],[7.75834,48.58429],[7.75943,48.58387],[7.7702,48.58093],[7.77687,48.58023],[7.77944,48.58035],[7.78204,48.57896],[7.78104,48.57681],[7.78018,48.57636],[7.77822,48.57471],[7.77594,48.57346],[7.75838,48.5749],[7.7548,48.57497],[7.74989,48.5743],[7.74976,48.57508],[7.75049,48.57583],[7.75051,48.57611],[7.7503,48.57686],[7.74976,48.57677],[7.7494,48.57726],[7.74918,48.57728],[7.74907,48.57798],[7.7487,48.57857],[7.75092,48.57937]]]}},{"type":"Feature","properties":{"name":"Strasbourg-centre","bezirk":"Ville de Strasbourg"},"geometry":{"type":"Polygon","coordinates":[[[7.73944,48.59079],[7.73911,48.59078],[7.74119,48.59323],[7.7417,48.59452],[7.74135,48.59665],[7.74046,48.5976],[7.73981,48.59806],[7.74218,48.59864],[7.74782,48.59856],[7.74844,48.5991],[7.74903,48.59908],[7.74918,48.59944],[7.7538,48.59991],[7.75439,48.59994],[7.75486,48.59978],[7.75361,48.5985],[7.75774,48.59527],[7.75792,48.5949],[7.75903,48.595],[7.75919,48.59375],[7.76398,48.59382],[7.76638,48.59328],[7.76623,48.5926],[7.76661,48.59255],[7.76588,48.59133],[7.76384,48.58971],[7.76362,48.58839],[7.76335,48.58786],[7.76184,48.58665],[7.76222,48.58654],[7.76188,48.58621],[7.76098,48.58555],[7.75982,48.58509],[7.75879,48.58411],[7.75834,48.58429],[7.75728,48.58334],[7.75722,48.58306],[7.75649,48.58239],[7.75674,48.58229],[7.75633,48.58192],[7.75092,48.57937],[7.74722,48.58264],[7.74641,48.58433],[7.7442,48.58438],[7.74342,48.58589],[7.74192,48.5877],[7.7417,48.58823],[7.74075,48.58798],[7.74011,48.58894],[7.73863,48.58761],[7.73727,48.58831],[7.73802,48.5891],[7.73864,48.58903],[7.73821,48.58932],[7.73944,48.59079]]]}}]}