{"type":"FeatureCollection","features":[{"type":"Feature","properties":{"zone":"rouge 10","district":"Gare-Kléber","rawHours":"laut Datensatzbeschreibung: du lundi au samedi de 9h00 à 19h00, gratuit les dimanches et les jours fériés (nicht am Feature)","rawFee":"1h = 3.5€ / 2h = 8€ / 2h15 = 10€ / 2h30 = 12€ / 2h50 = 16.5€ / 3h = 17€","note":"Zone rouge (rot) der Ville de Strasbourg, Bewohnerparkzone 1; Stundenkosten nachgerechnet: 3,50 € / 4,50 € / 9,00 €; laut Quelle Stand 2026-09-03","windows":[{"weekdays":[1,2,3,4,5,6],"fromMinute":540,"toMinute":1140}],"fee":{"kind":"range","minCentsPerHour":350,"maxCentsPerHour":900},"unmodelledRules":["Staffeltarif (kumuliert): 1 h 3,50 €, 2 h 8,00 €, 2 h 15 10,00 €, 2 h 30 12,00 €, 2 h 50 16,50 €, 3 h 17,00 € — die letzte Stufe entspricht dem ermäßigten Forfait post-stationnement (FPS); länger als 3 h kostet den vollen FPS von 35 €"],"sourceDefect":null,"spaces":null,"maxStayMinutes":180,"maxStay":null,"maxStayShare":0,"maxStayValues":[],"chargingPoints":0,"carsharing":0},"geometry":{"type":"Polygon","coordinates":[[[7.73206,48.58228],[7.73212,48.58249],[7.73276,48.58324],[7.73361,48.58414],[7.73473,48.58564],[7.73562,48.58673],[7.73706,48.58828],[7.73851,48.58749],[7.73929,48.58819],[7.73949,48.58806],[7.73953,48.58796],[7.73976,48.58769],[7.74117,48.5857],[7.74182,48.58488],[7.74109,48.5845],[7.74077,48.58439],[7.74023,48.58413],[7.73916,48.58357],[7.73893,48.58338],[7.7387,48.58322],[7.73851,48.58307],[7.73821,48.58252],[7.73804,48.58148],[7.73803,48.58111],[7.73801,48.58088],[7.73802,48.58088],[7.73802,48.58083],[7.73799,48.58077],[7.73778,48.58046],[7.73738,48.57994],[7.73381,48.58077],[7.73379,48.58139],[7.73355,48.58162],[7.7326,48.58185],[7.73257,48.58205],[7.73249,48.58212],[7.73237,48.58218],[7.73206,48.58228]]]}},{"type":"Feature","properties":{"zone":"orange 6","district":"Gare-Kléber","rawHours":"laut Datensatzbeschreibung: du lundi au samedi de 9h00 à 19h00, gratuit les dimanches et les jours fériés (nicht am Feature)","rawFee":"1h = 2.5€ / 2h = 3.5€ / 2h15 = 6€ / 2h30 = 8€ / 2h50 = 9€ / 3h = 10€ / 3h20 = 14€ / 3h45 = 16.5€ / 4h = 17€","note":"Zone orange (orange) der Ville de Strasbourg, Bewohnerparkzone 10; Stundenkosten nachgerechnet: 2,50 € / 1,00 € / 6,50 € / 7,00 €; laut Quelle Stand 2026-09-03","windows":[{"weekdays":[1,2,3,4,5,6],"fromMinute":540,"toMinute":1140}],"fee":{"kind":"range","minCentsPerHour":100,"maxCentsPerHour":700},"unmodelledRules":["Staffeltarif (kumuliert): 1 h 2,50 €, 2 h 3,50 €, 2 h 15 6,00 €, 2 h 30 8,00 €, 2 h 50 9,00 €, 3 h 10,00 €, 3 h 20 14,00 €, 3 h 45 16,50 €, 4 h 17,00 € — die letzte Stufe entspricht dem ermäßigten Forfait post-stationnement (FPS); länger als 4 h kostet den vollen FPS von 35 €"],"sourceDefect":null,"spaces":null,"maxStayMinutes":240,"maxStay":null,"maxStayShare":0,"maxStayValues":[],"chargingPoints":0,"carsharing":0},"geometry":{"type":"Polygon","coordinates":[[[7.72927,48.57969],[7.72945,48.57993],[7.73007,48.57978],[7.73065,48.57967],[7.73064,48.57932],[7.73164,48.57622],[7.73204,48.57633],[7.73338,48.57739],[7.73375,48.57765],[7.7344,48.57816],[7.73468,48.57811],[7.73486,48.57806],[7.73528,48.57787],[7.7355,48.5778],[7.73587,48.57773],[7.73612,48.57773],[7.73635,48.57699],[7.73636,48.57699],[7.73644,48.5768],[7.73653,48.57666],[7.73651,48.5766],[7.73652,48.57658],[7.73655,48.57658],[7.73656,48.57655],[7.73653,48.57655],[7.73662,48.57625],[7.73665,48.57601],[7.73665,48.57584],[7.73661,48.57566],[7.7364,48.57524],[7.73628,48.57495],[7.73625,48.57495],[7.73615,48.5747],[7.73574,48.57476],[7.73546,48.57479],[7.73467,48.5748],[7.73405,48.57485],[7.7339,48.57484],[7.73376,48.57482],[7.7332,48.57446],[7.73257,48.57418],[7.73168,48.57445],[7.73085,48.57462],[7.73009,48.57494],[7.72976,48.57484],[7.72937,48.57524],[7.72943,48.57527],[7.72924,48.57539],[7.72844,48.5761],[7.72836,48.5762],[7.72801,48.57685],[7.72769,48.57761],[7.7277,48.57772],[7.72774,48.57781],[7.72796,48.57809],[7.72818,48.57859],[7.72816,48.57863],[7.72858,48.57897],[7.72927,48.57969]]]}},{"type":"Feature","properties":{"zone":"orange 7","district":"Gare-Kléber","rawHours":"laut Datensatzbeschreibung: du lundi au samedi de 9h00 à 19h00, gratuit les dimanches et les jours fériés (nicht am Feature)","rawFee":"1h = 2.5€ / 2h = 3.5€ / 2h15 = 6€ / 2h30 = 8€ / 2h50 = 9€ / 3h = 10€ / 3h20 = 14€ / 3h45 = 16.5€ / 4h = 17€","note":"Zone orange (orange) der Ville de Strasbourg, Bewohnerparkzone 3; Stundenkosten nachgerechnet: 2,50 € / 1,00 € / 6,50 € / 7,00 €; laut Quelle Stand 2026-09-03","windows":[{"weekdays":[1,2,3,4,5,6],"fromMinute":540,"toMinute":1140}],"fee":{"kind":"range","minCentsPerHour":100,"maxCentsPerHour":700},"unmodelledRules":["Staffeltarif (kumuliert): 1 h 2,50 €, 2 h 3,50 €, 2 h 15 6,00 €, 2 h 30 8,00 €, 2 h 50 9,00 €, 3 h 10,00 €, 3 h 20 14,00 €, 3 h 45 16,50 €, 4 h 17,00 € — die letzte Stufe entspricht dem ermäßigten Forfait post-stationnement (FPS); länger als 4 h kostet den vollen FPS von 35 €"],"sourceDefect":null,"spaces":null,"maxStayMinutes":240,"maxStay":null,"maxStayShare":0,"maxStayValues":[],"chargingPoints":0,"carsharing":0},"geometry":{"type":"Polygon","coordinates":[[[7.73853,48.57755],[7.73844,48.57743],[7.73829,48.57719],[7.73823,48.57701],[7.73822,48.5768],[7.73845,48.57629],[7.73849,48.57615],[7.73852,48.57599],[7.73851,48.57573],[7.73855,48.57571],[7.73893,48.57567],[7.73953,48.57565],[7.73956,48.57564],[7.73954,48.57441],[7.73955,48.57419],[7.73927,48.5742],[7.73819,48.57433],[7.73615,48.5747],[7.73623,48.57489],[7.7369,48.57477],[7.73692,48.57479],[7.73697,48.57487],[7.73729,48.57567],[7.73733,48.57587],[7.73733,48.57598],[7.73735,48.57599],[7.73733,48.57599],[7.73731,48.57617],[7.73726,48.57649],[7.73717,48.57678],[7.73687,48.57746],[7.73683,48.57757],[7.7368,48.57771],[7.73721,48.57771],[7.73776,48.57766],[7.73853,48.57755]]]}},{"type":"Feature","properties":{"zone":"orange 11","district":"Gare-Kléber","rawHours":"laut Datensatzbeschreibung: du lundi au samedi de 9h00 à 19h00, gratuit les dimanches et les jours fériés (nicht am Feature)","rawFee":"1h = 2.5€ / 2h = 3.5€ / 2h15 = 6€ / 2h30 = 8€ / 2h50 = 9€ / 3h = 10€ / 3h20 = 14€ / 3h45 = 16.5€ / 4h = 17€","note":"Zone orange (orange) der Ville de Strasbourg, Bewohnerparkzone 10; Stundenkosten nachgerechnet: 2,50 € / 1,00 € / 6,50 € / 7,00 €; laut Quelle Stand 2026-09-03","windows":[{"weekdays":[1,2,3,4,5,6],"fromMinute":540,"toMinute":1140}],"fee":{"kind":"range","minCentsPerHour":100,"maxCentsPerHour":700},"unmodelledRules":["Staffeltarif (kumuliert): 1 h 2,50 €, 2 h 3,50 €, 2 h 15 6,00 €, 2 h 30 8,00 €, 2 h 50 9,00 €, 3 h 10,00 €, 3 h 20 14,00 €, 3 h 45 16,50 €, 4 h 17,00 € — die letzte Stufe entspricht dem ermäßigten Forfait post-stationnement (FPS); länger als 4 h kostet den vollen FPS von 35 €"],"sourceDefect":null,"spaces":null,"maxStayMinutes":240,"maxStay":null,"maxStayShare":0,"maxStayValues":[],"chargingPoints":0,"carsharing":0},"geometry":{"type":"Polygon","coordinates":[[[7.73007,48.57978],[7.73022,48.58],[7.73077,48.58073],[7.73206,48.58228],[7.73237,48.58218],[7.73249,48.58212],[7.73257,48.58205],[7.7326,48.58185],[7.73355,48.58162],[7.73379,48.58139],[7.73381,48.58077],[7.73738,48.57994],[7.73686,48.57924],[7.7363,48.57864],[7.73622,48.5785],[7.73615,48.57836],[7.73609,48.57813],[7.73607,48.57799],[7.73612,48.57773],[7.73587,48.57773],[7.7355,48.5778],[7.73528,48.57787],[7.73486,48.57806],[7.73468,48.57811],[7.7344,48.57816],[7.73375,48.57765],[7.73338,48.57739],[7.73204,48.57633],[7.73164,48.57622],[7.73064,48.57932],[7.73065,48.57967],[7.73007,48.57978]]]}},{"type":"Feature","properties":{"zone":"orange 12","district":"Strasbourg-centre","rawHours":"laut Datensatzbeschreibung: du lundi au samedi de 9h00 à 19h00, gratuit les dimanches et les jours fériés (nicht am Feature)","rawFee":"1h = 2.5€ / 2h = 3.5€ / 2h15 = 6€ / 2h30 = 8€ / 2h50 = 9€ / 3h = 10€ / 3h20 = 14€ / 3h45 = 16.5€ / 4h = 17€","note":"Zone orange (orange) der Ville de Strasbourg, Bewohnerparkzone 7; Stundenkosten nachgerechnet: 2,50 € / 1,00 € / 6,50 € / 7,00 €; laut Quelle Stand 2026-09-03","windows":[{"weekdays":[1,2,3,4,5,6],"fromMinute":540,"toMinute":1140}],"fee":{"kind":"range","minCentsPerHour":100,"maxCentsPerHour":700},"unmodelledRules":["Staffeltarif (kumuliert): 1 h 2,50 €, 2 h 3,50 €, 2 h 15 6,00 €, 2 h 30 8,00 €, 2 h 50 9,00 €, 3 h 10,00 €, 3 h 20 14,00 €, 3 h 45 16,50 €, 4 h 17,00 € — die letzte Stufe entspricht dem ermäßigten Forfait post-stationnement (FPS); länger als 4 h kostet den vollen FPS von 35 €"],"sourceDefect":null,"spaces":null,"maxStayMinutes":240,"maxStay":null,"maxStayShare":0,"maxStayValues":[],"chargingPoints":0,"carsharing":0},"geometry":{"type":"Polygon","coordinates":[[[7.74629,48.59113],[7.75623,48.58835],[7.7588,48.58762],[7.75884,48.58739],[7.75896,48.58589],[7.75891,48.58565],[7.75893,48.58557],[7.75892,48.58552],[7.75885,48.5854],[7.75838,48.58476],[7.75831,48.58464],[7.75803,48.58428],[7.75744,48.58375],[7.75722,48.58365],[7.75713,48.58365],[7.75645,48.58397],[7.75631,48.58413],[7.7557,48.58455],[7.75515,48.58506],[7.75498,48.58525],[7.75473,48.58545],[7.75402,48.58608],[7.75208,48.58674],[7.75121,48.587],[7.74962,48.58719],[7.74871,48.58728],[7.7487,48.58754],[7.74875,48.58772],[7.74822,48.58868],[7.74728,48.59007],[7.74686,48.59072],[7.74629,48.59113]]]}},{"type":"Feature","properties":{"zone":"vert 20","district":"Neudorf-Musau-Port du Rhin","rawHours":"laut Datensatzbeschreibung: du lundi au samedi de 9h00 à 19h00, gratuit les dimanches et les jours fériés (nicht am Feature)","rawFee":"1h = 1€ / 2h = 2€ / 3h = 4.5€ / 3h15 = 5.50€ / 3h30 = 6.50€ / 4h = 10€ / 4h15 = 12€ / 4h30 = 14€ / 4h45 = 16.5€ / 5h = 17€","note":"Zone vert (grün) der Ville de Strasbourg, Bewohnerparkzone 16; Stundenkosten nachgerechnet: 1,00 € / 1,00 € / 2,50 € / 5,50 € / 7,00 €; laut Quelle Stand 2026-09-03","windows":[{"weekdays":[1,2,3,4,5,6],"fromMinute":540,"toMinute":1140}],"fee":{"kind":"range","minCentsPerHour":100,"maxCentsPerHour":700},"unmodelledRules":["Staffeltarif (kumuliert): 1 h 1,00 €, 2 h 2,00 €, 3 h 4,50 €, 3 h 15 5,50 €, 3 h 30 6,50 €, 4 h 10,00 €, 4 h 15 12,00 €, 4 h 30 14,00 €, 4 h 45 16,50 €, 5 h 17,00 € — die letzte Stufe entspricht dem ermäßigten Forfait post-stationnement (FPS); länger als 5 h kostet den vollen FPS von 35 €"],"sourceDefect":null,"spaces":null,"maxStayMinutes":300,"maxStay":null,"maxStayShare":0,"maxStayValues":[],"chargingPoints":0,"carsharing":0},"geometry":{"type":"Polygon","coordinates":[[[7.77409,48.56075],[7.77377,48.56126],[7.77368,48.56184],[7.77366,48.56218],[7.77325,48.56619],[7.77336,48.56682],[7.77308,48.56704],[7.77279,48.56706],[7.77285,48.56721],[7.77335,48.56765],[7.7735,48.56775],[7.77364,48.5681],[7.77373,48.56857],[7.77376,48.56883],[7.77382,48.56904],[7.77387,48.56914],[7.77341,48.56954],[7.77332,48.56972],[7.77334,48.57017],[7.77362,48.57093],[7.7736,48.57109],[7.77343,48.57135],[7.77348,48.57183],[7.77459,48.57317],[7.77678,48.57233],[7.77958,48.57131],[7.77966,48.57148],[7.77955,48.57166],[7.77881,48.5722],[7.77705,48.57288],[7.77716,48.57356],[7.77852,48.57419],[7.77897,48.57449],[7.77979,48.57514],[7.78007,48.57545],[7.78084,48.57601],[7.78109,48.57601],[7.78126,48.5759],[7.78171,48.57373],[7.78282,48.56915],[7.78361,48.56793],[7.78264,48.56703],[7.78128,48.5657],[7.77803,48.56289],[7.77705,48.56218],[7.77587,48.56149],[7.77409,48.56075]]]}},{"type":"Feature","properties":{"zone":"rouge 14","district":"Gare-Kléber","rawHours":"laut Datensatzbeschreibung: du lundi au samedi de 9h00 à 19h00, gratuit les dimanches et les jours fériés (nicht am Feature)","rawFee":"1h = 3.5€ / 2h = 8€ / 2h15 = 10€ / 2h30 = 12€ / 2h50 = 16.5€ / 3h = 17€","note":"Zone rouge (rot) der Ville de Strasbourg, Bewohnerparkzone 3; Stundenkosten nachgerechnet: 3,50 € / 4,50 € / 9,00 €; laut Quelle Stand 2026-09-03","windows":[{"weekdays":[1,2,3,4,5,6],"fromMinute":540,"toMinute":1140}],"fee":{"kind":"range","minCentsPerHour":350,"maxCentsPerHour":900},"unmodelledRules":["Staffeltarif (kumuliert): 1 h 3,50 €, 2 h 8,00 €, 2 h 15 10,00 €, 2 h 30 12,00 €, 2 h 50 16,50 €, 3 h 17,00 € — die letzte Stufe entspricht dem ermäßigten Forfait post-stationnement (FPS); länger als 3 h kostet den vollen FPS von 35 €"],"sourceDefect":null,"spaces":null,"maxStayMinutes":180,"maxStay":null,"maxStayShare":0,"maxStayValues":[],"chargingPoints":0,"carsharing":0},"geometry":{"type":"Polygon","coordinates":[[[7.74492,48.58602],[7.74602,48.58646],[7.74658,48.58663],[7.74646,48.58683],[7.74657,48.58686],[7.74673,48.58656],[7.74702,48.58608],[7.74724,48.58573],[7.74748,48.5854],[7.74778,48.58511],[7.74849,48.58458],[7.74872,48.5845],[7.74828,48.58438],[7.7479,48.58431],[7.74745,48.58429],[7.74643,48.58429],[7.74639,48.58424],[7.74664,48.58374],[7.74681,48.5835],[7.74689,48.58315],[7.74694,48.58303],[7.747,48.5829],[7.74715,48.5827],[7.74773,48.58213],[7.74806,48.58183],[7.74847,48.58159],[7.74892,48.58121],[7.75018,48.58001],[7.75039,48.57986],[7.75087,48.57941],[7.75072,48.57934],[7.75074,48.57936],[7.75073,48.57939],[7.75059,48.57952],[7.75056,48.57952],[7.75022,48.5794],[7.75019,48.57943],[7.75052,48.57956],[7.75036,48.57971],[7.74894,48.57918],[7.74896,48.57916],[7.74891,48.57914],[7.74899,48.57904],[7.74906,48.57903],[7.74927,48.57909],[7.74966,48.57924],[7.74969,48.5792],[7.74922,48.57903],[7.74863,48.57893],[7.74883,48.57868],[7.74851,48.5786],[7.74833,48.57884],[7.74831,48.57885],[7.7475,48.57877],[7.74661,48.57885],[7.74502,48.57907],[7.74494,48.57884],[7.74481,48.57886],[7.74489,48.57909],[7.74409,48.57957],[7.74338,48.5801],[7.74305,48.57997],[7.74332,48.57981],[7.74326,48.57968],[7.74302,48.57974],[7.74297,48.57972],[7.74309,48.57965],[7.74299,48.57948],[7.74296,48.57949],[7.74295,48.57947],[7.74301,48.57944],[7.743,48.57943],[7.74281,48.57953],[7.74253,48.57962],[7.74264,48.5798],[7.74267,48.5798],[7.74269,48.57984],[7.74271,48.57984],[7.74273,48.57987],[7.74235,48.57995],[7.74193,48.58002],[7.74167,48.58005],[7.74108,48.58006],[7.74095,48.58006],[7.74037,48.57999],[7.73962,48.57981],[7.73961,48.5798],[7.73975,48.5796],[7.73962,48.57956],[7.73963,48.57959],[7.7395,48.57978],[7.73937,48.57973],[7.73917,48.57975],[7.73926,48.57987],[7.73939,48.57991],[7.73916,48.58023],[7.73867,48.58005],[7.73852,48.58003],[7.73851,48.58005],[7.7386,48.58022],[7.73884,48.5804],[7.73891,48.5805],[7.73895,48.58053],[7.73884,48.58068],[7.73868,48.58059],[7.73862,48.5806],[7.73858,48.58063],[7.73856,48.5809],[7.73848,48.58096],[7.73845,48.58096],[7.73847,48.58139],[7.7384,48.58139],[7.73837,48.58096],[7.73834,48.58096],[7.73836,48.58138],[7.73821,48.58138],[7.73821,48.5814],[7.73819,48.58138],[7.73804,48.58139],[7.73804,48.58148],[7.7385,48.58146],[7.73852,48.58187],[7.73854,48.58193],[7.73859,48.58248],[7.73862,48.58261],[7.73822,48.58254],[7.73834,48.58274],[7.73868,48.58279],[7.73881,48.58295],[7.73912,48.5832],[7.73881,48.58329],[7.73893,48.58338],[7.73924,48.58329],[7.73954,48.5835],[7.7409,48.5842],[7.74077,48.58439],[7.74109,48.5845],[7.74122,48.58432],[7.74165,48.58451],[7.74277,48.58508],[7.74262,48.58525],[7.74275,48.58531],[7.74291,48.58513],[7.74309,48.58518],[7.74354,48.58538],[7.74342,48.58557],[7.7437,48.5857],[7.74383,48.5855],[7.74454,48.58585],[7.74492,48.58602]]]}},{"type":"Feature","properties":{"zone":"vert 16","district":"Strasbourg-centre","rawHours":"laut Datensatzbeschreibung: du lundi au samedi de 9h00 à 19h00, gratuit les dimanches et les jours fériés (nicht am Feature)","rawFee":"1h = 1€ / 2h = 2€ / 3h = 4.5€ / 3h15 = 5.50€ / 3h30 = 6.50€ / 4h = 10€ / 4h15 = 12€ / 4h30 = 14€ / 4h45 = 16.5€ / 5h = 17€","note":"Zone vert (grün) der Ville de Strasbourg, Bewohnerparkzone 8; Stundenkosten nachgerechnet: 1,00 € / 1,00 € / 2,50 € / 5,50 € / 7,00 €; laut Quelle Stand 2026-09-03","windows":[{"weekdays":[1,2,3,4,5,6],"fromMinute":540,"toMinute":1140}],"fee":{"kind":"range","minCentsPerHour":100,"maxCentsPerHour":700},"unmodelledRules":["Staffeltarif (kumuliert): 1 h 1,00 €, 2 h 2,00 €, 3 h 4,50 €, 3 h 15 5,50 €, 3 h 30 6,50 €, 4 h 10,00 €, 4 h 15 12,00 €, 4 h 30 14,00 €, 4 h 45 16,50 €, 5 h 17,00 € — die letzte Stufe entspricht dem ermäßigten Forfait post-stationnement (FPS); länger als 5 h kostet den vollen FPS von 35 €"],"sourceDefect":null,"spaces":null,"maxStayMinutes":300,"maxStay":null,"maxStayShare":0,"maxStayValues":[],"chargingPoints":0,"carsharing":0},"geometry":{"type":"Polygon","coordinates":[[[7.75884,48.58739],[7.75881,48.58759],[7.75905,48.58753],[7.75901,48.58803],[7.75924,48.5891],[7.7603,48.59],[7.76064,48.59038],[7.76083,48.59151],[7.76085,48.59193],[7.76105,48.59218],[7.76087,48.59223],[7.76,48.59261],[7.75902,48.593],[7.75842,48.59349],[7.75789,48.59377],[7.76038,48.59402],[7.7632,48.59397],[7.76415,48.59392],[7.76479,48.59375],[7.76651,48.59344],[7.76639,48.59263],[7.76628,48.59224],[7.76609,48.59182],[7.76574,48.59147],[7.76529,48.59109],[7.76482,48.59081],[7.76429,48.59041],[7.76385,48.59004],[7.76351,48.58964],[7.76342,48.58853],[7.76322,48.58815],[7.76282,48.58769],[7.76219,48.58714],[7.76174,48.58681],[7.76172,48.58677],[7.76212,48.58666],[7.76193,48.58653],[7.76152,48.58664],[7.76142,48.58655],[7.76118,48.58642],[7.76047,48.58611],[7.7597,48.58581],[7.75965,48.58575],[7.75968,48.58569],[7.76003,48.58558],[7.75976,48.58546],[7.75893,48.58569],[7.75896,48.58589],[7.75918,48.58583],[7.7591,48.58663],[7.75905,48.58733],[7.75884,48.58739]]]}},{"type":"Feature","properties":{"zone":"vert 18","district":"Neudorf-Musau-Port du Rhin","rawHours":"laut Datensatzbeschreibung: du lundi au samedi de 9h00 à 19h00, gratuit les dimanches et les jours fériés (nicht am Feature)","rawFee":"1h = 1€ / 2h = 2€ / 3h = 4.5€ / 3h15 = 5.50€ / 3h30 = 6.50€ / 4h = 10€ / 4h15 = 12€ / 4h30 = 14€ / 4h45 = 16.5€ / 5h = 17€","note":"Zone vert (grün) der Ville de Strasbourg, Bewohnerparkzone 14; Stundenkosten nachgerechnet: 1,00 € / 1,00 € / 2,50 € / 5,50 € / 7,00 €; laut Quelle Stand 2026-09-03","windows":[{"weekdays":[1,2,3,4,5,6],"fromMinute":540,"toMinute":1140}],"fee":{"kind":"range","minCentsPerHour":100,"maxCentsPerHour":700},"unmodelledRules":["Staffeltarif (kumuliert): 1 h 1,00 €, 2 h 2,00 €, 3 h 4,50 €, 3 h 15 5,50 €, 3 h 30 6,50 €, 4 h 10,00 €, 4 h 15 12,00 €, 4 h 30 14,00 €, 4 h 45 16,50 €, 5 h 17,00 € — die letzte Stufe entspricht dem ermäßigten Forfait post-stationnement (FPS); länger als 5 h kostet den vollen FPS von 35 €"],"sourceDefect":null,"spaces":null,"maxStayMinutes":300,"maxStay":null,"maxStayShare":0,"maxStayValues":[],"chargingPoints":0,"carsharing":0},"geometry":{"type":"Polygon","coordinates":[[[7.73807,48.57403],[7.74196,48.57379],[7.74249,48.57372],[7.74296,48.57352],[7.74324,48.57328],[7.74727,48.57339],[7.7476,48.57353],[7.74791,48.57376],[7.7488,48.57401],[7.74924,48.57415],[7.7513,48.57442],[7.75164,48.57441],[7.75331,48.57467],[7.75393,48.57475],[7.75506,48.57486],[7.75841,48.57474],[7.76632,48.5741],[7.76744,48.57394],[7.7714,48.57362],[7.77401,48.57338],[7.77459,48.57317],[7.77348,48.57183],[7.77343,48.57135],[7.7736,48.57109],[7.77362,48.57093],[7.77334,48.57017],[7.77332,48.56972],[7.77341,48.56954],[7.77387,48.56914],[7.77382,48.56904],[7.77376,48.56883],[7.77373,48.56857],[7.77364,48.5681],[7.7735,48.56775],[7.77335,48.56765],[7.77285,48.56721],[7.77279,48.56706],[7.77128,48.5674],[7.77098,48.5675],[7.77054,48.56772],[7.7702,48.56783],[7.76909,48.56808],[7.76812,48.56822],[7.76714,48.56848],[7.7572,48.57127],[7.75601,48.57157],[7.75379,48.57189],[7.75277,48.57191],[7.7522,48.57191],[7.75178,48.57187],[7.75087,48.57175],[7.74828,48.57147],[7.74607,48.57112],[7.74294,48.57056],[7.74121,48.5704],[7.73994,48.57099],[7.73726,48.57233],[7.73586,48.57296],[7.73602,48.5732],[7.73621,48.57342],[7.73642,48.57364],[7.73665,48.5738],[7.73705,48.57397],[7.73726,48.57404],[7.73776,48.57406],[7.73807,48.57403]]]}},{"type":"Feature","properties":{"zone":"vert 3","district":"Koenigshoffen-Montagne Verte-Elsau","rawHours":"laut Datensatzbeschreibung: du lundi au samedi de 9h00 à 19h00, gratuit les dimanches et les jours fériés (nicht am Feature)","rawFee":"1h = 1€ / 2h = 2€ / 3h = 4.5€ / 3h15 = 5.50€ / 3h30 = 6.50€ / 4h = 10€ / 4h15 = 12€ / 4h30 = 14€ / 4h45 = 16.5€ / 5h = 17€","note":"Zone vert (grün) der Ville de Strasbourg, Bewohnerparkzone 12; Stundenkosten nachgerechnet: 1,00 € / 1,00 € / 2,50 € / 5,50 € / 7,00 €; laut Quelle Stand 2026-09-03","windows":[{"weekdays":[1,2,3,4,5,6],"fromMinute":540,"toMinute":1140}],"fee":{"kind":"range","minCentsPerHour":100,"maxCentsPerHour":700},"unmodelledRules":["Staffeltarif (kumuliert): 1 h 1,00 €, 2 h 2,00 €, 3 h 4,50 €, 3 h 15 5,50 €, 3 h 30 6,50 €, 4 h 10,00 €, 4 h 15 12,00 €, 4 h 30 14,00 €, 4 h 45 16,50 €, 5 h 17,00 € — die letzte Stufe entspricht dem ermäßigten Forfait post-stationnement (FPS); länger als 5 h kostet den vollen FPS von 35 €"],"sourceDefect":null,"spaces":null,"maxStayMinutes":300,"maxStay":null,"maxStayShare":0,"maxStayValues":[],"chargingPoints":0,"carsharing":0},"geometry":{"type":"Polygon","coordinates":[[[7.72441,48.57252],[7.72442,48.57259],[7.72466,48.57307],[7.72495,48.57346],[7.72528,48.57385],[7.72577,48.57441],[7.72583,48.57446],[7.72624,48.5745],[7.72681,48.57438],[7.72799,48.5743],[7.72826,48.57432],[7.72851,48.57436],[7.7289,48.57445],[7.72902,48.57447],[7.72938,48.574],[7.72963,48.57363],[7.72972,48.57333],[7.72974,48.57312],[7.72973,48.57289],[7.7297,48.57266],[7.72927,48.57263],[7.7289,48.57252],[7.7281,48.57236],[7.72767,48.5723],[7.72728,48.57229],[7.72662,48.57229],[7.72571,48.5724],[7.72549,48.57237],[7.72474,48.57239],[7.72441,48.57252]]]}},{"type":"Feature","properties":{"zone":"orange 1","district":"Bourse-Esplanade-Krutenau","rawHours":"laut Datensatzbeschreibung: du lundi au samedi de 9h00 à 19h00, gratuit les dimanches et les jours fériés (nicht am Feature)","rawFee":"1h = 2.5€ / 2h = 3.5€ / 2h15 = 6€ / 2h30 = 8€ / 2h50 = 9€ / 3h = 10€ / 3h20 = 14€ / 3h45 = 16.5€ / 4h = 17€","note":"Zone orange (orange) der Ville de Strasbourg, Bewohnerparkzone 5; Stundenkosten nachgerechnet: 2,50 € / 1,00 € / 6,50 € / 7,00 €; laut Quelle Stand 2026-09-03","windows":[{"weekdays":[1,2,3,4,5,6],"fromMinute":540,"toMinute":1140}],"fee":{"kind":"range","minCentsPerHour":100,"maxCentsPerHour":700},"unmodelledRules":["Staffeltarif (kumuliert): 1 h 2,50 €, 2 h 3,50 €, 2 h 15 6,00 €, 2 h 30 8,00 €, 2 h 50 9,00 €, 3 h 10,00 €, 3 h 20 14,00 €, 3 h 45 16,50 €, 4 h 17,00 € — die letzte Stufe entspricht dem ermäßigten Forfait post-stationnement (FPS); länger als 4 h kostet den vollen FPS von 35 €"],"sourceDefect":null,"spaces":null,"maxStayMinutes":240,"maxStay":null,"maxStayShare":0,"maxStayValues":[],"chargingPoints":0,"carsharing":0},"geometry":{"type":"Polygon","coordinates":[[[7.76137,48.57819],[7.76149,48.57815],[7.76223,48.57803],[7.7645,48.57772],[7.76451,48.57774],[7.76676,48.57744],[7.76793,48.57735],[7.76796,48.57754],[7.76903,48.57746],[7.7695,48.57736],[7.76992,48.57732],[7.76993,48.57737],[7.77001,48.57736],[7.77,48.57733],[7.77012,48.57732],[7.77014,48.57743],[7.7705,48.5774],[7.77047,48.57728],[7.77032,48.57729],[7.77024,48.57687],[7.77039,48.57685],[7.77037,48.57674],[7.77157,48.57664],[7.77185,48.57651],[7.77189,48.57648],[7.77224,48.57651],[7.77254,48.57659],[7.77413,48.57738],[7.77454,48.57756],[7.77483,48.57727],[7.77471,48.57726],[7.77456,48.57722],[7.77396,48.57694],[7.77398,48.57689],[7.77352,48.57666],[7.7727,48.57632],[7.7718,48.57634],[7.77175,48.57632],[7.77173,48.5763],[7.77136,48.57432],[7.7714,48.57428],[7.77134,48.57394],[7.76753,48.57426],[7.76752,48.5742],[7.7663,48.5743],[7.76631,48.57435],[7.76579,48.57441],[7.75792,48.57505],[7.75745,48.57508],[7.75621,48.57509],[7.75622,48.57544],[7.75736,48.57617],[7.75747,48.57635],[7.75832,48.57698],[7.75863,48.57708],[7.7596,48.57848],[7.76125,48.57798],[7.76137,48.57819]]]}},{"type":"Feature","properties":{"zone":"vert 2","district":"Conseil des XV","rawHours":"laut Datensatzbeschreibung: du lundi au samedi de 9h00 à 19h00, gratuit les dimanches et les jours fériés (nicht am Feature)","rawFee":"1h = 1€ / 2h = 2€ / 3h = 4.5€ / 3h15 = 5.50€ / 3h30 = 6.50€ / 4h = 10€ / 4h15 = 12€ / 4h30 = 14€ / 4h45 = 16.5€ / 5h = 17€","note":"Zone vert (grün) der Ville de Strasbourg, Bewohnerparkzone 9; Stundenkosten nachgerechnet: 1,00 € / 1,00 € / 2,50 € / 5,50 € / 7,00 €; laut Quelle Stand 2026-09-03","windows":[{"weekdays":[1,2,3,4,5,6],"fromMinute":540,"toMinute":1140}],"fee":{"kind":"range","minCentsPerHour":100,"maxCentsPerHour":700},"unmodelledRules":["Staffeltarif (kumuliert): 1 h 1,00 €, 2 h 2,00 €, 3 h 4,50 €, 3 h 15 5,50 €, 3 h 30 6,50 €, 4 h 10,00 €, 4 h 15 12,00 €, 4 h 30 14,00 €, 4 h 45 16,50 €, 5 h 17,00 € — die letzte Stufe entspricht dem ermäßigten Forfait post-stationnement (FPS); länger als 5 h kostet den vollen FPS von 35 €"],"sourceDefect":null,"spaces":null,"maxStayMinutes":300,"maxStay":null,"maxStayShare":0,"maxStayValues":[],"chargingPoints":0,"carsharing":0},"geometry":{"type":"Polygon","coordinates":[[[7.77035,48.58123],[7.76978,48.58116],[7.75949,48.58396],[7.75863,48.58425],[7.75876,48.58438],[7.75878,48.58438],[7.75887,48.58441],[7.75955,48.58527],[7.75976,48.58546],[7.76003,48.58558],[7.76033,48.58568],[7.76108,48.586],[7.76147,48.58621],[7.76191,48.58651],[7.76212,48.58666],[7.76239,48.58689],[7.76314,48.58744],[7.7634,48.58767],[7.76361,48.58794],[7.76375,48.58823],[7.76643,48.58747],[7.76939,48.58653],[7.76958,48.58618],[7.7706,48.58588],[7.77147,48.58634],[7.77229,48.58578],[7.77428,48.58449],[7.77347,48.58379],[7.77325,48.5837],[7.77258,48.58312],[7.77226,48.58291],[7.77153,48.5823],[7.77047,48.58139],[7.77035,48.58123]]]}},{"type":"Feature","properties":{"zone":"orange 4","district":"Strasbourg-centre","rawHours":"laut Datensatzbeschreibung: du lundi au samedi de 9h00 à 19h00, gratuit les dimanches et les jours fériés (nicht am Feature)","rawFee":"1h = 2.5€ / 2h = 3.5€ / 2h15 = 6€ / 2h30 = 8€ / 2h50 = 9€ / 3h = 10€ / 3h20 = 14€ / 3h45 = 16.5€ / 4h = 17€","note":"Zone orange (orange) der Ville de Strasbourg, Bewohnerparkzone 8; Stundenkosten nachgerechnet: 2,50 € / 1,00 € / 6,50 € / 7,00 €; laut Quelle Stand 2026-09-03","windows":[{"weekdays":[1,2,3,4,5,6],"fromMinute":540,"toMinute":1140}],"fee":{"kind":"range","minCentsPerHour":100,"maxCentsPerHour":700},"unmodelledRules":["Staffeltarif (kumuliert): 1 h 2,50 €, 2 h 3,50 €, 2 h 15 6,00 €, 2 h 30 8,00 €, 2 h 50 9,00 €, 3 h 10,00 €, 3 h 20 14,00 €, 3 h 45 16,50 €, 4 h 17,00 € — die letzte Stufe entspricht dem ermäßigten Forfait post-stationnement (FPS); länger als 4 h kostet den vollen FPS von 35 €"],"sourceDefect":null,"spaces":null,"maxStayMinutes":240,"maxStay":null,"maxStayShare":0,"maxStayValues":[],"chargingPoints":0,"carsharing":0},"geometry":{"type":"Polygon","coordinates":[[[7.75881,48.58759],[7.75884,48.58739],[7.7588,48.58762],[7.75623,48.58835],[7.74439,48.59165],[7.74433,48.59169],[7.74439,48.59209],[7.74419,48.59227],[7.74662,48.59269],[7.75106,48.59322],[7.7527,48.59337],[7.75727,48.59373],[7.75789,48.59377],[7.75842,48.59349],[7.75902,48.593],[7.76,48.59261],[7.76087,48.59223],[7.76077,48.59211],[7.76067,48.5919],[7.76062,48.59088],[7.76057,48.59066],[7.76043,48.59038],[7.76025,48.59017],[7.75968,48.58966],[7.75898,48.58915],[7.75875,48.58839],[7.75875,48.58821],[7.75881,48.58759]]]}},{"type":"Feature","properties":{"zone":"orange 8","district":"Gare-Kléber","rawHours":"laut Datensatzbeschreibung: du lundi au samedi de 9h00 à 19h00, gratuit les dimanches et les jours fériés (nicht am Feature)","rawFee":"1h = 2.5€ / 2h = 3.5€ / 2h15 = 6€ / 2h30 = 8€ / 2h50 = 9€ / 3h = 10€ / 3h20 = 14€ / 3h45 = 16.5€ / 4h = 17€","note":"Zone orange (orange) der Ville de Strasbourg, Bewohnerparkzone 3; Stundenkosten nachgerechnet: 2,50 € / 1,00 € / 6,50 € / 7,00 €; laut Quelle Stand 2026-09-03","windows":[{"weekdays":[1,2,3,4,5,6],"fromMinute":540,"toMinute":1140}],"fee":{"kind":"range","minCentsPerHour":100,"maxCentsPerHour":700},"unmodelledRules":["Staffeltarif (kumuliert): 1 h 2,50 €, 2 h 3,50 €, 2 h 15 6,00 €, 2 h 30 8,00 €, 2 h 50 9,00 €, 3 h 10,00 €, 3 h 20 14,00 €, 3 h 45 16,50 €, 4 h 17,00 € — die letzte Stufe entspricht dem ermäßigten Forfait post-stationnement (FPS); länger als 4 h kostet den vollen FPS von 35 €"],"sourceDefect":null,"spaces":null,"maxStayMinutes":240,"maxStay":null,"maxStayShare":0,"maxStayValues":[],"chargingPoints":0,"carsharing":0},"geometry":{"type":"Polygon","coordinates":[[[7.73679,48.57793],[7.73685,48.5782],[7.73692,48.57835],[7.73754,48.57907],[7.73757,48.57908],[7.7376,48.57911],[7.73837,48.57918],[7.7384,48.57917],[7.73848,48.5792],[7.73855,48.57916],[7.73867,48.57924],[7.73876,48.57925],[7.73875,48.57927],[7.73878,48.57928],[7.73879,48.5793],[7.73885,48.57931],[7.73887,48.57929],[7.73986,48.57964],[7.74066,48.57979],[7.74169,48.57983],[7.74258,48.57961],[7.74281,48.57953],[7.743,48.57943],[7.74304,48.57946],[7.74341,48.57929],[7.74371,48.5792],[7.74378,48.5792],[7.74463,48.5789],[7.74474,48.57887],[7.74657,48.5786],[7.74807,48.57848],[7.74816,48.57851],[7.74817,48.57833],[7.7474,48.57819],[7.74691,48.57814],[7.74681,48.57812],[7.74673,48.57805],[7.7467,48.57779],[7.74645,48.57773],[7.74649,48.57801],[7.74567,48.57811],[7.74541,48.57813],[7.7454,48.57779],[7.74589,48.57776],[7.74591,48.57769],[7.74594,48.57765],[7.74586,48.5776],[7.74574,48.57758],[7.74571,48.57762],[7.74561,48.57767],[7.74543,48.57764],[7.74506,48.57754],[7.74425,48.57714],[7.744,48.57706],[7.74307,48.57688],[7.743,48.57685],[7.74286,48.57675],[7.74284,48.57671],[7.74287,48.57666],[7.74256,48.57653],[7.74251,48.57658],[7.7424,48.57662],[7.74072,48.57724],[7.7405,48.57734],[7.74035,48.57744],[7.73926,48.57826],[7.73922,48.57825],[7.73888,48.57798],[7.73853,48.57755],[7.7379,48.57764],[7.73742,48.57769],[7.73707,48.57771],[7.73612,48.57773],[7.73609,48.5779],[7.7368,48.57789],[7.73679,48.57793]]]}},{"type":"Feature","properties":{"zone":"rouge 13","district":"Strasbourg-centre","rawHours":"laut Datensatzbeschreibung: du lundi au samedi de 9h00 à 19h00, gratuit les dimanches et les jours fériés (nicht am Feature)","rawFee":"1h = 3.5€ / 2h = 8€ / 2h15 = 10€ / 2h30 = 12€ / 2h50 = 16.5€ / 3h = 17€","note":"Zone rouge (rot) der Ville de Strasbourg, Bewohnerparkzone 6; Stundenkosten nachgerechnet: 3,50 € / 4,50 € / 9,00 €; laut Quelle Stand 2026-09-03","windows":[{"weekdays":[1,2,3,4,5,6],"fromMinute":540,"toMinute":1140}],"fee":{"kind":"range","minCentsPerHour":350,"maxCentsPerHour":900},"unmodelledRules":["Staffeltarif (kumuliert): 1 h 3,50 €, 2 h 8,00 €, 2 h 15 10,00 €, 2 h 30 12,00 €, 2 h 50 16,50 €, 3 h 17,00 € — die letzte Stufe entspricht dem ermäßigten Forfait post-stationnement (FPS); länger als 3 h kostet den vollen FPS von 35 €"],"sourceDefect":null,"spaces":null,"maxStayMinutes":180,"maxStay":null,"maxStayShare":0,"maxStayValues":[],"chargingPoints":0,"carsharing":0},"geometry":{"type":"Polygon","coordinates":[[[7.73706,48.58828],[7.73722,48.58843],[7.73729,48.5884],[7.73924,48.5907],[7.73938,48.59091],[7.7415,48.59182],[7.74191,48.59186],[7.74197,48.59177],[7.74211,48.59164],[7.7423,48.59154],[7.74252,48.59147],[7.74283,48.59144],[7.743,48.59146],[7.74316,48.59149],[7.74331,48.59154],[7.74344,48.59161],[7.74355,48.59169],[7.74364,48.59179],[7.7437,48.59189],[7.74373,48.592],[7.74373,48.59218],[7.74419,48.59227],[7.74439,48.59209],[7.74433,48.59169],[7.74439,48.59165],[7.74629,48.59113],[7.74686,48.59072],[7.74728,48.59007],[7.74822,48.58868],[7.74875,48.58772],[7.7487,48.58754],[7.74871,48.58728],[7.74841,48.5873],[7.74807,48.58726],[7.74643,48.58682],[7.74523,48.58638],[7.74453,48.58609],[7.74342,48.58557],[7.74337,48.58556],[7.74246,48.58519],[7.74182,48.58488],[7.74117,48.5857],[7.73976,48.58769],[7.73953,48.58796],[7.73949,48.58806],[7.73929,48.58819],[7.73851,48.58749],[7.73706,48.58828]]]}},{"type":"Feature","properties":{"zone":"rouge 17","district":"Strasbourg-centre","rawHours":"laut Datensatzbeschreibung: du lundi au samedi de 9h00 à 19h00, gratuit les dimanches et les jours fériés (nicht am Feature)","rawFee":"1h = 3.5€ / 2h = 8€ / 2h15 = 10€ / 2h30 = 12€ / 2h50 = 16.5€ / 3h = 17€","note":"Zone rouge (rot) der Ville de Strasbourg, Bewohnerparkzone 2; Stundenkosten nachgerechnet: 3,50 € / 4,50 € / 9,00 €; laut Quelle Stand 2026-09-03","windows":[{"weekdays":[1,2,3,4,5,6],"fromMinute":540,"toMinute":1140}],"fee":{"kind":"range","minCentsPerHour":350,"maxCentsPerHour":900},"unmodelledRules":["Staffeltarif (kumuliert): 1 h 3,50 €, 2 h 8,00 €, 2 h 15 10,00 €, 2 h 30 12,00 €, 2 h 50 16,50 €, 3 h 17,00 € — die letzte Stufe entspricht dem ermäßigten Forfait post-stationnement (FPS); länger als 3 h kostet den vollen FPS von 35 €"],"sourceDefect":null,"spaces":null,"maxStayMinutes":180,"maxStay":null,"maxStayShare":0,"maxStayValues":[],"chargingPoints":0,"carsharing":0},"geometry":{"type":"Polygon","coordinates":[[[7.75309,48.5864],[7.75284,48.58648],[7.75256,48.58636],[7.75247,48.58638],[7.75163,48.58667],[7.75111,48.58681],[7.74956,48.587],[7.74878,48.58707],[7.74867,48.58729],[7.74849,48.58729],[7.74859,48.58709],[7.74838,48.5871],[7.74819,48.58708],[7.74679,48.58668],[7.74667,48.58689],[7.74657,48.58686],[7.74673,48.58656],[7.74702,48.58608],[7.74724,48.58573],[7.74748,48.5854],[7.74778,48.58511],[7.74849,48.58458],[7.74872,48.5845],[7.74828,48.58438],[7.7479,48.58431],[7.74745,48.58429],[7.74643,48.58429],[7.74639,48.58424],[7.74664,48.58374],[7.74681,48.5835],[7.74689,48.58315],[7.747,48.5829],[7.74715,48.5827],[7.74773,48.58213],[7.74806,48.58183],[7.74847,48.58159],[7.74892,48.58121],[7.75018,48.58001],[7.75039,48.57986],[7.75087,48.57941],[7.75101,48.57947],[7.75093,48.57948],[7.75078,48.57961],[7.75078,48.57964],[7.75106,48.57977],[7.75111,48.57973],[7.75112,48.57973],[7.75108,48.57977],[7.75167,48.58004],[7.75171,48.57999],[7.75173,48.58],[7.75169,48.58005],[7.75202,48.58021],[7.75206,48.58018],[7.75208,48.58019],[7.75205,48.58022],[7.75217,48.5803],[7.75222,48.58026],[7.75225,48.58027],[7.75221,48.58031],[7.75229,48.58035],[7.75232,48.58038],[7.75232,48.58043],[7.7523,48.58047],[7.75257,48.58059],[7.75262,48.58059],[7.75272,48.58062],[7.75279,48.58066],[7.75281,48.58069],[7.753,48.58077],[7.75322,48.58052],[7.75334,48.58058],[7.75312,48.58082],[7.7538,48.58118],[7.75465,48.58157],[7.75487,48.58134],[7.7549,48.58135],[7.75468,48.58158],[7.75524,48.58181],[7.75601,48.58222],[7.75627,48.5824],[7.7566,48.5823],[7.75662,48.58228],[7.75661,48.58227],[7.75674,48.58236],[7.75635,48.58247],[7.75657,48.58271],[7.75691,48.58303],[7.75694,48.5831],[7.75691,48.58317],[7.75662,48.58347],[7.75657,48.58357],[7.7562,48.5839],[7.7564,48.584],[7.75634,48.58406],[7.75614,48.58396],[7.756,48.58402],[7.75565,48.5843],[7.75522,48.58467],[7.75545,48.58479],[7.75543,48.5848],[7.75522,48.5847],[7.75474,48.58513],[7.75497,48.58525],[7.75487,48.58533],[7.75464,48.58522],[7.75412,48.5857],[7.75433,48.5858],[7.7543,48.58583],[7.75409,48.58572],[7.75392,48.58588],[7.75384,48.58592],[7.75281,48.58628],[7.75309,48.5864]]]}},{"type":"Feature","properties":{"zone":"vert 5","district":"Conseil des XV","rawHours":"laut Datensatzbeschreibung: du lundi au samedi de 9h00 à 19h00, gratuit les dimanches et les jours fériés (nicht am Feature)","rawFee":"1h = 1€ / 2h = 2€ / 3h = 4.5€ / 3h15 = 5.50€ / 3h30 = 6.50€ / 4h = 10€ / 4h15 = 12€ / 4h30 = 14€ / 4h45 = 16.5€ / 5h = 17€","note":"Zone vert (grün) der Ville de Strasbourg, Bewohnerparkzone 11; Stundenkosten nachgerechnet: 1,00 € / 1,00 € / 2,50 € / 5,50 € / 7,00 €; laut Quelle Stand 2026-09-03","windows":[{"weekdays":[1,2,3,4,5,6],"fromMinute":540,"toMinute":1140}],"fee":{"kind":"range","minCentsPerHour":100,"maxCentsPerHour":700},"unmodelledRules":["Staffeltarif (kumuliert): 1 h 1,00 €, 2 h 2,00 €, 3 h 4,50 €, 3 h 15 5,50 €, 3 h 30 6,50 €, 4 h 10,00 €, 4 h 15 12,00 €, 4 h 30 14,00 €, 4 h 45 16,50 €, 5 h 17,00 € — die letzte Stufe entspricht dem ermäßigten Forfait post-stationnement (FPS); länger als 5 h kostet den vollen FPS von 35 €"],"sourceDefect":null,"spaces":null,"maxStayMinutes":300,"maxStay":null,"maxStayShare":0,"maxStayValues":[],"chargingPoints":0,"carsharing":0},"geometry":{"type":"Polygon","coordinates":[[[7.77031,48.59242],[7.77119,48.59191],[7.77429,48.59006],[7.77468,48.58986],[7.77506,48.59004],[7.77552,48.59018],[7.77591,48.58976],[7.7752,48.58971],[7.77901,48.58865],[7.7772,48.58707],[7.77679,48.58669],[7.77428,48.58449],[7.77229,48.58578],[7.77147,48.58634],[7.7706,48.58588],[7.76958,48.58618],[7.76939,48.58653],[7.76643,48.58747],[7.76375,48.58823],[7.76382,48.58844],[7.76383,48.58853],[7.76386,48.58903],[7.76391,48.58927],[7.76403,48.58958],[7.76414,48.58976],[7.76426,48.58991],[7.7644,48.59005],[7.76513,48.59059],[7.76568,48.59095],[7.7659,48.59113],[7.76618,48.5914],[7.76638,48.59164],[7.76656,48.5919],[7.76677,48.5923],[7.76677,48.59236],[7.76681,48.59249],[7.76704,48.5927],[7.76778,48.59254],[7.76922,48.59235],[7.76932,48.59272],[7.77031,48.59242]]]}},{"type":"Feature","properties":{"zone":"vert 19","district":"Neudorf-Musau-Port du Rhin","rawHours":"laut Datensatzbeschreibung: du lundi au samedi de 9h00 à 19h00, gratuit les dimanches et les jours fériés (nicht am Feature)","rawFee":"1h = 1€ / 2h = 2€ / 3h = 4.5€ / 3h15 = 5.50€ / 3h30 = 6.50€ / 4h = 10€ / 4h15 = 12€ / 4h30 = 14€ / 4h45 = 16.5€ / 5h = 17€","note":"Zone vert (grün) der Ville de Strasbourg, Bewohnerparkzone 15; Stundenkosten nachgerechnet: 1,00 € / 1,00 € / 2,50 € / 5,50 € / 7,00 €; laut Quelle Stand 2026-09-03","windows":[{"weekdays":[1,2,3,4,5,6],"fromMinute":540,"toMinute":1140}],"fee":{"kind":"range","minCentsPerHour":100,"maxCentsPerHour":700},"unmodelledRules":["Staffeltarif (kumuliert): 1 h 1,00 €, 2 h 2,00 €, 3 h 4,50 €, 3 h 15 5,50 €, 3 h 30 6,50 €, 4 h 10,00 €, 4 h 15 12,00 €, 4 h 30 14,00 €, 4 h 45 16,50 €, 5 h 17,00 € — die letzte Stufe entspricht dem ermäßigten Forfait post-stationnement (FPS); länger als 5 h kostet den vollen FPS von 35 €"],"sourceDefect":null,"spaces":null,"maxStayMinutes":300,"maxStay":null,"maxStayShare":0,"maxStayValues":[],"chargingPoints":0,"carsharing":0},"geometry":{"type":"Polygon","coordinates":[[[7.74122,48.57038],[7.74294,48.57056],[7.74607,48.57112],[7.74828,48.57147],[7.75087,48.57175],[7.75178,48.57187],[7.7522,48.57191],[7.75379,48.57189],[7.75601,48.57157],[7.7572,48.57127],[7.76714,48.56848],[7.76812,48.56822],[7.76909,48.56808],[7.7702,48.56783],[7.77054,48.56772],[7.77098,48.5675],[7.77128,48.5674],[7.77279,48.56706],[7.77308,48.56704],[7.77336,48.56682],[7.77325,48.56619],[7.77366,48.56218],[7.77368,48.56184],[7.77377,48.56126],[7.77409,48.56075],[7.7701,48.5594],[7.76847,48.55898],[7.7666,48.55869],[7.76545,48.55865],[7.76413,48.55873],[7.76169,48.55904],[7.75948,48.55977],[7.75712,48.56108],[7.75387,48.56294],[7.74942,48.56567],[7.74691,48.56746],[7.74463,48.56884],[7.74122,48.57038]]]}},{"type":"Feature","properties":{"zone":"rouge 9","district":"Gare-Kléber","rawHours":"laut Datensatzbeschreibung: du lundi au samedi de 9h00 à 19h00, gratuit les dimanches et les jours fériés (nicht am Feature)","rawFee":"1h = 3.5€ / 2h = 8€ / 2h15 = 10€ / 2h30 = 12€ / 2h50 = 16.5€ / 3h = 17€","note":"Zone rouge (rot) der Ville de Strasbourg, Bewohnerparkzone 4; Stundenkosten nachgerechnet: 3,50 € / 4,50 € / 9,00 €; laut Quelle Stand 2026-09-03","windows":[{"weekdays":[1,2,3,4,5,6],"fromMinute":540,"toMinute":1140}],"fee":{"kind":"range","minCentsPerHour":350,"maxCentsPerHour":900},"unmodelledRules":["Staffeltarif (kumuliert): 1 h 3,50 €, 2 h 8,00 €, 2 h 15 10,00 €, 2 h 30 12,00 €, 2 h 50 16,50 €, 3 h 17,00 € — die letzte Stufe entspricht dem ermäßigten Forfait post-stationnement (FPS); länger als 3 h kostet den vollen FPS von 35 €"],"sourceDefect":null,"spaces":null,"maxStayMinutes":180,"maxStay":null,"maxStayShare":0,"maxStayValues":[],"chargingPoints":0,"carsharing":0},"geometry":{"type":"Polygon","coordinates":[[[7.74973,48.57431],[7.7496,48.57499],[7.74962,48.57512],[7.74972,48.57529],[7.75021,48.5757],[7.75026,48.57577],[7.75032,48.57589],[7.75025,48.57622],[7.75003,48.57653],[7.74991,48.57663],[7.74963,48.57654],[7.7495,48.57673],[7.74959,48.57688],[7.74935,48.57718],[7.74927,48.5772],[7.74914,48.5772],[7.74905,48.57718],[7.7489,48.57728],[7.74903,48.57747],[7.74903,48.57759],[7.74902,48.57777],[7.74898,48.57794],[7.74891,48.578],[7.74872,48.57791],[7.74853,48.57808],[7.74836,48.57797],[7.74822,48.57807],[7.74818,48.57805],[7.74813,48.5781],[7.74816,48.57811],[7.74814,48.57816],[7.74817,48.57833],[7.74816,48.57851],[7.74973,48.57891],[7.75019,48.57909],[7.75018,48.57912],[7.75072,48.57934],[7.75265,48.58023],[7.75265,48.58025],[7.7527,48.58028],[7.75334,48.58058],[7.75415,48.581],[7.75544,48.58161],[7.75652,48.58218],[7.75661,48.58226],[7.7568,48.58239],[7.75711,48.58268],[7.75706,48.5827],[7.75847,48.58405],[7.75851,48.58412],[7.75863,48.58425],[7.75949,48.58396],[7.76579,48.58225],[7.76566,48.58203],[7.76367,48.58258],[7.76356,48.58238],[7.76342,48.58241],[7.76291,48.58142],[7.76294,48.58137],[7.76211,48.57969],[7.76165,48.57884],[7.76172,48.57879],[7.76182,48.57867],[7.7615,48.57855],[7.76134,48.57825],[7.76137,48.57819],[7.76125,48.57798],[7.7596,48.57848],[7.75863,48.57708],[7.75832,48.57698],[7.75747,48.57635],[7.75736,48.57617],[7.75622,48.57544],[7.75621,48.57509],[7.75523,48.57509],[7.75497,48.57505],[7.7532,48.57491],[7.75307,48.57493],[7.75058,48.57455],[7.75006,48.57436],[7.74973,48.57431]]]}}]}