{"type":"FeatureCollection","features":[{"type":"Feature","properties":{"name":"Sacktannen"},"geometry":{"type":"MultiPolygon","coordinates":[[[[11.34586,53.6345],[11.34685,53.6336],[11.34874,53.63236],[11.35033,53.63012],[11.35274,53.62887],[11.3544,53.62731],[11.35606,53.62611],[11.35612,53.62579],[11.35714,53.62475],[11.35809,53.6243],[11.35614,53.62452],[11.35143,53.62703],[11.34952,53.62763],[11.34923,53.62825],[11.34627,53.63216],[11.34548,53.63281],[11.34436,53.63324],[11.34276,53.63356],[11.34206,53.6332],[11.34127,53.6331],[11.33997,53.63344],[11.33507,53.6372],[11.33056,53.63948],[11.33166,53.64033],[11.32575,53.64286],[11.32668,53.64365],[11.32617,53.64385],[11.32795,53.64503],[11.33235,53.64477],[11.33231,53.64445],[11.33319,53.64327],[11.33459,53.64264],[11.33742,53.64174],[11.3385,53.64159],[11.33867,53.6412],[11.33958,53.64055],[11.33973,53.64023],[11.34083,53.63923],[11.34353,53.63881],[11.34334,53.63856],[11.34347,53.63718],[11.34377,53.63678],[11.34491,53.63605],[11.34523,53.63523],[11.34586,53.6345]]],[[[11.33155,53.64029],[11.33054,53.63949],[11.33072,53.6402],[11.33032,53.64075],[11.33155,53.64029]]]]}},{"type":"Feature","properties":{"name":"Mueß"},"geometry":{"type":"MultiPolygon","coordinates":[[[[11.47858,53.58864],[11.47744,53.591],[11.47598,53.59321],[11.47605,53.5939],[11.47467,53.59864],[11.47553,53.59916],[11.47209,53.59999],[11.46921,53.60004],[11.4726,53.60219],[11.47427,53.601],[11.47441,53.60067],[11.47514,53.60047],[11.47578,53.60057],[11.4771,53.60122],[11.47742,53.60115],[11.47833,53.60147],[11.47816,53.60196],[11.47919,53.60207],[11.47954,53.60192],[11.47963,53.6022],[11.48008,53.6022],[11.47966,53.60228],[11.47978,53.60247],[11.47943,53.60292],[11.47886,53.60327],[11.47873,53.60357],[11.47906,53.60374],[11.47969,53.60392],[11.47992,53.60365],[11.48116,53.60346],[11.48128,53.60365],[11.48126,53.60354],[11.48256,53.6032],[11.48388,53.60314],[11.48419,53.60327],[11.48483,53.60406],[11.48479,53.60446],[11.48558,53.60477],[11.48591,53.60523],[11.48775,53.60588],[11.48862,53.60501],[11.48863,53.60478],[11.48914,53.60453],[11.48906,53.60419],[11.48964,53.60312],[11.49118,53.6012],[11.49148,53.59944],[11.49214,53.59829],[11.4936,53.59792],[11.49406,53.5974],[11.49437,53.59667],[11.493,53.59604],[11.49304,53.59586],[11.49178,53.59511],[11.49028,53.59296],[11.49003,53.59172],[11.49048,53.59042],[11.49055,53.58961],[11.48915,53.58383],[11.48764,53.57968],[11.48732,53.57973],[11.48255,53.57815],[11.48183,53.57805],[11.4836,53.58273],[11.4768,53.58356],[11.47858,53.58864]]],[[[11.46492,53.61754],[11.46496,53.61956],[11.46469,53.61976],[11.46472,53.61991],[11.46534,53.62101],[11.46604,53.62097],[11.46662,53.62138],[11.46711,53.62269],[11.46714,53.62333],[11.46694,53.62363],[11.46718,53.62406],[11.46717,53.62499],[11.46812,53.62503],[11.46975,53.62457],[11.46976,53.62435],[11.47001,53.62416],[11.47026,53.62352],[11.47025,53.62299],[11.4705,53.62258],[11.47038,53.62231],[11.47054,53.62212],[11.47027,53.62183],[11.47071,53.62022],[11.47149,53.61916],[11.47305,53.61865],[11.47337,53.61835],[11.47291,53.61745],[11.47314,53.61686],[11.47377,53.6163],[11.47259,53.61635],[11.4711,53.6161],[11.47041,53.61573],[11.46978,53.61595],[11.46944,53.61627],[11.46959,53.61664],[11.46926,53.61679],[11.46958,53.61715],[11.46942,53.61739],[11.46912,53.61744],[11.46853,53.61727],[11.46881,53.61663],[11.46824,53.61657],[11.46784,53.61628],[11.46714,53.61647],[11.46661,53.61635],[11.46642,53.61607],[11.46609,53.61646],[11.46473,53.61703],[11.46492,53.61754]]],[[[11.48071,53.61572],[11.47934,53.61582],[11.47886,53.61648],[11.47921,53.61654],[11.48013,53.61739],[11.48125,53.61758],[11.48184,53.61787],[11.48265,53.61911],[11.48243,53.6194],[11.48294,53.61948],[11.4836,53.61925],[11.48428,53.61862],[11.4846,53.61801],[11.48527,53.61762],[11.48587,53.6169],[11.48578,53.61652],[11.48602,53.61486],[11.48632,53.61462],[11.48672,53.61364],[11.48596,53.61269],[11.48587,53.6123],[11.48584,53.61211],[11.48624,53.61143],[11.48444,53.61169],[11.48148,53.6116],[11.4792,53.61213],[11.47892,53.6126],[11.4785,53.61286],[11.47911,53.61247],[11.47959,53.61246],[11.4797,53.61227],[11.48034,53.61238],[11.4803,53.61285],[11.4801,53.61305],[11.48055,53.61346],[11.48271,53.61379],[11.4829,53.61507],[11.48176,53.61555],[11.48071,53.61572]]]]}},{"type":"Feature","properties":{"name":"Schweriner See"},"geometry":{"type":"MultiPolygon","coordinates":[[[[11.45366,53.64387],[11.45309,53.64475],[11.45348,53.64828],[11.45412,53.64964],[11.4539,53.65034],[11.45403,53.65078],[11.45383,53.65115],[11.45402,53.65215],[11.45434,53.65266],[11.45447,53.65336],[11.45441,53.65418],[11.45486,53.65475],[11.45495,53.65527],[11.4556,53.65593],[11.4548,53.65722],[11.45457,53.65793],[11.45459,53.65848],[11.45314,53.65966],[11.45237,53.65995],[11.45197,53.6603],[11.45177,53.6606],[11.45187,53.66088],[11.45103,53.66151],[11.45091,53.6618],[11.45093,53.66206],[11.45132,53.66239],[11.45097,53.66304],[11.45042,53.6633],[11.44961,53.66415],[11.44963,53.6648],[11.44999,53.66497],[11.45024,53.66604],[11.45021,53.66712],[11.45092,53.66795],[11.45056,53.66916],[11.45152,53.67],[11.45157,53.67182],[11.45225,53.67303],[11.4522,53.67389],[11.45253,53.67433],[11.45262,53.67489],[11.45091,53.67653],[11.45044,53.67732],[11.45044,53.67778],[11.4507,53.67799],[11.45114,53.6777],[11.45157,53.67804],[11.45132,53.67828],[11.45249,53.6788],[11.45376,53.6791],[11.45495,53.679],[11.45669,53.67798],[11.45732,53.67834],[11.4596,53.67891],[11.46089,53.6796],[11.46308,53.68124],[11.46333,53.68208],[11.46368,53.6823],[11.46373,53.68241],[11.46356,53.68239],[11.46496,53.68417],[11.46869,53.68536],[11.47138,53.68459],[11.47387,53.68298],[11.47423,53.68254],[11.47518,53.68218],[11.47567,53.68174],[11.47683,53.68033],[11.4769,53.68016],[11.47661,53.67961],[11.47681,53.6791],[11.47842,53.67742],[11.47976,53.67658],[11.48018,53.67603],[11.48003,53.67354],[11.47982,53.67321],[11.47974,53.67259],[11.48021,53.67203],[11.48059,53.67196],[11.48112,53.6716],[11.48123,53.67108],[11.48181,53.67037],[11.48323,53.6696],[11.4849,53.66799],[11.48541,53.66714],[11.48601,53.66514],[11.48565,53.66372],[11.48538,53.66364],[11.48547,53.66263],[11.48535,53.66225],[11.48508,53.66204],[11.48481,53.66126],[11.48394,53.65992],[11.48496,53.65717],[11.48489,53.65632],[11.48584,53.65281],[11.48584,53.65156],[11.48493,53.65024],[11.48403,53.64938],[11.48369,53.64849],[11.48332,53.64838],[11.48491,53.64501],[11.48454,53.64443],[11.48455,53.64363],[11.48391,53.64125],[11.48429,53.63973],[11.4842,53.63932],[11.4845,53.63772],[11.48475,53.63701],[11.48473,53.63635],[11.48454,53.63609],[11.48448,53.6355],[11.48422,53.63517],[11.48436,53.63444],[11.4846,53.63434],[11.48503,53.63375],[11.48598,53.63348],[11.48774,53.63241],[11.48846,53.63239],[11.49037,53.63134],[11.49139,53.63095],[11.49599,53.62953],[11.49629,53.62928],[11.49752,53.62901],[11.49954,53.62791],[11.50054,53.62592],[11.50236,53.62438],[11.50338,53.62315],[11.50395,53.62273],[11.50442,53.62197],[11.50462,53.62127],[11.5047,53.62098],[11.50413,53.61898],[11.50403,53.61795],[11.50422,53.61622],[11.50396,53.6153],[11.50429,53.6151],[11.50407,53.61381],[11.50159,53.61111],[11.50179,53.6108],[11.50283,53.61037],[11.50371,53.60888],[11.50488,53.608],[11.50547,53.60724],[11.50548,53.60632],[11.50498,53.60549],[11.50241,53.60384],[11.50083,53.60249],[11.49964,53.60241],[11.49909,53.603],[11.4988,53.60309],[11.49826,53.6038],[11.49739,53.60425],[11.49719,53.60457],[11.4951,53.60393],[11.49495,53.60366],[11.4951,53.60362],[11.49518,53.60272],[11.49487,53.60263],[11.49492,53.60172],[11.49526,53.6015],[11.49604,53.60166],[11.49623,53.60136],[11.49619,53.60107],[11.49582,53.6007],[11.49652,53.59989],[11.49709,53.59974],[11.49694,53.59824],[11.49709,53.59776],[11.49704,53.59627],[11.49628,53.59609],[11.49444,53.59641],[11.49406,53.5974],[11.4936,53.59792],[11.49214,53.59829],[11.49148,53.59944],[11.49118,53.6012],[11.48964,53.60312],[11.48906,53.60419],[11.48914,53.60453],[11.48863,53.60478],[11.48862,53.60501],[11.48775,53.60588],[11.48591,53.60523],[11.48558,53.60477],[11.48479,53.60446],[11.48483,53.60406],[11.48419,53.60327],[11.48388,53.60314],[11.48256,53.6032],[11.48126,53.60354],[11.48128,53.60365],[11.48116,53.60346],[11.47992,53.60365],[11.47969,53.60392],[11.47906,53.60374],[11.47873,53.60357],[11.47886,53.60327],[11.47943,53.60292],[11.47978,53.60247],[11.47966,53.60228],[11.48,53.60214],[11.47963,53.6022],[11.47954,53.60192],[11.47919,53.60207],[11.47816,53.60196],[11.47833,53.60147],[11.47742,53.60115],[11.4771,53.60122],[11.47578,53.60057],[11.47514,53.60047],[11.47441,53.60067],[11.47427,53.601],[11.4738,53.60138],[11.47108,53.60304],[11.47078,53.60339],[11.4706,53.60392],[11.4695,53.60491],[11.46938,53.60523],[11.46939,53.60573],[11.4691,53.60646],[11.46922,53.60665],[11.4692,53.60784],[11.46901,53.60834],[11.46785,53.60905],[11.4674,53.60899],[11.46673,53.60835],[11.46561,53.6078],[11.46404,53.60798],[11.46366,53.6078],[11.46348,53.60742],[11.46385,53.60705],[11.46356,53.6068],[11.46284,53.60674],[11.46239,53.60715],[11.4618,53.60712],[11.46026,53.60567],[11.46075,53.60489],[11.46079,53.60457],[11.46057,53.60426],[11.4597,53.60373],[11.45853,53.60334],[11.45591,53.60297],[11.45357,53.603],[11.44882,53.60406],[11.4476,53.60463],[11.44629,53.60632],[11.44512,53.60701],[11.44474,53.60742],[11.44475,53.60759],[11.44361,53.60835],[11.44088,53.60955],[11.43834,53.6112],[11.43794,53.61156],[11.43792,53.61176],[11.4374,53.61209],[11.43726,53.61269],[11.43655,53.6134],[11.43571,53.61493],[11.43531,53.61653],[11.43461,53.61718],[11.43312,53.61781],[11.43252,53.61865],[11.43247,53.6197],[11.43336,53.61951],[11.43307,53.62015],[11.43318,53.62033],[11.43307,53.62043],[11.43293,53.62232],[11.43262,53.62253],[11.43106,53.62203],[11.43042,53.62229],[11.42776,53.62268],[11.42431,53.62242],[11.42321,53.62251],[11.42319,53.62265],[11.4226,53.62244],[11.42246,53.6221],[11.42196,53.62203],[11.42184,53.62168],[11.42069,53.62118],[11.41885,53.62072],[11.41825,53.62083],[11.41813,53.62147],[11.41865,53.62231],[11.4176,53.62306],[11.41795,53.62351],[11.41874,53.62336],[11.41931,53.62347],[11.42043,53.62388],[11.42048,53.62407],[11.41977,53.62531],[11.41903,53.62545],[11.4179,53.6252],[11.4173,53.62555],[11.42077,53.62655],[11.42168,53.6256],[11.42265,53.62544],[11.42267,53.62528],[11.42341,53.62527],[11.42409,53.62576],[11.42411,53.62682],[11.42455,53.62761],[11.42552,53.62743],[11.42663,53.62853],[11.42819,53.62914],[11.4292,53.62925],[11.43068,53.62913],[11.4311,53.62928],[11.43122,53.62941],[11.43111,53.62959],[11.42888,53.63151],[11.42901,53.63197],[11.4289,53.63236],[11.42953,53.63289],[11.42924,53.63302],[11.42962,53.63318],[11.42992,53.63372],[11.43027,53.63385],[11.43029,53.63421],[11.43049,53.63435],[11.43077,53.63445],[11.43106,53.63433],[11.43146,53.63463],[11.43138,53.63471],[11.4317,53.63469],[11.4315,53.6347],[11.43194,53.635],[11.43232,53.63503],[11.43283,53.63572],[11.43303,53.63569],[11.43284,53.63573],[11.43377,53.63671],[11.43641,53.63883],[11.43647,53.63928],[11.43623,53.63983],[11.43744,53.64039],[11.43891,53.64155],[11.43927,53.64202],[11.4406,53.64243],[11.44252,53.64244],[11.44719,53.64302],[11.4499,53.64316],[11.45101,53.64354],[11.45385,53.64377],[11.45366,53.64387]],[[11.4829,53.61507],[11.48271,53.61379],[11.48055,53.61346],[11.4801,53.61305],[11.4803,53.61285],[11.48034,53.61238],[11.4797,53.61227],[11.47959,53.61246],[11.47911,53.61247],[11.4785,53.61282],[11.47892,53.6126],[11.4792,53.61213],[11.48042,53.61195],[11.48106,53.61164],[11.48444,53.61169],[11.48624,53.61143],[11.48584,53.61211],[11.48587,53.6123],[11.48596,53.61269],[11.48672,53.61364],[11.48632,53.61462],[11.48602,53.61486],[11.48578,53.61652],[11.48587,53.6169],[11.48527,53.61762],[11.4846,53.61801],[11.48428,53.61862],[11.4836,53.61925],[11.48273,53.61948],[11.48243,53.6194],[11.48265,53.61911],[11.48184,53.61787],[11.48125,53.61758],[11.48013,53.61739],[11.47921,53.61654],[11.47886,53.61648],[11.47934,53.61582],[11.48176,53.61555],[11.4829,53.61507]],[[11.4648,53.61697],[11.46609,53.61646],[11.46648,53.61607],[11.46661,53.61635],[11.46714,53.61647],[11.46784,53.61628],[11.46824,53.61657],[11.46881,53.61663],[11.46853,53.61727],[11.46942,53.61739],[11.46958,53.61715],[11.46926,53.61679],[11.46959,53.61664],[11.46944,53.61627],[11.46978,53.61595],[11.47041,53.61573],[11.4711,53.6161],[11.47259,53.61635],[11.47377,53.6163],[11.47314,53.61686],[11.47291,53.61745],[11.47337,53.61835],[11.47305,53.61865],[11.47149,53.61916],[11.47071,53.62022],[11.47027,53.62183],[11.47054,53.62212],[11.47038,53.62231],[11.4705,53.62258],[11.47025,53.62299],[11.47016,53.62391],[11.46976,53.62435],[11.46975,53.62457],[11.46812,53.62503],[11.46717,53.62499],[11.46718,53.62406],[11.46694,53.62363],[11.46714,53.62333],[11.46711,53.62269],[11.46662,53.62138],[11.46604,53.62097],[11.46534,53.62101],[11.46472,53.61991],[11.46469,53.61976],[11.46496,53.61956],[11.46493,53.61735],[11.4648,53.61697]]]]}},{"type":"Feature","properties":{"name":"Paulsstadt"},"geometry":{"type":"Polygon","coordinates":[[[11.40077,53.62242],[11.40124,53.62323],[11.40078,53.62436],[11.39879,53.6256],[11.39803,53.62718],[11.39795,53.62792],[11.3982,53.6326],[11.39835,53.63297],[11.40016,53.63523],[11.40182,53.63623],[11.40354,53.63829],[11.4051,53.63858],[11.40743,53.63865],[11.40886,53.6379],[11.41081,53.6376],[11.41083,53.63187],[11.41121,53.63057],[11.40761,53.63],[11.40694,53.63062],[11.40578,53.62768],[11.40499,53.62613],[11.40386,53.62474],[11.40243,53.6234],[11.40095,53.62229],[11.40077,53.62242]]]}},{"type":"Feature","properties":{"name":"Friedrichsthal"},"geometry":{"type":"Polygon","coordinates":[[[11.33487,53.64712],[11.33286,53.64774],[11.33038,53.64814],[11.32879,53.64815],[11.32744,53.64859],[11.32577,53.64887],[11.32267,53.64894],[11.32264,53.6494],[11.32247,53.64946],[11.32111,53.64899],[11.31902,53.64937],[11.31365,53.6496],[11.31166,53.64944],[11.31034,53.64977],[11.30977,53.65024],[11.30903,53.65053],[11.30749,53.65203],[11.30694,53.6533],[11.3068,53.65475],[11.30558,53.65641],[11.30555,53.65723],[11.30519,53.65856],[11.30387,53.65974],[11.30015,53.6605],[11.29857,53.66017],[11.29735,53.66009],[11.29708,53.65988],[11.29659,53.65985],[11.29632,53.65992],[11.29603,53.66127],[11.30281,53.66243],[11.3026,53.66286],[11.30314,53.66296],[11.30344,53.66259],[11.30511,53.66252],[11.30512,53.66263],[11.3084,53.66297],[11.31388,53.66305],[11.31387,53.66325],[11.31409,53.66307],[11.31678,53.66297],[11.317,53.66319],[11.32688,53.66157],[11.33071,53.66154],[11.32961,53.65994],[11.33094,53.65972],[11.32924,53.65749],[11.33031,53.65756],[11.33122,53.6574],[11.33177,53.65767],[11.33278,53.65745],[11.33356,53.65789],[11.33548,53.65831],[11.33623,53.65833],[11.33802,53.65805],[11.3388,53.65773],[11.33961,53.65782],[11.34006,53.65746],[11.34113,53.65744],[11.34365,53.65675],[11.3463,53.65671],[11.3487,53.65584],[11.34898,53.65557],[11.34888,53.65546],[11.351,53.65515],[11.34828,53.65277],[11.34664,53.65105],[11.34562,53.64942],[11.34528,53.64827],[11.34527,53.64652],[11.34545,53.64574],[11.34608,53.64445],[11.34683,53.64348],[11.34802,53.64236],[11.35078,53.64051],[11.34776,53.63839],[11.34723,53.6388],[11.34692,53.63993],[11.34502,53.64141],[11.34405,53.64178],[11.34369,53.64227],[11.34317,53.64355],[11.34233,53.64441],[11.34101,53.64483],[11.33945,53.64507],[11.33625,53.64682],[11.33487,53.64712]]]}},{"type":"Feature","properties":{"name":"Weststadt"},"geometry":{"type":"Polygon","coordinates":[[[11.39408,53.62241],[11.39021,53.62288],[11.38893,53.62245],[11.38837,53.62205],[11.38729,53.62212],[11.38648,53.62235],[11.38494,53.62345],[11.38295,53.62365],[11.38193,53.62409],[11.3842,53.6261],[11.38572,53.62779],[11.38559,53.62802],[11.38483,53.62841],[11.38477,53.62887],[11.38325,53.62978],[11.38241,53.63066],[11.38256,53.63144],[11.38288,53.63193],[11.383,53.63209],[11.38344,53.63211],[11.3838,53.63255],[11.38386,53.63329],[11.38421,53.63436],[11.38343,53.63448],[11.38367,53.63481],[11.3843,53.63478],[11.38448,53.63497],[11.38416,53.63533],[11.38464,53.63601],[11.38456,53.63674],[11.38412,53.63702],[11.38314,53.63723],[11.38397,53.63747],[11.38398,53.63777],[11.3844,53.6381],[11.38433,53.63826],[11.38313,53.63867],[11.38247,53.6394],[11.3826,53.63963],[11.38243,53.63988],[11.38069,53.63984],[11.38043,53.64003],[11.3809,53.64039],[11.38128,53.64114],[11.38223,53.64183],[11.38289,53.64168],[11.38283,53.64111],[11.38321,53.64071],[11.38399,53.64073],[11.38449,53.64172],[11.38447,53.64194],[11.38407,53.64228],[11.38395,53.64299],[11.38491,53.64446],[11.38618,53.64373],[11.38638,53.64384],[11.38762,53.64338],[11.38943,53.64478],[11.391,53.64445],[11.38967,53.6468],[11.3892,53.6481],[11.38933,53.64879],[11.38923,53.64952],[11.39023,53.65021],[11.39135,53.64955],[11.39297,53.64995],[11.39474,53.64833],[11.39563,53.64776],[11.39607,53.64716],[11.39718,53.64644],[11.397,53.64639],[11.39716,53.64616],[11.39824,53.64604],[11.39905,53.64556],[11.3991,53.64524],[11.39941,53.64498],[11.40098,53.64454],[11.40138,53.64548],[11.40211,53.64655],[11.40225,53.6479],[11.403,53.64796],[11.4035,53.64674],[11.40659,53.64207],[11.40747,53.63927],[11.40743,53.63865],[11.4051,53.63858],[11.40381,53.63837],[11.4033,53.63814],[11.40182,53.63623],[11.40016,53.63523],[11.39823,53.63274],[11.39795,53.62792],[11.39803,53.62718],[11.39879,53.6256],[11.40078,53.62436],[11.40123,53.62346],[11.40121,53.62307],[11.40093,53.62257],[11.39928,53.62134],[11.39763,53.62067],[11.39596,53.62201],[11.39514,53.62237],[11.39408,53.62241]]]}},{"type":"Feature","properties":{"name":"Wickendorf"},"geometry":{"type":"Polygon","coordinates":[[[11.42948,53.67021],[11.42881,53.66978],[11.42854,53.66916],[11.42701,53.66872],[11.42664,53.66836],[11.42696,53.66802],[11.42769,53.66792],[11.42543,53.66691],[11.42213,53.66898],[11.42063,53.6682],[11.40658,53.67681],[11.40784,53.68109],[11.40937,53.6846],[11.41033,53.68638],[11.41108,53.68678],[11.41997,53.68608],[11.42029,53.68723],[11.42913,53.68653],[11.4293,53.68734],[11.43,53.6873],[11.43018,53.68726],[11.42984,53.68552],[11.43614,53.68502],[11.43462,53.68354],[11.43446,53.68293],[11.43495,53.68204],[11.43511,53.68119],[11.43555,53.68076],[11.43634,53.68032],[11.43885,53.67981],[11.43946,53.67999],[11.44084,53.67997],[11.44273,53.68067],[11.44318,53.68069],[11.44464,53.68024],[11.44592,53.68039],[11.44639,53.68062],[11.44678,53.68006],[11.44734,53.67974],[11.44866,53.67957],[11.449,53.67973],[11.44902,53.68043],[11.44937,53.68044],[11.45026,53.68018],[11.45068,53.67924],[11.45107,53.67904],[11.4534,53.67941],[11.45398,53.67912],[11.45207,53.67866],[11.45132,53.67828],[11.45157,53.67804],[11.45114,53.6777],[11.45058,53.678],[11.45037,53.67757],[11.45091,53.67653],[11.45262,53.67489],[11.45253,53.67433],[11.4522,53.67389],[11.45225,53.67303],[11.45157,53.67182],[11.45152,53.67],[11.45056,53.66916],[11.45092,53.66795],[11.45021,53.66712],[11.45024,53.66604],[11.44999,53.66497],[11.44963,53.6648],[11.44962,53.66439],[11.44881,53.66464],[11.44866,53.66524],[11.44844,53.66537],[11.44715,53.66593],[11.44535,53.66626],[11.4454,53.66645],[11.44491,53.66662],[11.44425,53.66731],[11.44305,53.66765],[11.44251,53.66735],[11.44231,53.66795],[11.44266,53.66831],[11.44276,53.66869],[11.44441,53.66942],[11.44427,53.66957],[11.4446,53.66974],[11.44612,53.67012],[11.44636,53.67057],[11.4461,53.67082],[11.44332,53.67056],[11.44125,53.66922],[11.44128,53.66941],[11.44069,53.66903],[11.44013,53.6691],[11.43844,53.66884],[11.43865,53.66917],[11.43863,53.66946],[11.43807,53.6704],[11.43775,53.67053],[11.43726,53.67106],[11.43814,53.67138],[11.43863,53.67176],[11.43871,53.67218],[11.43916,53.6729],[11.43903,53.67355],[11.43818,53.67394],[11.43471,53.67412],[11.43322,53.67282],[11.43222,53.67161],[11.43042,53.67054],[11.42948,53.67021]]]}},{"type":"Feature","properties":{"name":"Krebsförden"},"geometry":{"type":"Polygon","coordinates":[[[11.40004,53.58612],[11.39968,53.58609],[11.39936,53.58645],[11.39868,53.5858],[11.39854,53.58595],[11.39807,53.5855],[11.39772,53.5856],[11.39784,53.58571],[11.39727,53.58621],[11.39534,53.58525],[11.39225,53.58611],[11.3903,53.58686],[11.38903,53.58755],[11.38744,53.5888],[11.38636,53.59019],[11.38568,53.59188],[11.38418,53.60112],[11.39214,53.60249],[11.38953,53.60462],[11.39239,53.60613],[11.39267,53.60613],[11.39232,53.60537],[11.39253,53.60511],[11.39371,53.60458],[11.39451,53.60441],[11.39586,53.60458],[11.39641,53.60494],[11.3965,53.60536],[11.39702,53.6055],[11.39862,53.60637],[11.39879,53.60636],[11.39896,53.60577],[11.39941,53.6054],[11.40283,53.60417],[11.40548,53.60437],[11.40572,53.60429],[11.40553,53.60373],[11.40581,53.60335],[11.40691,53.60299],[11.40789,53.60244],[11.4108,53.60184],[11.41273,53.6003],[11.41366,53.59982],[11.41336,53.59964],[11.41323,53.59924],[11.41199,53.59851],[11.41194,53.59801],[11.41213,53.5978],[11.41307,53.59793],[11.41321,53.59773],[11.4152,53.5976],[11.41401,53.59557],[11.41498,53.59483],[11.41524,53.59437],[11.41527,53.59387],[11.4193,53.59431],[11.42216,53.59507],[11.42294,53.59432],[11.4256,53.59014],[11.42909,53.59094],[11.42977,53.59095],[11.43153,53.58589],[11.42652,53.58496],[11.42287,53.58327],[11.4218,53.58295],[11.41626,53.58291],[11.41131,53.58327],[11.4098,53.58126],[11.40006,53.58394],[11.4005,53.5861],[11.40004,53.58612]]]}},{"type":"Feature","properties":{"name":"Wüstmark"},"geometry":{"type":"Polygon","coordinates":[[[11.39405,53.56406],[11.38757,53.55607],[11.38745,53.5561],[11.38676,53.55526],[11.386,53.55593],[11.3848,53.55453],[11.38474,53.55439],[11.38499,53.55416],[11.38061,53.55477],[11.37876,53.55327],[11.37103,53.5544],[11.37132,53.55511],[11.36718,53.55571],[11.36713,53.55557],[11.36598,53.55577],[11.36578,53.55603],[11.37721,53.57494],[11.37906,53.57775],[11.37953,53.57862],[11.37942,53.57872],[11.38392,53.58616],[11.3846,53.5876],[11.3852,53.58955],[11.38549,53.59103],[11.38552,53.59253],[11.38624,53.5904],[11.38687,53.58942],[11.38835,53.58801],[11.3903,53.58686],[11.39225,53.58611],[11.39534,53.58525],[11.39727,53.58621],[11.39784,53.58571],[11.39772,53.5856],[11.39807,53.5855],[11.39854,53.58595],[11.39868,53.5858],[11.39936,53.58645],[11.39968,53.58609],[11.4005,53.5861],[11.40006,53.58394],[11.4098,53.58126],[11.40593,53.57775],[11.40491,53.57588],[11.39815,53.56954],[11.39405,53.56406]]]}},{"type":"Feature","properties":{"name":"Altstadt"},"geometry":{"type":"Polygon","coordinates":[[[11.40418,53.62474],[11.40386,53.62474],[11.4053,53.62671],[11.40694,53.63062],[11.40761,53.63],[11.41005,53.63045],[11.41356,53.63072],[11.4175,53.62926],[11.41774,53.62947],[11.42057,53.63019],[11.42129,53.63061],[11.42245,53.62999],[11.42202,53.6296],[11.422,53.62892],[11.42283,53.62894],[11.42409,53.62855],[11.42439,53.62819],[11.42455,53.62759],[11.42411,53.62682],[11.42409,53.62576],[11.42341,53.62527],[11.42267,53.62528],[11.42265,53.62544],[11.42168,53.6256],[11.42077,53.62655],[11.4173,53.62555],[11.4179,53.6252],[11.41903,53.62545],[11.41977,53.62531],[11.42048,53.62407],[11.42043,53.62388],[11.41931,53.62347],[11.41874,53.62336],[11.41795,53.62351],[11.4176,53.62306],[11.41508,53.6229],[11.41189,53.62378],[11.4127,53.62503],[11.40914,53.62523],[11.40541,53.62472],[11.40418,53.62474]]]}},{"type":"Feature","properties":{"name":"Zippendorf"},"geometry":{"type":"Polygon","coordinates":[[[11.45836,53.59878],[11.4563,53.59896],[11.45469,53.59804],[11.45163,53.59972],[11.4508,53.59986],[11.45117,53.60048],[11.45028,53.60082],[11.45109,53.60167],[11.45044,53.60191],[11.4463,53.60289],[11.43918,53.60404],[11.43486,53.60535],[11.4361,53.60575],[11.43674,53.60628],[11.43831,53.60702],[11.44375,53.6081],[11.44475,53.60759],[11.44474,53.60742],[11.44512,53.60701],[11.44629,53.60632],[11.44744,53.60478],[11.44823,53.60425],[11.44968,53.60381],[11.45357,53.603],[11.45718,53.60306],[11.4597,53.60373],[11.46057,53.60426],[11.46079,53.60457],[11.46075,53.60489],[11.46026,53.60567],[11.4618,53.60712],[11.46239,53.60715],[11.46284,53.60674],[11.46356,53.6068],[11.46385,53.60705],[11.46348,53.60742],[11.46366,53.6078],[11.46404,53.60798],[11.46561,53.6078],[11.46673,53.60835],[11.4674,53.60899],[11.46785,53.60905],[11.46901,53.60834],[11.4692,53.60784],[11.46922,53.60665],[11.4691,53.60646],[11.4695,53.60491],[11.4706,53.60392],[11.47108,53.60304],[11.4726,53.60219],[11.46921,53.60004],[11.47209,53.59999],[11.47553,53.59916],[11.47463,53.59863],[11.46993,53.59773],[11.4698,53.59779],[11.46994,53.59801],[11.46962,53.5981],[11.46802,53.59929],[11.46597,53.59798],[11.46435,53.59837],[11.45944,53.5972],[11.45775,53.59718],[11.45749,53.59688],[11.45723,53.59695],[11.45879,53.59876],[11.45836,53.59878]]]}},{"type":"Feature","properties":{"name":"Lewenberg"},"geometry":{"type":"Polygon","coordinates":[[[11.4073,53.63995],[11.40659,53.64207],[11.4035,53.64674],[11.40254,53.6489],[11.40216,53.64939],[11.40128,53.65205],[11.40111,53.65341],[11.40242,53.65346],[11.40297,53.65413],[11.40495,53.65434],[11.40485,53.65508],[11.40502,53.65508],[11.40501,53.65531],[11.40542,53.65532],[11.40592,53.65564],[11.40576,53.65702],[11.40761,53.65709],[11.41094,53.65898],[11.41114,53.65886],[11.41181,53.65924],[11.41161,53.65936],[11.41346,53.66042],[11.41634,53.66023],[11.41814,53.65875],[11.41695,53.65681],[11.41705,53.65594],[11.41747,53.65503],[11.41619,53.65308],[11.41581,53.65185],[11.41592,53.65124],[11.41569,53.65066],[11.41406,53.65067],[11.41364,53.65045],[11.41336,53.65004],[11.41319,53.64877],[11.41279,53.64818],[11.41205,53.64818],[11.4115,53.64796],[11.41167,53.64666],[11.41158,53.64596],[11.41048,53.64507],[11.41056,53.64338],[11.41172,53.64149],[11.41196,53.64028],[11.41112,53.63862],[11.41109,53.63755],[11.40886,53.6379],[11.40743,53.63865],[11.40747,53.63927],[11.4073,53.63995]]]}},{"type":"Feature","properties":{"name":"Warnitz"},"geometry":{"type":"Polygon","coordinates":[[[11.35094,53.65517],[11.34888,53.65546],[11.34898,53.65557],[11.3487,53.65584],[11.3463,53.65671],[11.34365,53.65675],[11.34113,53.65744],[11.34006,53.65746],[11.33961,53.65782],[11.3388,53.65773],[11.33802,53.65805],[11.33623,53.65833],[11.33548,53.65831],[11.33356,53.65789],[11.33278,53.65745],[11.33177,53.65767],[11.33122,53.6574],[11.33031,53.65756],[11.32924,53.65749],[11.33094,53.65972],[11.32961,53.65994],[11.33071,53.66154],[11.32688,53.66157],[11.317,53.66319],[11.31962,53.66668],[11.31956,53.66931],[11.31971,53.66966],[11.32008,53.66976],[11.3195,53.67007],[11.3199,53.67049],[11.31952,53.67072],[11.32125,53.67137],[11.32197,53.67141],[11.3285,53.66959],[11.33301,53.67064],[11.33371,53.67168],[11.33378,53.67248],[11.33545,53.67162],[11.33648,53.67144],[11.33899,53.67444],[11.33988,53.67394],[11.34149,53.67587],[11.34077,53.6764],[11.34093,53.67646],[11.34052,53.67712],[11.34092,53.67735],[11.34191,53.6767],[11.34273,53.67642],[11.34342,53.67667],[11.34335,53.67697],[11.34353,53.67737],[11.34389,53.67748],[11.34456,53.67707],[11.34506,53.67603],[11.34559,53.67585],[11.34591,53.67552],[11.34844,53.67499],[11.34967,53.67439],[11.35038,53.67429],[11.35112,53.67428],[11.35206,53.67517],[11.35361,53.67556],[11.35582,53.6754],[11.35663,53.67612],[11.3569,53.67741],[11.35432,53.67739],[11.3542,53.67789],[11.35694,53.67862],[11.35692,53.6791],[11.35565,53.67915],[11.35564,53.68059],[11.35686,53.68059],[11.35684,53.68079],[11.35837,53.68072],[11.35842,53.67886],[11.35772,53.67742],[11.35706,53.67749],[11.35673,53.67609],[11.356,53.67538],[11.35891,53.67486],[11.359,53.67455],[11.35836,53.67321],[11.3586,53.67266],[11.35908,53.67239],[11.35942,53.67192],[11.36031,53.6716],[11.36048,53.67127],[11.36024,53.67052],[11.36123,53.6701],[11.36156,53.66964],[11.36114,53.66913],[11.36116,53.6689],[11.36384,53.66785],[11.36567,53.66815],[11.36564,53.66656],[11.36721,53.66495],[11.36567,53.66383],[11.36539,53.66317],[11.3665,53.66262],[11.36274,53.6595],[11.36468,53.65771],[11.36352,53.6562],[11.36314,53.65593],[11.36129,53.65515],[11.36099,53.65487],[11.36072,53.65488],[11.35919,53.65423],[11.35702,53.65452],[11.356,53.65434],[11.35285,53.65469],[11.35094,53.65517]]]}},{"type":"Feature","properties":{"name":"Gartenstadt"},"geometry":{"type":"Polygon","coordinates":[[[11.4193,53.59431],[11.41527,53.59387],[11.41524,53.59437],[11.41498,53.59483],[11.41401,53.59557],[11.4152,53.5976],[11.41321,53.59773],[11.41307,53.59793],[11.41213,53.5978],[11.41193,53.59809],[11.41199,53.59851],[11.41323,53.59924],[11.41354,53.59978],[11.41463,53.5998],[11.41605,53.60079],[11.41641,53.60116],[11.41699,53.60238],[11.41685,53.60285],[11.41665,53.60301],[11.41654,53.60372],[11.41632,53.60381],[11.41646,53.60396],[11.41601,53.60537],[11.41615,53.60553],[11.41607,53.60579],[11.41625,53.60582],[11.41616,53.60605],[11.4166,53.60704],[11.41677,53.607],[11.41688,53.60718],[11.41673,53.60734],[11.41708,53.60782],[11.41697,53.6091],[11.41714,53.60951],[11.4177,53.60969],[11.41779,53.61018],[11.41763,53.61048],[11.41804,53.61087],[11.41857,53.61073],[11.41736,53.61185],[11.41518,53.6129],[11.41611,53.61333],[11.41803,53.61259],[11.42199,53.61031],[11.42266,53.60967],[11.42313,53.60891],[11.42424,53.60639],[11.42439,53.60638],[11.4247,53.60498],[11.42977,53.59095],[11.42909,53.59094],[11.4256,53.59014],[11.42294,53.59432],[11.42216,53.59507],[11.4193,53.59431]]]}},{"type":"Feature","properties":{"name":"Göhrener Tannen"},"geometry":{"type":"Polygon","coordinates":[[[11.44509,53.54803],[11.42451,53.54537],[11.42301,53.54946],[11.38358,53.54435],[11.38366,53.54591],[11.38838,53.5465],[11.38858,53.54931],[11.38956,53.54944],[11.39089,53.55214],[11.3866,53.55261],[11.38881,53.55573],[11.38757,53.55607],[11.39454,53.56465],[11.39815,53.56954],[11.40491,53.57588],[11.40593,53.57775],[11.40967,53.58111],[11.41131,53.58327],[11.41626,53.58291],[11.4218,53.58295],[11.42287,53.58327],[11.42652,53.58496],[11.43344,53.58624],[11.43815,53.58779],[11.44199,53.58887],[11.44226,53.58896],[11.44231,53.58918],[11.44212,53.58991],[11.44335,53.59061],[11.44493,53.59349],[11.44532,53.59367],[11.44552,53.59431],[11.44612,53.5953],[11.44836,53.59347],[11.44949,53.59285],[11.44932,53.59279],[11.45024,53.59214],[11.45005,53.59195],[11.44962,53.59211],[11.44938,53.592],[11.44992,53.59145],[11.45144,53.59118],[11.4514,53.59065],[11.45157,53.59023],[11.44909,53.58944],[11.45325,53.58477],[11.45568,53.58558],[11.45649,53.58471],[11.46283,53.57988],[11.46549,53.57753],[11.45936,53.57551],[11.4499,53.57309],[11.44996,53.57274],[11.45205,53.56975],[11.47199,53.5642],[11.48202,53.5611],[11.4816,53.56094],[11.4837,53.55843],[11.46586,53.55652],[11.4685,53.55262],[11.46131,53.55186],[11.46173,53.5502],[11.44509,53.54803]]]}},{"type":"Feature","properties":{"name":"Mueßer Holz"},"geometry":{"type":"Polygon","coordinates":[[[11.46836,53.57849],[11.46549,53.57753],[11.46283,53.57988],[11.45649,53.58471],[11.45568,53.58558],[11.45685,53.58609],[11.45635,53.58647],[11.45611,53.58688],[11.45481,53.58794],[11.45363,53.58841],[11.45333,53.58828],[11.45316,53.58846],[11.45709,53.59041],[11.45926,53.59115],[11.45764,53.5935],[11.45767,53.59383],[11.45784,53.59399],[11.45516,53.5949],[11.45723,53.59695],[11.45749,53.59688],[11.45775,53.59718],[11.45944,53.5972],[11.46435,53.59837],[11.46597,53.59798],[11.46802,53.59929],[11.46962,53.5981],[11.46994,53.59801],[11.4698,53.59779],[11.46993,53.59773],[11.47467,53.59864],[11.47605,53.5939],[11.47598,53.59321],[11.47744,53.591],[11.47863,53.58863],[11.4785,53.58815],[11.47681,53.58359],[11.47551,53.58362],[11.4751,53.58288],[11.4751,53.58194],[11.47462,53.58004],[11.4726,53.57914],[11.47065,53.57857],[11.47033,53.57914],[11.46836,53.57849]]]}},{"type":"Feature","properties":{"name":"Neu Zippendorf"},"geometry":{"type":"Polygon","coordinates":[[[11.44646,53.595],[11.44445,53.59732],[11.4411,53.59868],[11.44192,53.59911],[11.44245,53.5997],[11.44296,53.60152],[11.44374,53.60327],[11.44809,53.60253],[11.45109,53.60167],[11.45028,53.60082],[11.45117,53.60048],[11.4508,53.59986],[11.45163,53.59972],[11.45469,53.59804],[11.4563,53.59896],[11.45879,53.59876],[11.45751,53.59722],[11.45516,53.5949],[11.45784,53.59399],[11.45767,53.59383],[11.45764,53.5935],[11.45926,53.59115],[11.45709,53.59041],[11.45316,53.58846],[11.45333,53.58828],[11.45363,53.58841],[11.45481,53.58794],[11.45685,53.58609],[11.45563,53.58551],[11.45325,53.58477],[11.44909,53.58944],[11.45157,53.59023],[11.4514,53.59065],[11.45144,53.59118],[11.44992,53.59145],[11.44938,53.592],[11.44962,53.59211],[11.45005,53.59195],[11.45024,53.59214],[11.44932,53.59279],[11.44949,53.59285],[11.44836,53.59347],[11.44646,53.595]]]}},{"type":"Feature","properties":{"name":"Schelfstadt"},"geometry":{"type":"Polygon","coordinates":[[[11.41602,53.6298],[11.41398,53.63066],[11.41304,53.63073],[11.41121,53.63057],[11.41083,53.63187],[11.41081,53.6376],[11.41371,53.63706],[11.41586,53.63648],[11.41686,53.63643],[11.42267,53.63741],[11.42339,53.63735],[11.42128,53.63061],[11.42057,53.63019],[11.41774,53.62947],[11.4175,53.62926],[11.41602,53.6298]]]}},{"type":"Feature","properties":{"name":"Medewege"},"geometry":{"type":"Polygon","coordinates":[[[11.4011,53.65293],[11.40211,53.6495],[11.403,53.64796],[11.40225,53.6479],[11.40211,53.64655],[11.40138,53.64548],[11.40098,53.64454],[11.39941,53.64498],[11.3991,53.64524],[11.39905,53.64556],[11.39824,53.64604],[11.39716,53.64616],[11.397,53.64639],[11.39718,53.64644],[11.39607,53.64716],[11.39554,53.64784],[11.39474,53.64833],[11.39274,53.65013],[11.39239,53.65069],[11.39192,53.65108],[11.3918,53.65183],[11.38976,53.65295],[11.38618,53.65587],[11.38466,53.65659],[11.38424,53.65628],[11.38383,53.65665],[11.38369,53.65731],[11.38323,53.6572],[11.38,53.65894],[11.37358,53.66163],[11.36994,53.662],[11.368,53.66254],[11.36663,53.66258],[11.36579,53.66287],[11.36539,53.66317],[11.36564,53.66379],[11.36722,53.66498],[11.36564,53.66656],[11.36567,53.66815],[11.36629,53.66815],[11.36817,53.66867],[11.36842,53.66928],[11.36753,53.67051],[11.36776,53.67079],[11.36826,53.67241],[11.36645,53.67324],[11.37319,53.67915],[11.37629,53.67984],[11.38656,53.67951],[11.38742,53.6788],[11.38779,53.67818],[11.3902,53.67557],[11.39593,53.67954],[11.39527,53.68023],[11.39553,53.68025],[11.39567,53.67994],[11.39614,53.67966],[11.39758,53.6791],[11.3981,53.67873],[11.39904,53.67856],[11.39943,53.67824],[11.40025,53.67697],[11.4025,53.6773],[11.40518,53.6774],[11.40669,53.67844],[11.40697,53.67839],[11.40694,53.67784],[11.40658,53.67681],[11.42063,53.6682],[11.42213,53.66898],[11.42543,53.66691],[11.42404,53.66605],[11.4234,53.66621],[11.42362,53.6666],[11.42322,53.66687],[11.42261,53.66688],[11.42204,53.66662],[11.42061,53.66675],[11.41975,53.66656],[11.41941,53.66629],[11.41937,53.66599],[11.41948,53.66576],[11.41991,53.66561],[11.41957,53.66505],[11.41794,53.66389],[11.41742,53.66318],[11.41717,53.66305],[11.41615,53.66308],[11.41483,53.6626],[11.41487,53.66224],[11.41516,53.66195],[11.41554,53.66198],[11.41577,53.66225],[11.41607,53.66231],[11.41682,53.66202],[11.41707,53.66174],[11.41705,53.66116],[11.41634,53.66023],[11.41346,53.66042],[11.41161,53.65936],[11.41181,53.65924],[11.41114,53.65886],[11.41094,53.65898],[11.40761,53.65709],[11.40576,53.65702],[11.40592,53.65564],[11.40542,53.65532],[11.40501,53.65531],[11.40502,53.65508],[11.40485,53.65508],[11.40495,53.65434],[11.40297,53.65413],[11.40242,53.65346],[11.40111,53.65341],[11.4011,53.65293]]]}},{"type":"Feature","properties":{"name":"Ostorf"},"geometry":{"type":"Polygon","coordinates":[[[11.3978,53.60589],[11.3965,53.60536],[11.39641,53.60494],[11.39586,53.60458],[11.39499,53.6044],[11.39371,53.60458],[11.39253,53.60511],[11.39232,53.60537],[11.3926,53.60606],[11.39321,53.60688],[11.39279,53.6077],[11.39108,53.60922],[11.39112,53.60973],[11.39124,53.60976],[11.39089,53.60978],[11.39124,53.60979],[11.39127,53.61009],[11.39149,53.61031],[11.39234,53.61069],[11.39268,53.61111],[11.3925,53.61138],[11.39173,53.61113],[11.39119,53.61126],[11.39118,53.61153],[11.39105,53.61158],[11.39146,53.61274],[11.3916,53.61277],[11.39142,53.61307],[11.39149,53.61323],[11.39126,53.614],[11.39135,53.6141],[11.39109,53.61434],[11.39134,53.61477],[11.39248,53.61511],[11.3952,53.61517],[11.39627,53.61476],[11.39703,53.61426],[11.39806,53.61402],[11.39888,53.61409],[11.39916,53.61458],[11.39889,53.61488],[11.3987,53.61586],[11.39893,53.61604],[11.39892,53.61649],[11.39936,53.6171],[11.39777,53.6173],[11.39698,53.61766],[11.39675,53.61782],[11.39672,53.61855],[11.39657,53.61855],[11.39748,53.61933],[11.39867,53.61992],[11.39871,53.62008],[11.39837,53.62014],[11.39858,53.62026],[11.4,53.61992],[11.40345,53.6188],[11.4045,53.61867],[11.40557,53.61886],[11.40733,53.61952],[11.40886,53.62054],[11.41013,53.62108],[11.41079,53.62273],[11.41189,53.62378],[11.41508,53.6229],[11.4176,53.62306],[11.41865,53.62231],[11.41809,53.62121],[11.41829,53.6208],[11.41885,53.62072],[11.41971,53.62102],[11.4205,53.62111],[11.42184,53.62168],[11.42196,53.62203],[11.42246,53.6221],[11.4226,53.62244],[11.42319,53.62265],[11.42321,53.62251],[11.42431,53.62242],[11.42776,53.62268],[11.43042,53.62229],[11.43106,53.62203],[11.43262,53.62253],[11.43293,53.62232],[11.43307,53.62043],[11.43318,53.62033],[11.43307,53.62015],[11.43336,53.61951],[11.43247,53.6197],[11.43252,53.61865],[11.43312,53.61781],[11.43461,53.61718],[11.43531,53.61653],[11.43571,53.61493],[11.43655,53.6134],[11.43726,53.61269],[11.43728,53.61224],[11.43792,53.61176],[11.43794,53.61156],[11.43834,53.6112],[11.44088,53.60955],[11.44407,53.60803],[11.44316,53.60808],[11.44177,53.60762],[11.43831,53.60702],[11.43674,53.60628],[11.4361,53.60575],[11.43486,53.60535],[11.43033,53.60675],[11.42668,53.60722],[11.4248,53.60779],[11.42376,53.60846],[11.42199,53.61031],[11.41803,53.61259],[11.41611,53.61333],[11.41518,53.6129],[11.41736,53.61185],[11.41857,53.61073],[11.41804,53.61087],[11.41763,53.61048],[11.41779,53.61018],[11.4177,53.60969],[11.41714,53.60951],[11.41697,53.6091],[11.41708,53.60782],[11.41673,53.60734],[11.41688,53.60718],[11.41677,53.607],[11.4166,53.60704],[11.41616,53.60605],[11.41625,53.60582],[11.41607,53.60579],[11.41615,53.60553],[11.41601,53.60537],[11.41646,53.60396],[11.41632,53.60381],[11.41654,53.60372],[11.41665,53.60301],[11.41685,53.60285],[11.41699,53.60238],[11.41641,53.60116],[11.41605,53.60079],[11.41501,53.59998],[11.41428,53.59971],[11.41331,53.5999],[11.4108,53.60184],[11.40789,53.60244],[11.40691,53.60299],[11.40581,53.60335],[11.40553,53.60373],[11.40572,53.60429],[11.40512,53.60441],[11.40283,53.60417],[11.39941,53.6054],[11.39896,53.60577],[11.39879,53.60636],[11.3978,53.60589]]]}},{"type":"Feature","properties":{"name":"Schelfwerder"},"geometry":{"type":"Polygon","coordinates":[[[11.43843,53.6501],[11.43866,53.65066],[11.43737,53.65135],[11.43627,53.65245],[11.43426,53.65259],[11.43342,53.65285],[11.43276,53.65224],[11.431,53.65004],[11.43001,53.65017],[11.42964,53.65003],[11.42934,53.64883],[11.42889,53.64888],[11.42876,53.64862],[11.42834,53.64866],[11.42832,53.64784],[11.42761,53.64766],[11.42741,53.64763],[11.42711,53.64795],[11.42602,53.6481],[11.42574,53.64836],[11.42185,53.64866],[11.4209,53.64844],[11.41886,53.6473],[11.41878,53.6469],[11.41846,53.6469],[11.41845,53.64673],[11.41785,53.64661],[11.41553,53.64696],[11.41523,53.64695],[11.41493,53.64669],[11.4135,53.64676],[11.41306,53.64657],[11.41163,53.64673],[11.41146,53.64785],[11.41176,53.64812],[11.41279,53.64818],[11.41316,53.64871],[11.41336,53.65004],[11.41371,53.65052],[11.4142,53.65068],[11.41569,53.65066],[11.41592,53.65124],[11.41581,53.65185],[11.41619,53.65308],[11.41747,53.65503],[11.41705,53.65594],[11.41695,53.65681],[11.41814,53.65875],[11.41635,53.66019],[11.41709,53.66127],[11.41712,53.66163],[11.41694,53.66194],[11.41607,53.66231],[11.41577,53.66225],[11.41554,53.66198],[11.41516,53.66195],[11.41484,53.66231],[11.41491,53.66269],[11.41615,53.66308],[11.41717,53.66305],[11.41742,53.66318],[11.41794,53.66389],[11.41957,53.66505],[11.41991,53.66561],[11.41948,53.66576],[11.41937,53.66599],[11.41941,53.66629],[11.41975,53.66656],[11.42061,53.66675],[11.42204,53.66662],[11.42261,53.66688],[11.42322,53.66687],[11.42362,53.6666],[11.4234,53.66621],[11.42411,53.66606],[11.42543,53.66691],[11.42769,53.66792],[11.42696,53.66802],[11.42664,53.66836],[11.42701,53.66872],[11.42854,53.66916],[11.42881,53.66978],[11.42916,53.67006],[11.43042,53.67054],[11.43222,53.67161],[11.43322,53.67282],[11.43446,53.67396],[11.43506,53.67417],[11.43818,53.67394],[11.43915,53.67342],[11.43916,53.6729],[11.43871,53.67218],[11.43863,53.67176],[11.43814,53.67138],[11.43726,53.67106],[11.43775,53.67053],[11.43807,53.6704],[11.43863,53.66946],[11.43865,53.66917],[11.43844,53.66884],[11.44013,53.6691],[11.44069,53.66903],[11.44128,53.66941],[11.44125,53.66922],[11.44332,53.67056],[11.44436,53.67075],[11.44495,53.67063],[11.44586,53.67087],[11.44633,53.6707],[11.44631,53.67032],[11.44612,53.67012],[11.4446,53.66974],[11.44427,53.66957],[11.44441,53.66942],[11.44276,53.66869],[11.44266,53.66831],[11.44231,53.66795],[11.44251,53.66735],[11.44286,53.6676],[11.44348,53.66761],[11.44434,53.66726],[11.44491,53.66662],[11.4454,53.66645],[11.44535,53.66626],[11.44715,53.66593],[11.44864,53.66527],[11.44881,53.66464],[11.44962,53.66439],[11.44961,53.66415],[11.45002,53.66369],[11.45097,53.66304],[11.45132,53.66239],[11.45093,53.66206],[11.45091,53.6618],[11.45103,53.66151],[11.45187,53.66088],[11.45177,53.6606],[11.45197,53.6603],[11.45237,53.65995],[11.45314,53.65966],[11.45448,53.65863],[11.4548,53.65722],[11.4556,53.65593],[11.45495,53.65527],[11.45486,53.65475],[11.45441,53.65418],[11.45447,53.65336],[11.45434,53.65266],[11.45402,53.65215],[11.45383,53.65115],[11.45403,53.65078],[11.4539,53.65034],[11.45412,53.64964],[11.45348,53.64828],[11.45309,53.64475],[11.45334,53.64423],[11.45385,53.64377],[11.45101,53.64354],[11.44961,53.64313],[11.44719,53.64302],[11.44252,53.64244],[11.4406,53.64243],[11.43927,53.64202],[11.43849,53.64278],[11.43599,53.64959],[11.43826,53.64985],[11.43843,53.6501]]]}},{"type":"Feature","properties":{"name":"Werdervorstadt"},"geometry":{"type":"Polygon","coordinates":[[[11.422,53.63022],[11.42129,53.63061],[11.42339,53.63735],[11.42267,53.63741],[11.41686,53.63643],[11.41586,53.63648],[11.41109,53.63755],[11.41112,53.63862],[11.41196,53.64028],[11.41172,53.64149],[11.41056,53.64338],[11.41048,53.64507],[11.41077,53.64543],[11.41156,53.64592],[11.41163,53.64673],[11.41306,53.64657],[11.4135,53.64676],[11.41493,53.64669],[11.41523,53.64695],[11.41553,53.64696],[11.41785,53.64661],[11.41878,53.6469],[11.41886,53.6473],[11.4209,53.64844],[11.42167,53.64864],[11.42574,53.64836],[11.42602,53.6481],[11.42711,53.64795],[11.42741,53.64763],[11.42832,53.64784],[11.42834,53.64866],[11.42876,53.64862],[11.42889,53.64888],[11.42934,53.64883],[11.42964,53.65003],[11.43001,53.65017],[11.431,53.65004],[11.43276,53.65224],[11.43342,53.65285],[11.43426,53.65259],[11.43627,53.65245],[11.43737,53.65135],[11.43866,53.65066],[11.43826,53.64985],[11.43599,53.64959],[11.43849,53.64278],[11.43927,53.64202],[11.43891,53.64155],[11.43744,53.64039],[11.43623,53.63983],[11.43647,53.63928],[11.43641,53.63883],[11.43377,53.63671],[11.43284,53.63573],[11.43303,53.63569],[11.43283,53.63572],[11.43232,53.63503],[11.43194,53.635],[11.4315,53.6347],[11.4317,53.63469],[11.43138,53.63471],[11.43146,53.63463],[11.43106,53.63433],[11.43077,53.63445],[11.43049,53.63435],[11.43029,53.63421],[11.43027,53.63385],[11.42992,53.63372],[11.42962,53.63318],[11.42924,53.63302],[11.42953,53.63289],[11.4289,53.63236],[11.42901,53.63197],[11.42888,53.63151],[11.43122,53.62941],[11.43068,53.62913],[11.4292,53.62925],[11.42819,53.62914],[11.42663,53.62853],[11.42548,53.62742],[11.42455,53.62761],[11.42439,53.62819],[11.42409,53.62855],[11.42283,53.62894],[11.422,53.62892],[11.42202,53.6296],[11.42245,53.62999],[11.422,53.63022]]]}},{"type":"Feature","properties":{"name":"Neumühle"},"geometry":{"type":"Polygon","coordinates":[[[11.36114,53.61961],[11.36012,53.61787],[11.36008,53.61633],[11.36048,53.61607],[11.36089,53.61501],[11.3604,53.61385],[11.36038,53.6134],[11.35594,53.61341],[11.35585,53.61607],[11.35653,53.62058],[11.35767,53.62053],[11.35775,53.62321],[11.35992,53.62414],[11.35986,53.62425],[11.35809,53.6243],[11.35714,53.62475],[11.35612,53.62579],[11.35606,53.62611],[11.3544,53.62731],[11.35274,53.62887],[11.35033,53.63012],[11.34874,53.63236],[11.34618,53.63418],[11.34523,53.63523],[11.34491,53.63605],[11.34377,53.63678],[11.34343,53.63736],[11.34334,53.63856],[11.34353,53.63881],[11.34083,53.63923],[11.33973,53.64023],[11.33958,53.64055],[11.33867,53.6412],[11.3385,53.64159],[11.33742,53.64174],[11.33459,53.64264],[11.33319,53.64327],[11.33231,53.64445],[11.33235,53.64477],[11.32905,53.64506],[11.3271,53.64505],[11.32427,53.64611],[11.3229,53.64636],[11.31997,53.64631],[11.32008,53.64644],[11.3185,53.64702],[11.31676,53.64733],[11.31503,53.64705],[11.31049,53.64682],[11.30743,53.64727],[11.30664,53.64784],[11.30661,53.64813],[11.30681,53.64827],[11.3063,53.64965],[11.30482,53.6501],[11.30359,53.65119],[11.30169,53.65247],[11.30345,53.65828],[11.2975,53.66011],[11.29857,53.66017],[11.30015,53.6605],[11.30387,53.65974],[11.30519,53.65856],[11.30555,53.65723],[11.30558,53.65641],[11.3068,53.65475],[11.30694,53.6533],[11.30749,53.65203],[11.30903,53.65053],[11.30977,53.65024],[11.31034,53.64977],[11.31166,53.64944],[11.31365,53.6496],[11.31902,53.64937],[11.32111,53.64899],[11.32247,53.64946],[11.32264,53.6494],[11.32267,53.64894],[11.32577,53.64887],[11.32744,53.64859],[11.32879,53.64815],[11.33038,53.64814],[11.33286,53.64774],[11.33625,53.64682],[11.33945,53.64507],[11.34178,53.64465],[11.34261,53.64421],[11.34317,53.64355],[11.34369,53.64227],[11.34405,53.64178],[11.34502,53.64141],[11.34692,53.63993],[11.34723,53.6388],[11.34776,53.63839],[11.35078,53.64051],[11.35246,53.63939],[11.356,53.63644],[11.36066,53.63327],[11.36102,53.6344],[11.3613,53.63619],[11.36042,53.63703],[11.36228,53.641],[11.36456,53.64252],[11.36447,53.64107],[11.36695,53.6406],[11.3688,53.64065],[11.37209,53.64022],[11.37316,53.64071],[11.37425,53.64059],[11.37615,53.63987],[11.3764,53.63985],[11.37634,53.64025],[11.37649,53.64026],[11.37697,53.63981],[11.37752,53.63982],[11.37866,53.63939],[11.37886,53.63911],[11.3781,53.63861],[11.37824,53.63735],[11.37876,53.63684],[11.37952,53.63668],[11.37933,53.63603],[11.37986,53.63555],[11.3809,53.63503],[11.38075,53.63458],[11.38099,53.63383],[11.38152,53.63347],[11.38211,53.63353],[11.38222,53.63338],[11.38253,53.63216],[11.383,53.63209],[11.38256,53.63144],[11.38241,53.63066],[11.38257,53.63046],[11.38325,53.62978],[11.38477,53.62887],[11.38483,53.62841],[11.38559,53.62802],[11.38572,53.62779],[11.3842,53.6261],[11.38193,53.62409],[11.38136,53.62438],[11.38058,53.62435],[11.37993,53.62396],[11.37954,53.62313],[11.37963,53.62271],[11.38049,53.62162],[11.38166,53.62143],[11.38261,53.62067],[11.38386,53.62031],[11.38421,53.61984],[11.38396,53.61949],[11.38434,53.6191],[11.38376,53.61879],[11.37939,53.61893],[11.37247,53.62081],[11.37143,53.62134],[11.37079,53.62038],[11.36881,53.62061],[11.36509,53.62192],[11.36397,53.62254],[11.36196,53.62099],[11.36114,53.61961]]]}},{"type":"Feature","properties":{"name":"Lankow"},"geometry":{"type":"Polygon","coordinates":[[[11.36102,53.6344],[11.36066,53.63327],[11.356,53.63644],[11.35246,53.63939],[11.34802,53.64236],[11.34683,53.64348],[11.34577,53.64501],[11.34545,53.64574],[11.3452,53.64725],[11.34531,53.64844],[11.34587,53.6499],[11.34725,53.65176],[11.351,53.65515],[11.35285,53.65469],[11.356,53.65434],[11.35702,53.65452],[11.35866,53.65424],[11.35919,53.65423],[11.36072,53.65488],[11.36099,53.65487],[11.36129,53.65515],[11.36339,53.6561],[11.36468,53.65771],[11.36274,53.6595],[11.3665,53.66262],[11.36788,53.66256],[11.36994,53.662],[11.37358,53.66163],[11.38,53.65894],[11.38323,53.6572],[11.38369,53.65731],[11.38383,53.65665],[11.38424,53.65628],[11.38466,53.65659],[11.38618,53.65587],[11.38976,53.65295],[11.3918,53.65183],[11.39192,53.65108],[11.39293,53.64996],[11.39135,53.64955],[11.39023,53.65021],[11.38923,53.64952],[11.38933,53.64879],[11.3892,53.6481],[11.38936,53.64746],[11.391,53.64445],[11.38943,53.64478],[11.38762,53.64338],[11.38638,53.64384],[11.38618,53.64373],[11.38491,53.64446],[11.38395,53.64299],[11.38407,53.64228],[11.38447,53.64194],[11.38449,53.64172],[11.38399,53.64073],[11.38321,53.64071],[11.38283,53.64111],[11.38289,53.64168],[11.38223,53.64183],[11.38128,53.64114],[11.3809,53.64039],[11.38043,53.64003],[11.38069,53.63984],[11.38243,53.63988],[11.3826,53.63963],[11.38247,53.6394],[11.38313,53.63867],[11.38415,53.63842],[11.3844,53.6381],[11.38398,53.63777],[11.38397,53.63747],[11.38314,53.63723],[11.38439,53.63691],[11.38463,53.63662],[11.38466,53.63629],[11.3846,53.63588],[11.38416,53.63533],[11.38446,53.63508],[11.38444,53.63487],[11.38367,53.63481],[11.38343,53.63448],[11.38421,53.63436],[11.38386,53.63329],[11.3838,53.63255],[11.38344,53.63211],[11.38253,53.63216],[11.38249,53.63268],[11.38211,53.63353],[11.38152,53.63347],[11.38099,53.63383],[11.38075,53.63458],[11.3809,53.63503],[11.37986,53.63555],[11.37933,53.63603],[11.37952,53.63668],[11.37876,53.63684],[11.37824,53.63735],[11.3781,53.63861],[11.37886,53.63911],[11.37866,53.63939],[11.37752,53.63982],[11.37697,53.63981],[11.37649,53.64026],[11.37634,53.64025],[11.3764,53.63985],[11.37615,53.63987],[11.37425,53.64059],[11.37316,53.64071],[11.37209,53.64022],[11.3688,53.64065],[11.36695,53.6406],[11.36447,53.64107],[11.36456,53.64252],[11.36228,53.641],[11.36042,53.63703],[11.3613,53.63619],[11.36102,53.6344]]]}},{"type":"Feature","properties":{"name":"Görries"},"geometry":{"type":"Polygon","coordinates":[[[11.357,53.5939],[11.35621,53.59685],[11.36173,53.59751],[11.36332,53.59715],[11.363,53.59927],[11.36316,53.59947],[11.36137,53.60011],[11.36113,53.60163],[11.36263,53.60134],[11.36216,53.60388],[11.36379,53.60508],[11.36393,53.60491],[11.36398,53.60516],[11.36454,53.60578],[11.36523,53.60621],[11.36547,53.60707],[11.3654,53.60753],[11.36622,53.60814],[11.36628,53.60836],[11.36607,53.60888],[11.36215,53.61151],[11.36111,53.61273],[11.3604,53.61316],[11.3604,53.61385],[11.36089,53.61501],[11.36048,53.61607],[11.36008,53.61633],[11.36012,53.61787],[11.36119,53.61968],[11.36825,53.61886],[11.36972,53.62049],[11.37079,53.62038],[11.37143,53.62134],[11.37247,53.62081],[11.37939,53.61893],[11.38376,53.61879],[11.38411,53.61892],[11.38434,53.6191],[11.38396,53.61949],[11.38421,53.61984],[11.38386,53.62031],[11.38261,53.62067],[11.38166,53.62143],[11.3806,53.62156],[11.37963,53.62271],[11.37954,53.62313],[11.37993,53.62396],[11.38058,53.62435],[11.38109,53.62441],[11.38295,53.62365],[11.38494,53.62345],[11.38648,53.62235],[11.38729,53.62212],[11.38837,53.62205],[11.38893,53.62245],[11.39021,53.62288],[11.39214,53.62273],[11.39287,53.62248],[11.39514,53.62237],[11.39596,53.62201],[11.39763,53.62067],[11.39809,53.62082],[11.39806,53.62054],[11.39858,53.62026],[11.39837,53.62014],[11.39871,53.62008],[11.39867,53.61992],[11.39748,53.61933],[11.39657,53.61855],[11.39672,53.61855],[11.39675,53.61782],[11.39698,53.61766],[11.39777,53.6173],[11.39936,53.6171],[11.39892,53.61649],[11.39893,53.61604],[11.3987,53.61586],[11.39889,53.61488],[11.39916,53.61458],[11.39888,53.61409],[11.39852,53.61399],[11.39743,53.61415],[11.39569,53.61501],[11.39467,53.61519],[11.39356,53.61508],[11.39338,53.61519],[11.39177,53.61496],[11.39134,53.61477],[11.39109,53.61434],[11.39135,53.6141],[11.39126,53.614],[11.39149,53.61323],[11.39142,53.61307],[11.3916,53.61279],[11.39133,53.61245],[11.39119,53.61176],[11.39105,53.61176],[11.39119,53.61126],[11.39173,53.61113],[11.3925,53.61138],[11.39268,53.61111],[11.39234,53.61069],[11.39149,53.61031],[11.39127,53.61009],[11.39124,53.60979],[11.39089,53.60978],[11.39124,53.60976],[11.39112,53.60973],[11.39108,53.60922],[11.39279,53.6077],[11.39321,53.60688],[11.39267,53.60613],[11.39181,53.60591],[11.39078,53.60519],[11.38953,53.60462],[11.39214,53.60249],[11.38418,53.60112],[11.38552,53.59253],[11.38534,53.59016],[11.3846,53.5876],[11.38392,53.58616],[11.37942,53.57872],[11.3743,53.58338],[11.36621,53.58895],[11.35812,53.59431],[11.357,53.5939]]]}},{"type":"Feature","properties":{"name":"Feldstadt"},"geometry":{"type":"Polygon","coordinates":[[[11.40696,53.61941],[11.40498,53.6187],[11.40412,53.6187],[11.39858,53.62026],[11.39802,53.62063],[11.39809,53.62082],[11.39928,53.62134],[11.40077,53.62242],[11.40095,53.62229],[11.40243,53.6234],[11.40386,53.62474],[11.40541,53.62472],[11.40914,53.62523],[11.4127,53.62503],[11.41189,53.62378],[11.41079,53.62273],[11.41013,53.62108],[11.40886,53.62054],[11.40759,53.61967],[11.40696,53.61941]]]}},{"type":"Feature","properties":{"name":"Großer Dreesch"},"geometry":{"type":"Polygon","coordinates":[[[11.43031,53.5893],[11.4247,53.60498],[11.42439,53.60638],[11.42424,53.60639],[11.42364,53.60791],[11.42266,53.60967],[11.42419,53.60813],[11.42594,53.60737],[11.42992,53.60685],[11.43918,53.60404],[11.44374,53.60327],[11.44296,53.60152],[11.44245,53.5997],[11.44192,53.59911],[11.4411,53.59868],[11.44445,53.59732],[11.44612,53.5953],[11.44552,53.59431],[11.44532,53.59367],[11.44493,53.59349],[11.44335,53.59061],[11.44212,53.58991],[11.44226,53.58896],[11.43344,53.58624],[11.43153,53.58589],[11.43031,53.5893]]]}}]}