{"type":"FeatureCollection","features":[{"type":"Feature","properties":{"kind":"accessible","label":"Sport-und Kongresshalle","detail":"10 Plätze"},"geometry":{"type":"Point","coordinates":[11.39343,53.6285]}},{"type":"Feature","properties":{"kind":"accessible","label":"Pestalozzistraße 1","detail":"1 Platz"},"geometry":{"type":"Point","coordinates":[11.40508,53.63516]}},{"type":"Feature","properties":{"kind":"accessible","label":"Demmlerplatz 12","detail":"1 Platz"},"geometry":{"type":"Point","coordinates":[11.39847,53.63073]}},{"type":"Feature","properties":{"kind":"accessible","label":"Platz der Freiheit 20","detail":"1 Platz"},"geometry":{"type":"Point","coordinates":[11.40318,53.63352]}},{"type":"Feature","properties":{"kind":"accessible","label":"Mecklenburgsstraße 59","detail":"2 Plätze"},"geometry":{"type":"Point","coordinates":[11.41194,53.62667]}},{"type":"Feature","properties":{"kind":"accessible","label":"Goethestraße 97","detail":"1 Platz"},"geometry":{"type":"Point","coordinates":[11.41064,53.62756]}},{"type":"Feature","properties":{"kind":"accessible","label":"Geschwister-Scholl-Straße","detail":"2 Plätze"},"geometry":{"type":"Point","coordinates":[11.41218,53.62676]}},{"type":"Feature","properties":{"kind":"accessible","label":"Heinrich-Mann-Straße 2","detail":"1 Platz"},"geometry":{"type":"Point","coordinates":[11.40984,53.62524]}},{"type":"Feature","properties":{"kind":"accessible","label":"Wismarsche Straße 146","detail":"1 Platz"},"geometry":{"type":"Point","coordinates":[11.40967,53.63154]}},{"type":"Feature","properties":{"kind":"accessible","label":"Friedrichstraße 17","detail":"1 Platz"},"geometry":{"type":"Point","coordinates":[11.41586,53.62982]}},{"type":"Feature","properties":{"kind":"accessible","label":"Puschkinstraße 1/ Ecke Gaußstraße","detail":"1 Platz"},"geometry":{"type":"Point","coordinates":[11.41732,53.63267]}},{"type":"Feature","properties":{"kind":"accessible","label":"Landreiterstraße 11","detail":"1 Platz"},"geometry":{"type":"Point","coordinates":[11.41742,53.63547]}},{"type":"Feature","properties":{"kind":"accessible","label":"Weiße Flotte / Werderstraße","detail":"2 Plätze"},"geometry":{"type":"Point","coordinates":[11.41989,53.62645]}},{"type":"Feature","properties":{"kind":"accessible","label":"Theaterstraße","detail":"2 Plätze"},"geometry":{"type":"Point","coordinates":[11.41677,53.62687]}},{"type":"Feature","properties":{"kind":"accessible","label":"Graf-Schack-Allee 20","detail":"1 Platz"},"geometry":{"type":"Point","coordinates":[11.41007,53.62196]}},{"type":"Feature","properties":{"kind":"accessible","label":"Jägerweg 5","detail":"2 Plätze"},"geometry":{"type":"Point","coordinates":[11.413,53.61936]}},{"type":"Feature","properties":{"kind":"accessible","label":"Werderstraße 4","detail":"2 Plätze"},"geometry":{"type":"Point","coordinates":[11.42396,53.63902]}},{"type":"Feature","properties":{"kind":"accessible","label":"Am Packhof","detail":"1 Platz"},"geometry":{"type":"Point","coordinates":[11.40818,53.6325]}},{"type":"Feature","properties":{"kind":"accessible","label":"Ärztehaus Röntgenstraße","detail":"1 Platz"},"geometry":{"type":"Point","coordinates":[11.41637,53.63386]}},{"type":"Feature","properties":{"kind":"accessible","label":"Alter Garten / Theater","detail":"1 Platz"},"geometry":{"type":"Point","coordinates":[11.41728,53.62645]}},{"type":"Feature","properties":{"kind":"accessible","label":"Schelfmarkt 3","detail":"1 Platz"},"geometry":{"type":"Point","coordinates":[11.41745,53.6331]}},{"type":"Feature","properties":{"kind":"accessible","label":"Schelfmarkt 1","detail":"1 Platz"},"geometry":{"type":"Point","coordinates":[11.41755,53.63338]}},{"type":"Feature","properties":{"kind":"accessible","label":"Bischofstraße 7","detail":"1 Platz"},"geometry":{"type":"Point","coordinates":[11.41356,53.62945]}},{"type":"Feature","properties":{"kind":"accessible","label":"Bischofstraße/ Ecke Arsenalstraße","detail":"1 Platz"},"geometry":{"type":"Point","coordinates":[11.41351,53.63062]}},{"type":"Feature","properties":{"kind":"accessible","label":"Jungfernstieg 2","detail":"1 Platz"},"geometry":{"type":"Point","coordinates":[11.40225,53.63271]}},{"type":"Feature","properties":{"kind":"accessible","label":"Friedensstraße/ Ecke Steinstraße","detail":"1 Platz"},"geometry":{"type":"Point","coordinates":[11.40417,53.63098]}},{"type":"Feature","properties":{"kind":"accessible","label":"Friedensstraße 17","detail":"1 Platz"},"geometry":{"type":"Point","coordinates":[11.40397,53.63017]}},{"type":"Feature","properties":{"kind":"accessible","label":"Franz-Mehring-Straße 16","detail":"2 Plätze"},"geometry":{"type":"Point","coordinates":[11.40808,53.63122]}},{"type":"Feature","properties":{"kind":"accessible","label":"Lübecker Straße/ Wittenburger Straße","detail":"2 Plätze"},"geometry":{"type":"Point","coordinates":[11.40895,53.62903]}},{"type":"Feature","properties":{"kind":"accessible","label":"Alexandrinenstraße 1","detail":"3 Plätze"},"geometry":{"type":"Point","coordinates":[11.41117,53.63096]}},{"type":"Feature","properties":{"kind":"accessible","label":"Mecklenburgstraße 77","detail":"1 Platz"},"geometry":{"type":"Point","coordinates":[11.41149,53.62558]}},{"type":"Feature","properties":{"kind":"accessible","label":"Pfaffenstraße 3","detail":"1 Platz"},"geometry":{"type":"Point","coordinates":[11.41569,53.6308]}},{"type":"Feature","properties":{"kind":"accessible","label":"Bahnhof-Spielothek","detail":"1 Platz"},"geometry":{"type":"Point","coordinates":[11.40825,53.63487]}},{"type":"Feature","properties":{"kind":"accessible","label":"Molkereistraße","detail":"1 Platz"},"geometry":{"type":"Point","coordinates":[11.40845,53.63225]}},{"type":"Feature","properties":{"kind":"accessible","label":"Amtstraße 32","detail":null},"geometry":{"type":"Point","coordinates":[11.42553,53.63162]}},{"type":"Feature","properties":{"kind":"accessible","label":"Demmlerstraße 19","detail":null},"geometry":{"type":"Point","coordinates":[11.40372,53.61897]}},{"type":"Feature","properties":{"kind":"accessible","label":"Johannes-R.-Becher Straße/ Regionalschule","detail":"2 Plätze"},"geometry":{"type":"Point","coordinates":[11.38992,53.63699]}},{"type":"Feature","properties":{"kind":"accessible","label":"Willi-Bredel-Straße /Grundschule","detail":"2 Plätze"},"geometry":{"type":"Point","coordinates":[11.3906,53.6361]}},{"type":"Feature","properties":{"kind":"accessible","label":"Lessingstraße 26a/ Nachbarschaftstreff SWG","detail":"2 Plätze"},"geometry":{"type":"Point","coordinates":[11.39196,53.63438]}},{"type":"Feature","properties":{"kind":"accessible","label":"Schlachtermarkt","detail":"1 Platz"},"geometry":{"type":"Point","coordinates":[11.41602,53.62919]}},{"type":"Feature","properties":{"kind":"accessible","label":"Puschkinstraße/ SHH","detail":"1 Platz"},"geometry":{"type":"Point","coordinates":[11.41685,53.63144]}},{"type":"Feature","properties":{"kind":"accessible","label":"Zum Bahnhof 14","detail":"1 Platz"},"geometry":{"type":"Point","coordinates":[11.40701,53.63377]}},{"type":"Feature","properties":{"kind":"accessible","label":"Schelfstraße 19","detail":"1 Platz"},"geometry":{"type":"Point","coordinates":[11.41842,53.63542]}},{"type":"Feature","properties":{"kind":"accessible","label":"Komarowstraße 23","detail":"1 Platz"},"geometry":{"type":"Point","coordinates":[11.4617,53.59443]}},{"type":"Feature","properties":{"kind":"accessible","label":"Schulzenweg/ Kita","detail":"1 Platz"},"geometry":{"type":"Point","coordinates":[11.38653,53.6098]}},{"type":"Feature","properties":{"kind":"accessible","label":"Edgar-Bennert-Straße neben Edeka","detail":"2 Plätze"},"geometry":{"type":"Point","coordinates":[11.36601,53.65186]}},{"type":"Feature","properties":{"kind":"accessible","label":"Friedrich-Engels-Straße/ Dreescher Markt","detail":"2 Plätze"},"geometry":{"type":"Point","coordinates":[11.43162,53.60382]}},{"type":"Feature","properties":{"kind":"accessible","label":"Perleberger Straße 22-24/ Haus der Begegnung","detail":"1 Platz"},"geometry":{"type":"Point","coordinates":[11.45107,53.59424]}},{"type":"Feature","properties":{"kind":"accessible","label":"Tallinner Straße / Berliner Platz","detail":"1 Platz"},"geometry":{"type":"Point","coordinates":[11.44845,53.59827]}},{"type":"Feature","properties":{"kind":"accessible","label":"Rostocker Straße/ Berliner Platz","detail":"2 Plätze"},"geometry":{"type":"Point","coordinates":[11.45002,53.59715]}},{"type":"Feature","properties":{"kind":"accessible","label":"Halle am Fernsehturm","detail":"2 Plätze"},"geometry":{"type":"Point","coordinates":[11.45611,53.59449]}},{"type":"Feature","properties":{"kind":"accessible","label":"Hamburger Allee 120","detail":"1 Platz"},"geometry":{"type":"Point","coordinates":[11.463,53.59289]}},{"type":"Feature","properties":{"kind":"accessible","label":"Hamburger Allee/ Ärztehaus","detail":"2 Plätze"},"geometry":{"type":"Point","coordinates":[11.46412,53.59303]}},{"type":"Feature","properties":{"kind":"accessible","label":"Fernsehturm","detail":"1 Platz"},"geometry":{"type":"Point","coordinates":[11.45819,53.59283]}},{"type":"Feature","properties":{"kind":"accessible","label":"PPl am Strand/ Bosselmannstraße","detail":"1 Platz"},"geometry":{"type":"Point","coordinates":[11.45361,53.60257]}},{"type":"Feature","properties":{"kind":"accessible","label":"Am Strand/ Franzosenweg","detail":"2 Plätze"},"geometry":{"type":"Point","coordinates":[11.45239,53.60298]}},{"type":"Feature","properties":{"kind":"accessible","label":"Stralsunder Straße 6","detail":"1 Platz"},"geometry":{"type":"Point","coordinates":[11.45338,53.59438]}},{"type":"Feature","properties":{"kind":"accessible","label":"Dr.-M.-Luther-King-Straße 1/2","detail":"2 Plätze"},"geometry":{"type":"Point","coordinates":[11.42769,53.6029]}},{"type":"Feature","properties":{"kind":"accessible","label":"Hagenower Straße 13a","detail":"1 Platz"},"geometry":{"type":"Point","coordinates":[11.41893,53.6083]}},{"type":"Feature","properties":{"kind":"accessible","label":"Haltestelle Von-Stauffenberg-Straße","detail":"1 Platz"},"geometry":{"type":"Point","coordinates":[11.42877,53.60368]}},{"type":"Feature","properties":{"kind":"accessible","label":"Rahlstedter Straße/ Ärztehaus","detail":"1 Platz"},"geometry":{"type":"Point","coordinates":[11.3657,53.64814]}},{"type":"Feature","properties":{"kind":"accessible","label":"Kieler Straße 31a","detail":"1 Platz"},"geometry":{"type":"Point","coordinates":[11.37014,53.64803]}},{"type":"Feature","properties":{"kind":"accessible","label":"Schloss/ Lennestraße 1","detail":"2 Plätze"},"geometry":{"type":"Point","coordinates":[11.41769,53.62494]}},{"type":"Feature","properties":{"kind":"accessible","label":"Großer Moor 15","detail":"1 Platz"},"geometry":{"type":"Point","coordinates":[11.41743,53.62803]}}]}