{"type":"FeatureCollection","features":[{"type":"Feature","properties":{"zone":"A/D","district":"Schelfstadt","rawHours":"Mo - Sa 8-20 h (3×)","rawFee":"2.50 Euro je Std. (3×)","note":null,"windows":[{"weekdays":[1,2,3,4,5,6],"fromMinute":480,"toMinute":1200}],"fee":{"kind":"exact","centsPerHour":250},"unmodelledRules":[],"sourceDefect":null,"spaces":null,"maxStayMinutes":null,"maxStay":"2h","maxStayShare":1,"maxStayValues":["2h"],"chargingPoints":0,"carsharing":0},"geometry":{"type":"Polygon","coordinates":[[[11.4133,53.63066],[11.41326,53.6309],[11.41307,53.63101],[11.41134,53.63099],[11.41107,53.63198],[11.4109,53.6337],[11.41048,53.63373],[11.41056,53.63191],[11.41081,53.63069],[11.41,53.6306],[11.41006,53.63036],[11.41207,53.63061],[11.4133,53.63066]]]}},{"type":"Feature","properties":{"zone":"A/F","district":"Altstadt","rawHours":"Mo - Sa 8-20 h (4×)","rawFee":"2.50 Euro je Std. (4×)","note":null,"windows":[{"weekdays":[1,2,3,4,5,6],"fromMinute":480,"toMinute":1200}],"fee":{"kind":"exact","centsPerHour":250},"unmodelledRules":[],"sourceDefect":null,"spaces":null,"maxStayMinutes":null,"maxStay":"2h","maxStayShare":1,"maxStayValues":["2h","4h"],"chargingPoints":0,"carsharing":0},"geometry":{"type":"Polygon","coordinates":[[[11.41229,53.62789],[11.41195,53.62688],[11.41219,53.62682],[11.41361,53.62601],[11.41288,53.62507],[11.41122,53.62523],[11.41185,53.62673],[11.41019,53.62704],[11.41077,53.62797],[11.41229,53.62789]]]}},{"type":"Feature","properties":{"zone":"O","district":"Werdervorstadt","rawHours":"Mo - Sa 8-20 h (3×)","rawFee":"1.50 Euro je Std. (3×)","note":null,"windows":[{"weekdays":[1,2,3,4,5,6],"fromMinute":480,"toMinute":1200}],"fee":{"kind":"exact","centsPerHour":150},"unmodelledRules":[],"sourceDefect":null,"spaces":null,"maxStayMinutes":null,"maxStay":null,"maxStayShare":0,"maxStayValues":[],"chargingPoints":0,"carsharing":0},"geometry":{"type":"Polygon","coordinates":[[[11.42287,53.63475],[11.42365,53.6374],[11.42606,53.63689],[11.42622,53.63724],[11.42685,53.63748],[11.42721,53.6385],[11.42764,53.63844],[11.42725,53.63743],[11.43017,53.63679],[11.43097,53.63749],[11.43131,53.6373],[11.43053,53.63661],[11.43016,53.63595],[11.42964,53.63515],[11.42899,53.63473],[11.4273,53.63391],[11.4284,53.63302],[11.42805,53.63281],[11.42779,53.63294],[11.42787,53.63309],[11.42719,53.63358],[11.42706,53.63315],[11.42665,53.63318],[11.42685,53.63383],[11.42454,53.63384],[11.42394,53.63363],[11.42345,53.63208],[11.42366,53.63205],[11.42364,53.63189],[11.42341,53.63192],[11.4234,53.63187],[11.42307,53.63191],[11.42304,53.63184],[11.42194,53.63192],[11.42287,53.63475]]]}},{"type":"Feature","properties":{"zone":"G","district":"Paulsstadt","rawHours":"Mo - Sa 8-20 h (12×)","rawFee":"2.50 Euro je Std. (12×)","note":null,"windows":[{"weekdays":[1,2,3,4,5,6],"fromMinute":480,"toMinute":1200}],"fee":{"kind":"exact","centsPerHour":250},"unmodelledRules":[],"sourceDefect":null,"spaces":null,"maxStayMinutes":null,"maxStay":null,"maxStayShare":0,"maxStayValues":[],"chargingPoints":0,"carsharing":0},"geometry":{"type":"Polygon","coordinates":[[[11.39795,53.62899],[11.39797,53.62769],[11.39816,53.62687],[11.39828,53.62648],[11.39852,53.62606],[11.39871,53.62565],[11.39891,53.62547],[11.39917,53.6253],[11.39968,53.62506],[11.40016,53.62485],[11.40058,53.62457],[11.40085,53.62429],[11.40101,53.62399],[11.40106,53.62336],[11.40235,53.62338],[11.40352,53.62433],[11.40473,53.62594],[11.40525,53.6269],[11.40603,53.62881],[11.40202,53.62892],[11.39998,53.62897],[11.39795,53.62899]]]}},{"type":"Feature","properties":{"zone":"A","district":"Altstadt","rawHours":"Mo - Sa 8-20 h (10×); Mo - So 8-21 h (4×); Mo - So 8-18 h","rawFee":"2.50 Euro je Std. (15×)","note":null,"windows":[{"weekdays":[1,2,3,4,5,6],"fromMinute":480,"toMinute":1200},{"weekdays":[0,1,2,3,4,5,6],"fromMinute":480,"toMinute":1260},{"weekdays":[0,1,2,3,4,5,6],"fromMinute":480,"toMinute":1080}],"fee":{"kind":"exact","centsPerHour":250},"unmodelledRules":[],"sourceDefect":null,"spaces":null,"maxStayMinutes":null,"maxStay":"4h","maxStayShare":0.4,"maxStayValues":["4h","2h"],"chargingPoints":0,"carsharing":0},"geometry":{"type":"Polygon","coordinates":[[[11.41213,53.63061],[11.4133,53.63066],[11.41326,53.6309],[11.41401,53.63082],[11.41446,53.63065],[11.41606,53.62994],[11.41628,53.62988],[11.41743,53.62945],[11.41954,53.62999],[11.41973,53.62976],[11.42098,53.62922],[11.42041,53.62669],[11.41713,53.62559],[11.41606,53.62628],[11.41555,53.62603],[11.41536,53.62601],[11.41485,53.62623],[11.41455,53.62626],[11.41401,53.62618],[11.41361,53.62601],[11.41219,53.62682],[11.41195,53.62688],[11.41229,53.62789],[11.41241,53.62842],[11.41241,53.62906],[11.41237,53.62947],[11.41213,53.63061]]]}},{"type":"Feature","properties":{"zone":"J","district":"Paulsstadt","rawHours":"Mo - Sa 8-20 h (6×); Mo - Fr 8-18 h","rawFee":"2.50 Euro je Std. (7×)","note":null,"windows":[{"weekdays":[1,2,3,4,5,6],"fromMinute":480,"toMinute":1200},{"weekdays":[1,2,3,4,5],"fromMinute":480,"toMinute":1080}],"fee":{"kind":"exact","centsPerHour":250},"unmodelledRules":[],"sourceDefect":null,"spaces":null,"maxStayMinutes":null,"maxStay":"2h","maxStayShare":0.143,"maxStayValues":["2h"],"chargingPoints":0,"carsharing":0},"geometry":{"type":"Polygon","coordinates":[[[11.40318,53.63828],[11.4029,53.63801],[11.40252,53.63727],[11.40195,53.63651],[11.4015,53.63612],[11.40137,53.63596],[11.40031,53.63534],[11.40282,53.63375],[11.40522,53.63239],[11.40578,53.63196],[11.40687,53.63086],[11.40702,53.63116],[11.4072,53.63176],[11.40739,53.6325],[11.40746,53.63389],[11.40748,53.63617],[11.40741,53.63768],[11.40733,53.63886],[11.40666,53.63889],[11.40479,53.63867],[11.40376,53.63849],[11.40318,53.63828]]]}},{"type":"Feature","properties":{"zone":"H","district":"Paulsstadt","rawHours":"Mo - Sa 8-20 h (22×); Mo - Fr 8-18 h (3×)","rawFee":"2.50 Euro je Std. (25×)","note":null,"windows":[{"weekdays":[1,2,3,4,5],"fromMinute":480,"toMinute":1080},{"weekdays":[1,2,3,4,5,6],"fromMinute":480,"toMinute":1200}],"fee":{"kind":"exact","centsPerHour":250},"unmodelledRules":[],"sourceDefect":null,"spaces":null,"maxStayMinutes":null,"maxStay":"4h","maxStayShare":0.24,"maxStayValues":["4h","2h"],"chargingPoints":0,"carsharing":0},"geometry":{"type":"Polygon","coordinates":[[[11.39793,53.62898],[11.40003,53.62896],[11.40206,53.62892],[11.40603,53.62881],[11.4066,53.63037],[11.40687,53.63088],[11.40572,53.632],[11.40522,53.63241],[11.4031,53.63358],[11.40034,53.63533],[11.39994,53.63507],[11.39962,53.63475],[11.39897,53.63401],[11.39874,53.63363],[11.39824,53.63294],[11.39813,53.63198],[11.39804,53.6308],[11.39793,53.62898]]]}},{"type":"Feature","properties":{"zone":"D","district":"Paulsstadt","rawHours":"Mo - Sa 8-20 h (10×); Mo - Fr 8-18 h (3×); Mo - So 0-24 h (2×)","rawFee":"2.50 Euro je Std. (15×)","note":null,"windows":[{"weekdays":[1,2,3,4,5,6],"fromMinute":480,"toMinute":1200},{"weekdays":[1,2,3,4,5],"fromMinute":480,"toMinute":1080},{"weekdays":[0,1,2,3,4,5,6],"fromMinute":0,"toMinute":1440}],"fee":{"kind":"exact","centsPerHour":250},"unmodelledRules":[],"sourceDefect":null,"spaces":null,"maxStayMinutes":null,"maxStay":"2h","maxStayShare":0.933,"maxStayValues":["2h"],"chargingPoints":0,"carsharing":0},"geometry":{"type":"Polygon","coordinates":[[[11.4075,53.63629],[11.40752,53.63583],[11.40751,53.63509],[11.40737,53.63251],[11.40703,53.63116],[11.40665,53.63043],[11.40603,53.62881],[11.40802,53.62868],[11.40905,53.62884],[11.40945,53.62885],[11.41044,53.62881],[11.41067,53.62857],[11.41077,53.62797],[11.41229,53.62789],[11.41241,53.62845],[11.41243,53.62891],[11.41234,53.62966],[11.41213,53.63061],[11.4133,53.63066],[11.41326,53.6309],[11.4117,53.63089],[11.41136,53.63095],[11.41108,53.63188],[11.41094,53.63381],[11.411,53.63762],[11.40926,53.63786],[11.40863,53.63793],[11.40841,53.63802],[11.40785,53.63858],[11.40754,53.63876],[11.40729,53.63888],[11.40747,53.637],[11.4075,53.63629]]]}},{"type":"Feature","properties":{"zone":"C","district":"Schelfstadt","rawHours":"Mo - Sa 8-20 h (19×)","rawFee":"2.50 Euro je Std. (19×)","note":null,"windows":[{"weekdays":[1,2,3,4,5,6],"fromMinute":480,"toMinute":1200}],"fee":{"kind":"exact","centsPerHour":250},"unmodelledRules":[],"sourceDefect":null,"spaces":null,"maxStayMinutes":null,"maxStay":null,"maxStayShare":0,"maxStayValues":[],"chargingPoints":0,"carsharing":0},"geometry":{"type":"Polygon","coordinates":[[[11.42362,53.63735],[11.42285,53.63476],[11.42199,53.63207],[11.42175,53.63209],[11.4212,53.63049],[11.42098,53.62922],[11.41973,53.62976],[11.41954,53.62999],[11.41743,53.62945],[11.41612,53.62992],[11.41446,53.63065],[11.41401,53.63082],[11.41326,53.6309],[11.414,53.63158],[11.41417,53.6333],[11.41401,53.63599],[11.41262,53.63674],[11.41321,53.63717],[11.41446,53.63689],[11.41502,53.63675],[11.41555,53.63658],[11.41615,53.63646],[11.41702,53.63642],[11.41887,53.6367],[11.4209,53.6371],[11.42243,53.63736],[11.42297,53.63741],[11.42362,53.63735]]]}},{"type":"Feature","properties":{"zone":"F","district":"Feldstadt","rawHours":"Mo - Sa 8-20 h (39×); Mo - So 8-18 h","rawFee":"2.50 Euro je Std. (40×)","note":null,"windows":[{"weekdays":[1,2,3,4,5,6],"fromMinute":480,"toMinute":1200},{"weekdays":[0,1,2,3,4,5,6],"fromMinute":480,"toMinute":1080}],"fee":{"kind":"exact","centsPerHour":250},"unmodelledRules":[],"sourceDefect":null,"spaces":null,"maxStayMinutes":null,"maxStay":"2h","maxStayShare":0.275,"maxStayValues":["2h","4h"],"chargingPoints":0,"carsharing":0},"geometry":{"type":"Polygon","coordinates":[[[11.40387,53.62479],[11.4033,53.62416],[11.40241,53.62338],[11.40168,53.62277],[11.39995,53.62159],[11.39814,53.62042],[11.40003,53.61975],[11.40275,53.61888],[11.40347,53.61867],[11.40426,53.61861],[11.40485,53.61863],[11.40532,53.61869],[11.40581,53.61886],[11.40703,53.61932],[11.40762,53.61958],[11.40813,53.61988],[11.40855,53.62017],[11.41042,53.62116],[11.41081,53.62255],[11.41225,53.624],[11.4129,53.62522],[11.41361,53.62601],[11.41219,53.62682],[11.41195,53.62688],[11.41229,53.62789],[11.41077,53.62797],[11.41067,53.62857],[11.41044,53.62881],[11.40945,53.62885],[11.40905,53.62884],[11.40802,53.62868],[11.40603,53.62881],[11.40523,53.62682],[11.40387,53.62479]]]}}]}