{"type":"FeatureCollection","features":[{"type":"Feature","properties":{"kind":"accessible","label":"Lehen, Nelkenstraße 22","detail":"1 Platz"},"geometry":{"type":"Point","coordinates":[13.02954,47.81422]}},{"type":"Feature","properties":{"kind":"accessible","label":"Liefering, Tetlhamgasse 20","detail":"1 Platz"},"geometry":{"type":"Point","coordinates":[13.0243,47.82017]}},{"type":"Feature","properties":{"kind":"accessible","label":"Itzling, Elisabethstraße 61","detail":"2 Plätze"},"geometry":{"type":"Point","coordinates":[13.04437,47.81817]}},{"type":"Feature","properties":{"kind":"accessible","label":"Salzburg Süd, Erentrudisstraße 17","detail":"1 Platz"},"geometry":{"type":"Point","coordinates":[13.06576,47.78358]}},{"type":"Feature","properties":{"kind":"accessible","label":"Neustadt, Ernest-Thun-Straße 4","detail":"3 Plätze"},"geometry":{"type":"Point","coordinates":[13.03872,47.80804]}},{"type":"Feature","properties":{"kind":"accessible","label":"Riedenburg, Ernst-Sompek-Straße 4","detail":"1 Platz"},"geometry":{"type":"Point","coordinates":[13.03738,47.79701]}},{"type":"Feature","properties":{"kind":"accessible","label":"Nonntal, Erzabt-Klotz-Straße 25 in 11m","detail":"1 Platz"},"geometry":{"type":"Point","coordinates":[13.05076,47.79192]}},{"type":"Feature","properties":{"kind":"accessible","label":"Elisabeth Vorstadt, Erzherzog-Eugen-Straße 14","detail":"1 Platz"},"geometry":{"type":"Point","coordinates":[13.03826,47.8184]}},{"type":"Feature","properties":{"kind":"accessible","label":"Itzling, Austraßensiedlung 2","detail":"1 Platz"},"geometry":{"type":"Point","coordinates":[13.03529,47.8235]}},{"type":"Feature","properties":{"kind":"accessible","label":"Hellbrunn, Fürstenweg","detail":"3 Plätze"},"geometry":{"type":"Point","coordinates":[13.06135,47.76282]}},{"type":"Feature","properties":{"kind":"accessible","label":"Neustadt, Gabelsbergerstraße 28","detail":"2 Plätze"},"geometry":{"type":"Point","coordinates":[13.05002,47.80833]}},{"type":"Feature","properties":{"kind":"accessible","label":"Gaisberg, Gaisberg 32 in 85m","detail":"3 Plätze"},"geometry":{"type":"Point","coordinates":[13.1113,47.80314]}},{"type":"Feature","properties":{"kind":"accessible","label":"Gaisberg, Gaisberg 29","detail":"2 Plätze"},"geometry":{"type":"Point","coordinates":[13.11398,47.79598]}},{"type":"Feature","properties":{"kind":"accessible","label":"Itzling, Salzburger Schützenstraße 15","detail":"2 Plätze"},"geometry":{"type":"Point","coordinates":[13.04678,47.81874]}},{"type":"Feature","properties":{"kind":"accessible","label":"Schallmoos, Samergasse 10A","detail":"1 Platz"},"geometry":{"type":"Point","coordinates":[13.05508,47.81548]}},{"type":"Feature","properties":{"kind":"accessible","label":"Schallmoos, Schallmooser Hauptstraße 48","detail":"1 Platz"},"geometry":{"type":"Point","coordinates":[13.05958,47.80712]}},{"type":"Feature","properties":{"kind":"accessible","label":"Lehen, General-Arnold-Straße 7","detail":"2 Plätze"},"geometry":{"type":"Point","coordinates":[13.02414,47.81289]}},{"type":"Feature","properties":{"kind":"accessible","label":"Lehen, General-Arnold-Straße 9","detail":"1 Platz"},"geometry":{"type":"Point","coordinates":[13.02449,47.81316]}},{"type":"Feature","properties":{"kind":"accessible","label":"Liefering, General-Keyes-Straße 14","detail":"1 Platz"},"geometry":{"type":"Point","coordinates":[13.02244,47.81503]}},{"type":"Feature","properties":{"kind":"accessible","label":"Liefering, General-Keyes-Straße 19","detail":"1 Platz"},"geometry":{"type":"Point","coordinates":[13.02354,47.81652]}},{"type":"Feature","properties":{"kind":"accessible","label":"Neustadt, Schallmooser Hauptstraße 1","detail":"3 Plätze"},"geometry":{"type":"Point","coordinates":[13.04993,47.8049]}},{"type":"Feature","properties":{"kind":"accessible","label":"Lehen, Scherzhauserfeldstraße 36","detail":"2 Plätze"},"geometry":{"type":"Point","coordinates":[13.02751,47.81438]}},{"type":"Feature","properties":{"kind":"accessible","label":"Gnigl, Schillinghofstraße 29","detail":"1 Platz"},"geometry":{"type":"Point","coordinates":[13.06645,47.81735]}},{"type":"Feature","properties":{"kind":"accessible","label":"Lehen, Schießstattstraße 42","detail":"2 Plätze"},"geometry":{"type":"Point","coordinates":[13.03269,47.81586]}},{"type":"Feature","properties":{"kind":"accessible","label":"Lehen, Schießstattstraße 13","detail":"2 Plätze"},"geometry":{"type":"Point","coordinates":[13.03411,47.81214]}},{"type":"Feature","properties":{"kind":"accessible","label":"Maxglan, Glockengießerstraße 16","detail":"1 Platz"},"geometry":{"type":"Point","coordinates":[13.01302,47.80158]}},{"type":"Feature","properties":{"kind":"accessible","label":"Taxham, Graf-Zeppelin-Platz 6","detail":"1 Platz"},"geometry":{"type":"Point","coordinates":[13.00077,47.80918]}},{"type":"Feature","properties":{"kind":"accessible","label":"Altstadt, Gstättengasse 23","detail":"1 Platz"},"geometry":{"type":"Point","coordinates":[13.03899,47.80134]}},{"type":"Feature","properties":{"kind":"accessible","label":"Salzachseen, Schmiedingerstraße 180","detail":"2 Plätze"},"geometry":{"type":"Point","coordinates":[13.01344,47.83942]}},{"type":"Feature","properties":{"kind":"accessible","label":"Schmiedingerstraße 185","detail":"1 Platz"},"geometry":{"type":"Point","coordinates":[13.01408,47.83836]}},{"type":"Feature","properties":{"kind":"accessible","label":"Lehen, Schumacherstraße 2","detail":"1 Platz"},"geometry":{"type":"Point","coordinates":[13.02657,47.81174]}},{"type":"Feature","properties":{"kind":"accessible","label":"Lehen, Schumacherstraße 10","detail":"2 Plätze"},"geometry":{"type":"Point","coordinates":[13.02677,47.81265]}},{"type":"Feature","properties":{"kind":"accessible","label":"Altstadt, Schwarzstraße 32","detail":"2 Plätze"},"geometry":{"type":"Point","coordinates":[13.0407,47.8041]}},{"type":"Feature","properties":{"kind":"accessible","label":"Aigen, Guggenbichlerstraße 6","detail":"1 Platz"},"geometry":{"type":"Point","coordinates":[13.07483,47.78956]}},{"type":"Feature","properties":{"kind":"accessible","label":"Taxham, Guritzerstraße 27","detail":"2 Plätze"},"geometry":{"type":"Point","coordinates":[13.00172,47.81234]}},{"type":"Feature","properties":{"kind":"accessible","label":"Nonntal, Hans-Pfitzner-Straße 1","detail":"1 Platz"},"geometry":{"type":"Point","coordinates":[13.04949,47.78615]}},{"type":"Feature","properties":{"kind":"accessible","label":"Elisabeth Vorstadt, Hans-Prodinger-Straße 9","detail":"1 Platz"},"geometry":{"type":"Point","coordinates":[13.03941,47.80908]}},{"type":"Feature","properties":{"kind":"accessible","label":"Maxglan, Siezenheimer Straße 9","detail":"1 Platz"},"geometry":{"type":"Point","coordinates":[13.01496,47.80419]}},{"type":"Feature","properties":{"kind":"accessible","label":"Maxglan, Siezenheimer Straße 8","detail":"1 Platz"},"geometry":{"type":"Point","coordinates":[13.01662,47.80392]}},{"type":"Feature","properties":{"kind":"accessible","label":"Elisabeth Vorstadt, Sylvester-Oberberger-Str. 7B","detail":"1 Platz"},"geometry":{"type":"Point","coordinates":[13.0392,47.81566]}},{"type":"Feature","properties":{"kind":"accessible","label":"Neustadt, Haydnstraße 26","detail":"1 Platz"},"geometry":{"type":"Point","coordinates":[13.04547,47.80902]}},{"type":"Feature","properties":{"kind":"accessible","label":"Nonntal, Hellbrunner Straße 34 in 63m","detail":"2 Plätze"},"geometry":{"type":"Point","coordinates":[13.06049,47.78871]}},{"type":"Feature","properties":{"kind":"accessible","label":"Nonntal, Hellbrunner Straße 26","detail":"1 Platz"},"geometry":{"type":"Point","coordinates":[13.05951,47.79157]}},{"type":"Feature","properties":{"kind":"accessible","label":"Riedenburg, Sinnhubstraße 4","detail":"1 Platz"},"geometry":{"type":"Point","coordinates":[13.03066,47.79481]}},{"type":"Feature","properties":{"kind":"accessible","label":"Salzburg Süd, Solaristraße 17","detail":"1 Platz"},"geometry":{"type":"Point","coordinates":[13.06265,47.79092]}},{"type":"Feature","properties":{"kind":"accessible","label":"Elisabeth Vorstadt, Stauffenstraße 12","detail":"2 Plätze"},"geometry":{"type":"Point","coordinates":[13.04023,47.81296]}},{"type":"Feature","properties":{"kind":"accessible","label":"Schallmoos, Sterneckstraße 51","detail":"1 Platz"},"geometry":{"type":"Point","coordinates":[13.06259,47.80989]}},{"type":"Feature","properties":{"kind":"accessible","label":"Elisabeth Vorstadt, Südtiroler Platz 8","detail":"2 Plätze"},"geometry":{"type":"Point","coordinates":[13.04348,47.81381]}},{"type":"Feature","properties":{"kind":"accessible","label":"Parsch, Hermann-Bahr-Promenade 2 in 11m","detail":"3 Plätze"},"geometry":{"type":"Point","coordinates":[13.06106,47.79845]}},{"type":"Feature","properties":{"kind":"accessible","label":"Parsch, Hermann-Bahr-Promenade 2 in 26m","detail":"3 Plätze"},"geometry":{"type":"Point","coordinates":[13.06058,47.7985]}},{"type":"Feature","properties":{"kind":"accessible","label":"Taxham, Hermann-Köhl-Straße 1","detail":"5 Plätze"},"geometry":{"type":"Point","coordinates":[12.99995,47.80936]}},{"type":"Feature","properties":{"kind":"accessible","label":"Neustadt, Hubert-Sattler-Gasse 7 in 17m","detail":"1 Platz"},"geometry":{"type":"Point","coordinates":[13.04402,47.80652]}},{"type":"Feature","properties":{"kind":"accessible","label":"Itzling, Jakob-Haringer-Straße 5","detail":"4 Plätze"},"geometry":{"type":"Point","coordinates":[13.04108,47.82257]}},{"type":"Feature","properties":{"kind":"accessible","label":"Maxglan, Tegetthoffstraße 8","detail":"1 Platz"},"geometry":{"type":"Point","coordinates":[13.02549,47.80284]}},{"type":"Feature","properties":{"kind":"accessible","label":"Salzburg Süd, Ulrich-Schreier-Straße 16","detail":"1 Platz"},"geometry":{"type":"Point","coordinates":[13.06291,47.78791]}},{"type":"Feature","properties":{"kind":"accessible","label":"Lehen, Joachim-Haspinger-Straße 6","detail":"2 Plätze"},"geometry":{"type":"Point","coordinates":[13.03352,47.81065]}},{"type":"Feature","properties":{"kind":"accessible","label":"Parsch, Joseph-Messner-Straße 34","detail":"1 Platz"},"geometry":{"type":"Point","coordinates":[13.07435,47.79882]}},{"type":"Feature","properties":{"kind":"accessible","label":"Taxham, Josef-Ressel-Straße 7","detail":"1 Platz"},"geometry":{"type":"Point","coordinates":[13.00363,47.81385]}},{"type":"Feature","properties":{"kind":"accessible","label":"Maxglan, Julius-Welser-Straße 15","detail":"1 Platz"},"geometry":{"type":"Point","coordinates":[13.01348,47.80715]}},{"type":"Feature","properties":{"kind":"accessible","label":"Altstadt, Kaigasse 6","detail":"1 Platz · Euroschlüssel"},"geometry":{"type":"Point","coordinates":[13.04863,47.79788]}},{"type":"Feature","properties":{"kind":"accessible","label":"Altstadt, Ursulinenplatz 5","detail":"2 Plätze"},"geometry":{"type":"Point","coordinates":[13.0381,47.8026]}},{"type":"Feature","properties":{"kind":"accessible","label":"Elisabeth Vorstadt, Vinzenz-M.-Süß-Straße 8","detail":"1 Platz"},"geometry":{"type":"Point","coordinates":[13.03983,47.81612]}},{"type":"Feature","properties":{"kind":"accessible","label":"Maxglan, Maxglaner Hauptstraße 13 in 12m","detail":"1 Platz"},"geometry":{"type":"Point","coordinates":[13.02476,47.7965]}},{"type":"Feature","properties":{"kind":"accessible","label":"Neustadt, Weiserstraße 6","detail":"2 Plätze"},"geometry":{"type":"Point","coordinates":[13.04516,47.80879]}},{"type":"Feature","properties":{"kind":"accessible","label":"Maxglan, Willibald-Hauthaler-Str. 19","detail":"1 Platz"},"geometry":{"type":"Point","coordinates":[13.02796,47.80237]}},{"type":"Feature","properties":{"kind":"accessible","label":"Altstadt, Kaigasse 41 in 15m","detail":"2 Plätze · Euroschlüssel"},"geometry":{"type":"Point","coordinates":[13.05014,47.79676]}},{"type":"Feature","properties":{"kind":"accessible","label":"Maxglan, Körblleitengasse 79","detail":"1 Platz"},"geometry":{"type":"Point","coordinates":[13.01649,47.80933]}},{"type":"Feature","properties":{"kind":"accessible","label":"Salzburg Süd, Leitmeritzstraße 10","detail":"1 Platz"},"geometry":{"type":"Point","coordinates":[13.06596,47.78426]}},{"type":"Feature","properties":{"kind":"accessible","label":"Itzling, Werkstättenstraße 13","detail":"1 Platz"},"geometry":{"type":"Point","coordinates":[13.04658,47.82005]}},{"type":"Feature","properties":{"kind":"accessible","label":"Neustadt, Wolf-Dietrich-Straße 4","detail":"1 Platz"},"geometry":{"type":"Point","coordinates":[13.04838,47.80464]}},{"type":"Feature","properties":{"kind":"accessible","label":"Altstadt, Wolf-Dietrich-Straße 17","detail":"1 Platz"},"geometry":{"type":"Point","coordinates":[13.04767,47.80528]}},{"type":"Feature","properties":{"kind":"accessible","label":"Maxglan, Zaunergasse 17 in 12m","detail":"1 Platz"},"geometry":{"type":"Point","coordinates":[13.02157,47.80793]}},{"type":"Feature","properties":{"kind":"accessible","label":"Itzling, Zweigstraße 3","detail":"1 Platz"},"geometry":{"type":"Point","coordinates":[13.0516,47.8247]}},{"type":"Feature","properties":{"kind":"accessible","label":"Lehen, Liliengasse 4","detail":"1 Platz"},"geometry":{"type":"Point","coordinates":[13.03003,47.81376]}},{"type":"Feature","properties":{"kind":"accessible","label":"Parsch, Maria-Cebotari-Straße 21 in 18m","detail":"1 Platz"},"geometry":{"type":"Point","coordinates":[13.07958,47.79954]}},{"type":"Feature","properties":{"kind":"accessible","label":"Neustadt, Markus-Sittikus-Straße 6 in 11m","detail":"1 Platz"},"geometry":{"type":"Point","coordinates":[13.03977,47.80739]}},{"type":"Feature","properties":{"kind":"accessible","label":"Salzburg Süd, Marx-Reichlich-Straße 15","detail":"1 Platz"},"geometry":{"type":"Point","coordinates":[13.06457,47.78639]}},{"type":"Feature","properties":{"kind":"accessible","label":"Parsch, Mauracherstraße 5 in 29m","detail":"1 Platz"},"geometry":{"type":"Point","coordinates":[13.06725,47.80499]}},{"type":"Feature","properties":{"kind":"accessible","label":"Schallmoos, Meierhofweg 14","detail":"1 Platz"},"geometry":{"type":"Point","coordinates":[13.0563,47.82189]}},{"type":"Feature","properties":{"kind":"accessible","label":"Schallmoos, Merianstraße 8","detail":"1 Platz"},"geometry":{"type":"Point","coordinates":[13.05294,47.81151]}},{"type":"Feature","properties":{"kind":"accessible","label":"Salzburg Süd, Michael-Pacher-Straße 25","detail":"1 Platz"},"geometry":{"type":"Point","coordinates":[13.0628,47.78847]}},{"type":"Feature","properties":{"kind":"accessible","label":"Salzburg Süd, Adolf-Schemel-Straße 24","detail":"2 Plätze"},"geometry":{"type":"Point","coordinates":[13.07147,47.77289]}},{"type":"Feature","properties":{"kind":"accessible","label":"Gnigl, Aglassingerstraße 24","detail":"1 Platz"},"geometry":{"type":"Point","coordinates":[13.06649,47.81539]}},{"type":"Feature","properties":{"kind":"accessible","label":"Maxglan, Aiglhofstraße 25","detail":"1 Platz"},"geometry":{"type":"Point","coordinates":[13.02816,47.80381]}},{"type":"Feature","properties":{"kind":"accessible","label":"Maxglan, Aiglhofstraße 5","detail":"2 Plätze"},"geometry":{"type":"Point","coordinates":[13.02938,47.80155]}},{"type":"Feature","properties":{"kind":"accessible","label":"Gneis, Aloisia-Lange-Straße 3","detail":"1 Platz"},"geometry":{"type":"Point","coordinates":[13.03943,47.78158]}},{"type":"Feature","properties":{"kind":"accessible","label":"Salzburg Süd, Michael-Pacher-Straße 30","detail":"1 Platz"},"geometry":{"type":"Point","coordinates":[13.06491,47.78881]}},{"type":"Feature","properties":{"kind":"accessible","label":"Gnigl, Minnesheimstraße 10B","detail":"1 Platz"},"geometry":{"type":"Point","coordinates":[13.06945,47.8125]}},{"type":"Feature","properties":{"kind":"accessible","label":"Altstadt, Mirabellplatz 1","detail":"2 Plätze"},"geometry":{"type":"Point","coordinates":[13.04368,47.80426]}},{"type":"Feature","properties":{"kind":"accessible","label":"Riedenburg, Moosstraße 8","detail":"1 Platz"},"geometry":{"type":"Point","coordinates":[13.03025,47.79662]}},{"type":"Feature","properties":{"kind":"accessible","label":"Maxglan, Moserstraße 25A in 11m","detail":"1 Platz"},"geometry":{"type":"Point","coordinates":[13.01202,47.80179]}},{"type":"Feature","properties":{"kind":"accessible","label":"Elisabeth Vorstadt, Alois-Schmiedbauer-Straße 2","detail":"1 Platz"},"geometry":{"type":"Point","coordinates":[13.03857,47.80999]}},{"type":"Feature","properties":{"kind":"accessible","label":"Lehen, Alois-Stockinger-Straße 9","detail":"2 Plätze"},"geometry":{"type":"Point","coordinates":[13.03134,47.81252]}},{"type":"Feature","properties":{"kind":"accessible","label":"Lehen, Althofenstraße 1","detail":"1 Platz"},"geometry":{"type":"Point","coordinates":[13.03298,47.81387]}},{"type":"Feature","properties":{"kind":"accessible","label":"Salzburg Süd, Anton-Steinhart-Straße 4","detail":"1 Platz"},"geometry":{"type":"Point","coordinates":[13.06603,47.7901]}},{"type":"Feature","properties":{"kind":"accessible","label":"Lehen, Esshaverstraße 8","detail":"1 Platz"},"geometry":{"type":"Point","coordinates":[13.02677,47.81101]}},{"type":"Feature","properties":{"kind":"accessible","label":"Taxham, Etrichstraße 17","detail":"3 Plätze"},"geometry":{"type":"Point","coordinates":[13.00089,47.81047]}},{"type":"Feature","properties":{"kind":"accessible","label":"Taxham, Etrichstraße 22","detail":"2 Plätze"},"geometry":{"type":"Point","coordinates":[13.00242,47.81106]}},{"type":"Feature","properties":{"kind":"accessible","label":"Taxham, Etrichstraße 32","detail":"1 Platz"},"geometry":{"type":"Point","coordinates":[13.00331,47.81181]}},{"type":"Feature","properties":{"kind":"accessible","label":"Altstadt, Mozartplatz 10","detail":"6 Plätze · Euroschlüssel"},"geometry":{"type":"Point","coordinates":[13.04853,47.79882]}},{"type":"Feature","properties":{"kind":"accessible","label":"Altstadt, Münzgasse 1","detail":"1 Platz"},"geometry":{"type":"Point","coordinates":[13.03977,47.80062]}},{"type":"Feature","properties":{"kind":"accessible","label":"Nonntal, Nonntaler Hauptstraße 35","detail":"1 Platz"},"geometry":{"type":"Point","coordinates":[13.04918,47.79272]}},{"type":"Feature","properties":{"kind":"accessible","label":"Neustadt, Paris-Lodron-Straße 24","detail":"1 Platz"},"geometry":{"type":"Point","coordinates":[13.049,47.80604]}},{"type":"Feature","properties":{"kind":"accessible","label":"Neustadt, Paris-Lodron-Straße 21","detail":"1 Platz"},"geometry":{"type":"Point","coordinates":[13.04967,47.80644]}},{"type":"Feature","properties":{"kind":"accessible","label":"Altstadt, Arenbergstraße 10","detail":"1 Platz"},"geometry":{"type":"Point","coordinates":[13.05848,47.80009]}},{"type":"Feature","properties":{"kind":"accessible","label":"Neustadt, Auerspergstraße 7","detail":"2 Plätze"},"geometry":{"type":"Point","coordinates":[13.03963,47.80692]}},{"type":"Feature","properties":{"kind":"accessible","label":"Neustadt, Auerspergstraße 67","detail":"2 Plätze"},"geometry":{"type":"Point","coordinates":[13.05048,47.80601]}},{"type":"Feature","properties":{"kind":"accessible","label":"Neustadt, Auerspergstraße 24","detail":"2 Plätze"},"geometry":{"type":"Point","coordinates":[13.04533,47.80794]}},{"type":"Feature","properties":{"kind":"accessible","label":"Altstadt, Bergstraße 23","detail":"1 Platz"},"geometry":{"type":"Point","coordinates":[13.04461,47.80363]}},{"type":"Feature","properties":{"kind":"accessible","label":"Liefering, Eugen-Müller-Straße 85 in 23m","detail":"1 Platz"},"geometry":{"type":"Point","coordinates":[13.001,47.83405]}},{"type":"Feature","properties":{"kind":"accessible","label":"Neustadt, Faberstraße 2C","detail":"2 Plätze"},"geometry":{"type":"Point","coordinates":[13.04509,47.8053]}},{"type":"Feature","properties":{"kind":"accessible","label":"Neustadt, Faberstraße 26","detail":"1 Platz"},"geometry":{"type":"Point","coordinates":[13.0431,47.80872]}},{"type":"Feature","properties":{"kind":"accessible","label":"Neustadt, Paris-Lodron-Straße 8A in 13m","detail":"2 Plätze"},"geometry":{"type":"Point","coordinates":[13.04641,47.80526]}},{"type":"Feature","properties":{"kind":"accessible","label":"Nonntal, Peter-Singer-Gasse 1","detail":"2 Plätze"},"geometry":{"type":"Point","coordinates":[13.05026,47.78893]}},{"type":"Feature","properties":{"kind":"accessible","label":"Altstadt, Kajetanerplatz 1A in 18m","detail":"5 Plätze · Euroschlüssel"},"geometry":{"type":"Point","coordinates":[13.05111,47.79693]}},{"type":"Feature","properties":{"kind":"accessible","label":"Itzling, Pflanzmannstraße 11","detail":"1 Platz"},"geometry":{"type":"Point","coordinates":[13.05059,47.82394]}},{"type":"Feature","properties":{"kind":"accessible","label":"Elisabeth Vorstadt, Plainstraße 15","detail":"1 Platz"},"geometry":{"type":"Point","coordinates":[13.04027,47.81028]}},{"type":"Feature","properties":{"kind":"accessible","label":"Schallmoos, Bergerbräuhofstraße 21","detail":"1 Platz"},"geometry":{"type":"Point","coordinates":[13.05624,47.81695]}},{"type":"Feature","properties":{"kind":"accessible","label":"Liefering, Bessarabierstraße 61","detail":"2 Plätze"},"geometry":{"type":"Point","coordinates":[13.02538,47.82175]}},{"type":"Feature","properties":{"kind":"accessible","label":"Salzburg Süd, Billrothstraße 4","detail":"3 Plätze"},"geometry":{"type":"Point","coordinates":[13.07352,47.78014]}},{"type":"Feature","properties":{"kind":"accessible","label":"Itzling, Bognerstraße 10","detail":"2 Plätze"},"geometry":{"type":"Point","coordinates":[13.04719,47.82619]}},{"type":"Feature","properties":{"kind":"accessible","label":"Neustadt, Faberstraße 15","detail":"1 Platz"},"geometry":{"type":"Point","coordinates":[13.04358,47.80759]}},{"type":"Feature","properties":{"kind":"accessible","label":"Neustadt, Faberstraße 7A","detail":"1 Platz"},"geometry":{"type":"Point","coordinates":[13.04408,47.8068]}},{"type":"Feature","properties":{"kind":"accessible","label":"Elisabeth Vorstadt, Fanny-v.-Lehnert-Straße 1","detail":"2 Plätze"},"geometry":{"type":"Point","coordinates":[13.04352,47.81424]}},{"type":"Feature","properties":{"kind":"accessible","label":"Salzburg Süd, Membergerstraße 5","detail":"1 Platz"},"geometry":{"type":"Point","coordinates":[13.07181,47.78549]}},{"type":"Feature","properties":{"kind":"accessible","label":"Elisabeth Vorstadt, Plainstraße 5","detail":"1 Platz"},"geometry":{"type":"Point","coordinates":[13.04034,47.80968]}},{"type":"Feature","properties":{"kind":"accessible","label":"Schallmoos, Poschingerstraße 6","detail":"1 Platz"},"geometry":{"type":"Point","coordinates":[13.0521,47.81856]}},{"type":"Feature","properties":{"kind":"accessible","label":"Maxglan, Radetzkystraße 15","detail":"3 Plätze"},"geometry":{"type":"Point","coordinates":[13.02519,47.80338]}},{"type":"Feature","properties":{"kind":"accessible","label":"Itzling, Rauchenbichlerstraße 8 in 11m","detail":"1 Platz"},"geometry":{"type":"Point","coordinates":[13.05056,47.82582]}},{"type":"Feature","properties":{"kind":"accessible","label":"Maxglan, Danklstraße 13","detail":"2 Plätze"},"geometry":{"type":"Point","coordinates":[13.02609,47.80356]}},{"type":"Feature","properties":{"kind":"accessible","label":"Gneis, Dr.-Adolf-Altmann-Straße 4 in 23m","detail":"3 Plätze"},"geometry":{"type":"Point","coordinates":[13.04626,47.77968]}},{"type":"Feature","properties":{"kind":"accessible","label":"Riedenburg, Eduard-Herget-Straße 5","detail":"1 Platz"},"geometry":{"type":"Point","coordinates":[13.02843,47.79361]}},{"type":"Feature","properties":{"kind":"accessible","label":"Altstadt, Elisabethkai 10 in 14m","detail":"2 Plätze"},"geometry":{"type":"Point","coordinates":[13.04226,47.80259]}},{"type":"Feature","properties":{"kind":"accessible","label":"Neustadt, Franz-Josef-Straße 4","detail":"2 Plätze"},"geometry":{"type":"Point","coordinates":[13.04302,47.80688]}},{"type":"Feature","properties":{"kind":"accessible","label":"Neustadt, Franz-Josef-Straße 34","detail":"1 Platz"},"geometry":{"type":"Point","coordinates":[13.04928,47.80482]}},{"type":"Feature","properties":{"kind":"accessible","label":"Lehen, Franz-Martin-Straße 12 in 15m","detail":"2 Plätze"},"geometry":{"type":"Point","coordinates":[13.03321,47.81582]}},{"type":"Feature","properties":{"kind":"accessible","label":"Franztalstraße 4","detail":"1 Platz"},"geometry":{"type":"Point","coordinates":[13.02142,47.82706]}},{"type":"Feature","properties":{"kind":"accessible","label":"Schallmoos, Röcklbrunnstraße 2 in 13m","detail":"1 Platz"},"geometry":{"type":"Point","coordinates":[13.06472,47.8106]}},{"type":"Feature","properties":{"kind":"accessible","label":"Maxglan, Römergasse 39 in 13m","detail":"1 Platz"},"geometry":{"type":"Point","coordinates":[13.02411,47.80308]}},{"type":"Feature","properties":{"kind":"accessible","label":"Lehen, Rosengasse 2","detail":"1 Platz"},"geometry":{"type":"Point","coordinates":[13.03097,47.81343]}},{"type":"Feature","properties":{"kind":"accessible","label":"Elisabeth Vorstadt, Karl-Wurmb-Straße 11 in 32m","detail":"2 Plätze"},"geometry":{"type":"Point","coordinates":[13.04252,47.81509]}},{"type":"Feature","properties":{"kind":"accessible","label":"Elisabeth Vorstadt, Elisabethstraße 4 in 13m","detail":"4 Plätze"},"geometry":{"type":"Point","coordinates":[13.04187,47.81034]}},{"type":"Feature","properties":{"kind":"accessible","label":"Schallmoos, Emil-Kofler-Gasse 3","detail":"1 Platz"},"geometry":{"type":"Point","coordinates":[13.05358,47.8069]}},{"type":"Feature","properties":{"kind":"accessible","label":"Aigen, Aigner Straße 95B in 89m","detail":"1 Platz"},"geometry":{"type":"Point","coordinates":[13.08295,47.78284]}},{"type":"Feature","properties":{"kind":"accessible","label":"Lehen, Friesachstraße 11","detail":"2 Plätze"},"geometry":{"type":"Point","coordinates":[13.03167,47.8146]}},{"type":"Feature","properties":{"kind":"accessible","label":"Salzburg Süd, Frohnburgweg 6 in 46m","detail":"4 Plätze"},"geometry":{"type":"Point","coordinates":[13.06621,47.77846]}},{"type":"Feature","properties":{"kind":"accessible","label":"Nonntal, Fürstenallee 45","detail":"1 Platz"},"geometry":{"type":"Point","coordinates":[13.05176,47.78514]}},{"type":"Feature","properties":{"kind":"accessible","label":"Hellbrunn, Fürstenweg 33","detail":"2 Plätze"},"geometry":{"type":"Point","coordinates":[13.06433,47.76337]}},{"type":"Feature","properties":{"kind":"accessible","label":"Altstadt, Franz-Josef-Kai 5 in 15m","detail":"3 Plätze"},"geometry":{"type":"Point","coordinates":[13.0408,47.80153]}},{"type":"Feature","properties":{"kind":"accessible","label":"Salzburg Süd, Anton-Steinhart-Straße 1","detail":"1 Platz"},"geometry":{"type":"Point","coordinates":[13.06672,47.78944]}},{"type":"Feature","properties":{"kind":"accessible","label":"Lehen, Hans-Sachs-Gasse 31","detail":"1 Platz"},"geometry":{"type":"Point","coordinates":[13.02906,47.8119]}},{"type":"Feature","properties":{"kind":"accessible","label":"Lehen, Fasaneriestraße 30","detail":"1 Platz"},"geometry":{"type":"Point","coordinates":[13.02917,47.81727]}},{"type":"Feature","properties":{"kind":"accessible","label":"Riedenburg, Brunnhausgasse 23","detail":"1 Platz"},"geometry":{"type":"Point","coordinates":[13.04324,47.79306]}},{"type":"Feature","properties":{"kind":"accessible","label":"Parsch, Fürbergstraße 49","detail":"2 Plätze"},"geometry":{"type":"Point","coordinates":[13.06777,47.80598]}},{"type":"Feature","properties":{"kind":"accessible","label":"Itzling, Erzherzog-Eugen-Straße 35","detail":"1 Platz"},"geometry":{"type":"Point","coordinates":[13.04295,47.81891]}},{"type":"Feature","properties":{"kind":"accessible","label":"Morzg, Kleingmainer Gasse 33 in 16m","detail":"1 Platz"},"geometry":{"type":"Point","coordinates":[13.05576,47.78125]}},{"type":"Feature","properties":{"kind":"accessible","label":"Itzling, Kreuzstraße 14","detail":"1 Platz"},"geometry":{"type":"Point","coordinates":[13.04687,47.81932]}},{"type":"Feature","properties":{"kind":"accessible","label":"Maxglan, Römergasse 41","detail":"1 Platz"},"geometry":{"type":"Point","coordinates":[13.02399,47.80326]}},{"type":"Feature","properties":{"kind":"accessible","label":"Salzburg Süd, Billrothstraße 25","detail":"1 Platz"},"geometry":{"type":"Point","coordinates":[13.07036,47.77848]}},{"type":"Feature","properties":{"kind":"accessible","label":"Taxham, Josef-Ressel-Straße 4","detail":"1 Platz"},"geometry":{"type":"Point","coordinates":[13.00409,47.81348]}},{"type":"Feature","properties":{"kind":"accessible","label":"Riedenburg, Nikolaus-Kronser-Straße 6","detail":"1 Platz"},"geometry":{"type":"Point","coordinates":[13.02771,47.79258]}},{"type":"Feature","properties":{"kind":"accessible","label":"Taxham, Guritzerstraße 92","detail":"1 Platz"},"geometry":{"type":"Point","coordinates":[13.00238,47.8126]}},{"type":"Feature","properties":{"kind":"accessible","label":"Schallmoos, Wildenhoferstraße 2","detail":"1 Platz"},"geometry":{"type":"Point","coordinates":[13.05202,47.8188]}},{"type":"Feature","properties":{"kind":"accessible","label":"Elisabeth Vorstadt, Saint-Julien-Straße 33A","detail":"1 Platz"},"geometry":{"type":"Point","coordinates":[13.04279,47.81105]}},{"type":"Feature","properties":{"kind":"accessible","label":"Neustadt, Schrannengasse 4","detail":"1 Platz"},"geometry":{"type":"Point","coordinates":[13.04463,47.80552]}},{"type":"Feature","properties":{"kind":"accessible","label":"Itzling, Mittelstraße 8","detail":"1 Platz"},"geometry":{"type":"Point","coordinates":[13.04596,47.81956]}},{"type":"Feature","properties":{"kind":"accessible","label":"Nonntal, Ulrike-Gschwandtner-Straße 5 in 14m","detail":"5 Plätze"},"geometry":{"type":"Point","coordinates":[13.05598,47.79411]}},{"type":"Feature","properties":{"kind":"accessible","label":"Gnigl, Versorgungshausstraße 4 in 11m","detail":"1 Platz"},"geometry":{"type":"Point","coordinates":[13.07062,47.81413]}},{"type":"Feature","properties":{"kind":"accessible","label":"Salzburg Süd, Faistauergasse 3","detail":"1 Platz"},"geometry":{"type":"Point","coordinates":[13.06552,47.79046]}},{"type":"Feature","properties":{"kind":"accessible","label":"Gnigl, Eichstraße 58","detail":"1 Platz"},"geometry":{"type":"Point","coordinates":[13.07442,47.81171]}},{"type":"Feature","properties":{"kind":"accessible","label":"Altstadt, Bergstraße 8","detail":"2 Plätze"},"geometry":{"type":"Point","coordinates":[13.04581,47.80332]}},{"type":"Feature","properties":{"kind":"accessible","label":"Mülln, Augustinergasse 1A","detail":"1 Platz"},"geometry":{"type":"Point","coordinates":[13.03506,47.80567]}},{"type":"Feature","properties":{"kind":"accessible","label":"Riedenburg, Ernst-Sompek-Straße 2","detail":"1 Platz"},"geometry":{"type":"Point","coordinates":[13.03746,47.79731]}},{"type":"Feature","properties":{"kind":"accessible","label":"Taxham, Etrichstraße 10","detail":"1 Platz"},"geometry":{"type":"Point","coordinates":[13.00161,47.81023]}},{"type":"Feature","properties":{"kind":"accessible","label":"Liefering, Fischergasse 3 in 12m","detail":"1 Platz"},"geometry":{"type":"Point","coordinates":[13.00965,47.82542]}},{"type":"Feature","properties":{"kind":"accessible","label":"Maxglan West, Heimstraße 14","detail":"1 Platz"},"geometry":{"type":"Point","coordinates":[13.00354,47.78058]}},{"type":"Feature","properties":{"kind":"accessible","label":"Neustadt, Hubert-Sattler-Gasse 8","detail":"1 Platz"},"geometry":{"type":"Point","coordinates":[13.04592,47.80697]}},{"type":"Feature","properties":{"kind":"accessible","label":"Itzling, Kreuzstraße 4","detail":"1 Platz"},"geometry":{"type":"Point","coordinates":[13.04517,47.8194]}},{"type":"Feature","properties":{"kind":"accessible","label":"Liefering, Lieferinger Hauptstraße 101","detail":"1 Platz"},"geometry":{"type":"Point","coordinates":[13.0082,47.82647]}},{"type":"Feature","properties":{"kind":"accessible","label":"Neustadt, Linzer Gasse 74","detail":"3 Plätze · Euroschlüssel"},"geometry":{"type":"Point","coordinates":[13.04923,47.80452]}},{"type":"Feature","properties":{"kind":"accessible","label":"Parsch, Neuhauserstraße 27","detail":"1 Platz"},"geometry":{"type":"Point","coordinates":[13.07152,47.80802]}},{"type":"Feature","properties":{"kind":"accessible","label":"Taxham, Graf-Zeppelin-Platz 2","detail":"1 Platz"},"geometry":{"type":"Point","coordinates":[13.00184,47.80886]}},{"type":"Feature","properties":{"kind":"accessible","label":"Lehen, Tulpenstraße 2","detail":"4 Plätze"},"geometry":{"type":"Point","coordinates":[13.02867,47.81371]}},{"type":"Feature","properties":{"kind":"accessible","label":"Itzling, Reimsstraße 10","detail":"1 Platz"},"geometry":{"type":"Point","coordinates":[13.0449,47.8249]}},{"type":"Feature","properties":{"kind":"accessible","label":"Lehen, Alois-Stockinger-Straße 3","detail":"1 Platz"},"geometry":{"type":"Point","coordinates":[13.03111,47.81159]}}]}