{"type":"FeatureCollection","features":[{"type":"Feature","properties":{"zone":"321","district":"Salzburg Süd","rawHours":"gebührenfrei (aber Parkuhrenpflicht) werktags Montag bis Freitag 9-19 Uhr","rawFee":"gebührenfrei (aber Parkuhrenpflicht)","note":"Alpenstraße Ost — in Bewohnerparkzone A","windows":[{"weekdays":[1,2,3,4,5],"fromMinute":540,"toMinute":1140}],"fee":{"kind":"disc"},"unmodelledRules":[],"sourceDefect":null,"spaces":null,"maxStayMinutes":180,"maxStay":null,"maxStayShare":0,"maxStayValues":[],"chargingPoints":0,"carsharing":0},"geometry":{"type":"MultiPolygon","coordinates":[[[[13.05372,47.79709],[13.05392,47.79698],[13.05411,47.79693],[13.05433,47.79681],[13.05481,47.79653],[13.05489,47.79646],[13.05574,47.796],[13.0562,47.79583],[13.05709,47.79557],[13.05747,47.79545],[13.0579,47.79527],[13.05819,47.79513],[13.05847,47.7949],[13.05905,47.79432],[13.05919,47.79423],[13.05945,47.79394],[13.05951,47.79382],[13.05976,47.79358],[13.05994,47.79343],[13.06067,47.79293],[13.06111,47.79267],[13.06422,47.79092],[13.06435,47.79088],[13.06478,47.79064],[13.0648,47.79065],[13.06484,47.79062],[13.06483,47.79061],[13.06512,47.79038],[13.0654,47.79012],[13.0656,47.78989],[13.06579,47.78963],[13.06588,47.78947],[13.066,47.78918],[13.06621,47.7883],[13.06637,47.7875],[13.06648,47.7871],[13.0665,47.78711],[13.06651,47.78705],[13.06649,47.78704],[13.06657,47.78652],[13.06663,47.78628],[13.06666,47.78626],[13.06669,47.7861],[13.06669,47.78599],[13.06688,47.78506],[13.06691,47.78506],[13.06698,47.78474],[13.06695,47.78475],[13.06727,47.78321],[13.06731,47.78319],[13.06731,47.78317],[13.06728,47.78316],[13.06751,47.78208],[13.06753,47.78209],[13.06758,47.78184],[13.0676,47.78161],[13.06762,47.78164],[13.06782,47.78068],[13.0678,47.78068],[13.06827,47.77842],[13.06835,47.77819],[13.06851,47.7774],[13.06854,47.77741],[13.06855,47.77737],[13.06852,47.77736],[13.06853,47.77723],[13.06863,47.77674],[13.06864,47.77674],[13.06865,47.77671],[13.06864,47.77671],[13.0687,47.77636],[13.06913,47.7743],[13.06919,47.77404],[13.06921,47.77404],[13.06929,47.7737],[13.06937,47.77311],[13.06979,47.77111],[13.06977,47.77111],[13.06981,47.77097],[13.06987,47.77087],[13.06993,47.77083],[13.07007,47.77081],[13.07018,47.77081],[13.07166,47.77098],[13.07165,47.771],[13.07182,47.77107],[13.07235,47.77111],[13.07235,47.77113],[13.07426,47.77114],[13.07453,47.77111],[13.07512,47.7766],[13.0755,47.77964],[13.07567,47.78112],[13.07573,47.78149],[13.07572,47.78204],[13.07563,47.78264],[13.07555,47.78308],[13.07541,47.78345],[13.07527,47.78374],[13.07495,47.78431],[13.07473,47.78462],[13.07435,47.78505],[13.07389,47.7855],[13.07053,47.78823],[13.06875,47.78963],[13.06813,47.79007],[13.06717,47.79066],[13.06142,47.79381],[13.05993,47.79464],[13.05813,47.7957],[13.05752,47.79602],[13.05612,47.79668],[13.05392,47.79769],[13.05364,47.79743],[13.05359,47.79735],[13.05358,47.79729],[13.05359,47.79722],[13.05363,47.79716],[13.05372,47.79709]]]]}},{"type":"Feature","properties":{"zone":"464","district":"Parsch","rawHours":"gebührenfrei (aber Parkuhrenpflicht) werktags Montag bis Freitag 9-19 Uhr","rawFee":"gebührenfrei (aber Parkuhrenpflicht)","note":"PARSCH WEST — in Bewohnerparkzone C · Gemeindestraße","windows":[{"weekdays":[1,2,3,4,5],"fromMinute":540,"toMinute":1140}],"fee":{"kind":"disc"},"unmodelledRules":[],"sourceDefect":null,"spaces":null,"maxStayMinutes":180,"maxStay":null,"maxStayShare":0,"maxStayValues":[],"chargingPoints":0,"carsharing":0},"geometry":{"type":"MultiPolygon","coordinates":[[[[13.06367,47.79907],[13.06368,47.79902],[13.06373,47.799],[13.06485,47.7987],[13.06493,47.79887],[13.06545,47.79875],[13.06534,47.79862],[13.06565,47.79854],[13.06598,47.79841],[13.06629,47.79826],[13.06652,47.79812],[13.06667,47.79807],[13.06668,47.79808],[13.06673,47.79805],[13.06671,47.79803],[13.06701,47.79785],[13.06768,47.79809],[13.06783,47.79788],[13.06762,47.79782],[13.06725,47.79766],[13.0678,47.79729],[13.06836,47.79702],[13.06866,47.79684],[13.06905,47.7965],[13.06959,47.79609],[13.07012,47.79552],[13.07026,47.79539],[13.07045,47.79525],[13.0712,47.79479],[13.07144,47.79461],[13.07175,47.79435],[13.07228,47.79369],[13.07243,47.79357],[13.07248,47.79351],[13.07249,47.79354],[13.07265,47.79331],[13.07274,47.79324],[13.07287,47.79322],[13.07317,47.79332],[13.0734,47.79337],[13.07451,47.79351],[13.07418,47.79476],[13.07358,47.7972],[13.07353,47.7972],[13.0731,47.79862],[13.07306,47.79867],[13.07303,47.79878],[13.07303,47.79882],[13.07299,47.79896],[13.07282,47.79933],[13.07259,47.79977],[13.07258,47.79981],[13.07257,47.79983],[13.07241,47.79983],[13.07093,47.79976],[13.07025,47.79976],[13.06953,47.79983],[13.06956,47.80004],[13.0703,47.79996],[13.07249,47.80002],[13.07231,47.80032],[13.072,47.80057],[13.07107,47.80212],[13.071,47.80219],[13.07088,47.8024],[13.07097,47.80253],[13.07088,47.80268],[13.07083,47.80267],[13.07078,47.80275],[13.07068,47.80308],[13.07022,47.80385],[13.07015,47.8039],[13.06994,47.80426],[13.06993,47.80442],[13.06978,47.80469],[13.06928,47.80554],[13.06919,47.80564],[13.06895,47.80569],[13.06889,47.80582],[13.06886,47.80595],[13.06843,47.80673],[13.06813,47.8072],[13.06806,47.80727],[13.0681,47.80728],[13.06727,47.80869],[13.0672,47.80882],[13.06715,47.80898],[13.06687,47.80895],[13.06687,47.80897],[13.06679,47.80899],[13.06663,47.80901],[13.0666,47.80904],[13.06634,47.80905],[13.066,47.80909],[13.06598,47.80907],[13.06597,47.80841],[13.06599,47.80833],[13.06605,47.80821],[13.06632,47.80791],[13.06639,47.8078],[13.06645,47.80766],[13.06646,47.80751],[13.06643,47.80736],[13.06632,47.8071],[13.06642,47.80708],[13.06624,47.80668],[13.06612,47.80671],[13.06599,47.80644],[13.06616,47.8064],[13.06609,47.80599],[13.06591,47.80599],[13.0659,47.80569],[13.06596,47.80547],[13.06618,47.80511],[13.06652,47.80498],[13.06652,47.80444],[13.06641,47.80445],[13.0664,47.80395],[13.06642,47.80372],[13.06651,47.80338],[13.06672,47.80286],[13.06675,47.80286],[13.06695,47.80239],[13.0672,47.8021],[13.06757,47.80189],[13.06743,47.80175],[13.06857,47.80073],[13.06829,47.80058],[13.06727,47.80149],[13.0671,47.80153],[13.06679,47.80137],[13.0668,47.80136],[13.0659,47.80079],[13.06562,47.80059],[13.0655,47.80052],[13.06497,47.80013],[13.06438,47.79984],[13.06425,47.79976],[13.06406,47.7996],[13.06367,47.79907]]]]}},{"type":"Feature","properties":{"zone":"466","district":"Gnigl","rawHours":"gebührenfrei (aber Parkuhrenpflicht) werktags Montag bis Freitag 9-19 Uhr","rawFee":"gebührenfrei (aber Parkuhrenpflicht)","note":"GNIGL SÜD — in Bewohnerparkzone D","windows":[{"weekdays":[1,2,3,4,5],"fromMinute":540,"toMinute":1140}],"fee":{"kind":"disc"},"unmodelledRules":[],"sourceDefect":null,"spaces":null,"maxStayMinutes":180,"maxStay":null,"maxStayShare":0,"maxStayValues":[],"chargingPoints":0,"carsharing":0},"geometry":{"type":"MultiPolygon","coordinates":[[[[13.07592,47.81413],[13.07613,47.81425],[13.07655,47.81419],[13.07662,47.81455],[13.0759,47.81467],[13.07576,47.81487],[13.07539,47.81519],[13.0753,47.81523],[13.07503,47.8153],[13.07474,47.81545],[13.07459,47.81549],[13.07427,47.81552],[13.07398,47.81559],[13.07373,47.81559],[13.07332,47.81565],[13.07293,47.81562],[13.07269,47.81565],[13.07185,47.81587],[13.07019,47.81621],[13.07013,47.81599],[13.06985,47.81536],[13.06982,47.81533],[13.07037,47.81519],[13.07022,47.8149],[13.0696,47.81511],[13.06938,47.81489],[13.06908,47.8147],[13.06878,47.8144],[13.06871,47.81429],[13.06838,47.81389],[13.06798,47.81337],[13.06795,47.81329],[13.06799,47.81322],[13.06811,47.81317],[13.06845,47.81318],[13.07058,47.81333],[13.07131,47.8134],[13.0714,47.81344],[13.07207,47.81351],[13.07231,47.81356],[13.07307,47.81362],[13.07341,47.81368],[13.0739,47.81371],[13.07415,47.81375],[13.07448,47.81377],[13.0757,47.81371],[13.07596,47.81375],[13.07587,47.81409],[13.07592,47.81413]]]]}},{"type":"Feature","properties":{"zone":"189","district":"Nonntal","rawHours":"gebührenfrei (aber Parkuhrenpflicht) werktags Montag bis Freitag 9-19 Uhr und Samstag 9-16 Uhr","rawFee":"gebührenfrei (aber Parkuhrenpflicht)","note":"NONNTAL-WEST","windows":[{"weekdays":[1,2,3,4,5],"fromMinute":540,"toMinute":1140},{"weekdays":[6],"fromMinute":540,"toMinute":960}],"fee":{"kind":"disc"},"unmodelledRules":[],"sourceDefect":null,"spaces":null,"maxStayMinutes":180,"maxStay":null,"maxStayShare":0,"maxStayValues":[],"chargingPoints":0,"carsharing":0},"geometry":{"type":"MultiPolygon","coordinates":[[[[13.04793,47.79172],[13.04791,47.79172],[13.0476,47.79136],[13.04762,47.79135],[13.04733,47.79097],[13.04719,47.79061],[13.04726,47.79037],[13.04732,47.79037],[13.04733,47.79028],[13.04732,47.79028],[13.04751,47.78987],[13.0479,47.7891],[13.04886,47.78768],[13.04883,47.78766],[13.04945,47.78677],[13.04985,47.7865],[13.04999,47.78654],[13.05009,47.78655],[13.05177,47.78637],[13.05167,47.78655],[13.05118,47.78729],[13.0509,47.78793],[13.05093,47.78794],[13.05088,47.78799],[13.05057,47.78875],[13.05005,47.78986],[13.04995,47.79001],[13.04981,47.79016],[13.04959,47.79036],[13.04924,47.79075],[13.04896,47.79141],[13.04885,47.79154],[13.04877,47.79171],[13.04839,47.79179],[13.04823,47.79177],[13.04816,47.79174],[13.04809,47.79169],[13.04793,47.79172]]]]}},{"type":"Feature","properties":{"zone":"322","district":"Salzburg Süd","rawHours":"gebührenfrei (aber Parkuhrenpflicht) werktags Montag bis Freitag 9-19 Uhr","rawFee":"gebührenfrei (aber Parkuhrenpflicht)","note":"Alpenstraße West — in Bewohnerparkzone A","windows":[{"weekdays":[1,2,3,4,5],"fromMinute":540,"toMinute":1140}],"fee":{"kind":"disc"},"unmodelledRules":[],"sourceDefect":null,"spaces":null,"maxStayMinutes":180,"maxStay":null,"maxStayShare":0,"maxStayValues":[],"chargingPoints":0,"carsharing":0},"geometry":{"type":"MultiPolygon","coordinates":[[[[13.06729,47.77468],[13.06728,47.77456],[13.06731,47.77438],[13.06754,47.7744],[13.06759,47.77417],[13.06757,47.77406],[13.06748,47.774],[13.0673,47.77393],[13.06717,47.77383],[13.0671,47.77373],[13.06701,47.7735],[13.06698,47.77314],[13.06702,47.77303],[13.06704,47.77268],[13.06699,47.77267],[13.06697,47.77235],[13.06706,47.77204],[13.06717,47.77187],[13.0674,47.77141],[13.06749,47.77113],[13.06751,47.77066],[13.06817,47.77074],[13.06871,47.77084],[13.06955,47.77093],[13.06957,47.771],[13.06955,47.77109],[13.06912,47.77314],[13.06902,47.77358],[13.06897,47.77358],[13.06874,47.7747],[13.06878,47.77471],[13.06872,47.77502],[13.06867,47.77511],[13.06862,47.77535],[13.0686,47.77558],[13.06814,47.77778],[13.0681,47.77787],[13.06805,47.77811],[13.0679,47.77851],[13.06787,47.77864],[13.06782,47.77894],[13.0678,47.77925],[13.06744,47.78094],[13.06745,47.78097],[13.06741,47.78115],[13.06733,47.7813],[13.06726,47.78163],[13.06732,47.7816],[13.06729,47.78185],[13.06675,47.7844],[13.06635,47.78613],[13.06634,47.78623],[13.06637,47.78627],[13.0662,47.7871],[13.06581,47.78892],[13.06572,47.78921],[13.06555,47.78956],[13.06532,47.78987],[13.06512,47.79008],[13.06474,47.79038],[13.06448,47.79055],[13.06421,47.79068],[13.06379,47.79093],[13.0615,47.79221],[13.06152,47.79218],[13.0615,47.79216],[13.06113,47.79193],[13.06074,47.79173],[13.05995,47.7914],[13.06016,47.79106],[13.06096,47.7902],[13.06104,47.79009],[13.06089,47.79003],[13.06095,47.78993],[13.06098,47.78982],[13.06097,47.78978],[13.06059,47.78973],[13.06051,47.78971],[13.06034,47.78962],[13.06022,47.78959],[13.0585,47.78939],[13.05889,47.78745],[13.05966,47.7873],[13.05959,47.78715],[13.06042,47.787],[13.06026,47.78662],[13.06018,47.78648],[13.06003,47.78625],[13.05993,47.78615],[13.05981,47.78605],[13.05965,47.78597],[13.05948,47.78591],[13.0591,47.78584],[13.05917,47.78553],[13.06056,47.78503],[13.06098,47.78424],[13.06214,47.78232],[13.06059,47.77993],[13.06076,47.77937],[13.0608,47.77937],[13.06121,47.77805],[13.06178,47.77811],[13.06189,47.77809],[13.06196,47.77805],[13.06218,47.77789],[13.06226,47.77786],[13.06236,47.77776],[13.06237,47.77771],[13.06236,47.77759],[13.06237,47.77754],[13.0624,47.77749],[13.06236,47.77749],[13.06238,47.77745],[13.06258,47.77748],[13.06258,47.77752],[13.06591,47.77796],[13.06595,47.77784],[13.06604,47.77785],[13.06615,47.77749],[13.06623,47.7775],[13.06652,47.77647],[13.06677,47.77646],[13.06694,47.7765],[13.06692,47.77641],[13.06729,47.77468]]]]}},{"type":"Feature","properties":{"zone":"584","district":"Nonntal","rawHours":"gebührenpflichtig (Gebühreneinhebung mit Parkscheinautomat) werktags Montag bis Freitag 9-19 Uhr; gebührenfrei (aber Parkuhrenpflicht) Samstag 9-16 Uhr","rawFee":"laut Verordnung: 1,10 € je halbe Stunde (nicht im Datensatz)","note":"Kurzparkzone (Bewohnerparkzone K) — Gemeindestraße","windows":[{"weekdays":[1,2,3,4,5],"fromMinute":540,"toMinute":1140}],"fee":{"kind":"exact","centsPerHour":220},"unmodelledRules":["Sa 9–16 Uhr gebührenfrei, aber mit Parkscheibe, höchstens 3 Std."],"sourceDefect":null,"spaces":null,"maxStayMinutes":180,"maxStay":null,"maxStayShare":0,"maxStayValues":[],"chargingPoints":0,"carsharing":0},"geometry":{"type":"MultiPolygon","coordinates":[[[[13.05323,47.79563],[13.05216,47.7942],[13.05209,47.79409],[13.05203,47.79389],[13.05202,47.79367],[13.05207,47.79346],[13.05228,47.79286],[13.05245,47.7926],[13.05215,47.79249],[13.05237,47.79235],[13.05246,47.7922],[13.05253,47.79212],[13.05273,47.79197],[13.05276,47.79177],[13.05348,47.79177],[13.05615,47.79189],[13.05663,47.79193],[13.05694,47.79199],[13.05737,47.7921],[13.05796,47.79232],[13.05834,47.79253],[13.05934,47.79317],[13.05943,47.79322],[13.05951,47.79321],[13.05956,47.79318],[13.05972,47.79285],[13.05974,47.79279],[13.05971,47.7926],[13.0596,47.79231],[13.05957,47.79216],[13.05958,47.79202],[13.05972,47.79149],[13.05985,47.79126],[13.06002,47.79102],[13.0608,47.79017],[13.06089,47.79003],[13.06107,47.7901],[13.06105,47.79015],[13.06099,47.79016],[13.06015,47.79108],[13.05995,47.7914],[13.05984,47.79161],[13.0597,47.79208],[13.05973,47.79227],[13.05994,47.79273],[13.05987,47.79279],[13.05962,47.79328],[13.05964,47.79329],[13.05966,47.79332],[13.05969,47.79333],[13.05943,47.79342],[13.05893,47.79419],[13.05841,47.79471],[13.05813,47.79494],[13.05776,47.79516],[13.05729,47.79537],[13.05614,47.79569],[13.05575,47.79583],[13.05546,47.79596],[13.05485,47.7963],[13.05466,47.79638],[13.05435,47.79656],[13.05423,47.79665],[13.05424,47.79665],[13.05386,47.79687],[13.05377,47.79685],[13.05365,47.79575],[13.05323,47.79563]]]]}},{"type":"Feature","properties":{"zone":"468","district":"Langwied","rawHours":"gebührenfrei (aber Parkuhrenpflicht) werktags Montag bis Freitag 9-19 Uhr","rawFee":"gebührenfrei (aber Parkuhrenpflicht)","note":"GNIGL LANGWIED — in Bewohnerparkzone D","windows":[{"weekdays":[1,2,3,4,5],"fromMinute":540,"toMinute":1140}],"fee":{"kind":"disc"},"unmodelledRules":[],"sourceDefect":null,"spaces":null,"maxStayMinutes":180,"maxStay":null,"maxStayShare":0,"maxStayValues":[],"chargingPoints":0,"carsharing":0},"geometry":{"type":"MultiPolygon","coordinates":[[[[13.0671,47.81274],[13.06701,47.81289],[13.06715,47.81297],[13.06735,47.81314],[13.06753,47.81307],[13.06846,47.81425],[13.06838,47.81428],[13.06855,47.81445],[13.06862,47.81441],[13.06887,47.81466],[13.069,47.81477],[13.06899,47.81478],[13.06915,47.81491],[13.06909,47.81494],[13.06931,47.8151],[13.06938,47.81508],[13.06963,47.81534],[13.06977,47.81556],[13.06984,47.81572],[13.06999,47.81611],[13.06992,47.81613],[13.07008,47.81647],[13.07013,47.81646],[13.07037,47.81685],[13.07091,47.81758],[13.07126,47.81809],[13.071,47.81825],[13.07134,47.81847],[13.07147,47.81839],[13.07151,47.81842],[13.07166,47.81855],[13.07193,47.81871],[13.07204,47.81875],[13.07302,47.81901],[13.07333,47.81912],[13.07324,47.81923],[13.07364,47.81939],[13.07374,47.81928],[13.07386,47.81934],[13.07435,47.81959],[13.07494,47.81995],[13.07508,47.82006],[13.07527,47.82019],[13.07549,47.8203],[13.07584,47.82057],[13.07627,47.82095],[13.07673,47.82141],[13.0771,47.82186],[13.07714,47.82189],[13.07819,47.82347],[13.07759,47.82362],[13.0771,47.82378],[13.07705,47.82381],[13.07696,47.82388],[13.0765,47.82412],[13.0762,47.82431],[13.07575,47.82445],[13.07559,47.82453],[13.07434,47.8244],[13.07375,47.82438],[13.07296,47.82398],[13.07288,47.82396],[13.0716,47.82317],[13.07156,47.82319],[13.07102,47.82291],[13.06853,47.82502],[13.06822,47.82484],[13.06816,47.82477],[13.06771,47.82385],[13.06755,47.82378],[13.0674,47.82393],[13.06687,47.82455],[13.06634,47.82513],[13.06615,47.82525],[13.06598,47.82532],[13.0658,47.82536],[13.06271,47.82572],[13.06229,47.8258],[13.06139,47.82586],[13.0607,47.82588],[13.06061,47.82477],[13.06054,47.82331],[13.06116,47.82225],[13.06102,47.82198],[13.06177,47.82088],[13.06638,47.8127],[13.06641,47.81245],[13.06645,47.81246],[13.0671,47.81274]]]]}},{"type":"Feature","properties":{"zone":"469","district":"Parsch","rawHours":"gebührenfrei (aber Parkuhrenpflicht) werktags Montag bis Freitag 9-19 Uhr","rawFee":"gebührenfrei (aber Parkuhrenpflicht)","note":"ÄUSSERER STEIN — in Bewohnerparkzone C · Gemeindestraße","windows":[{"weekdays":[1,2,3,4,5],"fromMinute":540,"toMinute":1140}],"fee":{"kind":"disc"},"unmodelledRules":[],"sourceDefect":null,"spaces":null,"maxStayMinutes":180,"maxStay":null,"maxStayShare":0,"maxStayValues":[],"chargingPoints":0,"carsharing":0},"geometry":{"type":"MultiPolygon","coordinates":[[[[13.06183,47.79886],[13.06312,47.79899],[13.0633,47.79903],[13.06341,47.79908],[13.06345,47.79911],[13.06405,47.79989],[13.06417,47.80001],[13.06437,47.80011],[13.06485,47.80024],[13.06528,47.80054],[13.06552,47.80075],[13.06575,47.80089],[13.0658,47.80095],[13.06591,47.80102],[13.06607,47.80109],[13.06666,47.80144],[13.06682,47.80157],[13.06687,47.80165],[13.0669,47.80175],[13.06692,47.80188],[13.06691,47.80196],[13.06685,47.80208],[13.0668,47.80207],[13.06627,47.80335],[13.06617,47.80372],[13.06548,47.80352],[13.06493,47.80344],[13.06486,47.80341],[13.06264,47.80396],[13.06198,47.80325],[13.06159,47.80271],[13.06132,47.80255],[13.06133,47.80241],[13.06106,47.80191],[13.06096,47.80167],[13.06089,47.80155],[13.06062,47.80129],[13.06036,47.80101],[13.06028,47.80091],[13.06004,47.80075],[13.05943,47.8004],[13.0591,47.80018],[13.05886,47.80016],[13.05843,47.80017],[13.05783,47.8002],[13.05748,47.80024],[13.05748,47.80023],[13.05689,47.80018],[13.05689,47.80019],[13.05661,47.80018],[13.05661,47.80016],[13.05645,47.80016],[13.0562,47.80018],[13.05621,47.80019],[13.05582,47.80022],[13.05522,47.8003],[13.05471,47.80031],[13.05463,47.80033],[13.05462,47.80034],[13.05395,47.80027],[13.05356,47.80027],[13.05352,47.80006],[13.05353,47.80001],[13.05358,47.79997],[13.0543,47.79963],[13.05682,47.79855],[13.05788,47.79858],[13.06127,47.7989],[13.06132,47.79897],[13.06143,47.79902],[13.06164,47.79906],[13.06171,47.79889],[13.06176,47.79886],[13.06183,47.79886]]]]}},{"type":"Feature","properties":{"zone":"470","district":"Aigen","rawHours":"gebührenfrei (aber Parkuhrenpflicht) werktags Montag bis Freitag 9-19 Uhr","rawFee":"gebührenfrei (aber Parkuhrenpflicht)","note":"RENNBAHNSIEDLUNG — in Bewohnerparkzone C · Gemeindestraße","windows":[{"weekdays":[1,2,3,4,5],"fromMinute":540,"toMinute":1140}],"fee":{"kind":"disc"},"unmodelledRules":[],"sourceDefect":null,"spaces":null,"maxStayMinutes":180,"maxStay":null,"maxStayShare":0,"maxStayValues":[],"chargingPoints":0,"carsharing":0},"geometry":{"type":"MultiPolygon","coordinates":[[[[13.07475,47.7865],[13.07483,47.78654],[13.07509,47.78659],[13.07515,47.78664],[13.07527,47.78668],[13.07528,47.78667],[13.07526,47.78701],[13.07546,47.78732],[13.07583,47.78748],[13.07645,47.78766],[13.077,47.78796],[13.07725,47.78802],[13.07782,47.78842],[13.07764,47.78849],[13.07745,47.78861],[13.07728,47.78875],[13.07685,47.78917],[13.07663,47.78931],[13.07642,47.78942],[13.0758,47.78969],[13.07546,47.78986],[13.07519,47.79002],[13.07512,47.78983],[13.07475,47.78989],[13.07487,47.79025],[13.07463,47.79047],[13.07451,47.79053],[13.07441,47.79063],[13.07433,47.79076],[13.07426,47.79084],[13.07403,47.79076],[13.07388,47.79098],[13.07407,47.79104],[13.07341,47.79187],[13.07333,47.79201],[13.07314,47.79241],[13.07306,47.7924],[13.07278,47.79283],[13.07285,47.79284],[13.07237,47.79335],[13.07168,47.79421],[13.07144,47.79445],[13.07123,47.79461],[13.07036,47.79516],[13.07014,47.79532],[13.06999,47.79546],[13.06942,47.79607],[13.06896,47.79639],[13.06869,47.79663],[13.06835,47.79689],[13.06824,47.79694],[13.06806,47.79676],[13.06781,47.79687],[13.068,47.79706],[13.06781,47.79715],[13.06778,47.79712],[13.06738,47.79736],[13.06742,47.79739],[13.06702,47.79768],[13.06694,47.7977],[13.06657,47.79793],[13.06659,47.79794],[13.06638,47.79806],[13.06615,47.79815],[13.06594,47.79825],[13.06589,47.7982],[13.06553,47.79835],[13.06561,47.79842],[13.06535,47.7985],[13.06454,47.79863],[13.06366,47.79887],[13.06362,47.79882],[13.06324,47.79882],[13.06287,47.79879],[13.06286,47.79885],[13.06233,47.7988],[13.06233,47.79874],[13.0622,47.79872],[13.05549,47.79807],[13.05698,47.79737],[13.05782,47.79693],[13.06039,47.79554],[13.06436,47.79334],[13.06754,47.79162],[13.06902,47.79067],[13.07086,47.78919],[13.07218,47.7881],[13.07356,47.78699],[13.07436,47.78631],[13.07475,47.7865]]]]}},{"type":"Feature","properties":{"zone":"222","district":"Altstadt","rawHours":"gebührenpflichtig (Gebühreneinhebung mit Parkscheinautomat) werktags Montag bis Freitag 9-19 Uhr; gebührenfrei (aber Parkuhrenpflicht) Samstag 9-16 Uhr","rawFee":"laut Verordnung: 1,10 € je halbe Stunde (nicht im Datensatz)","note":"INNENSTADT-RIEDENBURG-LEHENSÜD","windows":[{"weekdays":[1,2,3,4,5],"fromMinute":540,"toMinute":1140}],"fee":{"kind":"exact","centsPerHour":220},"unmodelledRules":["Sa 9–16 Uhr gebührenfrei, aber mit Parkscheibe, höchstens 3 Std."],"sourceDefect":null,"spaces":null,"maxStayMinutes":180,"maxStay":null,"maxStayShare":0,"maxStayValues":[],"chargingPoints":0,"carsharing":0},"geometry":{"type":"MultiPolygon","coordinates":[[[[13.03744,47.81087],[13.0374,47.81036],[13.03733,47.81024],[13.03734,47.80965],[13.03741,47.80882],[13.0376,47.80788],[13.03772,47.80737],[13.03784,47.80697],[13.03802,47.80646],[13.03817,47.80606],[13.03845,47.80547],[13.03857,47.80527],[13.03874,47.80492],[13.03896,47.80457],[13.03939,47.80408],[13.0397,47.80379],[13.04018,47.8034],[13.04055,47.80315],[13.04094,47.80292],[13.04141,47.80266],[13.04204,47.80238],[13.04267,47.80214],[13.04343,47.80182],[13.04346,47.80184],[13.04423,47.80154],[13.04421,47.80151],[13.04429,47.80148],[13.04425,47.80142],[13.04493,47.80121],[13.0457,47.801],[13.04571,47.80102],[13.04707,47.80076],[13.04927,47.80024],[13.05058,47.79987],[13.05163,47.79955],[13.05352,47.79888],[13.05413,47.79864],[13.05419,47.79871],[13.05425,47.79872],[13.05459,47.79857],[13.05475,47.79874],[13.0548,47.79876],[13.05533,47.79885],[13.0555,47.79885],[13.0557,47.79882],[13.0558,47.79895],[13.05358,47.79997],[13.05352,47.80002],[13.05352,47.8001],[13.05356,47.80019],[13.05366,47.80023],[13.05392,47.80024],[13.0539,47.80027],[13.05349,47.80026],[13.05309,47.80022],[13.05304,47.80023],[13.053,47.8002],[13.05275,47.80019],[13.05268,47.80009],[13.05268,47.80006],[13.05263,47.80004],[13.05133,47.80014],[13.05114,47.80018],[13.04902,47.8008],[13.0475,47.80083],[13.04671,47.80098],[13.04658,47.80097],[13.04627,47.80101],[13.04627,47.80102],[13.0462,47.80105],[13.04619,47.80102],[13.04614,47.80103],[13.04544,47.80121],[13.04526,47.80126],[13.04499,47.8014],[13.0449,47.80159],[13.04463,47.80172],[13.04419,47.80197],[13.04405,47.80209],[13.04399,47.80215],[13.04402,47.80216],[13.04384,47.80232],[13.04358,47.80259],[13.044,47.80275],[13.04464,47.80294],[13.04434,47.80358],[13.04498,47.80371],[13.04495,47.80382],[13.04466,47.80381],[13.04432,47.80376],[13.04407,47.80432],[13.04406,47.80435],[13.04407,47.80438],[13.04616,47.80507],[13.04621,47.80508],[13.04622,47.80507],[13.04636,47.80512],[13.0464,47.80514],[13.04639,47.80515],[13.04656,47.80521],[13.04657,47.8052],[13.04662,47.80522],[13.04662,47.80522],[13.0475,47.80553],[13.04795,47.80493],[13.04812,47.80498],[13.04767,47.80559],[13.04846,47.80586],[13.04937,47.80473],[13.04935,47.80468],[13.04952,47.80463],[13.04971,47.80436],[13.05115,47.80487],[13.0512,47.8048],[13.05201,47.80508],[13.05216,47.80516],[13.05309,47.80575],[13.05306,47.80579],[13.05307,47.80581],[13.05314,47.80587],[13.0536,47.80604],[13.05392,47.80612],[13.05415,47.80622],[13.05516,47.80645],[13.05565,47.80661],[13.0555,47.80687],[13.05554,47.80693],[13.05514,47.80856],[13.05506,47.80879],[13.05086,47.80848],[13.0499,47.80839],[13.04608,47.80994],[13.04569,47.81005],[13.04332,47.81056],[13.04335,47.81059],[13.04322,47.81062],[13.04317,47.81062],[13.04315,47.81059],[13.04276,47.81065],[13.04189,47.81068],[13.04171,47.81063],[13.04168,47.81065],[13.04165,47.81066],[13.04149,47.81067],[13.04149,47.81068],[13.04141,47.81068],[13.04141,47.81069],[13.04056,47.81073],[13.04056,47.81071],[13.0403,47.81071],[13.03907,47.8108],[13.03762,47.81085],[13.03747,47.81088],[13.03746,47.81087],[13.03744,47.81087]]]]}},{"type":"Feature","properties":{"zone":"585","district":"Nonntal","rawHours":"gebührenpflichtig (Gebühreneinhebung mit Parkscheinautomat) werktags Montag bis Freitag 9-19 Uhr; gebührenfrei (aber Parkuhrenpflicht) Samstag 9-16 Uhr","rawFee":"laut Verordnung: 1,10 € je halbe Stunde (nicht im Datensatz)","note":"Kurzparkzone (Bewohnerparkzone K) — Gemeindestraße","windows":[{"weekdays":[1,2,3,4,5],"fromMinute":540,"toMinute":1140}],"fee":{"kind":"exact","centsPerHour":220},"unmodelledRules":["Sa 9–16 Uhr gebührenfrei, aber mit Parkscheibe, höchstens 3 Std."],"sourceDefect":null,"spaces":null,"maxStayMinutes":180,"maxStay":null,"maxStayShare":0,"maxStayValues":[],"chargingPoints":0,"carsharing":0},"geometry":{"type":"MultiPolygon","coordinates":[[[[13.05306,47.79583],[13.05288,47.7959],[13.05264,47.79585],[13.05214,47.79569],[13.05219,47.79564],[13.05158,47.79533],[13.05146,47.79524],[13.05147,47.79523],[13.05108,47.79495],[13.05116,47.79492],[13.05112,47.79486],[13.05114,47.79485],[13.05086,47.79438],[13.05083,47.79438],[13.05067,47.79427],[13.05058,47.79415],[13.05046,47.79411],[13.05034,47.79404],[13.05006,47.79393],[13.05,47.79394],[13.04955,47.79348],[13.0495,47.79333],[13.0494,47.79322],[13.04906,47.7929],[13.04889,47.7928],[13.04884,47.79279],[13.04838,47.79228],[13.04791,47.79172],[13.04809,47.79169],[13.04816,47.79174],[13.04823,47.79177],[13.04839,47.79179],[13.04877,47.79171],[13.04879,47.79165],[13.04882,47.79183],[13.04906,47.79176],[13.04939,47.79176],[13.04953,47.79178],[13.05203,47.79262],[13.05207,47.79264],[13.05211,47.79273],[13.05183,47.79357],[13.05176,47.79399],[13.05304,47.7957],[13.05304,47.79578],[13.05306,47.79583]]]]}},{"type":"Feature","properties":{"zone":"641","district":"Liefering","rawHours":"gebührenfrei (aber Parkuhrenpflicht) werktags Montag bis Freitag 9-19 Uhr","rawFee":"gebührenfrei (aber Parkuhrenpflicht)","note":"Kurzparkzone (Bewohnerparkzone F)","windows":[{"weekdays":[1,2,3,4,5],"fromMinute":540,"toMinute":1140}],"fee":{"kind":"disc"},"unmodelledRules":[],"sourceDefect":null,"spaces":null,"maxStayMinutes":180,"maxStay":null,"maxStayShare":0,"maxStayValues":[],"chargingPoints":0,"carsharing":0},"geometry":{"type":"MultiPolygon","coordinates":[[[[13.02068,47.81469],[13.02075,47.8147],[13.02013,47.81548],[13.01983,47.81596],[13.01979,47.81607],[13.01916,47.81724],[13.01912,47.81723],[13.01849,47.81842],[13.01847,47.81841],[13.01836,47.81861],[13.018,47.81906],[13.01754,47.81948],[13.01664,47.82011],[13.01605,47.8206],[13.0159,47.82083],[13.01563,47.82109],[13.01515,47.82171],[13.01444,47.82247],[13.01439,47.82245],[13.01399,47.82286],[13.01376,47.82304],[13.01349,47.82319],[13.01314,47.82335],[13.01276,47.82347],[13.01262,47.82347],[13.01227,47.82342],[13.01169,47.82325],[13.01138,47.82312],[13.01128,47.82309],[13.01099,47.8231],[13.01096,47.82315],[13.01073,47.82309],[13.01025,47.82295],[13.00943,47.8226],[13.00923,47.82235],[13.00911,47.82228],[13.00806,47.82155],[13.00705,47.82063],[13.00617,47.81978],[13.00769,47.81857],[13.00845,47.81793],[13.01044,47.81639],[13.01179,47.81727],[13.01241,47.81754],[13.01245,47.81751],[13.01279,47.81693],[13.01282,47.81694],[13.01306,47.81665],[13.01314,47.81659],[13.01328,47.8165],[13.0133,47.81651],[13.01378,47.81617],[13.01376,47.81616],[13.01392,47.81605],[13.01392,47.81596],[13.01416,47.81578],[13.01463,47.81554],[13.015,47.81538],[13.01559,47.81517],[13.01643,47.81494],[13.01757,47.81481],[13.01828,47.8147],[13.0186,47.81463],[13.01997,47.81459],[13.01997,47.81454],[13.02015,47.81457],[13.02068,47.81469]]]]}},{"type":"Feature","properties":{"zone":"483","district":"Elisabeth Vorstadt","rawHours":"gebührenpflichtig (Gebühreneinhebung mit Parkscheinautomat) werktags Montag bis Freitag 9-19 Uhr; gebührenfrei (aber Parkuhrenpflicht) Samstag 9-16 Uhr","rawFee":"laut Verordnung: 1,10 € je halbe Stunde (nicht im Datensatz)","note":"Kurzparkzone (Bewohnerparkzone E) — Gemeindestraße","windows":[{"weekdays":[1,2,3,4,5],"fromMinute":540,"toMinute":1140}],"fee":{"kind":"exact","centsPerHour":220},"unmodelledRules":["Sa 9–16 Uhr gebührenfrei, aber mit Parkscheibe, höchstens 3 Std."],"sourceDefect":null,"spaces":null,"maxStayMinutes":180,"maxStay":null,"maxStayShare":0,"maxStayValues":[],"chargingPoints":0,"carsharing":0},"geometry":{"type":"MultiPolygon","coordinates":[[[[13.04107,47.81881],[13.041,47.81879],[13.04092,47.8188],[13.04078,47.81873],[13.04075,47.8187],[13.03972,47.81865],[13.03972,47.81869],[13.03834,47.81861],[13.03728,47.8185],[13.03729,47.81849],[13.03727,47.81845],[13.03627,47.81831],[13.03672,47.81683],[13.03717,47.81527],[13.0373,47.81456],[13.03736,47.8138],[13.03738,47.81275],[13.03729,47.81112],[13.03746,47.8111],[13.03749,47.81109],[13.04027,47.81089],[13.04126,47.81084],[13.04126,47.81083],[13.04172,47.8108],[13.04169,47.81114],[13.0417,47.81156],[13.04173,47.81175],[13.04186,47.81221],[13.04185,47.81349],[13.04187,47.81373],[13.04194,47.81412],[13.04191,47.81412],[13.04198,47.81424],[13.0422,47.81483],[13.0424,47.8152],[13.04252,47.81539],[13.04277,47.81569],[13.0434,47.81635],[13.04418,47.81714],[13.04417,47.81717],[13.04426,47.8173],[13.04316,47.81762],[13.04251,47.81784],[13.04238,47.81791],[13.04215,47.81792],[13.04199,47.81803],[13.04182,47.81819],[13.04145,47.81868],[13.04137,47.81875],[13.04128,47.81875],[13.0412,47.81873],[13.04107,47.81881]]]]}},{"type":"Feature","properties":{"zone":"542","district":"Liefering","rawHours":"gebührenfrei (aber Parkuhrenpflicht) werktags Montag bis Freitag 9-19 Uhr","rawFee":"gebührenfrei (aber Parkuhrenpflicht)","note":"Kurzparkzone (Bewohnerparkzone F)","windows":[{"weekdays":[1,2,3,4,5],"fromMinute":540,"toMinute":1140}],"fee":{"kind":"disc"},"unmodelledRules":[],"sourceDefect":null,"spaces":null,"maxStayMinutes":180,"maxStay":null,"maxStayShare":0,"maxStayValues":[],"chargingPoints":0,"carsharing":0},"geometry":{"type":"MultiPolygon","coordinates":[[[[13.02581,47.81171],[13.02631,47.81168],[13.02638,47.81247],[13.02826,47.81236],[13.02854,47.81236],[13.02854,47.81233],[13.03109,47.81218],[13.03121,47.81221],[13.03128,47.81231],[13.03144,47.81245],[13.03179,47.81266],[13.03194,47.8128],[13.03309,47.81248],[13.03312,47.81246],[13.03312,47.81243],[13.03314,47.81259],[13.03333,47.81261],[13.03333,47.81265],[13.0338,47.81272],[13.03381,47.8127],[13.03384,47.81269],[13.03386,47.81267],[13.034,47.81272],[13.03418,47.8125],[13.03426,47.81246],[13.03533,47.81258],[13.03616,47.8126],[13.03606,47.81407],[13.03559,47.81582],[13.03541,47.81641],[13.03531,47.81694],[13.0347,47.81926],[13.03428,47.8201],[13.03207,47.82423],[13.0312,47.82322],[13.02994,47.82167],[13.0286,47.82139],[13.02801,47.82248],[13.0266,47.82211],[13.02523,47.82479],[13.02505,47.82487],[13.0249,47.82516],[13.02225,47.82442],[13.02209,47.82449],[13.02192,47.82454],[13.02116,47.82473],[13.02073,47.82555],[13.01925,47.82522],[13.01445,47.82402],[13.01431,47.82394],[13.01417,47.82374],[13.01412,47.82365],[13.0141,47.82351],[13.01423,47.82327],[13.01466,47.82276],[13.01526,47.82209],[13.01559,47.82153],[13.01622,47.82075],[13.0166,47.82041],[13.01744,47.8198],[13.01817,47.81918],[13.01841,47.81891],[13.01865,47.8185],[13.01961,47.81664],[13.02015,47.81567],[13.02039,47.8153],[13.02068,47.81492],[13.02121,47.81428],[13.02231,47.81287],[13.02288,47.81243],[13.02322,47.81224],[13.0233,47.81222],[13.02344,47.81214],[13.02357,47.81209],[13.02384,47.81201],[13.02475,47.81181],[13.02514,47.81176],[13.02581,47.81171]]]]}},{"type":"Feature","properties":{"zone":"544","district":"Lehen","rawHours":"gebührenfrei (aber Parkuhrenpflicht) werktags Montag bis Freitag 9-19 Uhr","rawFee":"gebührenfrei (aber Parkuhrenpflicht)","note":"Kurzparkzone (Bewohnerparkzone F)","windows":[{"weekdays":[1,2,3,4,5],"fromMinute":540,"toMinute":1140}],"fee":{"kind":"disc"},"unmodelledRules":[],"sourceDefect":null,"spaces":null,"maxStayMinutes":180,"maxStay":null,"maxStayShare":0,"maxStayValues":[],"chargingPoints":0,"carsharing":0},"geometry":{"type":"MultiPolygon","coordinates":[[[[13.02254,47.80833],[13.02289,47.80825],[13.02333,47.80824],[13.0237,47.80816],[13.02438,47.80805],[13.02444,47.80806],[13.02489,47.808],[13.02569,47.80795],[13.02655,47.80796],[13.0266,47.80795],[13.02658,47.80798],[13.02657,47.80814],[13.02648,47.80883],[13.02623,47.81047],[13.02625,47.81074],[13.02628,47.81087],[13.02626,47.811],[13.02629,47.81148],[13.02628,47.81151],[13.02621,47.81155],[13.025,47.81163],[13.02465,47.81166],[13.02358,47.81194],[13.02317,47.81209],[13.02303,47.81216],[13.02274,47.81233],[13.02203,47.8128],[13.02199,47.81268],[13.02165,47.81213],[13.02161,47.81203],[13.01939,47.81262],[13.01769,47.8108],[13.01858,47.81011],[13.01898,47.80983],[13.01933,47.80961],[13.01985,47.80931],[13.02033,47.80906],[13.02089,47.80882],[13.02188,47.8085],[13.02254,47.80833]]]]}},{"type":"Feature","properties":{"zone":"582","district":"Riedenburg","rawHours":"gebührenfrei (aber Parkuhrenpflicht) werktags Montag bis Freitag 9-19 Uhr","rawFee":"gebührenfrei (aber Parkuhrenpflicht)","note":"Kurzparkzone (Bewohnerparkzone K) — Gemeindestraße","windows":[{"weekdays":[1,2,3,4,5],"fromMinute":540,"toMinute":1140}],"fee":{"kind":"disc"},"unmodelledRules":[],"sourceDefect":null,"spaces":null,"maxStayMinutes":180,"maxStay":null,"maxStayShare":0,"maxStayValues":[],"chargingPoints":0,"carsharing":0},"geometry":{"type":"MultiPolygon","coordinates":[[[[13.04337,47.79344],[13.04314,47.79305],[13.04311,47.79295],[13.04302,47.79243],[13.04291,47.79215],[13.04283,47.79187],[13.04312,47.79187],[13.04322,47.79227],[13.04333,47.79293],[13.04347,47.79318],[13.04353,47.79323],[13.0436,47.79325],[13.04415,47.79323],[13.04471,47.79338],[13.04487,47.79341],[13.04665,47.79335],[13.04757,47.79338],[13.04866,47.79347],[13.04892,47.79345],[13.04946,47.79335],[13.0495,47.79333],[13.04955,47.79348],[13.04959,47.79352],[13.04896,47.79363],[13.04873,47.79363],[13.04843,47.79362],[13.04759,47.79354],[13.04734,47.79357],[13.04716,47.79354],[13.04657,47.79351],[13.04493,47.79356],[13.04473,47.79355],[13.0443,47.79343],[13.04413,47.79339],[13.0435,47.79342],[13.04337,47.79345],[13.04337,47.79344]]]]}},{"type":"Feature","properties":{"zone":"604","district":"Maxglan","rawHours":"gebührenfrei (aber Parkuhrenpflicht) werktags Montag bis Freitag 9-19 Uhr","rawFee":"gebührenfrei (aber Parkuhrenpflicht)","note":"Kurzparkzone (Bewohnerparkzone G) — Gemeindestraße","windows":[{"weekdays":[1,2,3,4,5],"fromMinute":540,"toMinute":1140}],"fee":{"kind":"disc"},"unmodelledRules":[],"sourceDefect":null,"spaces":null,"maxStayMinutes":180,"maxStay":null,"maxStayShare":0,"maxStayValues":[],"chargingPoints":0,"carsharing":0},"geometry":{"type":"MultiPolygon","coordinates":[[[[13.03686,47.79372],[13.03616,47.79359],[13.03564,47.7936],[13.03517,47.79367],[13.0335,47.79396],[13.03343,47.79401],[13.03288,47.79414],[13.03279,47.79415],[13.0326,47.79424],[13.03243,47.79435],[13.03215,47.79459],[13.03225,47.79464],[13.03212,47.7947],[13.03198,47.79474],[13.03193,47.79478],[13.0319,47.79487],[13.03193,47.79512],[13.03216,47.79644],[13.03229,47.797],[13.03255,47.79752],[13.03228,47.79753],[13.03066,47.79769],[13.0307,47.79791],[13.03075,47.79977],[13.03072,47.79995],[13.03067,47.80007],[13.03017,47.80081],[13.03005,47.80103],[13.03004,47.8012],[13.03007,47.80125],[13.02909,47.80286],[13.02781,47.80503],[13.02743,47.80578],[13.02727,47.80566],[13.02722,47.8057],[13.02711,47.80572],[13.02704,47.80568],[13.02659,47.80556],[13.0261,47.8055],[13.02505,47.8055],[13.02473,47.80558],[13.02446,47.80559],[13.02417,47.80559],[13.02392,47.80556],[13.02337,47.80544],[13.02271,47.80523],[13.02232,47.80515],[13.02194,47.80511],[13.02087,47.80504],[13.02065,47.80501],[13.02045,47.80496],[13.02033,47.80491],[13.02001,47.80474],[13.01991,47.80467],[13.01945,47.80458],[13.01917,47.80454],[13.01923,47.80428],[13.01933,47.80411],[13.01942,47.80374],[13.01948,47.80337],[13.01961,47.80157],[13.01965,47.80122],[13.01971,47.8011],[13.0198,47.80098],[13.01992,47.80087],[13.02013,47.80074],[13.0207,47.80055],[13.02091,47.80046],[13.02107,47.80037],[13.02125,47.80023],[13.02137,47.80008],[13.02144,47.79996],[13.0215,47.7998],[13.02153,47.79958],[13.02155,47.79929],[13.02148,47.79902],[13.0214,47.79895],[13.02128,47.79872],[13.02115,47.79854],[13.02095,47.79832],[13.02062,47.79803],[13.01982,47.7975],[13.01964,47.79734],[13.01946,47.79712],[13.01933,47.7969],[13.01921,47.7966],[13.01914,47.79624],[13.01914,47.79589],[13.01968,47.79593],[13.02053,47.79626],[13.02061,47.79626],[13.02082,47.79617],[13.02188,47.79579],[13.02321,47.79544],[13.02447,47.79518],[13.02473,47.79487],[13.02506,47.79452],[13.02539,47.79426],[13.02579,47.79413],[13.02635,47.79405],[13.02655,47.794],[13.02729,47.79369],[13.02885,47.79295],[13.02914,47.79285],[13.0312,47.79243],[13.03159,47.79233],[13.03177,47.79224],[13.03188,47.79215],[13.03445,47.7909],[13.03474,47.7912],[13.03561,47.79161],[13.03572,47.79176],[13.03628,47.79259],[13.03639,47.79294],[13.03649,47.79318],[13.03658,47.79333],[13.03686,47.79372]],[[13.02063,47.79767],[13.02041,47.7975],[13.02028,47.79757],[13.02051,47.79774],[13.02076,47.79788],[13.02104,47.7981],[13.02117,47.79802],[13.02086,47.79778],[13.02085,47.79776],[13.02086,47.79774],[13.02117,47.7976],[13.02134,47.79775],[13.02149,47.79767],[13.02134,47.79753],[13.02171,47.79736],[13.02179,47.79736],[13.02206,47.79722],[13.02215,47.79719],[13.02231,47.7971],[13.02257,47.79699],[13.02255,47.79697],[13.02278,47.79687],[13.0231,47.79679],[13.02361,47.79669],[13.02373,47.79691],[13.02393,47.79687],[13.02386,47.79665],[13.0247,47.79649],[13.02484,47.79681],[13.02504,47.79677],[13.0249,47.79645],[13.02547,47.79635],[13.02561,47.79671],[13.02576,47.79668],[13.02564,47.79632],[13.02654,47.79615],[13.02671,47.79614],[13.0267,47.79594],[13.02637,47.79561],[13.02618,47.79567],[13.02648,47.79598],[13.02646,47.79601],[13.0256,47.79617],[13.0255,47.79591],[13.02529,47.79594],[13.02539,47.7962],[13.02482,47.79631],[13.02471,47.79604],[13.02453,47.79607],[13.02463,47.79634],[13.0238,47.7965],[13.02377,47.7965],[13.02367,47.79623],[13.02346,47.79627],[13.02356,47.79653],[13.02295,47.79665],[13.0227,47.79673],[13.02264,47.79671],[13.0225,47.79651],[13.02233,47.79656],[13.02249,47.7968],[13.02246,47.79682],[13.02189,47.7971],[13.02063,47.79767]]]]}},{"type":"Feature","properties":{"zone":"605","district":"Maxglan","rawHours":"gebührenfrei (aber Parkuhrenpflicht) werktags Montag bis Freitag 9-19 Uhr - gilt nicht zum Dauerparken mit Ausnahmebewilligung","rawFee":"gebührenfrei (aber Parkuhrenpflicht)","note":"Kurzparkzone (Bewohnerparkzone G) — kein Bewohnerparken · Gemeindestraße","windows":[{"weekdays":[1,2,3,4,5],"fromMinute":540,"toMinute":1140}],"fee":{"kind":"disc"},"unmodelledRules":["gilt nicht zum Dauerparken mit Ausnahmebewilligung"],"sourceDefect":null,"spaces":null,"maxStayMinutes":180,"maxStay":null,"maxStayShare":0,"maxStayValues":[],"chargingPoints":0,"carsharing":0},"geometry":{"type":"MultiPolygon","coordinates":[[[[13.02063,47.79767],[13.02189,47.7971],[13.02246,47.79682],[13.02249,47.7968],[13.02233,47.79656],[13.0225,47.79651],[13.02264,47.79671],[13.0227,47.79673],[13.02295,47.79665],[13.02356,47.79653],[13.02346,47.79627],[13.02367,47.79623],[13.02377,47.7965],[13.0238,47.7965],[13.02463,47.79634],[13.02453,47.79607],[13.02471,47.79604],[13.02482,47.79631],[13.02539,47.7962],[13.02529,47.79594],[13.0255,47.79591],[13.0256,47.79617],[13.02646,47.79601],[13.02648,47.79598],[13.02618,47.79567],[13.02637,47.79561],[13.0267,47.79594],[13.02671,47.79614],[13.02654,47.79615],[13.02564,47.79632],[13.02576,47.79668],[13.02561,47.79671],[13.02547,47.79635],[13.0249,47.79645],[13.02504,47.79677],[13.02484,47.79681],[13.0247,47.79649],[13.02386,47.79665],[13.02393,47.79687],[13.02373,47.79691],[13.02361,47.79669],[13.0231,47.79679],[13.02278,47.79687],[13.02255,47.79697],[13.02257,47.79699],[13.02231,47.7971],[13.02215,47.79719],[13.02206,47.79722],[13.02179,47.79736],[13.02171,47.79736],[13.02134,47.79753],[13.02149,47.79767],[13.02134,47.79775],[13.02117,47.7976],[13.02086,47.79774],[13.02085,47.79776],[13.02086,47.79778],[13.02117,47.79802],[13.02104,47.7981],[13.02076,47.79788],[13.02051,47.79774],[13.02028,47.79757],[13.02041,47.7975],[13.02063,47.79767]]]]}},{"type":"Feature","properties":{"zone":"563","district":"Maxglan","rawHours":"gebührenfrei (aber Parkuhrenpflicht) werktags Montag bis Freitag 9-19 Uhr","rawFee":"gebührenfrei (aber Parkuhrenpflicht)","note":"Kurzparkzone (Bewohnerparkzone G) — Gemeindestraße","windows":[{"weekdays":[1,2,3,4,5],"fromMinute":540,"toMinute":1140}],"fee":{"kind":"disc"},"unmodelledRules":[],"sourceDefect":null,"spaces":null,"maxStayMinutes":180,"maxStay":null,"maxStayShare":0,"maxStayValues":[],"chargingPoints":0,"carsharing":0},"geometry":{"type":"MultiPolygon","coordinates":[[[[13.02142,47.8085],[13.02064,47.8088],[13.02056,47.80872],[13.02055,47.80866],[13.01962,47.80767],[13.01932,47.80726],[13.01922,47.80708],[13.01905,47.80672],[13.01896,47.80638],[13.01891,47.80604],[13.01891,47.8057],[13.01895,47.80536],[13.01914,47.80465],[13.01915,47.80467],[13.01944,47.8047],[13.01975,47.80476],[13.02003,47.80488],[13.02023,47.805],[13.0204,47.80507],[13.02058,47.80513],[13.02077,47.80516],[13.02077,47.80518],[13.02079,47.80517],[13.02208,47.80525],[13.02231,47.80528],[13.02266,47.80537],[13.02342,47.8056],[13.02383,47.80568],[13.02408,47.80571],[13.02448,47.80572],[13.0255,47.80564],[13.02617,47.80564],[13.02651,47.80569],[13.02708,47.80583],[13.02704,47.80606],[13.027,47.80617],[13.02665,47.80638],[13.02673,47.80648],[13.02666,47.80742],[13.02671,47.80744],[13.02666,47.80776],[13.02592,47.80776],[13.02515,47.80779],[13.02445,47.80784],[13.02389,47.80791],[13.0233,47.80801],[13.02271,47.80813],[13.02206,47.8083],[13.02142,47.8085]]]]}},{"type":"Feature","properties":{"zone":"402","district":"Schallmoos","rawHours":"gebührenfrei (aber Parkuhrenpflicht) werktags Montag bis Freitag 9-19 Uhr","rawFee":"gebührenfrei (aber Parkuhrenpflicht)","note":"Fürberg — in Bewohnerparkzone B","windows":[{"weekdays":[1,2,3,4,5],"fromMinute":540,"toMinute":1140}],"fee":{"kind":"disc"},"unmodelledRules":[],"sourceDefect":null,"spaces":null,"maxStayMinutes":180,"maxStay":null,"maxStayShare":0,"maxStayValues":[],"chargingPoints":0,"carsharing":0},"geometry":{"type":"MultiPolygon","coordinates":[[[[13.06596,47.81118],[13.06515,47.81036],[13.0645,47.80987],[13.06445,47.80982],[13.06442,47.80976],[13.06444,47.80972],[13.06447,47.80969],[13.06542,47.80913],[13.06563,47.80899],[13.06593,47.80869],[13.06597,47.80869],[13.06597,47.8084],[13.06599,47.80833],[13.06612,47.80833],[13.06645,47.80842],[13.06645,47.8085],[13.06675,47.8085],[13.06675,47.80871],[13.06726,47.80871],[13.0672,47.80882],[13.06715,47.80898],[13.06704,47.80897],[13.06703,47.80902],[13.06681,47.8094],[13.06649,47.81022],[13.06642,47.81038],[13.06629,47.8106],[13.06632,47.81061],[13.0662,47.81082],[13.06609,47.8111],[13.06598,47.8111],[13.06599,47.81114],[13.06596,47.81118]]]]}},{"type":"Feature","properties":{"zone":"403","district":"Schallmoos","rawHours":"gebührenfrei (aber Parkuhrenpflicht) werktags Montag bis Freitag 9-19 Uhr","rawFee":"gebührenfrei (aber Parkuhrenpflicht)","note":"Schallmoos SO — in Bewohnerparkzone B","windows":[{"weekdays":[1,2,3,4,5],"fromMinute":540,"toMinute":1140}],"fee":{"kind":"disc"},"unmodelledRules":[],"sourceDefect":null,"spaces":null,"maxStayMinutes":180,"maxStay":null,"maxStayShare":0,"maxStayValues":[],"chargingPoints":0,"carsharing":0},"geometry":{"type":"MultiPolygon","coordinates":[[[[13.06503,47.80911],[13.06479,47.80925],[13.06455,47.80936],[13.06425,47.80956],[13.06373,47.80968],[13.06342,47.80971],[13.06019,47.80938],[13.05661,47.80891],[13.05507,47.80879],[13.05554,47.80693],[13.0555,47.80687],[13.05565,47.80661],[13.05564,47.8066],[13.05583,47.80629],[13.05598,47.80633],[13.05614,47.80607],[13.05638,47.80608],[13.05644,47.80609],[13.0566,47.80629],[13.05678,47.80635],[13.05721,47.80643],[13.05796,47.80652],[13.0588,47.80642],[13.05925,47.80649],[13.05937,47.80645],[13.05931,47.80637],[13.05948,47.80623],[13.05982,47.80628],[13.06126,47.80666],[13.06245,47.80689],[13.06221,47.80748],[13.06219,47.80748],[13.06218,47.80758],[13.06221,47.80762],[13.06217,47.80763],[13.06241,47.80775],[13.06253,47.80783],[13.06275,47.80789],[13.06309,47.80821],[13.06325,47.80834],[13.06338,47.80841],[13.06396,47.80865],[13.06446,47.80897],[13.0646,47.80903],[13.06484,47.8091],[13.06493,47.80912],[13.06503,47.80911]]]]}},{"type":"Feature","properties":{"zone":"404","district":"Schallmoos","rawHours":"gebührenfrei (aber Parkuhrenpflicht) werktags Montag bis Freitag 9-19 Uhr","rawFee":"gebührenfrei (aber Parkuhrenpflicht)","note":"Schallmoos NO — in Bewohnerparkzone B","windows":[{"weekdays":[1,2,3,4,5],"fromMinute":540,"toMinute":1140}],"fee":{"kind":"disc"},"unmodelledRules":[],"sourceDefect":null,"spaces":null,"maxStayMinutes":180,"maxStay":null,"maxStayShare":0,"maxStayValues":[],"chargingPoints":0,"carsharing":0},"geometry":{"type":"MultiPolygon","coordinates":[[[[13.05619,47.80902],[13.05717,47.80912],[13.06038,47.80954],[13.06198,47.80971],[13.06205,47.80981],[13.06277,47.80989],[13.06271,47.80978],[13.06374,47.80988],[13.06409,47.80996],[13.06431,47.81003],[13.06462,47.81017],[13.06484,47.81032],[13.06516,47.81058],[13.06581,47.81123],[13.06588,47.81134],[13.06586,47.81136],[13.0659,47.81139],[13.06586,47.81163],[13.06594,47.81171],[13.06584,47.81187],[13.06556,47.81252],[13.06498,47.81349],[13.0648,47.81372],[13.06423,47.81429],[13.06401,47.81457],[13.06316,47.816],[13.0629,47.81594],[13.06234,47.81686],[13.06219,47.81689],[13.06213,47.81697],[13.06214,47.8175],[13.06207,47.81756],[13.06201,47.81771],[13.06169,47.81824],[13.06152,47.81835],[13.06142,47.81847],[13.06123,47.81892],[13.06056,47.82005],[13.06057,47.82014],[13.06056,47.82017],[13.06044,47.82025],[13.05974,47.82139],[13.05963,47.82153],[13.05908,47.82211],[13.05886,47.82228],[13.05833,47.82262],[13.05794,47.82282],[13.05772,47.82291],[13.05706,47.82313],[13.0568,47.82318],[13.05654,47.8232],[13.05593,47.82322],[13.05544,47.82318],[13.05491,47.82307],[13.05455,47.82296],[13.05375,47.82267],[13.05352,47.82144],[13.05353,47.82141],[13.05346,47.82105],[13.05342,47.82105],[13.05337,47.8208],[13.05332,47.82068],[13.0532,47.82003],[13.05318,47.81972],[13.05321,47.81936],[13.05354,47.81684],[13.05372,47.81565],[13.05378,47.81541],[13.05406,47.81353],[13.05411,47.81348],[13.05522,47.809],[13.05526,47.80896],[13.05531,47.80895],[13.05619,47.80902]]]]}},{"type":"Feature","properties":{"zone":"405","district":"Schallmoos","rawHours":"gebührenfrei (aber Parkuhrenpflicht) werktags Montag bis Freitag 9-19 Uhr","rawFee":"gebührenfrei (aber Parkuhrenpflicht)","note":"Schallmoos NW — in Bewohnerparkzone B","windows":[{"weekdays":[1,2,3,4,5],"fromMinute":540,"toMinute":1140}],"fee":{"kind":"disc"},"unmodelledRules":[],"sourceDefect":null,"spaces":null,"maxStayMinutes":180,"maxStay":null,"maxStayShare":0,"maxStayValues":[],"chargingPoints":0,"carsharing":0},"geometry":{"type":"MultiPolygon","coordinates":[[[[13.05375,47.82267],[13.05325,47.82248],[13.05313,47.8224],[13.053,47.82226],[13.05293,47.82209],[13.05292,47.8221],[13.05203,47.82036],[13.05193,47.81992],[13.05186,47.81974],[13.05176,47.81957],[13.05006,47.81704],[13.04927,47.81579],[13.04842,47.81471],[13.04836,47.81459],[13.04754,47.81353],[13.04728,47.81318],[13.04711,47.81287],[13.04701,47.81264],[13.04672,47.81166],[13.04687,47.81164],[13.0469,47.81159],[13.04694,47.81157],[13.04702,47.81155],[13.04727,47.81156],[13.04768,47.81161],[13.04894,47.81179],[13.04958,47.81186],[13.04965,47.81139],[13.04955,47.81138],[13.04965,47.81114],[13.04942,47.8111],[13.04952,47.81089],[13.05022,47.81097],[13.05029,47.811],[13.05031,47.81105],[13.05051,47.81107],[13.05101,47.80871],[13.05104,47.80866],[13.05109,47.80863],[13.05502,47.80893],[13.05492,47.80941],[13.05383,47.81382],[13.05359,47.81539],[13.05354,47.81556],[13.0535,47.81564],[13.05345,47.81592],[13.05339,47.81659],[13.05323,47.81783],[13.05317,47.81806],[13.05314,47.81835],[13.05318,47.81835],[13.05318,47.81841],[13.0532,47.81843],[13.05309,47.8192],[13.05303,47.8192],[13.05298,47.81963],[13.05297,47.82006],[13.05294,47.8201],[13.05294,47.82039],[13.05291,47.82043],[13.05298,47.82064],[13.05304,47.82069],[13.0533,47.82197],[13.05328,47.82202],[13.05336,47.8224],[13.05337,47.82243],[13.05343,47.82246],[13.05346,47.82247],[13.05346,47.82245],[13.05368,47.82253],[13.05369,47.82255],[13.05373,47.82256],[13.05375,47.82267]]]]}},{"type":"Feature","properties":{"zone":"521","district":"Parsch","rawHours":"gebührenfrei (aber Parkuhrenpflicht) werktags Montag bis Freitag 9-19 Uhr","rawFee":"gebührenfrei (aber Parkuhrenpflicht)","note":"GAISBERGSTRASSE — in Bewohnerparkzone C · Landesstraße","windows":[{"weekdays":[1,2,3,4,5],"fromMinute":540,"toMinute":1140}],"fee":{"kind":"disc"},"unmodelledRules":[],"sourceDefect":null,"spaces":null,"maxStayMinutes":180,"maxStay":null,"maxStayShare":0,"maxStayValues":[],"chargingPoints":0,"carsharing":0},"geometry":{"type":"MultiPolygon","coordinates":[[[[13.06453,47.80012],[13.06427,47.80003],[13.06417,47.79995],[13.06417,47.79993],[13.0642,47.79991],[13.06437,47.8],[13.06461,47.80009],[13.06453,47.80012]]]]}},{"type":"Feature","properties":{"zone":"441","district":"Schallmoos","rawHours":"gebührenpflichtig (Gebühreneinhebung mit Parkscheinautomat) werktags Montag bis Freitag 9-19 Uhr; gebührenfrei (aber Parkuhrenpflicht) Samstag 9-16 Uhr","rawFee":"laut Verordnung: 1,10 € je halbe Stunde (nicht im Datensatz)","note":"SCHALLMOOS — in Bewohnerparkzone B","windows":[{"weekdays":[1,2,3,4,5],"fromMinute":540,"toMinute":1140}],"fee":{"kind":"exact","centsPerHour":220},"unmodelledRules":["Sa 9–16 Uhr gebührenfrei, aber mit Parkscheibe, höchstens 3 Std."],"sourceDefect":null,"spaces":null,"maxStayMinutes":180,"maxStay":null,"maxStayShare":0,"maxStayValues":[],"chargingPoints":0,"carsharing":0},"geometry":{"type":"MultiPolygon","coordinates":[[[[13.05102,47.80869],[13.05051,47.81107],[13.05031,47.81105],[13.05029,47.811],[13.05022,47.81097],[13.04952,47.81089],[13.04942,47.8111],[13.04965,47.81114],[13.04955,47.81138],[13.04965,47.81139],[13.04958,47.81186],[13.04894,47.81179],[13.04733,47.81157],[13.04702,47.81155],[13.04694,47.81157],[13.0469,47.81159],[13.04687,47.81164],[13.04672,47.81166],[13.04642,47.81085],[13.04593,47.8102],[13.04588,47.81017],[13.04582,47.81017],[13.04618,47.81006],[13.04992,47.80854],[13.05113,47.80863],[13.05106,47.80864],[13.05102,47.80869]]]]}},{"type":"Feature","properties":{"zone":"471","district":"Gnigl","rawHours":"gebührenfrei (aber Parkuhrenpflicht) werktags Montag bis Freitag 9-19 Uhr","rawFee":"gebührenfrei (aber Parkuhrenpflicht)","note":"GNIGL SÜD — in Bewohnerparkzone D","windows":[{"weekdays":[1,2,3,4,5],"fromMinute":540,"toMinute":1140}],"fee":{"kind":"disc"},"unmodelledRules":[],"sourceDefect":null,"spaces":null,"maxStayMinutes":180,"maxStay":null,"maxStayShare":0,"maxStayValues":[],"chargingPoints":0,"carsharing":0},"geometry":{"type":"MultiPolygon","coordinates":[[[[13.07579,47.81326],[13.07575,47.81348],[13.07565,47.81353],[13.07506,47.8136],[13.07423,47.81361],[13.07392,47.81359],[13.07181,47.81334],[13.07184,47.81322],[13.07129,47.81312],[13.07125,47.81328],[13.0684,47.81307],[13.06802,47.81303],[13.06785,47.81299],[13.06771,47.81294],[13.06759,47.81286],[13.06747,47.81275],[13.06752,47.81267],[13.06741,47.81247],[13.06728,47.81252],[13.06672,47.81186],[13.06673,47.81173],[13.0671,47.81098],[13.06718,47.81096],[13.06773,47.80963],[13.06784,47.80957],[13.06807,47.80917],[13.06844,47.80916],[13.06844,47.80909],[13.06866,47.80909],[13.06995,47.8092],[13.06993,47.80932],[13.07072,47.80939],[13.07074,47.80927],[13.0717,47.80937],[13.0717,47.80935],[13.072,47.8094],[13.07227,47.80936],[13.0723,47.80948],[13.07235,47.80956],[13.07245,47.80984],[13.07255,47.81001],[13.07265,47.81011],[13.07278,47.8102],[13.07323,47.81039],[13.07331,47.81044],[13.07338,47.81051],[13.07337,47.81053],[13.07352,47.81079],[13.07369,47.81102],[13.07385,47.8112],[13.0743,47.8116],[13.07455,47.81173],[13.07499,47.81188],[13.07512,47.81195],[13.07519,47.81201],[13.07525,47.81209],[13.0753,47.81219],[13.07528,47.8122],[13.0753,47.81225],[13.07538,47.81237],[13.07584,47.81294],[13.07579,47.81326]]]]}},{"type":"Feature","properties":{"zone":"463","district":"Aigen","rawHours":"gebührenfrei (aber Parkuhrenpflicht) werktags Montag bis Freitag 9-19 Uhr","rawFee":"gebührenfrei (aber Parkuhrenpflicht)","note":"PARSCH WEST — in Bewohnerparkzone C · Gemeindestraße","windows":[{"weekdays":[1,2,3,4,5],"fromMinute":540,"toMinute":1140}],"fee":{"kind":"disc"},"unmodelledRules":[],"sourceDefect":null,"spaces":null,"maxStayMinutes":180,"maxStay":null,"maxStayShare":0,"maxStayValues":[],"chargingPoints":0,"carsharing":0},"geometry":{"type":"MultiPolygon","coordinates":[[[[13.07526,47.79104],[13.07559,47.79104],[13.0758,47.79112],[13.07546,47.79153],[13.07507,47.79213],[13.07504,47.79214],[13.07491,47.79236],[13.07467,47.79289],[13.07455,47.79336],[13.07341,47.79323],[13.07315,47.79316],[13.07303,47.79309],[13.073,47.79304],[13.073,47.79297],[13.07323,47.79258],[13.07349,47.79202],[13.0736,47.79185],[13.07419,47.79111],[13.07446,47.7912],[13.07457,47.79106],[13.07467,47.79109],[13.0748,47.7911],[13.07526,47.79104]]]]}},{"type":"Feature","properties":{"zone":"502","district":"Itzling","rawHours":"gebührenfrei (aber Parkuhrenpflicht) werktags Montag bis Freitag 9-19 Uhr","rawFee":"gebührenfrei (aber Parkuhrenpflicht)","note":"Kurzparkzone (Bewohnerparkzone E) — Gemeindestraße","windows":[{"weekdays":[1,2,3,4,5],"fromMinute":540,"toMinute":1140}],"fee":{"kind":"disc"},"unmodelledRules":[],"sourceDefect":null,"spaces":null,"maxStayMinutes":180,"maxStay":null,"maxStayShare":0,"maxStayValues":[],"chargingPoints":0,"carsharing":0},"geometry":{"type":"MultiPolygon","coordinates":[[[[13.03759,47.82719],[13.03761,47.82708],[13.03761,47.827],[13.03772,47.82647],[13.03778,47.82628],[13.03794,47.82597],[13.03815,47.82572],[13.03857,47.82533],[13.03911,47.82489],[13.03953,47.82465],[13.03965,47.8246],[13.04037,47.82447],[13.04164,47.82417],[13.04221,47.82396],[13.04288,47.82368],[13.04286,47.82366],[13.04367,47.82335],[13.0442,47.82277],[13.04448,47.82231],[13.04466,47.82212],[13.04456,47.82162],[13.04447,47.82146],[13.04441,47.82117],[13.04439,47.82095],[13.04438,47.82075],[13.04448,47.81925],[13.04447,47.81925],[13.04454,47.8185],[13.04454,47.81812],[13.04448,47.81756],[13.04442,47.81722],[13.04492,47.81694],[13.04497,47.81695],[13.0451,47.81716],[13.04524,47.81711],[13.04552,47.81752],[13.04565,47.81767],[13.04574,47.81774],[13.04593,47.81786],[13.04681,47.81825],[13.04702,47.81836],[13.04737,47.81864],[13.04869,47.82056],[13.04877,47.82069],[13.0492,47.82167],[13.0493,47.82178],[13.04976,47.82206],[13.04997,47.82216],[13.05064,47.82238],[13.05127,47.82255],[13.05138,47.82261],[13.0516,47.82277],[13.05235,47.82365],[13.05254,47.82376],[13.05381,47.82573],[13.05355,47.8258],[13.05345,47.82566],[13.05294,47.82577],[13.05186,47.82598],[13.051,47.82612],[13.05065,47.82616],[13.0505,47.82616],[13.0504,47.82614],[13.05004,47.82601],[13.04975,47.82596],[13.04943,47.82594],[13.04911,47.82597],[13.04887,47.82603],[13.0486,47.82613],[13.04825,47.82639],[13.04809,47.82649],[13.04792,47.82654],[13.04773,47.82656],[13.04728,47.82657],[13.04709,47.8266],[13.04691,47.82665],[13.04675,47.82671],[13.0466,47.82679],[13.04617,47.82708],[13.04624,47.82727],[13.04595,47.82733],[13.04585,47.82733],[13.04581,47.82715],[13.04565,47.82715],[13.04543,47.82712],[13.04462,47.82685],[13.04402,47.82674],[13.04348,47.8267],[13.04322,47.82669],[13.04235,47.82674],[13.04182,47.82675],[13.04129,47.82672],[13.0405,47.8266],[13.04023,47.82658],[13.03997,47.8266],[13.03971,47.82664],[13.03934,47.82675],[13.03918,47.82683],[13.03881,47.82705],[13.03845,47.82734],[13.03825,47.82741],[13.03813,47.82742],[13.03804,47.82742],[13.03754,47.82733],[13.03759,47.82719]]]]}},{"type":"Feature","properties":{"zone":"503","district":"Itzling","rawHours":"gebührenfrei (aber Parkuhrenpflicht) werktags Montag bis Freitag 9-19 Uhr","rawFee":"gebührenfrei (aber Parkuhrenpflicht)","note":"Kurzparkzone (Bewohnerparkzone E) — Gemeindestraße","windows":[{"weekdays":[1,2,3,4,5],"fromMinute":540,"toMinute":1140}],"fee":{"kind":"disc"},"unmodelledRules":[],"sourceDefect":null,"spaces":null,"maxStayMinutes":180,"maxStay":null,"maxStayShare":0,"maxStayValues":[],"chargingPoints":0,"carsharing":0},"geometry":{"type":"MultiPolygon","coordinates":[[[[13.04092,47.8188],[13.041,47.81879],[13.04107,47.81881],[13.0412,47.81873],[13.04128,47.81875],[13.04137,47.81875],[13.04145,47.81868],[13.04183,47.81818],[13.04199,47.81803],[13.04215,47.81792],[13.04238,47.81791],[13.04251,47.81784],[13.04316,47.81762],[13.04426,47.8173],[13.04431,47.81755],[13.04427,47.81761],[13.04436,47.81794],[13.04442,47.81837],[13.04432,47.81943],[13.04423,47.82075],[13.04427,47.82114],[13.04438,47.82168],[13.04441,47.82197],[13.0443,47.82235],[13.04418,47.82258],[13.04409,47.8227],[13.04365,47.82318],[13.04349,47.8233],[13.04327,47.82341],[13.04174,47.82402],[13.04093,47.82421],[13.0401,47.82443],[13.03963,47.82451],[13.03941,47.8246],[13.03899,47.82484],[13.03782,47.82582],[13.03759,47.82633],[13.03741,47.82714],[13.03736,47.8273],[13.03689,47.82719],[13.0366,47.82709],[13.03594,47.82683],[13.03516,47.82659],[13.0352,47.82653],[13.03497,47.82647],[13.03493,47.82654],[13.0336,47.82633],[13.03312,47.82629],[13.03242,47.82624],[13.03252,47.82602],[13.03236,47.82599],[13.03251,47.82568],[13.03364,47.82374],[13.03447,47.82228],[13.03536,47.82062],[13.03554,47.82026],[13.03593,47.81937],[13.03607,47.81903],[13.03627,47.81831],[13.03727,47.81845],[13.03729,47.81849],[13.03728,47.8185],[13.03834,47.81861],[13.03972,47.81869],[13.03972,47.81865],[13.04075,47.8187],[13.04078,47.81873],[13.04092,47.8188]]]]}},{"type":"Feature","properties":{"zone":"504","district":"Itzling","rawHours":"gebührenfrei (aber Parkuhrenpflicht) werktags Montag bis Freitag 9-19 Uhr","rawFee":"gebührenfrei (aber Parkuhrenpflicht)","note":"Kurzparkzone (Bewohnerparkzone E) — Landesstraße","windows":[{"weekdays":[1,2,3,4,5],"fromMinute":540,"toMinute":1140}],"fee":{"kind":"disc"},"unmodelledRules":[],"sourceDefect":null,"spaces":null,"maxStayMinutes":180,"maxStay":null,"maxStayShare":0,"maxStayValues":[],"chargingPoints":0,"carsharing":0},"geometry":{"type":"MultiPolygon","coordinates":[[[[13.03759,47.82719],[13.03754,47.82733],[13.03736,47.8273],[13.03741,47.82714],[13.03759,47.82633],[13.03782,47.82582],[13.03899,47.82484],[13.03953,47.82454],[13.03963,47.82451],[13.0401,47.82443],[13.04093,47.82421],[13.04174,47.82402],[13.04327,47.82341],[13.04349,47.8233],[13.04365,47.82318],[13.04409,47.8227],[13.04418,47.82258],[13.0443,47.82235],[13.04441,47.82195],[13.04438,47.82168],[13.04427,47.82114],[13.04423,47.82075],[13.04432,47.81943],[13.04442,47.81837],[13.04436,47.81794],[13.04427,47.81761],[13.04431,47.81755],[13.04426,47.8173],[13.04421,47.81723],[13.04438,47.81716],[13.04442,47.81722],[13.04448,47.81756],[13.04454,47.81812],[13.04454,47.8185],[13.04447,47.81925],[13.04448,47.81925],[13.04438,47.82075],[13.04439,47.82095],[13.04441,47.82117],[13.04447,47.82146],[13.04456,47.82162],[13.04466,47.82212],[13.04448,47.82231],[13.0442,47.82277],[13.04367,47.82335],[13.04286,47.82366],[13.04288,47.82368],[13.04213,47.824],[13.04173,47.82414],[13.04037,47.82447],[13.03965,47.8246],[13.03953,47.82465],[13.03902,47.82496],[13.03857,47.82533],[13.03815,47.82572],[13.03794,47.82597],[13.03778,47.82628],[13.03772,47.82647],[13.03761,47.827],[13.03761,47.82708],[13.03759,47.82719]]]]}},{"type":"Feature","properties":{"zone":"190","district":"Nonntal","rawHours":"gebührenfrei (aber Parkuhrenpflicht) werktags Montag bis Freitag 9-19 Uhr und Samstag 9-16 Uhr","rawFee":"gebührenfrei (aber Parkuhrenpflicht)","note":"NONNTAL-OST","windows":[{"weekdays":[1,2,3,4,5],"fromMinute":540,"toMinute":1140},{"weekdays":[6],"fromMinute":540,"toMinute":960}],"fee":{"kind":"disc"},"unmodelledRules":[],"sourceDefect":null,"spaces":null,"maxStayMinutes":180,"maxStay":null,"maxStayShare":0,"maxStayValues":[],"chargingPoints":0,"carsharing":0},"geometry":{"type":"MultiPolygon","coordinates":[[[[13.05199,47.79245],[13.04959,47.79164],[13.0493,47.79154],[13.04925,47.79149],[13.04921,47.79143],[13.0492,47.79137],[13.04921,47.79131],[13.04943,47.79083],[13.04958,47.79063],[13.05004,47.79017],[13.05001,47.79017],[13.05008,47.79008],[13.05019,47.78998],[13.05018,47.78998],[13.05024,47.78991],[13.05039,47.78997],[13.05053,47.79001],[13.05054,47.79],[13.05073,47.79007],[13.05137,47.78995],[13.0514,47.78997],[13.05156,47.78995],[13.05169,47.78998],[13.05197,47.78992],[13.05215,47.78993],[13.05223,47.78989],[13.05237,47.78991],[13.05235,47.78995],[13.05275,47.79001],[13.05302,47.78996],[13.05273,47.79197],[13.05254,47.79211],[13.05246,47.79219],[13.05237,47.79235],[13.0523,47.79241],[13.05215,47.79249],[13.05199,47.79245]]]]}},{"type":"Feature","properties":{"zone":"547","district":"Lehen","rawHours":"gebührenpflichtig (Gebühreneinhebung mit Parkscheinautomat) werktags Montag bis Freitag 9-19 Uhr; gebührenfrei (aber Parkuhrenpflicht) Samstag 9-16 Uhr","rawFee":"laut Verordnung: 1,10 € je halbe Stunde (nicht im Datensatz)","note":"INNENSTADT-RIEDENBURG-LEHENSÜD — in Bewohnerparkzone F","windows":[{"weekdays":[1,2,3,4,5],"fromMinute":540,"toMinute":1140}],"fee":{"kind":"exact","centsPerHour":220},"unmodelledRules":["Sa 9–16 Uhr gebührenfrei, aber mit Parkscheibe, höchstens 3 Std."],"sourceDefect":null,"spaces":null,"maxStayMinutes":180,"maxStay":null,"maxStayShare":0,"maxStayValues":[],"chargingPoints":0,"carsharing":0},"geometry":{"type":"MultiPolygon","coordinates":[[[[13.03328,47.80841],[13.03553,47.80857],[13.03552,47.80896],[13.03566,47.80964],[13.03587,47.81031],[13.03584,47.81046],[13.0359,47.81094],[13.03449,47.81103],[13.0343,47.81106],[13.02659,47.81153],[13.02654,47.8115],[13.02649,47.81036],[13.02651,47.81017],[13.02654,47.8102],[13.02659,47.81021],[13.02979,47.81022],[13.02994,47.80906],[13.03001,47.80904],[13.03078,47.80908],[13.03083,47.80891],[13.03085,47.8087],[13.03089,47.8087],[13.03094,47.80829],[13.03328,47.80845],[13.03328,47.80841]]]]}},{"type":"Feature","properties":{"zone":"548","district":"Altstadt","rawHours":"gebührenpflichtig (Gebühreneinhebung mit Parkscheinautomat) werktags Montag bis Freitag 9-19 Uhr; gebührenfrei (aber Parkuhrenpflicht) Samstag 9-16 Uhr","rawFee":"laut Verordnung: 1,10 € je halbe Stunde (nicht im Datensatz)","note":"INNENSTADT-RIEDENBURG-LEHENSÜD","windows":[{"weekdays":[1,2,3,4,5],"fromMinute":540,"toMinute":1140}],"fee":{"kind":"exact","centsPerHour":220},"unmodelledRules":["Sa 9–16 Uhr gebührenfrei, aber mit Parkscheibe, höchstens 3 Std."],"sourceDefect":null,"spaces":null,"maxStayMinutes":180,"maxStay":null,"maxStayShare":0,"maxStayValues":[],"chargingPoints":0,"carsharing":0},"geometry":{"type":"MultiPolygon","coordinates":[[[[13.03553,47.80857],[13.03328,47.80841],[13.0334,47.80783],[13.03343,47.80771],[13.03351,47.80753],[13.03372,47.80715],[13.03376,47.80711],[13.03387,47.80685],[13.03368,47.80681],[13.03334,47.80656],[13.03332,47.80652],[13.03333,47.80646],[13.03302,47.80608],[13.03299,47.80609],[13.03252,47.80552],[13.03232,47.80532],[13.03173,47.8048],[13.03176,47.80479],[13.03157,47.80459],[13.03147,47.80455],[13.03131,47.80451],[13.03123,47.80446],[13.03118,47.80439],[13.03116,47.80432],[13.03111,47.80426],[13.03044,47.804],[13.02953,47.80368],[13.02881,47.80348],[13.02875,47.80348],[13.02871,47.80351],[13.02909,47.80286],[13.03007,47.80125],[13.03004,47.8012],[13.03005,47.80103],[13.03017,47.80081],[13.03067,47.80007],[13.03072,47.79995],[13.03074,47.79985],[13.03075,47.79967],[13.0307,47.79791],[13.03066,47.79769],[13.03228,47.79753],[13.03255,47.79752],[13.03268,47.79747],[13.0335,47.79704],[13.03351,47.79705],[13.03541,47.79617],[13.03578,47.79604],[13.03582,47.79607],[13.03742,47.79604],[13.0374,47.79557],[13.03719,47.79539],[13.03715,47.79534],[13.03716,47.79534],[13.03782,47.79551],[13.03802,47.7956],[13.03808,47.79565],[13.03868,47.79637],[13.03875,47.79789],[13.03876,47.79795],[13.0387,47.79809],[13.03847,47.79829],[13.03765,47.79785],[13.03656,47.79863],[13.03632,47.79868],[13.03549,47.79873],[13.03513,47.79874],[13.03513,47.79875],[13.03456,47.79874],[13.03384,47.79879],[13.0334,47.79891],[13.03322,47.79899],[13.03308,47.79909],[13.03296,47.79921],[13.03283,47.79937],[13.03224,47.80032],[13.03216,47.8005],[13.03214,47.80068],[13.03212,47.80115],[13.03208,47.80145],[13.03205,47.80218],[13.03203,47.80218],[13.0319,47.80318],[13.03195,47.80354],[13.03198,47.8036],[13.03212,47.80378],[13.03225,47.80391],[13.03241,47.80402],[13.03273,47.80418],[13.03275,47.80416],[13.03317,47.80449],[13.03348,47.8047],[13.03395,47.80498],[13.03416,47.80505],[13.03823,47.80232],[13.03847,47.80191],[13.03896,47.8012],[13.03901,47.80077],[13.03911,47.8006],[13.03934,47.80047],[13.03952,47.80029],[13.04002,47.80008],[13.04001,47.80007],[13.04015,47.80009],[13.04024,47.80007],[13.04023,47.80031],[13.04019,47.80041],[13.04009,47.80039],[13.0399,47.80072],[13.03992,47.80079],[13.0415,47.8007],[13.04279,47.80067],[13.04332,47.80058],[13.04359,47.80057],[13.04359,47.80053],[13.04365,47.8005],[13.04373,47.8005],[13.04415,47.80041],[13.04464,47.80039],[13.04525,47.80025],[13.04527,47.8003],[13.04582,47.80021],[13.04865,47.79929],[13.0488,47.79918],[13.04943,47.79902],[13.04991,47.79887],[13.04968,47.79857],[13.04974,47.79855],[13.04964,47.79842],[13.05006,47.79811],[13.05023,47.79801],[13.0516,47.79792],[13.0518,47.79788],[13.05198,47.79798],[13.05194,47.79805],[13.05193,47.79818],[13.05202,47.79829],[13.05081,47.79874],[13.04824,47.79957],[13.04654,47.80011],[13.04612,47.80023],[13.04538,47.8004],[13.04539,47.80044],[13.04406,47.80068],[13.0435,47.80082],[13.04348,47.80078],[13.0428,47.80099],[13.04195,47.80127],[13.04098,47.80164],[13.04019,47.802],[13.03976,47.80223],[13.03935,47.8025],[13.03901,47.80275],[13.03873,47.80299],[13.03829,47.80344],[13.03792,47.8039],[13.03718,47.80491],[13.03657,47.80598],[13.036,47.80711],[13.03566,47.80809],[13.03553,47.80857]]]]}},{"type":"Feature","properties":{"zone":"193","district":"Lehen","rawHours":"gebührenpflichtig (Gebühreneinhebung mit Parkscheinautomat) werktags Montag bis Freitag 9-19 Uhr; gebührenfrei (aber Parkuhrenpflicht) Samstag 9-16 Uhr","rawFee":"laut Verordnung: 1,10 € je halbe Stunde (nicht im Datensatz)","note":"LEHEN-NORD — in Bewohnerparkzone F","windows":[{"weekdays":[1,2,3,4,5],"fromMinute":540,"toMinute":1140}],"fee":{"kind":"exact","centsPerHour":220},"unmodelledRules":["Sa 9–16 Uhr gebührenfrei, aber mit Parkscheibe, höchstens 3 Std."],"sourceDefect":null,"spaces":null,"maxStayMinutes":180,"maxStay":null,"maxStayShare":0,"maxStayValues":[],"chargingPoints":0,"carsharing":0},"geometry":{"type":"MultiPolygon","coordinates":[[[[13.034,47.81272],[13.03386,47.81267],[13.03384,47.81269],[13.03381,47.8127],[13.0338,47.81272],[13.03333,47.81265],[13.03333,47.81261],[13.03314,47.81259],[13.03312,47.81243],[13.03312,47.81246],[13.03309,47.81248],[13.03194,47.8128],[13.03179,47.81266],[13.03144,47.81245],[13.03128,47.81231],[13.03121,47.81221],[13.03109,47.81218],[13.02854,47.81233],[13.02854,47.81236],[13.02826,47.81236],[13.02638,47.81247],[13.02631,47.81168],[13.0343,47.8112],[13.03448,47.81126],[13.03606,47.81117],[13.03616,47.8126],[13.03533,47.81258],[13.03426,47.81246],[13.03418,47.8125],[13.034,47.81272]]]]}},{"type":"Feature","properties":{"zone":"194","district":"Lehen","rawHours":"gebührenfrei (aber Parkuhrenpflicht) werktags Montag bis Freitag 9-19 Uhr","rawFee":"gebührenfrei (aber Parkuhrenpflicht)","note":"INNENSTADT-RIEDENBURG-LEHENSÜD — in Bewohnerparkzone F","windows":[{"weekdays":[1,2,3,4,5],"fromMinute":540,"toMinute":1140}],"fee":{"kind":"disc"},"unmodelledRules":[],"sourceDefect":null,"spaces":null,"maxStayMinutes":180,"maxStay":null,"maxStayShare":0,"maxStayValues":[],"chargingPoints":0,"carsharing":0},"geometry":{"type":"MultiPolygon","coordinates":[[[[13.02652,47.81012],[13.02665,47.8092],[13.02686,47.80797],[13.02915,47.80814],[13.02935,47.80816],[13.02935,47.80818],[13.03084,47.80829],[13.03094,47.80829],[13.03089,47.8087],[13.03085,47.8087],[13.03082,47.80892],[13.03078,47.80908],[13.03001,47.80904],[13.02994,47.80906],[13.02979,47.81022],[13.02659,47.81021],[13.02652,47.81019],[13.02652,47.81012]]]]}},{"type":"Feature","properties":{"zone":"195","district":"Nonntal","rawHours":"gebührenfrei (aber Parkuhrenpflicht) werktags Montag bis Freitag 9-19 Uhr und Samstag 9-16 Uhr","rawFee":"gebührenfrei (aber Parkuhrenpflicht)","note":"L 104 ERZABT-KLOTZ/NONNTALER","windows":[{"weekdays":[1,2,3,4,5],"fromMinute":540,"toMinute":1140},{"weekdays":[6],"fromMinute":540,"toMinute":960}],"fee":{"kind":"disc"},"unmodelledRules":[],"sourceDefect":null,"spaces":null,"maxStayMinutes":180,"maxStay":null,"maxStayShare":0,"maxStayValues":[],"chargingPoints":0,"carsharing":0},"geometry":{"type":"MultiPolygon","coordinates":[[[[13.05197,47.78639],[13.05192,47.78659],[13.05176,47.78683],[13.05166,47.78692],[13.05137,47.78738],[13.05062,47.78908],[13.05054,47.78946],[13.05043,47.78968],[13.05018,47.78998],[13.05019,47.78998],[13.05008,47.79008],[13.05001,47.79017],[13.05004,47.79017],[13.04999,47.79023],[13.04958,47.79063],[13.04949,47.79073],[13.04941,47.79087],[13.04921,47.79131],[13.0492,47.79137],[13.04921,47.79143],[13.04925,47.79149],[13.0493,47.79154],[13.04938,47.79157],[13.05099,47.79212],[13.0509,47.79223],[13.04946,47.79176],[13.04906,47.79176],[13.04882,47.79183],[13.04879,47.79164],[13.04896,47.79141],[13.0492,47.79085],[13.04923,47.79075],[13.04959,47.79036],[13.04956,47.79035],[13.04981,47.79016],[13.04995,47.79001],[13.05006,47.78983],[13.05059,47.78871],[13.05088,47.78799],[13.05093,47.78794],[13.0509,47.78793],[13.05118,47.78729],[13.05177,47.78637],[13.05197,47.78639]]]]}},{"type":"Feature","properties":{"zone":"199","district":"Maxglan","rawHours":"gebührenfrei (aber Parkuhrenpflicht) werktags Montag bis Freitag 9-19 Uhr und Samstag 9-16 Uhr","rawFee":"gebührenfrei (aber Parkuhrenpflicht)","note":"B1 INNSBRUCKER BNDSTR. 12-20 — in Bewohnerparkzone G · Landesstraße","windows":[{"weekdays":[1,2,3,4,5],"fromMinute":540,"toMinute":1140},{"weekdays":[6],"fromMinute":540,"toMinute":960}],"fee":{"kind":"disc"},"unmodelledRules":[],"sourceDefect":null,"spaces":null,"maxStayMinutes":180,"maxStay":null,"maxStayShare":0,"maxStayValues":[],"chargingPoints":0,"carsharing":0},"geometry":{"type":"MultiPolygon","coordinates":[[[[13.02541,47.80561],[13.02541,47.80563],[13.02476,47.80569],[13.02433,47.80571],[13.02433,47.80568],[13.02454,47.80568],[13.02541,47.80561]]]]}},{"type":"Feature","properties":{"zone":"200","district":"Maxglan","rawHours":"gebührenfrei (aber Parkuhrenpflicht) werktags Montag bis Freitag 9-19 Uhr und Samstag 9-16 Uhr","rawFee":"gebührenfrei (aber Parkuhrenpflicht)","note":"B1 INNSBRUCKER BNDSTR. 7 — in Bewohnerparkzone G · Landesstraße","windows":[{"weekdays":[1,2,3,4,5],"fromMinute":540,"toMinute":1140},{"weekdays":[6],"fromMinute":540,"toMinute":960}],"fee":{"kind":"disc"},"unmodelledRules":[],"sourceDefect":null,"spaces":null,"maxStayMinutes":180,"maxStay":null,"maxStayShare":0,"maxStayValues":[],"chargingPoints":0,"carsharing":0},"geometry":{"type":"MultiPolygon","coordinates":[[[[13.02505,47.80552],[13.02521,47.80552],[13.02521,47.80555],[13.02505,47.80554],[13.02505,47.80552]]]]}},{"type":"Feature","properties":{"zone":"204","district":"Elisabeth Vorstadt","rawHours":"gebührenpflichtig (Gebühreneinhebung mit Parkscheinautomat) werktags Montag bis Freitag 9-19 Uhr; gebührenfrei (aber Parkuhrenpflicht) Samstag 9-16 Uhr","rawFee":"laut Verordnung: 1,10 € je halbe Stunde (nicht im Datensatz)","note":"Kurzparkzone (Bewohnerparkzone E) — Gemeindestraße","windows":[{"weekdays":[1,2,3,4,5],"fromMinute":540,"toMinute":1140}],"fee":{"kind":"exact","centsPerHour":220},"unmodelledRules":["Sa 9–16 Uhr gebührenfrei, aber mit Parkscheibe, höchstens 3 Std."],"sourceDefect":null,"spaces":null,"maxStayMinutes":180,"maxStay":null,"maxStayShare":0,"maxStayValues":[],"chargingPoints":0,"carsharing":0},"geometry":{"type":"MultiPolygon","coordinates":[[[[13.04442,47.81722],[13.04433,47.81709],[13.04316,47.81593],[13.04269,47.81541],[13.04268,47.81535],[13.04259,47.81518],[13.04255,47.81518],[13.04241,47.81496],[13.04211,47.81424],[13.04213,47.81419],[13.04209,47.81408],[13.042,47.8137],[13.04199,47.81325],[13.04205,47.81325],[13.04205,47.81243],[13.04209,47.81233],[13.04204,47.81225],[13.04187,47.81164],[13.04189,47.81081],[13.04293,47.81077],[13.04329,47.81072],[13.04336,47.81081],[13.04344,47.8108],[13.04502,47.81307],[13.04571,47.81412],[13.0455,47.81418],[13.0458,47.81463],[13.04613,47.81516],[13.0457,47.81531],[13.0455,47.81659],[13.04512,47.81691],[13.04497,47.81695],[13.04491,47.81694],[13.04442,47.81722]]]]}},{"type":"Feature","properties":{"zone":"205","district":"Elisabeth Vorstadt","rawHours":"gebührenpflichtig (Gebühreneinhebung mit Parkscheinautomat) werktags Montag bis Freitag 9-19 Uhr; gebührenfrei (aber Parkuhrenpflicht) Samstag 9-16 Uhr","rawFee":"laut Verordnung: 1,10 € je halbe Stunde (nicht im Datensatz)","note":"Kurzparkzone (Bewohnerparkzone E) — Landesstraße","windows":[{"weekdays":[1,2,3,4,5],"fromMinute":540,"toMinute":1140}],"fee":{"kind":"exact","centsPerHour":220},"unmodelledRules":["Sa 9–16 Uhr gebührenfrei, aber mit Parkscheibe, höchstens 3 Std."],"sourceDefect":null,"spaces":null,"maxStayMinutes":180,"maxStay":null,"maxStayShare":0,"maxStayValues":[],"chargingPoints":0,"carsharing":0},"geometry":{"type":"MultiPolygon","coordinates":[[[[13.04418,47.81714],[13.0434,47.81635],[13.04283,47.81575],[13.04256,47.81544],[13.0424,47.8152],[13.0422,47.81483],[13.04198,47.81424],[13.04191,47.81412],[13.04194,47.81412],[13.04187,47.81377],[13.04185,47.81337],[13.04186,47.81221],[13.04173,47.81176],[13.0417,47.81156],[13.04169,47.81116],[13.04172,47.8108],[13.04189,47.81081],[13.04187,47.81164],[13.04204,47.81225],[13.04209,47.81233],[13.04205,47.81243],[13.04205,47.81325],[13.04199,47.81325],[13.04201,47.8137],[13.04209,47.81408],[13.04213,47.81419],[13.04211,47.81424],[13.04214,47.8143],[13.04241,47.81496],[13.04255,47.81518],[13.04259,47.81518],[13.04268,47.81535],[13.04269,47.81541],[13.04299,47.81576],[13.04433,47.81709],[13.04438,47.81716],[13.04421,47.81723],[13.04417,47.81717],[13.04418,47.81714]]]]}}]}