{"type":"FeatureCollection","features":[{"type":"Feature","properties":{"name":"Aga"},"geometry":{"type":"Polygon","coordinates":[[[12.12201,50.96782],[12.12147,50.96782],[12.12032,50.96816],[12.11973,50.96805],[12.11889,50.96814],[12.11822,50.96845],[12.1159,50.96877],[12.1158,50.96909],[12.11049,50.97148],[12.10828,50.97233],[12.10589,50.97289],[12.10587,50.97328],[12.10516,50.97347],[12.10256,50.97393],[12.10086,50.97404],[12.09832,50.97393],[12.0941,50.97473],[12.09332,50.97519],[12.09251,50.97649],[12.091,50.97661],[12.0893,50.97657],[12.08721,50.97628],[12.07749,50.97407],[12.07701,50.97415],[12.07741,50.97429],[12.07743,50.97451],[12.07674,50.97457],[12.07336,50.97412],[12.07247,50.97387],[12.07189,50.97351],[12.07017,50.97315],[12.06833,50.97248],[12.06817,50.97201],[12.06752,50.97171],[12.0663,50.9716],[12.06604,50.97132],[12.06559,50.97122],[12.06356,50.97107],[12.0592,50.97018],[12.05565,50.96919],[12.05537,50.9688],[12.05537,50.96862],[12.05558,50.96851],[12.054,50.96862],[12.05199,50.96934],[12.05077,50.96936],[12.04925,50.96914],[12.04579,50.96985],[12.04327,50.97075],[12.04245,50.97127],[12.04255,50.97147],[12.0418,50.97166],[12.04081,50.97242],[12.04046,50.97229],[12.04026,50.97244],[12.03975,50.97237],[12.03962,50.97257],[12.03945,50.97247],[12.03902,50.97274],[12.03842,50.97263],[12.03818,50.97277],[12.03831,50.97287],[12.03791,50.97295],[12.03776,50.9728],[12.03682,50.97271],[12.03663,50.97244],[12.03605,50.97261],[12.0359,50.97237],[12.03523,50.97245],[12.03512,50.97239],[12.03519,50.97225],[12.03498,50.97227],[12.03619,50.9708],[12.03708,50.97009],[12.03543,50.96813],[12.03642,50.96728],[12.03658,50.96559],[12.03784,50.9658],[12.04033,50.96512],[12.04069,50.96489],[12.04155,50.96507],[12.04547,50.96068],[12.04484,50.96051],[12.04521,50.96007],[12.04924,50.9611],[12.05284,50.96179],[12.05327,50.96097],[12.05571,50.96139],[12.05646,50.96012],[12.05646,50.95974],[12.05593,50.9591],[12.05699,50.95816],[12.05629,50.9576],[12.05695,50.95545],[12.05735,50.95553],[12.058,50.95462],[12.05922,50.95339],[12.05754,50.95224],[12.05861,50.95115],[12.06112,50.95255],[12.06201,50.95194],[12.06174,50.95176],[12.06467,50.94925],[12.06612,50.94767],[12.06661,50.94782],[12.06681,50.94765],[12.06734,50.94771],[12.06846,50.94686],[12.06954,50.94571],[12.07297,50.94671],[12.07423,50.94679],[12.07469,50.94642],[12.07432,50.94606],[12.07359,50.94371],[12.07376,50.9419],[12.07445,50.94208],[12.07474,50.9414],[12.07517,50.94156],[12.07567,50.94121],[12.07639,50.94169],[12.07754,50.94098],[12.07893,50.94164],[12.07946,50.9411],[12.08133,50.94168],[12.08174,50.94128],[12.08588,50.94301],[12.08626,50.94176],[12.08605,50.94027],[12.0863,50.93938],[12.08734,50.93753],[12.08803,50.93513],[12.08837,50.93235],[12.08907,50.93091],[12.08925,50.9309],[12.09123,50.9331],[12.09363,50.93408],[12.0971,50.93491],[12.1,50.93652],[12.09991,50.93662],[12.10022,50.93735],[12.09984,50.93771],[12.09897,50.9376],[12.09908,50.93723],[12.09806,50.93703],[12.09777,50.93795],[12.09772,50.9393],[12.09735,50.94092],[12.10052,50.94117],[12.101,50.93978],[12.10227,50.94],[12.1018,50.94154],[12.10568,50.94194],[12.1047,50.94462],[12.10683,50.94491],[12.10836,50.9408],[12.1098,50.94315],[12.11209,50.945],[12.11509,50.94626],[12.11765,50.9479],[12.11888,50.94894],[12.11942,50.94915],[12.1199,50.9506],[12.11947,50.95079],[12.11686,50.95052],[12.11823,50.95531],[12.12035,50.95576],[12.12142,50.95671],[12.12338,50.95776],[12.1258,50.95947],[12.12677,50.96232],[12.12699,50.96282],[12.12734,50.96305],[12.12742,50.96346],[12.12745,50.96381],[12.12708,50.96496],[12.12603,50.96517],[12.12534,50.96496],[12.12272,50.96521],[12.12287,50.96641],[12.12196,50.96647],[12.12201,50.96782]]]}},{"type":"Feature","properties":{"name":"Bieblach-Ost"},"geometry":{"type":"Polygon","coordinates":[[[12.10648,50.89654],[12.10776,50.89727],[12.10929,50.89789],[12.11244,50.89876],[12.11483,50.89982],[12.11749,50.90053],[12.1186,50.90118],[12.11693,50.90205],[12.1146,50.90251],[12.11383,50.90326],[12.11337,50.90436],[12.11265,50.90476],[12.11036,50.90514],[12.10931,50.90561],[12.10695,50.90603],[12.10567,50.90592],[12.10417,50.90536],[12.10231,50.90566],[12.10058,50.90565],[12.09965,50.90591],[12.09961,50.90645],[12.09849,50.90645],[12.09849,50.90662],[12.09758,50.90652],[12.09742,50.90753],[12.09496,50.90725],[12.08881,50.90705],[12.08726,50.90671],[12.08704,50.90682],[12.08261,50.90528],[12.08422,50.90491],[12.08234,50.90424],[12.08469,50.90139],[12.0849,50.90157],[12.08875,50.90233],[12.08959,50.90072],[12.08975,50.90075],[12.09015,50.89982],[12.0905,50.89988],[12.09037,50.89867],[12.09074,50.89784],[12.09171,50.89692],[12.09214,50.89628],[12.09262,50.89635],[12.0932,50.89547],[12.09393,50.89563],[12.09413,50.89525],[12.09655,50.89552],[12.0985,50.89527],[12.10157,50.89572],[12.10371,50.89621],[12.10599,50.89702],[12.10648,50.89654]]]}},{"type":"Feature","properties":{"name":"Bieblach-Tinz"},"geometry":{"type":"Polygon","coordinates":[[[12.09413,50.89525],[12.09655,50.89552],[12.0985,50.89527],[12.10157,50.89572],[12.10438,50.89639],[12.10599,50.89702],[12.10648,50.89654],[12.1056,50.89598],[12.10643,50.89504],[12.10822,50.89379],[12.1079,50.89361],[12.10695,50.89414],[12.10657,50.89407],[12.10564,50.89464],[12.10521,50.89509],[12.10501,50.89498],[12.10442,50.89526],[12.10303,50.89453],[12.09956,50.89359],[12.09744,50.8926],[12.09499,50.8909],[12.09332,50.88928],[12.09071,50.88814],[12.09035,50.88926],[12.08937,50.89035],[12.0827,50.89409],[12.08034,50.89411],[12.07898,50.89372],[12.0783,50.89302],[12.07828,50.89204],[12.07802,50.89155],[12.07636,50.89067],[12.0744,50.8925],[12.0729,50.89416],[12.07168,50.895],[12.06845,50.89792],[12.06723,50.89877],[12.06515,50.89951],[12.06265,50.89976],[12.05968,50.89946],[12.05765,50.9016],[12.05681,50.90457],[12.05619,50.9057],[12.0557,50.90623],[12.05355,50.90748],[12.05019,50.90845],[12.04901,50.90894],[12.04572,50.91081],[12.04349,50.91245],[12.04473,50.91309],[12.04656,50.91176],[12.05143,50.91383],[12.05192,50.91451],[12.05423,50.91507],[12.05474,50.91483],[12.0564,50.91476],[12.05703,50.91445],[12.05821,50.91347],[12.0636,50.91229],[12.06499,50.91277],[12.06572,50.91219],[12.06781,50.91296],[12.06825,50.91386],[12.06827,50.91437],[12.06842,50.91442],[12.06779,50.91533],[12.06701,50.91601],[12.06678,50.91639],[12.06669,50.91707],[12.06759,50.9173],[12.06838,50.91656],[12.07007,50.91636],[12.07101,50.91692],[12.07185,50.91845],[12.0718,50.91886],[12.0723,50.91942],[12.07355,50.91965],[12.07452,50.91914],[12.07636,50.9198],[12.07787,50.91881],[12.083,50.91836],[12.0831,50.91811],[12.08634,50.9197],[12.08622,50.91983],[12.0866,50.92007],[12.08829,50.91923],[12.08844,50.91888],[12.08934,50.91813],[12.08959,50.91824],[12.0913,50.91688],[12.09319,50.9148],[12.0937,50.91482],[12.09408,50.91441],[12.09387,50.91432],[12.09399,50.91418],[12.09383,50.91401],[12.09353,50.91399],[12.09276,50.91352],[12.09295,50.91231],[12.09399,50.91071],[12.09446,50.91084],[12.09496,50.91013],[12.09567,50.91047],[12.09636,50.91053],[12.09805,50.9104],[12.09837,50.90913],[12.09761,50.90908],[12.09703,50.90881],[12.09742,50.90753],[12.09496,50.90725],[12.08881,50.90705],[12.08726,50.90671],[12.08704,50.90682],[12.08261,50.90528],[12.08422,50.90491],[12.08234,50.90424],[12.08469,50.90139],[12.0849,50.90157],[12.08875,50.90233],[12.08959,50.90072],[12.08975,50.90075],[12.09015,50.89982],[12.0905,50.89988],[12.09037,50.89867],[12.09074,50.89784],[12.09171,50.89692],[12.09214,50.89628],[12.09262,50.89635],[12.0932,50.89547],[12.09393,50.89563],[12.09413,50.89525]]]}},{"type":"Feature","properties":{"name":"Cretzschwitz/Söllmnitz"},"geometry":{"type":"Polygon","coordinates":[[[12.13535,50.92847],[12.13225,50.93191],[12.1333,50.93177],[12.13277,50.93277],[12.13688,50.93318],[12.14,50.93275],[12.14026,50.93248],[12.14239,50.93228],[12.14299,50.92872],[12.14327,50.9278],[12.14699,50.92834],[12.14681,50.92808],[12.14945,50.92846],[12.14929,50.93004],[12.14849,50.93186],[12.14929,50.932],[12.14899,50.9325],[12.1535,50.9329],[12.15497,50.93242],[12.1558,50.93281],[12.15688,50.93229],[12.15691,50.93219],[12.15642,50.93198],[12.15644,50.93176],[12.15659,50.93172],[12.15863,50.93205],[12.16056,50.93296],[12.16813,50.93458],[12.16953,50.93514],[12.16865,50.93927],[12.16875,50.94271],[12.16608,50.94262],[12.1652,50.94425],[12.16831,50.94393],[12.16937,50.94361],[12.16541,50.95168],[12.16611,50.95199],[12.16601,50.95228],[12.16247,50.95273],[12.15787,50.95269],[12.15689,50.95657],[12.15672,50.95657],[12.15646,50.95904],[12.15578,50.96067],[12.15359,50.95958],[12.15067,50.95884],[12.14759,50.95761],[12.14104,50.95547],[12.13749,50.95403],[12.13524,50.95282],[12.13468,50.95247],[12.13493,50.95236],[12.13474,50.95221],[12.13269,50.95104],[12.13227,50.95097],[12.13166,50.95167],[12.12963,50.95272],[12.1275,50.95328],[12.12336,50.94916],[12.1199,50.9506],[12.11942,50.94915],[12.11888,50.94894],[12.11765,50.9479],[12.11509,50.94626],[12.11209,50.945],[12.1098,50.94315],[12.10836,50.9408],[12.1076,50.94286],[12.1063,50.94176],[12.10693,50.93992],[12.10628,50.93943],[12.10658,50.93786],[12.10856,50.93777],[12.10878,50.93678],[12.11082,50.93687],[12.11102,50.93582],[12.11453,50.93621],[12.11606,50.9359],[12.11848,50.93577],[12.11932,50.93411],[12.12081,50.93176],[12.12084,50.93114],[12.12067,50.93068],[12.12084,50.93061],[12.12013,50.93007],[12.1197,50.92937],[12.12325,50.92988],[12.12394,50.92895],[12.12721,50.92951],[12.12748,50.929],[12.12858,50.92922],[12.12904,50.92866],[12.13069,50.9294],[12.13116,50.92899],[12.13135,50.92911],[12.13108,50.92947],[12.13248,50.93014],[12.13281,50.93007],[12.13358,50.92938],[12.13379,50.92946],[12.13511,50.92832],[12.13535,50.92847]]]}},{"type":"Feature","properties":{"name":"Debschwitz"},"geometry":{"type":"Polygon","coordinates":[[[12.06478,50.87921],[12.06562,50.87782],[12.06627,50.87548],[12.06641,50.87414],[12.06537,50.87127],[12.06544,50.87012],[12.06501,50.87017],[12.06519,50.86919],[12.06447,50.86923],[12.06422,50.86864],[12.06453,50.86826],[12.06235,50.86801],[12.06017,50.86816],[12.05849,50.86872],[12.05451,50.86932],[12.05372,50.8689],[12.05095,50.87109],[12.05003,50.87158],[12.04524,50.87303],[12.04455,50.8729],[12.04502,50.87117],[12.04427,50.87094],[12.04417,50.87054],[12.04443,50.8699],[12.04543,50.86998],[12.0458,50.86919],[12.04915,50.86448],[12.05327,50.85662],[12.05332,50.85641],[12.05299,50.85595],[12.05252,50.85566],[12.05231,50.85477],[12.05179,50.85435],[12.05257,50.8535],[12.05353,50.85326],[12.0539,50.85303],[12.05418,50.85248],[12.0544,50.85241],[12.05593,50.85271],[12.05753,50.8527],[12.0579,50.85296],[12.05785,50.85355],[12.05806,50.85374],[12.0627,50.85307],[12.06308,50.85288],[12.06389,50.85287],[12.06398,50.85249],[12.06525,50.85258],[12.06791,50.85333],[12.06779,50.85348],[12.06858,50.85357],[12.06882,50.8548],[12.06988,50.85491],[12.06986,50.85353],[12.07072,50.85353],[12.07071,50.85273],[12.07262,50.85277],[12.07261,50.85247],[12.07328,50.85246],[12.07327,50.85134],[12.07746,50.85113],[12.07854,50.85147],[12.07821,50.85222],[12.07755,50.85514],[12.07761,50.85648],[12.07719,50.85889],[12.07737,50.85979],[12.07896,50.86282],[12.07915,50.86421],[12.07889,50.86553],[12.07828,50.86642],[12.07564,50.86851],[12.07464,50.86966],[12.07332,50.87163],[12.07014,50.87496],[12.06967,50.87587],[12.06931,50.87723],[12.06901,50.87767],[12.06829,50.87814],[12.06612,50.8788],[12.06565,50.8791],[12.06514,50.87986],[12.06452,50.87974],[12.06478,50.87921]]]}},{"type":"Feature","properties":{"name":"Dürrenebersdorf und Langengrobsdorf"},"geometry":{"type":"Polygon","coordinates":[[[12.01196,50.84165],[12.01262,50.84223],[12.01478,50.84308],[12.0153,50.84344],[12.01882,50.84458],[12.0186,50.84528],[12.0187,50.84537],[12.02061,50.84571],[12.02226,50.84574],[12.02312,50.84451],[12.02445,50.84308],[12.02589,50.8419],[12.02876,50.8424],[12.03175,50.84355],[12.03595,50.84429],[12.03726,50.84488],[12.03749,50.84573],[12.03813,50.8465],[12.0412,50.84739],[12.03774,50.85062],[12.04222,50.8515],[12.04349,50.85201],[12.04431,50.85202],[12.04511,50.8525],[12.046,50.85263],[12.04715,50.8533],[12.04845,50.85365],[12.04899,50.85362],[12.04986,50.854],[12.05132,50.85404],[12.05231,50.85477],[12.05252,50.85566],[12.05299,50.85595],[12.05332,50.85641],[12.05327,50.85662],[12.04915,50.86448],[12.04756,50.86676],[12.04465,50.86699],[12.04061,50.86632],[12.04089,50.86548],[12.04065,50.86526],[12.04025,50.86535],[12.04002,50.86613],[12.03802,50.86589],[12.03948,50.86185],[12.03742,50.86127],[12.03702,50.86089],[12.03598,50.85895],[12.03473,50.85779],[12.03117,50.85806],[12.0308,50.85617],[12.02891,50.85558],[12.02594,50.85516],[12.01626,50.85293],[12.01558,50.85378],[12.01541,50.85623],[12.01568,50.85857],[12.01555,50.85964],[12.01517,50.86022],[12.01457,50.86005],[12.01449,50.86016],[12.01259,50.8592],[12.0123,50.8592],[12.01225,50.8594],[12.01193,50.85952],[12.01124,50.85949],[12.00862,50.85835],[12.00048,50.85686],[11.99988,50.85499],[11.99985,50.85386],[12.00026,50.85273],[11.99997,50.85117],[11.99943,50.8504],[11.99907,50.85024],[11.99906,50.85005],[11.99859,50.84998],[11.99844,50.8498],[12.00508,50.84488],[12.01196,50.84165]]]}},{"type":"Feature","properties":{"name":"Ernsee"},"geometry":{"type":"Polygon","coordinates":[[[12.06452,50.87974],[12.06251,50.87933],[12.06141,50.87566],[12.06166,50.87528],[12.06148,50.87501],[12.0609,50.87513],[12.06102,50.8755],[12.06134,50.87567],[12.06246,50.87934],[12.06068,50.88051],[12.06037,50.88104],[12.06037,50.88241],[12.05972,50.88248],[12.05979,50.88272],[12.06028,50.88272],[12.06016,50.88378],[12.05714,50.88683],[12.05716,50.88775],[12.05742,50.88814],[12.05728,50.88907],[12.0576,50.88966],[12.05774,50.89043],[12.05819,50.8911],[12.05815,50.89148],[12.05741,50.89194],[12.05739,50.89268],[12.05681,50.89304],[12.05657,50.89581],[12.05501,50.89663],[12.05136,50.89776],[12.04931,50.8979],[12.04545,50.89768],[12.04443,50.89791],[12.04401,50.89705],[12.04348,50.89723],[12.04311,50.89759],[12.04167,50.89842],[12.04019,50.89871],[12.03897,50.89785],[12.03895,50.89736],[12.03947,50.89637],[12.0394,50.89588],[12.03913,50.89527],[12.03835,50.89436],[12.03701,50.8931],[12.03639,50.89291],[12.03207,50.88879],[12.02877,50.88726],[12.0245,50.894],[12.02319,50.89397],[12.02101,50.8936],[12.01969,50.89309],[12.01586,50.89117],[12.01341,50.89053],[12.01243,50.89046],[12.01191,50.88939],[12.01055,50.88862],[12.01233,50.88716],[12.01184,50.88708],[12.01132,50.88672],[12.01307,50.8863],[12.01595,50.88465],[12.02579,50.88143],[12.02885,50.88108],[12.02639,50.87963],[12.02565,50.87882],[12.02447,50.87802],[12.02669,50.87789],[12.02646,50.87711],[12.03044,50.87627],[12.03045,50.87548],[12.03255,50.87544],[12.03344,50.87556],[12.03282,50.87486],[12.03508,50.87396],[12.03703,50.87347],[12.0384,50.87187],[12.03961,50.87205],[12.03999,50.87104],[12.04229,50.87241],[12.04524,50.87303],[12.05049,50.87137],[12.05372,50.8689],[12.05451,50.86932],[12.05849,50.86872],[12.06017,50.86816],[12.06235,50.86801],[12.06453,50.86826],[12.06422,50.86864],[12.06447,50.86923],[12.06519,50.86919],[12.06501,50.87017],[12.06544,50.87012],[12.06537,50.87127],[12.06641,50.87414],[12.06627,50.87548],[12.06562,50.87782],[12.06452,50.87974]]]}},{"type":"Feature","properties":{"name":"Falka"},"geometry":{"type":"Polygon","coordinates":[[[12.13365,50.83011],[12.13306,50.83009],[12.13254,50.83035],[12.13154,50.83132],[12.13152,50.8319],[12.13214,50.83276],[12.13189,50.83285],[12.13099,50.83271],[12.13001,50.83323],[12.12921,50.8332],[12.12826,50.83267],[12.1282,50.83243],[12.12621,50.83204],[12.12485,50.83219],[12.12363,50.83215],[12.12311,50.83197],[12.12142,50.832],[12.11826,50.83094],[12.1169,50.83092],[12.11639,50.83112],[12.11617,50.83092],[12.11519,50.83079],[12.11516,50.83069],[12.11546,50.83066],[12.11547,50.83041],[12.11509,50.83039],[12.11402,50.82992],[12.11199,50.82994],[12.11232,50.82935],[12.11075,50.82882],[12.10983,50.82824],[12.10676,50.82726],[12.10622,50.82756],[12.10618,50.82712],[12.1066,50.82636],[12.10787,50.82608],[12.10837,50.82567],[12.10917,50.82544],[12.10825,50.82474],[12.10884,50.82411],[12.10738,50.82356],[12.10771,50.82296],[12.10329,50.82228],[12.10285,50.82187],[12.10278,50.82135],[12.10429,50.82146],[12.10311,50.81994],[12.10455,50.81978],[12.10463,50.81888],[12.10777,50.81909],[12.10798,50.81939],[12.10846,50.81919],[12.10733,50.818],[12.10839,50.81794],[12.11114,50.81815],[12.11092,50.81739],[12.10973,50.8172],[12.11037,50.8167],[12.11159,50.81608],[12.11281,50.81511],[12.11373,50.8147],[12.11425,50.81407],[12.11468,50.81321],[12.11602,50.81173],[12.11648,50.81097],[12.11745,50.81035],[12.118,50.8096],[12.1195,50.81021],[12.1196,50.80979],[12.11994,50.80936],[12.11991,50.80913],[12.11844,50.80881],[12.11852,50.80724],[12.11791,50.80697],[12.11798,50.80646],[12.11766,50.80609],[12.11795,50.80561],[12.11782,50.80512],[12.11794,50.80469],[12.11756,50.80457],[12.11842,50.80318],[12.11991,50.80315],[12.12002,50.80279],[12.12278,50.80101],[12.12383,50.80079],[12.12465,50.80036],[12.12675,50.79878],[12.12669,50.7986],[12.12836,50.79854],[12.13159,50.79888],[12.13317,50.79939],[12.13856,50.79959],[12.14114,50.80059],[12.14554,50.80136],[12.14607,50.80184],[12.14688,50.80303],[12.14738,50.80334],[12.14661,50.80405],[12.14608,50.80506],[12.14765,50.80642],[12.14904,50.80696],[12.15116,50.80552],[12.15326,50.80534],[12.15433,50.80562],[12.15506,50.80613],[12.15445,50.80827],[12.1542,50.80975],[12.15129,50.81044],[12.15112,50.81138],[12.14975,50.81146],[12.14914,50.81165],[12.14979,50.81245],[12.14817,50.8129],[12.14355,50.81528],[12.13863,50.81662],[12.13803,50.81887],[12.13618,50.81948],[12.13613,50.81912],[12.13503,50.81945],[12.13446,50.82053],[12.13418,50.82188],[12.13359,50.82198],[12.13339,50.82294],[12.13213,50.82373],[12.13031,50.82383],[12.13072,50.82517],[12.13159,50.82585],[12.13284,50.82638],[12.13426,50.82571],[12.13555,50.82585],[12.13597,50.82654],[12.13498,50.82656],[12.13433,50.82718],[12.13469,50.82724],[12.13458,50.82808],[12.13567,50.82826],[12.13586,50.82916],[12.13476,50.82995],[12.13499,50.83091],[12.13638,50.83406],[12.13758,50.83739],[12.1372,50.83849],[12.13709,50.83848],[12.13651,50.83607],[12.13451,50.83142],[12.13427,50.83011],[12.13373,50.83025],[12.13365,50.83011]]]}},{"type":"Feature","properties":{"name":"Hain"},"geometry":{"type":"Polygon","coordinates":[[[12.07384,50.9195],[12.07452,50.91914],[12.07636,50.9198],[12.07787,50.91881],[12.083,50.91836],[12.0831,50.91811],[12.08634,50.9197],[12.08622,50.91983],[12.0866,50.92007],[12.08829,50.91923],[12.08844,50.91888],[12.08934,50.91813],[12.08959,50.91824],[12.0913,50.91688],[12.09319,50.9148],[12.0937,50.91482],[12.09408,50.91441],[12.09574,50.91533],[12.09734,50.91513],[12.09883,50.91627],[12.0991,50.91702],[12.10066,50.91703],[12.10046,50.91758],[12.10115,50.91776],[12.10207,50.91645],[12.10523,50.91737],[12.10491,50.91787],[12.10598,50.91818],[12.10583,50.91857],[12.10605,50.91893],[12.10517,50.92078],[12.10556,50.92087],[12.10558,50.92168],[12.10592,50.92217],[12.10592,50.92276],[12.10523,50.92291],[12.10526,50.92323],[12.10565,50.92455],[12.10613,50.92499],[12.10445,50.92576],[12.10366,50.92755],[12.10275,50.92882],[12.10256,50.92943],[12.104,50.93096],[12.1041,50.93166],[12.10463,50.93259],[12.1026,50.93321],[12.10241,50.93371],[12.1,50.93652],[12.0971,50.93491],[12.09363,50.93408],[12.09123,50.9331],[12.08925,50.9309],[12.08624,50.93055],[12.08383,50.92976],[12.08376,50.92993],[12.08261,50.9296],[12.08231,50.92933],[12.08244,50.92923],[12.08198,50.92856],[12.08173,50.92841],[12.08142,50.92753],[12.081,50.9273],[12.08091,50.92746],[12.0789,50.92682],[12.07858,50.92636],[12.07804,50.92598],[12.07591,50.92322],[12.07698,50.9216],[12.07721,50.92044],[12.07355,50.91965],[12.07384,50.9195]]]}},{"type":"Feature","properties":{"name":"Hermsdorf"},"geometry":{"type":"Polygon","coordinates":[[[12.16428,50.95339],[12.1638,50.95566],[12.16202,50.95837],[12.16342,50.9587],[12.16126,50.9611],[12.15816,50.96318],[12.15807,50.96285],[12.15686,50.96273],[12.15663,50.96303],[12.15603,50.96315],[12.15194,50.96349],[12.15164,50.96431],[12.14951,50.96404],[12.14772,50.96362],[12.14594,50.9635],[12.14422,50.96275],[12.14125,50.96235],[12.13999,50.96166],[12.13801,50.96126],[12.13773,50.96101],[12.13496,50.96029],[12.13181,50.96053],[12.13136,50.96135],[12.13144,50.96365],[12.13241,50.96422],[12.13267,50.96481],[12.13271,50.96574],[12.13123,50.96554],[12.12986,50.96572],[12.12829,50.96561],[12.12756,50.9657],[12.12609,50.96641],[12.12591,50.96681],[12.12567,50.96696],[12.12203,50.96781],[12.12196,50.96647],[12.12287,50.96641],[12.12272,50.96521],[12.12534,50.96496],[12.12603,50.96517],[12.12708,50.96496],[12.12745,50.96381],[12.12734,50.96305],[12.12699,50.96282],[12.1258,50.95947],[12.12549,50.9592],[12.12256,50.95725],[12.12142,50.95671],[12.12035,50.95576],[12.11823,50.95531],[12.11686,50.95052],[12.11947,50.95079],[12.12336,50.94916],[12.1275,50.95328],[12.12963,50.95272],[12.13166,50.95167],[12.13227,50.95097],[12.13269,50.95104],[12.13474,50.95221],[12.13493,50.95236],[12.13468,50.95247],[12.13524,50.95282],[12.13749,50.95403],[12.14104,50.95547],[12.14759,50.95761],[12.15067,50.95884],[12.15359,50.95958],[12.15578,50.96067],[12.15646,50.95904],[12.15672,50.95657],[12.15689,50.95657],[12.15787,50.95269],[12.16247,50.95273],[12.16445,50.95256],[12.16428,50.95339]]]}},{"type":"Feature","properties":{"name":"Langenberg"},"geometry":{"type":"Polygon","coordinates":[[[12.07521,50.91993],[12.07721,50.92044],[12.07698,50.9216],[12.07591,50.92322],[12.07804,50.92598],[12.07858,50.92636],[12.0789,50.92682],[12.08091,50.92746],[12.07946,50.92954],[12.07713,50.9317],[12.07541,50.93084],[12.0746,50.93114],[12.07164,50.93043],[12.07029,50.93061],[12.06997,50.93091],[12.06914,50.93108],[12.06765,50.93108],[12.0653,50.9306],[12.06229,50.92944],[12.06064,50.92818],[12.05941,50.92765],[12.05909,50.92774],[12.0589,50.92803],[12.05904,50.92856],[12.05894,50.92876],[12.061,50.9317],[12.05923,50.93135],[12.05889,50.93108],[12.05548,50.92984],[12.05251,50.92963],[12.0501,50.92986],[12.04981,50.93014],[12.04831,50.93065],[12.048,50.931],[12.04682,50.93135],[12.0466,50.93154],[12.0455,50.93113],[12.04474,50.93104],[12.0446,50.93091],[12.04483,50.93082],[12.04463,50.93068],[12.04068,50.92995],[12.03845,50.92859],[12.03817,50.92826],[12.03813,50.92785],[12.03435,50.92528],[12.03402,50.92519],[12.03414,50.92533],[12.03266,50.92591],[12.03108,50.92462],[12.03246,50.92347],[12.03005,50.92127],[12.0304,50.92056],[12.03121,50.91958],[12.03673,50.91596],[12.04059,50.91437],[12.04349,50.91245],[12.04473,50.91309],[12.04656,50.91176],[12.05143,50.91383],[12.05192,50.91451],[12.05423,50.91507],[12.05474,50.91483],[12.0564,50.91476],[12.05703,50.91445],[12.05821,50.91347],[12.0636,50.91229],[12.06499,50.91277],[12.06572,50.91219],[12.06781,50.91296],[12.06825,50.91386],[12.06827,50.91437],[12.06842,50.91442],[12.06779,50.91533],[12.06701,50.91601],[12.06678,50.91639],[12.06669,50.91707],[12.06759,50.9173],[12.06838,50.91656],[12.07007,50.91636],[12.07101,50.91692],[12.07151,50.91773],[12.07185,50.91845],[12.0718,50.91886],[12.0721,50.91928],[12.07521,50.91993]]]}},{"type":"Feature","properties":{"name":"Liebschwitz"},"geometry":{"type":"Polygon","coordinates":[[[12.10299,50.84249],[12.10062,50.8458],[12.09913,50.84566],[12.09873,50.84545],[12.09719,50.84548],[12.09753,50.84455],[12.09621,50.84412],[12.09613,50.84381],[12.09643,50.84318],[12.09704,50.84255],[12.09717,50.84205],[12.0974,50.84216],[12.09772,50.84192],[12.09699,50.84149],[12.09686,50.84153],[12.09708,50.84207],[12.097,50.84242],[12.09634,50.84314],[12.09604,50.8438],[12.09622,50.84454],[12.09617,50.84528],[12.09569,50.84527],[12.09278,50.84405],[12.09065,50.84365],[12.09073,50.84348],[12.08874,50.8428],[12.08707,50.8415],[12.08569,50.84082],[12.08511,50.84156],[12.08587,50.84212],[12.08548,50.84234],[12.08488,50.84206],[12.08165,50.84242],[12.08147,50.84218],[12.07975,50.84272],[12.07814,50.83978],[12.07752,50.83628],[12.07762,50.83544],[12.07682,50.83526],[12.07509,50.83546],[12.07409,50.83535],[12.07351,50.83441],[12.0735,50.83371],[12.07413,50.83219],[12.07427,50.83143],[12.07488,50.83065],[12.07583,50.83074],[12.07543,50.83017],[12.07554,50.82974],[12.07656,50.82891],[12.07886,50.82507],[12.08042,50.82449],[12.0823,50.82495],[12.08331,50.82347],[12.08347,50.82353],[12.08336,50.82415],[12.08369,50.8246],[12.08424,50.82459],[12.0843,50.82538],[12.0841,50.82638],[12.08479,50.82654],[12.08536,50.82648],[12.08511,50.82554],[12.08562,50.82536],[12.08612,50.8254],[12.08599,50.82487],[12.0871,50.82461],[12.08873,50.82392],[12.08913,50.82403],[12.08972,50.8238],[12.09058,50.82411],[12.09233,50.82326],[12.09563,50.82463],[12.09714,50.82325],[12.09873,50.8222],[12.0984,50.82186],[12.09902,50.82143],[12.10005,50.82226],[12.10088,50.82198],[12.10153,50.82217],[12.10285,50.82187],[12.10329,50.82228],[12.10771,50.82296],[12.10738,50.82356],[12.10884,50.82411],[12.10825,50.82474],[12.10917,50.82544],[12.10837,50.82567],[12.10787,50.82608],[12.1066,50.82636],[12.10618,50.82712],[12.10622,50.82756],[12.10676,50.82726],[12.10983,50.82824],[12.11075,50.82882],[12.11232,50.82935],[12.11199,50.82994],[12.11371,50.82984],[12.11547,50.83041],[12.11546,50.83066],[12.11511,50.83081],[12.11492,50.83063],[12.11316,50.83062],[12.1131,50.83078],[12.11037,50.83039],[12.10977,50.82997],[12.10916,50.82981],[12.1086,50.82926],[12.10862,50.8291],[12.10728,50.82868],[12.10691,50.82883],[12.10691,50.82958],[12.10673,50.82995],[12.10545,50.82951],[12.10473,50.82945],[12.10397,50.82952],[12.1031,50.83015],[12.09909,50.83011],[12.0984,50.83026],[12.09793,50.83072],[12.09516,50.83006],[12.09489,50.83012],[12.09478,50.83051],[12.09466,50.83162],[12.09478,50.83182],[12.09416,50.83346],[12.09473,50.8335],[12.0949,50.83329],[12.09599,50.83368],[12.09588,50.83382],[12.09624,50.83404],[12.09873,50.83474],[12.09993,50.83482],[12.10012,50.83465],[12.10073,50.83463],[12.10152,50.83623],[12.10319,50.83778],[12.10216,50.83901],[12.10114,50.84154],[12.10299,50.84249]]]}},{"type":"Feature","properties":{"name":"Lusan"},"geometry":{"type":"Polygon","coordinates":[[[12.07798,50.83864],[12.07834,50.84035],[12.07955,50.84226],[12.0803,50.84421],[12.07854,50.84437],[12.08144,50.84904],[12.08083,50.84901],[12.08149,50.84947],[12.08008,50.85011],[12.07854,50.85147],[12.07746,50.85113],[12.07327,50.85134],[12.07328,50.85246],[12.07261,50.85247],[12.07262,50.85277],[12.07071,50.85273],[12.07072,50.85353],[12.06986,50.85353],[12.06988,50.85491],[12.06882,50.8548],[12.06858,50.85357],[12.06779,50.85348],[12.06791,50.85333],[12.06525,50.85258],[12.06398,50.85249],[12.06389,50.85287],[12.06308,50.85288],[12.0627,50.85307],[12.05806,50.85374],[12.05785,50.85355],[12.0579,50.85296],[12.05753,50.8527],[12.05593,50.85271],[12.0544,50.85241],[12.05418,50.85248],[12.0539,50.85303],[12.05353,50.85326],[12.05257,50.8535],[12.05179,50.85435],[12.05132,50.85404],[12.04986,50.854],[12.04899,50.85362],[12.04845,50.85365],[12.04715,50.8533],[12.046,50.85263],[12.04511,50.8525],[12.04431,50.85202],[12.04349,50.85201],[12.04222,50.8515],[12.03774,50.85062],[12.0412,50.84739],[12.03813,50.8465],[12.03749,50.84573],[12.03726,50.84488],[12.03698,50.8447],[12.03809,50.84175],[12.03836,50.84153],[12.03829,50.8412],[12.03849,50.84097],[12.03996,50.84088],[12.04052,50.84049],[12.03831,50.83935],[12.03927,50.83815],[12.03956,50.8374],[12.04007,50.83755],[12.04125,50.83632],[12.04143,50.83593],[12.04272,50.8354],[12.0515,50.83496],[12.05335,50.83469],[12.05933,50.83476],[12.06085,50.83461],[12.06093,50.83522],[12.06177,50.83537],[12.06364,50.83565],[12.06572,50.83563],[12.06803,50.83589],[12.06845,50.83706],[12.06894,50.83768],[12.07009,50.83866],[12.07086,50.83899],[12.07408,50.83934],[12.07798,50.83864]]]}},{"type":"Feature","properties":{"name":"Milbitz/Thieschitz/Rubitz"},"geometry":{"type":"Polygon","coordinates":[[[12.02977,50.92103],[12.03073,50.91952],[12.03277,50.91811],[12.0308,50.91898],[12.0307,50.91889],[12.02876,50.91965],[12.02822,50.91975],[12.02783,50.91938],[12.02707,50.91952],[12.02701,50.91939],[12.02619,50.91928],[12.02628,50.91917],[12.02575,50.91905],[12.0257,50.91882],[12.02529,50.91868],[12.02526,50.9185],[12.02461,50.91812],[12.02325,50.91761],[12.02327,50.91705],[12.0223,50.91655],[12.02178,50.91603],[12.01992,50.91526],[12.01932,50.91475],[12.01891,50.9147],[12.01869,50.91443],[12.0185,50.91443],[12.01833,50.91412],[12.01774,50.91403],[12.01767,50.91372],[12.01958,50.91259],[12.02202,50.91049],[12.02446,50.90905],[12.02622,50.90772],[12.02584,50.90749],[12.02835,50.90522],[12.0282,50.9049],[12.02833,50.90411],[12.02717,50.90354],[12.02655,50.90376],[12.02466,50.90315],[12.02749,50.90121],[12.0263,50.90033],[12.02638,50.90024],[12.02271,50.89911],[12.02112,50.89829],[12.02134,50.89789],[12.02093,50.89763],[12.01836,50.89701],[12.01909,50.89663],[12.0139,50.89346],[12.01512,50.89403],[12.01583,50.89334],[12.01642,50.89301],[12.01566,50.89248],[12.01413,50.89188],[12.01436,50.89154],[12.01317,50.89101],[12.01243,50.89046],[12.01341,50.89053],[12.01586,50.89117],[12.01969,50.89309],[12.02101,50.8936],[12.02319,50.89397],[12.0245,50.894],[12.02877,50.88726],[12.03207,50.88879],[12.03639,50.89291],[12.03701,50.8931],[12.03835,50.89436],[12.03913,50.89527],[12.0394,50.89588],[12.03947,50.89637],[12.03895,50.89736],[12.03897,50.89785],[12.04019,50.89871],[12.04167,50.89842],[12.04311,50.89759],[12.04348,50.89723],[12.04401,50.89705],[12.04443,50.89791],[12.04545,50.89768],[12.04676,50.89766],[12.05037,50.89789],[12.05324,50.89725],[12.05565,50.89943],[12.05774,50.89922],[12.05968,50.89946],[12.05765,50.9016],[12.05654,50.90515],[12.05619,50.9057],[12.05516,50.90663],[12.05305,50.90768],[12.04983,50.90859],[12.04655,50.9103],[12.04102,50.91415],[12.03673,50.91596],[12.03121,50.91958],[12.0304,50.92056],[12.03005,50.92127],[12.02977,50.92103]]]}},{"type":"Feature","properties":{"name":"Naulitz"},"geometry":{"type":"Polygon","coordinates":[[[12.14464,50.8655],[12.14492,50.86576],[12.14593,50.86598],[12.14681,50.86671],[12.14854,50.86711],[12.14979,50.86777],[12.15191,50.86797],[12.15199,50.86812],[12.15264,50.86803],[12.15252,50.86825],[12.15285,50.86815],[12.15348,50.86837],[12.15351,50.86859],[12.15236,50.86869],[12.15238,50.86961],[12.15265,50.87044],[12.15354,50.87138],[12.1555,50.87266],[12.15551,50.87285],[12.15594,50.87314],[12.15382,50.87584],[12.15404,50.87592],[12.15274,50.87748],[12.15179,50.87811],[12.14693,50.88246],[12.13894,50.88064],[12.13955,50.87969],[12.13774,50.87918],[12.13711,50.88005],[12.13026,50.87785],[12.13148,50.87607],[12.13239,50.87418],[12.13285,50.87418],[12.13336,50.87368],[12.1327,50.87338],[12.13302,50.87244],[12.13396,50.87064],[12.13411,50.86988],[12.1345,50.87048],[12.13582,50.86935],[12.13465,50.86925],[12.13578,50.86826],[12.13604,50.8677],[12.13688,50.86735],[12.14077,50.86719],[12.14203,50.86667],[12.14275,50.86657],[12.14294,50.86611],[12.1437,50.86572],[12.14464,50.8655]]]}},{"type":"Feature","properties":{"name":"Ostviertel, Leumnitz und Südhang"},"geometry":{"type":"Polygon","coordinates":[[[12.09011,50.86713],[12.09135,50.86715],[12.09148,50.86674],[12.09192,50.86673],[12.09177,50.8672],[12.09254,50.86698],[12.0926,50.86677],[12.09394,50.86642],[12.09574,50.86516],[12.09606,50.86452],[12.09591,50.86402],[12.099,50.86477],[12.10082,50.86398],[12.1023,50.8639],[12.10288,50.86451],[12.10333,50.86568],[12.10433,50.86679],[12.10515,50.86739],[12.1062,50.86677],[12.10847,50.86837],[12.10706,50.86928],[12.10874,50.87041],[12.10972,50.87068],[12.11036,50.87065],[12.11145,50.87102],[12.11256,50.87172],[12.11304,50.87172],[12.11381,50.87222],[12.11446,50.87226],[12.11603,50.87321],[12.11689,50.87339],[12.11718,50.87379],[12.11959,50.87493],[12.12148,50.87525],[12.12486,50.87676],[12.13096,50.87801],[12.13711,50.88005],[12.13774,50.87918],[12.13955,50.87969],[12.13894,50.88064],[12.14538,50.88204],[12.14201,50.88418],[12.13712,50.88269],[12.13426,50.88251],[12.13309,50.88451],[12.13302,50.88578],[12.13406,50.886],[12.13277,50.88981],[12.1274,50.88821],[12.1268,50.88786],[12.12596,50.88784],[12.12243,50.88701],[12.115,50.88689],[12.1132,50.88666],[12.11355,50.88483],[12.11244,50.88472],[12.11299,50.8831],[12.1115,50.88249],[12.10893,50.8818],[12.10864,50.88241],[12.1058,50.88206],[12.10548,50.88118],[12.10122,50.88182],[12.10065,50.88212],[12.10024,50.88269],[12.09821,50.88236],[12.09742,50.88314],[12.0968,50.8835],[12.09495,50.8833],[12.09467,50.88317],[12.0947,50.88296],[12.09397,50.88322],[12.09245,50.88216],[12.08857,50.88131],[12.08721,50.88045],[12.08883,50.88016],[12.09004,50.8782],[12.08666,50.87713],[12.08769,50.87476],[12.08797,50.87241],[12.08699,50.87228],[12.08692,50.87277],[12.08583,50.87279],[12.08596,50.87225],[12.08655,50.87154],[12.0869,50.87078],[12.08673,50.87064],[12.08703,50.86925],[12.08689,50.86908],[12.08728,50.86776],[12.08666,50.86751],[12.08686,50.86727],[12.08893,50.86757],[12.08916,50.86682],[12.09011,50.86713]]]}},{"type":"Feature","properties":{"name":"Pforten und Zschippern"},"geometry":{"type":"Polygon","coordinates":[[[12.09597,50.86426],[12.09606,50.86452],[12.0957,50.86521],[12.09394,50.86642],[12.0926,50.86677],[12.09254,50.86698],[12.09177,50.8672],[12.09192,50.86673],[12.09148,50.86674],[12.09135,50.86715],[12.0907,50.86705],[12.09051,50.86724],[12.08916,50.86682],[12.08893,50.86757],[12.08686,50.86727],[12.087,50.8671],[12.08695,50.86682],[12.08631,50.86661],[12.08578,50.86783],[12.08467,50.86763],[12.0851,50.8667],[12.08416,50.86654],[12.08295,50.8658],[12.08341,50.86455],[12.08352,50.86209],[12.08382,50.8621],[12.08359,50.86062],[12.08375,50.8593],[12.08419,50.85857],[12.08504,50.85792],[12.0861,50.85742],[12.08728,50.85717],[12.08895,50.85715],[12.09361,50.8581],[12.0955,50.85816],[12.09602,50.85786],[12.09646,50.85733],[12.09799,50.8566],[12.09855,50.85718],[12.09983,50.8566],[12.10118,50.85622],[12.10445,50.85605],[12.10477,50.85719],[12.10534,50.85743],[12.10653,50.85713],[12.1072,50.85782],[12.10763,50.85892],[12.10728,50.85882],[12.10762,50.86067],[12.10789,50.86159],[12.10816,50.8616],[12.10825,50.86187],[12.10752,50.86205],[12.10747,50.8618],[12.10583,50.86187],[12.1058,50.86136],[12.10498,50.86111],[12.10375,50.86111],[12.10354,50.86157],[12.102,50.86201],[12.10247,50.86282],[12.10557,50.86236],[12.10601,50.86326],[12.10554,50.86352],[12.10402,50.86385],[12.10505,50.86415],[12.10675,50.86416],[12.10852,50.8647],[12.10985,50.86403],[12.11006,50.86417],[12.11077,50.86384],[12.11092,50.86391],[12.11038,50.86439],[12.11182,50.86526],[12.11194,50.86499],[12.11351,50.86524],[12.11371,50.86463],[12.11493,50.86295],[12.11567,50.86304],[12.11779,50.86357],[12.11768,50.8638],[12.11796,50.86411],[12.11797,50.86424],[12.11761,50.86418],[12.11634,50.86793],[12.12158,50.86896],[12.12581,50.86906],[12.12526,50.87003],[12.12334,50.87205],[12.1182,50.87335],[12.11744,50.87391],[12.11689,50.87339],[12.11603,50.87321],[12.11446,50.87226],[12.11381,50.87222],[12.11304,50.87172],[12.11256,50.87172],[12.11145,50.87102],[12.11036,50.87065],[12.10972,50.87068],[12.10874,50.87041],[12.10745,50.8696],[12.10706,50.86928],[12.10847,50.86837],[12.1062,50.86677],[12.10515,50.86739],[12.10433,50.86679],[12.10333,50.86568],[12.10288,50.86451],[12.1023,50.8639],[12.10082,50.86398],[12.099,50.86477],[12.09614,50.86403],[12.09591,50.86402],[12.09597,50.86426]]]}},{"type":"Feature","properties":{"name":"Roben"},"geometry":{"type":"Polygon","coordinates":[[[12.03497,50.97227],[12.0348,50.97231],[12.03479,50.97212],[12.03453,50.97212],[12.0345,50.97225],[12.03379,50.97211],[12.03331,50.97229],[12.03314,50.97204],[12.03292,50.97223],[12.03279,50.97183],[12.0322,50.97181],[12.03209,50.97167],[12.03149,50.97163],[12.03143,50.97181],[12.03122,50.97183],[12.02997,50.97126],[12.02988,50.97093],[12.02933,50.97097],[12.02937,50.97085],[12.02909,50.97074],[12.02837,50.97054],[12.0279,50.97058],[12.02781,50.97043],[12.02735,50.97066],[12.02702,50.97051],[12.02675,50.97061],[12.02673,50.97044],[12.02646,50.97033],[12.02544,50.97021],[12.0254,50.96984],[12.0252,50.96966],[12.025,50.96985],[12.02445,50.9698],[12.02391,50.96934],[12.02306,50.96902],[12.02193,50.96918],[12.02097,50.96885],[12.02079,50.969],[12.01868,50.96844],[12.01849,50.96824],[12.01787,50.96823],[12.01774,50.96805],[12.01702,50.96786],[12.01811,50.96487],[12.01834,50.96353],[12.01915,50.96232],[12.01828,50.96189],[12.01766,50.96138],[12.01732,50.96087],[12.0174,50.96002],[12.01766,50.95971],[12.01763,50.95925],[12.01736,50.95915],[12.01761,50.95833],[12.01892,50.95682],[12.01919,50.95522],[12.01906,50.95471],[12.01732,50.95226],[12.01977,50.95177],[12.01991,50.95141],[12.01994,50.95008],[12.02119,50.94793],[12.02256,50.94705],[12.02266,50.9472],[12.02389,50.94615],[12.02464,50.94594],[12.02474,50.94706],[12.02516,50.94758],[12.02564,50.94687],[12.02734,50.94658],[12.02895,50.94548],[12.02985,50.94576],[12.0302,50.94515],[12.03005,50.94512],[12.03114,50.94413],[12.03182,50.94364],[12.03253,50.94392],[12.03353,50.94268],[12.03414,50.943],[12.03519,50.94227],[12.03439,50.94126],[12.03442,50.94098],[12.03424,50.94072],[12.03438,50.94022],[12.03427,50.94005],[12.03451,50.93995],[12.03447,50.9397],[12.03484,50.93956],[12.03509,50.93917],[12.03482,50.93888],[12.03485,50.93859],[12.03501,50.93853],[12.03545,50.93891],[12.03598,50.9391],[12.03631,50.93902],[12.03669,50.93922],[12.03924,50.93956],[12.04059,50.94007],[12.04091,50.93932],[12.04162,50.93881],[12.04115,50.93863],[12.04116,50.93841],[12.04231,50.93866],[12.0436,50.93681],[12.04587,50.93496],[12.04371,50.93412],[12.04548,50.93265],[12.04848,50.93344],[12.04869,50.93314],[12.04656,50.93244],[12.04657,50.93157],[12.04682,50.93135],[12.048,50.931],[12.04831,50.93065],[12.04981,50.93014],[12.0501,50.92986],[12.05251,50.92963],[12.05548,50.92984],[12.05889,50.93108],[12.05923,50.93135],[12.061,50.9317],[12.05894,50.92876],[12.05904,50.92856],[12.0589,50.92803],[12.05909,50.92774],[12.05941,50.92765],[12.06064,50.92818],[12.06229,50.92944],[12.0653,50.9306],[12.06765,50.93108],[12.06914,50.93108],[12.06997,50.93091],[12.07029,50.93061],[12.07164,50.93043],[12.0746,50.93114],[12.07541,50.93084],[12.07713,50.9317],[12.07946,50.92954],[12.08012,50.92876],[12.081,50.9273],[12.08154,50.92768],[12.08147,50.92786],[12.08173,50.92841],[12.08198,50.92856],[12.08244,50.92923],[12.08231,50.92933],[12.08261,50.9296],[12.08376,50.92993],[12.08383,50.92976],[12.08624,50.93055],[12.08907,50.93091],[12.08837,50.93235],[12.08803,50.93513],[12.08734,50.93753],[12.0863,50.93938],[12.08605,50.94027],[12.08626,50.94176],[12.08588,50.94301],[12.08174,50.94128],[12.08133,50.94168],[12.07946,50.9411],[12.07893,50.94164],[12.07754,50.94098],[12.07639,50.94169],[12.07567,50.94121],[12.07517,50.94156],[12.07474,50.9414],[12.07445,50.94208],[12.07376,50.9419],[12.07359,50.94371],[12.07432,50.94606],[12.07469,50.94642],[12.07423,50.94679],[12.07297,50.94671],[12.06954,50.94571],[12.06846,50.94686],[12.06734,50.94771],[12.06681,50.94765],[12.06661,50.94782],[12.06612,50.94767],[12.06467,50.94925],[12.06174,50.95176],[12.06201,50.95194],[12.06112,50.95255],[12.05861,50.95115],[12.05754,50.95224],[12.05922,50.95339],[12.058,50.95462],[12.05735,50.95553],[12.05695,50.95545],[12.05629,50.9576],[12.05699,50.95816],[12.05593,50.9591],[12.05646,50.95974],[12.05646,50.96012],[12.05571,50.96139],[12.05327,50.96097],[12.05284,50.96179],[12.04924,50.9611],[12.04521,50.96007],[12.04484,50.96051],[12.04547,50.96068],[12.04155,50.96507],[12.04069,50.96489],[12.04033,50.96512],[12.03784,50.9658],[12.03658,50.96559],[12.03642,50.96728],[12.03543,50.96813],[12.03708,50.97009],[12.03619,50.9708],[12.03497,50.97227]]]}},{"type":"Feature","properties":{"name":"Röpsen"},"geometry":{"type":"Polygon","coordinates":[[[12.13291,50.90912],[12.13302,50.90914],[12.13242,50.90992],[12.13629,50.91165],[12.13496,50.91391],[12.13643,50.91431],[12.13542,50.91645],[12.1358,50.91649],[12.13587,50.91673],[12.13561,50.91677],[12.13693,50.91847],[12.13699,50.91877],[12.1373,50.91881],[12.13771,50.91975],[12.13771,50.92066],[12.13696,50.92308],[12.13596,50.92288],[12.13587,50.92337],[12.13602,50.92363],[12.1355,50.92491],[12.13559,50.92525],[12.13477,50.92508],[12.13461,50.92551],[12.13505,50.92557],[12.13454,50.92718],[12.1356,50.92733],[12.13544,50.9277],[12.13608,50.92779],[12.13573,50.92813],[12.13535,50.92847],[12.13511,50.92832],[12.13379,50.92946],[12.13358,50.92938],[12.13281,50.93007],[12.13248,50.93014],[12.13108,50.92947],[12.13135,50.92911],[12.13116,50.92899],[12.13069,50.9294],[12.12904,50.92866],[12.12858,50.92922],[12.12748,50.929],[12.12721,50.92951],[12.12394,50.92895],[12.12325,50.92988],[12.1197,50.92937],[12.12013,50.93007],[12.12084,50.93061],[12.12067,50.93068],[12.12084,50.93114],[12.12081,50.93176],[12.11932,50.93411],[12.11848,50.93577],[12.11606,50.9359],[12.11453,50.93621],[12.11102,50.93582],[12.11082,50.93687],[12.10878,50.93678],[12.10856,50.93777],[12.10658,50.93786],[12.10628,50.93943],[12.10693,50.93992],[12.1063,50.94176],[12.1076,50.94286],[12.10683,50.94491],[12.1047,50.94462],[12.10568,50.94194],[12.1018,50.94154],[12.10227,50.94],[12.101,50.93978],[12.10052,50.94117],[12.09735,50.94092],[12.09772,50.9393],[12.09777,50.93795],[12.09806,50.93703],[12.09908,50.93723],[12.09897,50.9376],[12.09984,50.93771],[12.1001,50.93754],[12.10017,50.93705],[12.09991,50.93662],[12.10241,50.93371],[12.1026,50.93321],[12.10463,50.93259],[12.1041,50.93166],[12.104,50.93096],[12.10256,50.92943],[12.10258,50.92922],[12.10366,50.92755],[12.10445,50.92576],[12.10613,50.92499],[12.10565,50.92455],[12.10526,50.92323],[12.10523,50.92291],[12.10592,50.92276],[12.10592,50.92217],[12.10558,50.92168],[12.10556,50.92087],[12.10517,50.92078],[12.10605,50.91893],[12.10583,50.91857],[12.10598,50.91818],[12.10491,50.91787],[12.10523,50.91737],[12.10207,50.91645],[12.10115,50.91776],[12.10046,50.91758],[12.10066,50.91703],[12.0991,50.91702],[12.09883,50.91627],[12.09734,50.91513],[12.09572,50.91532],[12.09387,50.91432],[12.09399,50.91418],[12.09383,50.91401],[12.09353,50.91399],[12.09276,50.91352],[12.09295,50.91231],[12.0935,50.91137],[12.09399,50.91071],[12.09446,50.91084],[12.09496,50.91013],[12.09567,50.91047],[12.09636,50.91053],[12.09805,50.9104],[12.09837,50.90913],[12.09761,50.90908],[12.09703,50.90881],[12.0974,50.90787],[12.09758,50.90652],[12.09849,50.90662],[12.09849,50.90645],[12.09961,50.90645],[12.09965,50.90591],[12.10058,50.90565],[12.10231,50.90566],[12.1038,50.90536],[12.10456,50.90545],[12.10585,50.90596],[12.10719,50.90601],[12.10931,50.90561],[12.11036,50.90514],[12.11265,50.90476],[12.11337,50.90436],[12.11383,50.90326],[12.1146,50.90251],[12.11693,50.90205],[12.1186,50.90118],[12.11877,50.90132],[12.11843,50.9017],[12.11957,50.90254],[12.11942,50.90318],[12.12081,50.90466],[12.12124,50.90461],[12.1225,50.9055],[12.12558,50.90712],[12.12589,50.90771],[12.1269,50.90787],[12.12883,50.90784],[12.12999,50.90805],[12.13034,50.90739],[12.13337,50.90827],[12.13291,50.90912]]]}},{"type":"Feature","properties":{"name":"Thränitz"},"geometry":{"type":"Polygon","coordinates":[[[12.14449,50.86548],[12.14464,50.8655],[12.1437,50.86572],[12.14294,50.86611],[12.14275,50.86657],[12.14203,50.86667],[12.14077,50.86719],[12.13688,50.86735],[12.13604,50.8677],[12.13578,50.86826],[12.13465,50.86925],[12.13582,50.86935],[12.1345,50.87048],[12.13411,50.86988],[12.13396,50.87064],[12.13302,50.87244],[12.1327,50.87338],[12.13336,50.87368],[12.13285,50.87418],[12.13239,50.87418],[12.13148,50.87607],[12.13026,50.87785],[12.12486,50.87676],[12.12148,50.87525],[12.11966,50.87496],[12.11744,50.87391],[12.1182,50.87335],[12.12334,50.87205],[12.12526,50.87003],[12.12581,50.86906],[12.12158,50.86896],[12.11634,50.86793],[12.11761,50.86418],[12.11797,50.86424],[12.11768,50.8638],[12.11779,50.86357],[12.11493,50.86295],[12.11371,50.86463],[12.11351,50.86524],[12.11194,50.86499],[12.11182,50.86526],[12.11038,50.86439],[12.11092,50.86391],[12.11077,50.86384],[12.11006,50.86417],[12.10985,50.86403],[12.10852,50.8647],[12.10675,50.86416],[12.10467,50.86407],[12.10402,50.86385],[12.10554,50.86352],[12.10601,50.86326],[12.10557,50.86236],[12.10247,50.86282],[12.102,50.86201],[12.10354,50.86157],[12.10375,50.86111],[12.10498,50.86111],[12.1058,50.86136],[12.10583,50.86187],[12.10747,50.8618],[12.10752,50.86205],[12.10825,50.86187],[12.10816,50.8616],[12.10789,50.86159],[12.10762,50.86067],[12.10728,50.85882],[12.10763,50.85892],[12.1072,50.85782],[12.10653,50.85713],[12.10534,50.85743],[12.10477,50.85719],[12.10445,50.85605],[12.10841,50.85538],[12.10858,50.85406],[12.10837,50.854],[12.10857,50.85367],[12.11031,50.85411],[12.11078,50.85439],[12.11124,50.85498],[12.11218,50.85507],[12.11282,50.85492],[12.1139,50.85494],[12.11396,50.85466],[12.11704,50.85481],[12.11731,50.8553],[12.11732,50.85583],[12.1177,50.85589],[12.11791,50.85548],[12.11929,50.85433],[12.11973,50.85448],[12.12009,50.85515],[12.11936,50.85654],[12.12069,50.85665],[12.12039,50.85698],[12.1208,50.85698],[12.12022,50.85814],[12.11879,50.85924],[12.11981,50.8592],[12.12133,50.85868],[12.12322,50.85864],[12.12336,50.85853],[12.12308,50.85768],[12.12239,50.85733],[12.12293,50.85696],[12.12277,50.85668],[12.12341,50.85657],[12.12354,50.85684],[12.12296,50.8571],[12.12314,50.85728],[12.12678,50.85742],[12.12668,50.85807],[12.12785,50.85815],[12.13122,50.85759],[12.13196,50.85764],[12.13199,50.85753],[12.13244,50.85776],[12.13254,50.85821],[12.13281,50.85852],[12.13306,50.8585],[12.13331,50.85887],[12.13359,50.85874],[12.13443,50.85908],[12.13471,50.85906],[12.13529,50.85938],[12.13547,50.85911],[12.13596,50.85937],[12.13649,50.85903],[12.13652,50.85879],[12.13637,50.85872],[12.13658,50.85823],[12.13733,50.85816],[12.13719,50.85857],[12.13666,50.85901],[12.13654,50.85951],[12.13586,50.86024],[12.136,50.86059],[12.13633,50.86089],[12.13673,50.86089],[12.13663,50.861],[12.13706,50.86122],[12.1375,50.86128],[12.13916,50.86198],[12.13959,50.86235],[12.1396,50.86255],[12.13941,50.86268],[12.13977,50.86327],[12.14025,50.86365],[12.14077,50.86366],[12.14047,50.86382],[12.14079,50.864],[12.14122,50.86398],[12.14143,50.86436],[12.1419,50.86441],[12.14186,50.86459],[12.14291,50.86448],[12.14455,50.8649],[12.14425,50.86526],[12.14449,50.86548]]]}},{"type":"Feature","properties":{"name":"Trebnitz"},"geometry":{"type":"Polygon","coordinates":[[[12.13337,50.90827],[12.13034,50.90739],[12.12999,50.90805],[12.12883,50.90784],[12.1269,50.90787],[12.12589,50.90771],[12.12558,50.90712],[12.1225,50.9055],[12.12124,50.90461],[12.12081,50.90466],[12.11942,50.90318],[12.11957,50.90254],[12.11843,50.9017],[12.11877,50.90132],[12.11803,50.90078],[12.11483,50.89982],[12.11244,50.89876],[12.10929,50.89789],[12.10776,50.89727],[12.1056,50.89598],[12.10643,50.89504],[12.10822,50.89379],[12.1079,50.89361],[12.10695,50.89414],[12.10657,50.89407],[12.10564,50.89464],[12.10521,50.89509],[12.10501,50.89498],[12.10442,50.89526],[12.10303,50.89453],[12.09956,50.89359],[12.09769,50.89273],[12.10107,50.88917],[12.10266,50.88892],[12.10628,50.88944],[12.10657,50.8883],[12.10795,50.88845],[12.10826,50.88756],[12.11095,50.88784],[12.11252,50.88826],[12.114,50.88892],[12.115,50.88689],[12.12243,50.88701],[12.12596,50.88784],[12.1268,50.88786],[12.1274,50.88821],[12.13277,50.88981],[12.13406,50.886],[12.13302,50.88578],[12.13309,50.88451],[12.13426,50.88251],[12.13712,50.88269],[12.14201,50.88418],[12.14542,50.88202],[12.14715,50.88252],[12.14816,50.88171],[12.15013,50.88286],[12.14976,50.88317],[12.15173,50.88403],[12.14981,50.8859],[12.15085,50.88616],[12.1506,50.88636],[12.15193,50.88672],[12.15102,50.88777],[12.14974,50.88969],[12.14907,50.88936],[12.14379,50.89405],[12.14087,50.89334],[12.13991,50.89457],[12.13967,50.89639],[12.13907,50.89728],[12.13907,50.8985],[12.13878,50.89942],[12.13929,50.90067],[12.13667,50.90052],[12.13626,50.90154],[12.13609,50.90156],[12.13447,50.90077],[12.13306,50.90717],[12.13387,50.90738],[12.13337,50.90827]]]}},{"type":"Feature","properties":{"name":"Untermhaus"},"geometry":{"type":"Polygon","coordinates":[[[12.05972,50.89946],[12.05774,50.89922],[12.05565,50.89943],[12.05324,50.89725],[12.05568,50.89636],[12.05657,50.89581],[12.05681,50.89304],[12.05739,50.89268],[12.05741,50.89194],[12.05815,50.89148],[12.05819,50.8911],[12.05774,50.89043],[12.0576,50.88966],[12.05728,50.88907],[12.05742,50.88814],[12.05716,50.88775],[12.05714,50.88683],[12.06016,50.88378],[12.06028,50.88272],[12.05979,50.88272],[12.05972,50.88248],[12.06037,50.88241],[12.06037,50.88104],[12.06068,50.88051],[12.06246,50.87934],[12.06134,50.87567],[12.06102,50.8755],[12.0609,50.87513],[12.06148,50.87501],[12.06166,50.87528],[12.06141,50.87566],[12.06251,50.87933],[12.06514,50.87986],[12.06565,50.8791],[12.06612,50.8788],[12.06829,50.87814],[12.06901,50.87767],[12.06931,50.87723],[12.06955,50.8763],[12.07155,50.87662],[12.07225,50.87778],[12.07269,50.87814],[12.07349,50.87776],[12.07525,50.87954],[12.07616,50.88071],[12.07764,50.88423],[12.07818,50.88626],[12.07798,50.88863],[12.07758,50.8895],[12.0744,50.8925],[12.0729,50.89416],[12.07168,50.895],[12.06845,50.89792],[12.06723,50.89877],[12.06515,50.89951],[12.06404,50.89963],[12.06216,50.89976],[12.05972,50.89946]]]}},{"type":"Feature","properties":{"name":"Weißig"},"geometry":{"type":"Polygon","coordinates":[[[12.04282,50.83539],[12.04143,50.83593],[12.04125,50.83632],[12.04007,50.83755],[12.03956,50.8374],[12.03927,50.83815],[12.03831,50.83935],[12.04052,50.84049],[12.03996,50.84088],[12.03849,50.84097],[12.03829,50.8412],[12.03836,50.84153],[12.03809,50.84175],[12.03698,50.8447],[12.03512,50.84407],[12.03116,50.8434],[12.02876,50.8424],[12.02589,50.8419],[12.02445,50.84308],[12.02312,50.84451],[12.02226,50.84574],[12.0194,50.84556],[12.0186,50.84528],[12.01882,50.84458],[12.01672,50.844],[12.01262,50.84223],[12.0097,50.83989],[12.01048,50.83879],[12.0111,50.83676],[12.01435,50.83489],[12.01521,50.83417],[12.01605,50.83279],[12.01827,50.83151],[12.01567,50.82921],[12.01636,50.82814],[12.01736,50.82755],[12.01908,50.82612],[12.01987,50.82624],[12.02018,50.82575],[12.02283,50.8261],[12.02308,50.82608],[12.02325,50.82524],[12.0263,50.82537],[12.02665,50.82429],[12.02728,50.82417],[12.02773,50.82289],[12.03089,50.82282],[12.0329,50.82217],[12.03463,50.82212],[12.03727,50.82123],[12.03773,50.8224],[12.03927,50.82174],[12.03887,50.82085],[12.04068,50.82064],[12.04218,50.81999],[12.0436,50.81907],[12.04484,50.81894],[12.04658,50.81903],[12.05057,50.81961],[12.05149,50.8199],[12.0527,50.82065],[12.05708,50.82117],[12.05867,50.82154],[12.06069,50.82161],[12.06458,50.8209],[12.06842,50.8211],[12.07101,50.82144],[12.07332,50.82198],[12.07774,50.82239],[12.07912,50.82286],[12.07874,50.82302],[12.07873,50.82343],[12.07898,50.82384],[12.07886,50.82507],[12.07656,50.82891],[12.07554,50.82974],[12.07543,50.83017],[12.07583,50.83074],[12.07488,50.83065],[12.07427,50.83143],[12.07413,50.83219],[12.0735,50.83371],[12.07351,50.83441],[12.07395,50.8353],[12.07509,50.83546],[12.07682,50.83526],[12.07762,50.83544],[12.07752,50.83628],[12.07798,50.83864],[12.07408,50.83934],[12.07086,50.83899],[12.07009,50.83866],[12.06894,50.83768],[12.06845,50.83706],[12.06803,50.83589],[12.06572,50.83563],[12.06364,50.83565],[12.06177,50.83537],[12.06093,50.83522],[12.06085,50.83461],[12.05933,50.83476],[12.05335,50.83469],[12.0515,50.83496],[12.04282,50.83539]]]}},{"type":"Feature","properties":{"name":"Westvororte"},"geometry":{"type":"Polygon","coordinates":[[[12.01115,50.88658],[12.00711,50.88345],[12.00632,50.88394],[12.0056,50.88345],[12.00528,50.88357],[12.00538,50.88364],[12.00527,50.88372],[12.00481,50.88366],[12.00484,50.88385],[12.0047,50.88386],[12.00282,50.88236],[12.00468,50.88153],[12.0037,50.88042],[12.00088,50.8783],[11.99922,50.87676],[11.99926,50.87504],[11.9981,50.87354],[11.99824,50.8735],[11.99817,50.87247],[11.99833,50.87221],[12.00251,50.87266],[12.00328,50.87262],[12.00599,50.87228],[12.00854,50.87146],[12.01006,50.86941],[12.0102,50.86835],[12.01003,50.86762],[12.01041,50.86745],[12.01034,50.86724],[12.0105,50.867],[12.01022,50.86643],[12.01257,50.8645],[12.01414,50.86372],[12.01596,50.86181],[12.01524,50.86091],[12.01517,50.86022],[12.01555,50.85964],[12.01568,50.85857],[12.01541,50.85623],[12.01558,50.85378],[12.01626,50.85293],[12.02594,50.85516],[12.02891,50.85558],[12.0308,50.85617],[12.03117,50.85806],[12.03473,50.85779],[12.03598,50.85895],[12.03702,50.86089],[12.03742,50.86127],[12.03948,50.86185],[12.03802,50.86589],[12.04002,50.86613],[12.04025,50.86535],[12.04065,50.86526],[12.04089,50.86548],[12.04061,50.86632],[12.04424,50.86698],[12.04756,50.86676],[12.0458,50.86919],[12.04543,50.86998],[12.04443,50.8699],[12.04417,50.87054],[12.04427,50.87094],[12.04502,50.87117],[12.04455,50.8729],[12.04229,50.87241],[12.03999,50.87104],[12.03961,50.87205],[12.0384,50.87187],[12.03703,50.87347],[12.03508,50.87396],[12.03282,50.87486],[12.03344,50.87556],[12.03255,50.87544],[12.03045,50.87548],[12.03044,50.87627],[12.02648,50.8771],[12.02669,50.87789],[12.02447,50.87802],[12.02565,50.87882],[12.02639,50.87963],[12.02885,50.88108],[12.02579,50.88143],[12.01595,50.88465],[12.01307,50.8863],[12.01132,50.88672],[12.01115,50.88658]]]}},{"type":"Feature","properties":{"name":"Zentrum Nord"},"geometry":{"type":"Polygon","coordinates":[[[12.0977,50.89272],[12.09499,50.8909],[12.09332,50.88928],[12.09071,50.88814],[12.09035,50.88926],[12.08937,50.89035],[12.08522,50.89259],[12.08331,50.89384],[12.0827,50.89409],[12.08125,50.89418],[12.08,50.89408],[12.07883,50.89364],[12.0783,50.89302],[12.07828,50.89204],[12.07802,50.89155],[12.07636,50.89067],[12.07758,50.8895],[12.07798,50.88863],[12.07818,50.88626],[12.07802,50.88596],[12.07802,50.88536],[12.07692,50.88235],[12.07849,50.88272],[12.07979,50.8802],[12.07882,50.88001],[12.07936,50.87959],[12.07764,50.87823],[12.07924,50.87715],[12.08017,50.87768],[12.07952,50.87805],[12.07994,50.87827],[12.08046,50.87835],[12.08131,50.87878],[12.08464,50.87962],[12.08541,50.87858],[12.08742,50.87921],[12.08922,50.87957],[12.08877,50.8802],[12.08721,50.88045],[12.08857,50.88131],[12.09232,50.88212],[12.09397,50.88322],[12.0947,50.88296],[12.09476,50.88324],[12.09572,50.88346],[12.0968,50.8835],[12.09742,50.88314],[12.09821,50.88236],[12.10024,50.88269],[12.10065,50.88212],[12.10122,50.88182],[12.10548,50.88118],[12.1058,50.88206],[12.10864,50.88241],[12.10893,50.8818],[12.1115,50.88249],[12.11299,50.8831],[12.11244,50.88472],[12.11355,50.88483],[12.1132,50.88666],[12.115,50.88689],[12.114,50.88892],[12.11252,50.88826],[12.11095,50.88784],[12.10826,50.88756],[12.10795,50.88845],[12.10657,50.8883],[12.10628,50.88944],[12.10266,50.88892],[12.10107,50.88917],[12.0977,50.89272]]]}},{"type":"Feature","properties":{"name":"Zentrum Süd"},"geometry":{"type":"Polygon","coordinates":[[[12.07969,50.86246],[12.08147,50.86223],[12.0819,50.86201],[12.08352,50.86209],[12.08341,50.86455],[12.08295,50.8658],[12.08416,50.86654],[12.0851,50.8667],[12.08467,50.86763],[12.08578,50.86783],[12.08631,50.86661],[12.08695,50.86682],[12.087,50.8671],[12.08666,50.86751],[12.08728,50.86776],[12.08689,50.86908],[12.08703,50.86925],[12.08673,50.87064],[12.0869,50.87078],[12.08655,50.87154],[12.08596,50.87225],[12.08583,50.87279],[12.08692,50.87277],[12.08699,50.87228],[12.08797,50.87241],[12.08769,50.87476],[12.08666,50.87713],[12.09004,50.8782],[12.08922,50.87957],[12.08742,50.87921],[12.08541,50.87858],[12.08464,50.87962],[12.08131,50.87878],[12.08046,50.87835],[12.07994,50.87827],[12.07952,50.87805],[12.08017,50.87768],[12.07924,50.87715],[12.07764,50.87823],[12.07936,50.87959],[12.07882,50.88001],[12.07979,50.8802],[12.07849,50.88272],[12.07692,50.88235],[12.07596,50.88039],[12.07349,50.87776],[12.07269,50.87814],[12.07225,50.87778],[12.07155,50.87662],[12.06955,50.8763],[12.07014,50.87496],[12.07332,50.87163],[12.07507,50.86914],[12.07564,50.86851],[12.07848,50.8662],[12.07911,50.86487],[12.07909,50.86356],[12.07886,50.86258],[12.07969,50.86246]]]}},{"type":"Feature","properties":{"name":"Zwötzen"},"geometry":{"type":"Polygon","coordinates":[[[12.10299,50.84249],[12.10114,50.84154],[12.10216,50.83901],[12.10319,50.83778],[12.10152,50.83623],[12.10073,50.83463],[12.10012,50.83465],[12.09993,50.83482],[12.09873,50.83474],[12.09624,50.83404],[12.09588,50.83382],[12.09599,50.83368],[12.0949,50.83329],[12.09473,50.8335],[12.09416,50.83346],[12.09478,50.83182],[12.09466,50.83162],[12.09489,50.83012],[12.09516,50.83006],[12.09793,50.83072],[12.0984,50.83026],[12.09928,50.83008],[12.1031,50.83015],[12.10397,50.82952],[12.10439,50.82948],[12.10545,50.82951],[12.10673,50.82995],[12.10691,50.82958],[12.10691,50.82883],[12.10728,50.82868],[12.10862,50.8291],[12.1086,50.82926],[12.10916,50.82981],[12.10977,50.82997],[12.11021,50.83032],[12.11153,50.83064],[12.1131,50.83078],[12.11316,50.83062],[12.11492,50.83063],[12.11511,50.83081],[12.11617,50.83092],[12.11639,50.83112],[12.1169,50.83092],[12.11826,50.83094],[12.12142,50.832],[12.12311,50.83197],[12.12363,50.83215],[12.12485,50.83219],[12.12621,50.83204],[12.1282,50.83243],[12.12826,50.83267],[12.12861,50.8329],[12.12951,50.83324],[12.13029,50.83319],[12.13099,50.83271],[12.13189,50.83285],[12.13214,50.83276],[12.13152,50.8319],[12.13154,50.83132],[12.13254,50.83035],[12.13306,50.83009],[12.13365,50.83011],[12.13395,50.83184],[12.13494,50.83383],[12.13665,50.83854],[12.1304,50.83943],[12.13051,50.83997],[12.12985,50.84218],[12.12984,50.84421],[12.12871,50.8452],[12.12806,50.84656],[12.12574,50.84896],[12.12854,50.84968],[12.12789,50.85199],[12.12796,50.85217],[12.12862,50.85245],[12.12967,50.8533],[12.13059,50.85484],[12.13088,50.85501],[12.13108,50.85592],[12.13139,50.85653],[12.13247,50.85727],[12.13316,50.8574],[12.13347,50.85728],[12.13332,50.85741],[12.13374,50.85762],[12.1338,50.85781],[12.13335,50.85838],[12.13359,50.85874],[12.13331,50.85887],[12.13306,50.8585],[12.13281,50.85852],[12.13254,50.85821],[12.13244,50.85776],[12.13199,50.85753],[12.13196,50.85764],[12.13122,50.85759],[12.12785,50.85815],[12.12668,50.85807],[12.12678,50.85742],[12.12314,50.85728],[12.12296,50.8571],[12.12354,50.85684],[12.12341,50.85657],[12.12277,50.85668],[12.12293,50.85696],[12.12239,50.85733],[12.12308,50.85768],[12.12336,50.85853],[12.12322,50.85864],[12.12133,50.85868],[12.11981,50.8592],[12.11879,50.85924],[12.12022,50.85814],[12.1208,50.85698],[12.12039,50.85698],[12.12069,50.85665],[12.11936,50.85654],[12.12009,50.85515],[12.11973,50.85448],[12.11929,50.85433],[12.11791,50.85548],[12.1177,50.85589],[12.11732,50.85583],[12.11731,50.8553],[12.11704,50.85481],[12.11396,50.85466],[12.1139,50.85494],[12.11282,50.85492],[12.11218,50.85507],[12.11124,50.85498],[12.11078,50.85439],[12.11031,50.85411],[12.10857,50.85367],[12.10837,50.854],[12.10858,50.85406],[12.10841,50.85538],[12.10445,50.85605],[12.10118,50.85622],[12.09983,50.8566],[12.09855,50.85718],[12.09799,50.8566],[12.09646,50.85733],[12.09602,50.85786],[12.0955,50.85816],[12.09361,50.8581],[12.08876,50.85714],[12.08751,50.85715],[12.0861,50.85742],[12.08462,50.85818],[12.08385,50.85908],[12.08359,50.86062],[12.08382,50.8621],[12.0819,50.86201],[12.08147,50.86223],[12.07886,50.86258],[12.07724,50.85939],[12.07727,50.85802],[12.07761,50.85648],[12.07756,50.8551],[12.07821,50.85222],[12.07854,50.85147],[12.08008,50.85011],[12.08149,50.84947],[12.08083,50.84901],[12.08144,50.84904],[12.07854,50.84437],[12.0803,50.84421],[12.07975,50.84272],[12.08147,50.84218],[12.08165,50.84242],[12.08488,50.84206],[12.08548,50.84234],[12.08587,50.84212],[12.08511,50.84156],[12.08569,50.84082],[12.08707,50.8415],[12.08874,50.8428],[12.09073,50.84348],[12.09065,50.84365],[12.09278,50.84405],[12.09569,50.84527],[12.09617,50.84528],[12.09622,50.84454],[12.09604,50.8438],[12.09634,50.84314],[12.097,50.84242],[12.09708,50.84207],[12.09686,50.84153],[12.09699,50.84149],[12.09772,50.84192],[12.0974,50.84216],[12.09717,50.84205],[12.09704,50.84255],[12.09643,50.84318],[12.09613,50.84381],[12.09621,50.84412],[12.09753,50.84455],[12.09719,50.84548],[12.09873,50.84545],[12.09913,50.84566],[12.10062,50.8458],[12.10299,50.84249]]]}}]}