{"type":"FeatureCollection","features":[{"type":"Feature","properties":{"kind":"accessible","label":"Am Bärenweg","detail":"1 Platz"},"geometry":{"type":"Point","coordinates":[12.07571,50.88282]}},{"type":"Feature","properties":{"kind":"accessible","label":"Amthordurchgang","detail":"1 Platz"},"geometry":{"type":"Point","coordinates":[12.08187,50.87879]}},{"type":"Feature","properties":{"kind":"accessible","label":"Bahnhofsplatz","detail":"1 Platz"},"geometry":{"type":"Point","coordinates":[12.07864,50.88356]}},{"type":"Feature","properties":{"kind":"accessible","label":"Küchengartenallee","detail":"5 Plätze"},"geometry":{"type":"Point","coordinates":[12.07176,50.88245]}},{"type":"Feature","properties":{"kind":"accessible","label":"Parkplatz am Hofwiesenpark","detail":"5 Plätze"},"geometry":{"type":"Point","coordinates":[12.07334,50.8811]}},{"type":"Feature","properties":{"kind":"accessible","label":"Parkplatz am Hofwiesenpark","detail":"5 Plätze"},"geometry":{"type":"Point","coordinates":[12.07282,50.88247]}},{"type":"Feature","properties":{"kind":"accessible","label":"Platz der Demokratie","detail":"1 Platz"},"geometry":{"type":"Point","coordinates":[12.08022,50.88232]}},{"type":"Feature","properties":{"kind":"accessible","label":"Platz der Republik","detail":"3 Plätze"},"geometry":{"type":"Point","coordinates":[12.07909,50.87478]}},{"type":"Feature","properties":{"kind":"accessible","label":"Schloßstraße/Puschkinplatz","detail":"2 Plätze"},"geometry":{"type":"Point","coordinates":[12.07962,50.87941]}},{"type":"Feature","properties":{"kind":"accessible","label":"Tivolistraße","detail":"1 Platz"},"geometry":{"type":"Point","coordinates":[12.07829,50.87989]}},{"type":"Feature","properties":{"kind":"accessible","label":"Tivolistraße","detail":"2 Plätze"},"geometry":{"type":"Point","coordinates":[12.0773,50.88068]}},{"type":"Feature","properties":{"kind":"accessible","label":"Zschochernstraße","detail":"3 Plätze"},"geometry":{"type":"Point","coordinates":[12.08601,50.87873]}}]}