{"type":"FeatureCollection","features":[{"type":"Feature","properties":{"zone":"A","district":"Zentrum Süd","rawHours":"","rawFee":"","note":"Bewohnerparkzone A — Bielitzstraße. Straßen laut Quelle: Bielitzstraße","windows":[],"fee":{"kind":"unknown"},"unmodelledRules":[],"sourceDefect":null,"scheduleUnknown":true,"spaces":null,"maxStayMinutes":null,"maxStay":null,"maxStayShare":0,"maxStayValues":[],"chargingPoints":0,"carsharing":0},"geometry":{"type":"Polygon","coordinates":[[[12.07985,50.88027],[12.07904,50.88012],[12.07887,50.88018],[12.07738,50.88136],[12.07729,50.88149],[12.07738,50.88162],[12.07765,50.88236],[12.07783,50.8825],[12.07796,50.88254],[12.07968,50.88291],[12.08045,50.88113],[12.08077,50.88044],[12.07983,50.88026],[12.07985,50.88027]]]}},{"type":"Feature","properties":{"zone":"B","district":"Zentrum Nord","rawHours":"","rawFee":"","note":"Bewohnerparkzone B — Innenstadt (Nord). Straßen laut Quelle: Clara-Zetkin-Straße, Goethestraße, Humboldtstraße, Kurt-Keicher-Straße, Kurt-Keicher-Straße/Laasener Straße, Laasener Straße, Lessingstraße, Loreystraße, Rudolf-Diener-Straße, Zabelstraße, Ziegelberg","windows":[],"fee":{"kind":"unknown"},"unmodelledRules":[],"sourceDefect":null,"scheduleUnknown":true,"spaces":null,"maxStayMinutes":null,"maxStay":null,"maxStayShare":0,"maxStayValues":[],"chargingPoints":0,"carsharing":0},"geometry":{"type":"Polygon","coordinates":[[[12.07896,50.88001],[12.07904,50.88012],[12.08077,50.88044],[12.08045,50.88113],[12.07965,50.88297],[12.07896,50.88423],[12.07914,50.88442],[12.07925,50.88448],[12.0827,50.88487],[12.08305,50.88351],[12.08512,50.88377],[12.0848,50.88516],[12.08686,50.88538],[12.08806,50.88548],[12.08948,50.88554],[12.08943,50.88511],[12.08875,50.88488],[12.0881,50.88397],[12.08784,50.88346],[12.088,50.88272],[12.08812,50.88242],[12.08838,50.88233],[12.08875,50.88143],[12.08766,50.88073],[12.08761,50.88033],[12.08811,50.87961],[12.08706,50.87943],[12.08693,50.87986],[12.08676,50.88015],[12.08462,50.87956],[12.08534,50.87858],[12.08203,50.8775],[12.08079,50.87856],[12.07896,50.88001]]]}},{"type":"Feature","properties":{"zone":"C","district":"Zentrum Süd","rawHours":"","rawFee":"","note":"Bewohnerparkzone C — Ziegelberg, Zschochern-, Bauvereinstraße. Straßen laut Quelle: Bauvereinstraße, Hußstraße, Schillerstraße, Webergasse, Ziegelberg, Zschochernstraße","windows":[],"fee":{"kind":"unknown"},"unmodelledRules":[],"sourceDefect":null,"scheduleUnknown":true,"spaces":null,"maxStayMinutes":null,"maxStay":null,"maxStayShare":0,"maxStayValues":[],"chargingPoints":0,"carsharing":0},"geometry":{"type":"Polygon","coordinates":[[[12.08503,50.87787],[12.08556,50.87817],[12.08552,50.8783],[12.08549,50.87856],[12.08631,50.87879],[12.08648,50.8789],[12.08715,50.87915],[12.08916,50.87952],[12.08989,50.87822],[12.08834,50.87768],[12.08786,50.87753],[12.08743,50.87743],[12.08694,50.8779],[12.08611,50.87776],[12.08605,50.87756],[12.08519,50.87739],[12.08509,50.87744],[12.08503,50.87787]]]}},{"type":"Feature","properties":{"zone":"C/G","district":"Zentrum Nord","rawHours":"","rawFee":"","note":"Bewohnerparkzone C/G — Zschochernstraße / Ziegelberg","windows":[],"fee":{"kind":"unknown"},"unmodelledRules":[],"sourceDefect":null,"scheduleUnknown":true,"spaces":null,"maxStayMinutes":null,"maxStay":null,"maxStayShare":0,"maxStayValues":[],"chargingPoints":0,"carsharing":0},"geometry":{"type":"Polygon","coordinates":[[[12.08706,50.87943],[12.08811,50.87961],[12.08761,50.88033],[12.0886,50.88022],[12.08887,50.8801],[12.08916,50.87952],[12.08715,50.87915],[12.08706,50.87943]]]}},{"type":"Feature","properties":{"zone":"D","district":"Zentrum Süd","rawHours":"","rawFee":"","note":"Bewohnerparkzone D — Hinter der Mauer. Straßen laut Quelle: Hinter der Mauer","windows":[],"fee":{"kind":"unknown"},"unmodelledRules":[],"sourceDefect":null,"scheduleUnknown":true,"spaces":null,"maxStayMinutes":null,"maxStay":null,"maxStayShare":0,"maxStayValues":[],"chargingPoints":0,"carsharing":0},"geometry":{"type":"Polygon","coordinates":[[[12.08498,50.87783],[12.08509,50.87744],[12.0828,50.87672],[12.08255,50.87666],[12.08217,50.87663],[12.08213,50.8769],[12.08216,50.87721],[12.08214,50.87734],[12.08203,50.8775],[12.08534,50.87858],[12.08555,50.87825],[12.08556,50.87817],[12.08503,50.87787],[12.08489,50.87796],[12.08484,50.87793],[12.08498,50.87783]]]}},{"type":"Feature","properties":{"zone":"E","district":"Zentrum Süd","rawHours":"","rawFee":"","note":"Bewohnerparkzone E — Innenstadt (Zentrum). Straßen laut Quelle: Florian-Geyer-Straße, Greizer Straße, Schuhgasse","windows":[],"fee":{"kind":"unknown"},"unmodelledRules":[],"sourceDefect":null,"scheduleUnknown":true,"spaces":null,"maxStayMinutes":null,"maxStay":null,"maxStayShare":0,"maxStayValues":[],"chargingPoints":0,"carsharing":0},"geometry":{"type":"Polygon","coordinates":[[[12.08533,50.87742],[12.0855,50.87696],[12.08661,50.87715],[12.08675,50.87714],[12.08718,50.8758],[12.0876,50.87469],[12.08781,50.87348],[12.08735,50.87345],[12.08744,50.87268],[12.08689,50.87257],[12.08682,50.87282],[12.08647,50.87283],[12.08637,50.87325],[12.08608,50.8734],[12.08598,50.87368],[12.08515,50.87363],[12.08501,50.87404],[12.08491,50.87429],[12.08494,50.87446],[12.08503,50.8747],[12.0848,50.87487],[12.08417,50.87491],[12.08369,50.87487],[12.08281,50.87473],[12.08207,50.87455],[12.08233,50.87511],[12.08239,50.8753],[12.08222,50.87555],[12.08209,50.87597],[12.0822,50.87608],[12.08213,50.87654],[12.08217,50.87663],[12.0828,50.87672],[12.08509,50.87744],[12.08519,50.87739],[12.08533,50.87742]]]}},{"type":"Feature","properties":{"zone":"G","district":"Ostviertel, Leumnitz und Südhang","rawHours":"","rawFee":"","note":"Bewohnerparkzone G — Ostviertel (Nord). Straßen laut Quelle: Altenburger Straße, Blumenstraße, Calvinstraße, Laasener Straße, Laasenerstraße, Mittelstraße, Nestmannstraße, Uhlandstraße, Ziegelberg, Zschochernstraße","windows":[],"fee":{"kind":"unknown"},"unmodelledRules":[],"sourceDefect":null,"scheduleUnknown":true,"spaces":null,"maxStayMinutes":null,"maxStay":null,"maxStayShare":0,"maxStayValues":[],"chargingPoints":0,"carsharing":0},"geometry":{"type":"Polygon","coordinates":[[[12.08462,50.87956],[12.08676,50.88015],[12.08693,50.87986],[12.08715,50.87916],[12.08916,50.87952],[12.08887,50.8801],[12.0886,50.88022],[12.08761,50.88033],[12.08766,50.88073],[12.08875,50.88143],[12.08838,50.88233],[12.08903,50.88248],[12.08923,50.88232],[12.09159,50.88266],[12.09176,50.88239],[12.09274,50.88255],[12.09294,50.8825],[12.09315,50.88234],[12.09343,50.88232],[12.09378,50.88236],[12.09451,50.88251],[12.09474,50.88251],[12.09488,50.88237],[12.09501,50.88136],[12.09504,50.88062],[12.09469,50.88043],[12.09107,50.87986],[12.09117,50.87955],[12.0904,50.87939],[12.08987,50.87919],[12.09034,50.87845],[12.08984,50.87832],[12.08916,50.87952],[12.08715,50.87915],[12.08648,50.8789],[12.08631,50.87879],[12.08549,50.87856],[12.08552,50.8783],[12.08534,50.87858],[12.08462,50.87956]]]}},{"type":"Feature","properties":{"zone":"H","district":"Zentrum Süd","rawHours":"","rawFee":"","note":"Bewohnerparkzone H — Tivolistraße/Ernst-Toller-Straße. Straßen laut Quelle: Neue Straße, Tivolistraße","windows":[],"fee":{"kind":"unknown"},"unmodelledRules":[],"sourceDefect":null,"scheduleUnknown":true,"spaces":null,"maxStayMinutes":null,"maxStay":null,"maxStayShare":0,"maxStayValues":[],"chargingPoints":0,"carsharing":0},"geometry":{"type":"Polygon","coordinates":[[[12.07825,50.87896],[12.07876,50.87941],[12.07876,50.87954],[12.07857,50.87992],[12.07839,50.88014],[12.07728,50.881],[12.077,50.88117],[12.0765,50.88102],[12.07639,50.88083],[12.07646,50.88076],[12.07623,50.88065],[12.07571,50.87994],[12.07829,50.87894],[12.07825,50.87896]]]}},{"type":"Feature","properties":{"zone":"K","district":"Zentrum Süd","rawHours":"","rawFee":"","note":"Bewohnerparkzone K — Innenstadt (Süd). Straßen laut Quelle: Anna-Schneider-Weg, Berggasse, Dr.-Friedrich-Wolf-Straße, Enzianstraße, Geschwister-Scholl-Straße, Hainstraße, Heinrich-Knauf-Straße, Heinrichstraße, Karl-Schurz-Straße, Louis-Schlutter-Straße, Mühlengasse, Platz der Republik, Schmelzhüttenstraße, Schülerstraße, Talstraße","windows":[],"fee":{"kind":"unknown"},"unmodelledRules":[],"sourceDefect":null,"scheduleUnknown":true,"spaces":null,"maxStayMinutes":null,"maxStay":null,"maxStayShare":0,"maxStayValues":[],"chargingPoints":0,"carsharing":0},"geometry":{"type":"Polygon","coordinates":[[[12.08647,50.87283],[12.08599,50.87282],[12.08552,50.87271],[12.0852,50.87246],[12.08496,50.87213],[12.0856,50.87096],[12.08562,50.86987],[12.08478,50.86985],[12.08403,50.86968],[12.0813,50.8692],[12.07978,50.86973],[12.07913,50.87105],[12.07755,50.87069],[12.07583,50.87173],[12.07516,50.87235],[12.07323,50.87484],[12.07431,50.87574],[12.07532,50.87525],[12.0755,50.87552],[12.07675,50.87525],[12.07661,50.87495],[12.07751,50.87473],[12.07813,50.87506],[12.08014,50.87618],[12.08086,50.87552],[12.08125,50.87485],[12.08147,50.87438],[12.08207,50.87455],[12.08281,50.87473],[12.08369,50.87487],[12.08417,50.87491],[12.0848,50.87487],[12.08503,50.8747],[12.08494,50.87446],[12.08491,50.87429],[12.08501,50.87404],[12.08515,50.87363],[12.08598,50.87368],[12.08608,50.8734],[12.08637,50.87325],[12.08647,50.87283]]]}},{"type":"Feature","properties":{"zone":"L","district":"Ostviertel, Leumnitz und Südhang","rawHours":"","rawFee":"","note":"Bewohnerparkzone L — Ostviertel (Süd). Straßen laut Quelle: Arndtstraße, Bauvereinstraße, Calvinstraße, Freitagstraße, Hohe Straße, Karl-Liebknecht-Straße, Kleiststraße, Körnerstraße, Kurze Straße, Schillerstraße","windows":[],"fee":{"kind":"unknown"},"unmodelledRules":[],"sourceDefect":null,"scheduleUnknown":true,"spaces":null,"maxStayMinutes":null,"maxStay":null,"maxStayShare":0,"maxStayValues":[],"chargingPoints":0,"carsharing":0},"geometry":{"type":"Polygon","coordinates":[[[12.08675,50.87714],[12.08705,50.87733],[12.08786,50.87753],[12.08834,50.87768],[12.08989,50.87822],[12.08984,50.87832],[12.09034,50.87845],[12.08987,50.87919],[12.0904,50.87939],[12.09117,50.87955],[12.09107,50.87986],[12.09469,50.88043],[12.09489,50.88001],[12.09683,50.87832],[12.09663,50.87791],[12.0969,50.87748],[12.09403,50.87682],[12.09149,50.87609],[12.09095,50.87572],[12.09175,50.87495],[12.09098,50.87443],[12.09104,50.87431],[12.08807,50.87366],[12.08779,50.87362],[12.0876,50.87469],[12.08718,50.8758],[12.08675,50.87714]]]}}]}