{"type":"FeatureCollection","features":[{"type":"Feature","properties":{"name":"West","bezirk":"Utrecht"},"geometry":{"type":"MultiPolygon","coordinates":[[[[5.06809,52.11857],[5.07372,52.11536],[5.07476,52.11452],[5.07643,52.1125],[5.07695,52.11141],[5.07724,52.1103],[5.09352,52.10088],[5.09888,52.0973],[5.10013,52.0966],[5.10286,52.09559],[5.10458,52.09478],[5.10629,52.09356],[5.10737,52.09226],[5.10581,52.09184],[5.10629,52.09101],[5.10542,52.09075],[5.10492,52.09012],[5.10414,52.08958],[5.10104,52.08832],[5.09993,52.08652],[5.09953,52.08613],[5.09422,52.08241],[5.09077,52.08098],[5.08133,52.07895],[5.08029,52.08217],[5.0789,52.08851],[5.07714,52.09818],[5.0673,52.09892],[5.06535,52.10107],[5.06306,52.10321],[5.06009,52.10553],[5.05708,52.1076],[5.04787,52.11217],[5.03882,52.11585],[5.03829,52.11534],[5.03381,52.11644],[5.03354,52.11676],[5.03368,52.11672],[5.03628,52.11972],[5.03614,52.11978],[5.0366,52.12049],[5.03856,52.12309],[5.04094,52.12538],[5.04088,52.12548],[5.04306,52.12715],[5.04542,52.12846],[5.04498,52.12878],[5.04756,52.12997],[5.05031,52.12876],[5.06809,52.11857]]]]}},{"type":"Feature","properties":{"name":"Noordwest","bezirk":"Utrecht"},"geometry":{"type":"MultiPolygon","coordinates":[[[[5.07189,52.12588],[5.07239,52.12536],[5.07365,52.12313],[5.07505,52.1218],[5.07613,52.12101],[5.07915,52.11929],[5.08047,52.11903],[5.08325,52.11906],[5.0918,52.11813],[5.09373,52.11749],[5.09594,52.11517],[5.10546,52.10871],[5.10729,52.10641],[5.10835,52.10666],[5.10965,52.10765],[5.11277,52.10867],[5.11444,52.10707],[5.10982,52.1047],[5.11066,52.10408],[5.11138,52.10309],[5.11148,52.1014],[5.11183,52.1006],[5.11522,52.09714],[5.11068,52.09575],[5.10629,52.09356],[5.10534,52.09431],[5.10375,52.09521],[5.10061,52.0964],[5.09888,52.0973],[5.09352,52.10088],[5.07724,52.1103],[5.07686,52.11165],[5.0762,52.11288],[5.07526,52.11404],[5.07406,52.11511],[5.0612,52.12256],[5.06697,52.126],[5.06723,52.12576],[5.06973,52.12641],[5.06974,52.1269],[5.0702,52.12718],[5.07189,52.12588]]]]}},{"type":"Feature","properties":{"name":"Overvecht","bezirk":"Utrecht"},"geometry":{"type":"MultiPolygon","coordinates":[[[[5.08741,52.13557],[5.10108,52.12984],[5.10185,52.13036],[5.10227,52.13033],[5.1034,52.12985],[5.10709,52.13321],[5.12652,52.1246],[5.1404,52.12099],[5.14016,52.12058],[5.14148,52.12119],[5.14189,52.121],[5.14193,52.12026],[5.1422,52.12019],[5.14262,52.12084],[5.14297,52.12067],[5.14373,52.12091],[5.14692,52.12038],[5.14853,52.11953],[5.14931,52.11849],[5.14939,52.1177],[5.14865,52.11524],[5.14196,52.11361],[5.11905,52.10858],[5.11444,52.10707],[5.11277,52.10867],[5.10965,52.10765],[5.10835,52.10666],[5.10729,52.10641],[5.10546,52.10871],[5.09594,52.11517],[5.0941,52.11721],[5.09338,52.11768],[5.0918,52.11813],[5.08792,52.11857],[5.08325,52.11906],[5.08047,52.11903],[5.07941,52.1192],[5.07563,52.12135],[5.07365,52.12313],[5.07239,52.12536],[5.07582,52.12722],[5.07616,52.12705],[5.08716,52.13567],[5.08741,52.13557]]]]}},{"type":"Feature","properties":{"name":"Noordoost","bezirk":"Utrecht"},"geometry":{"type":"MultiPolygon","coordinates":[[[[5.1491,52.11358],[5.14915,52.11347],[5.14901,52.1135],[5.15038,52.11088],[5.1568,52.10859],[5.15728,52.10813],[5.15801,52.1081],[5.15887,52.10767],[5.15926,52.10772],[5.16191,52.10722],[5.15617,52.09859],[5.15627,52.0984],[5.1446,52.09629],[5.14149,52.0956],[5.13703,52.09561],[5.12624,52.09502],[5.12614,52.09621],[5.12687,52.09751],[5.1268,52.09772],[5.1265,52.09786],[5.12433,52.09753],[5.12267,52.09693],[5.12113,52.09732],[5.12051,52.09712],[5.11969,52.09639],[5.1159,52.09647],[5.11183,52.1006],[5.11148,52.1014],[5.11138,52.10309],[5.11066,52.10408],[5.10982,52.1047],[5.11319,52.10653],[5.11494,52.10729],[5.11942,52.10867],[5.14196,52.11361],[5.14865,52.11524],[5.1491,52.11358]]]]}},{"type":"Feature","properties":{"name":"Oost","bezirk":"Utrecht"},"geometry":{"type":"MultiPolygon","coordinates":[[[[5.15627,52.0984],[5.1564,52.09815],[5.15731,52.09834],[5.15753,52.09791],[5.15777,52.09795],[5.15767,52.0978],[5.15898,52.09625],[5.16061,52.09478],[5.16132,52.09438],[5.16179,52.0943],[5.16196,52.09453],[5.16352,52.09421],[5.16343,52.09407],[5.16611,52.09373],[5.17065,52.09393],[5.17586,52.09341],[5.17601,52.09408],[5.17672,52.09391],[5.17681,52.09336],[5.18056,52.09313],[5.1807,52.09461],[5.18264,52.09433],[5.18475,52.09309],[5.18617,52.09293],[5.18974,52.08635],[5.19031,52.08618],[5.19276,52.08606],[5.19515,52.07735],[5.19264,52.07791],[5.19064,52.07742],[5.18859,52.07727],[5.18732,52.07694],[5.1841,52.07684],[5.1814,52.07619],[5.17929,52.0779],[5.17431,52.07824],[5.17397,52.07813],[5.1735,52.07848],[5.17161,52.07867],[5.16692,52.07668],[5.16326,52.07812],[5.1624,52.07861],[5.16199,52.07896],[5.1616,52.07987],[5.16148,52.07984],[5.16072,52.08056],[5.16018,52.0803],[5.16018,52.07951],[5.16059,52.07861],[5.16044,52.07779],[5.15996,52.0773],[5.15978,52.07674],[5.1591,52.07638],[5.15869,52.07595],[5.15729,52.07346],[5.15623,52.07261],[5.15566,52.07146],[5.15582,52.07042],[5.15653,52.06891],[5.15785,52.06795],[5.1595,52.06726],[5.1583,52.0652],[5.15906,52.06498],[5.15689,52.06343],[5.15775,52.05834],[5.15281,52.05669],[5.13987,52.06988],[5.13802,52.07159],[5.13609,52.07279],[5.12852,52.07637],[5.12237,52.07866],[5.12402,52.08133],[5.12555,52.08141],[5.12648,52.08274],[5.12759,52.08395],[5.12983,52.08531],[5.12913,52.08618],[5.12846,52.08809],[5.12861,52.08843],[5.12938,52.08909],[5.12946,52.08939],[5.12776,52.09032],[5.12711,52.09232],[5.12718,52.09255],[5.12823,52.09357],[5.12655,52.09442],[5.12624,52.09502],[5.13703,52.09561],[5.14149,52.0956],[5.1446,52.09629],[5.15627,52.0984]]]]}},{"type":"Feature","properties":{"name":"Binnenstad","bezirk":"Utrecht"},"geometry":{"type":"MultiPolygon","coordinates":[[[[5.12683,52.09738],[5.12614,52.09621],[5.12627,52.09489],[5.1266,52.09438],[5.12823,52.09357],[5.12718,52.09255],[5.12711,52.09232],[5.12776,52.09032],[5.12946,52.08939],[5.12938,52.08909],[5.12861,52.08843],[5.12846,52.08809],[5.12913,52.08618],[5.12983,52.08531],[5.12759,52.08395],[5.12648,52.08274],[5.12555,52.08141],[5.12402,52.08133],[5.12237,52.07866],[5.11969,52.07976],[5.1192,52.07957],[5.11759,52.08047],[5.11555,52.08088],[5.11196,52.08466],[5.10971,52.08386],[5.10881,52.08501],[5.10503,52.0818],[5.0983,52.08522],[5.09993,52.08652],[5.10104,52.08832],[5.10384,52.08942],[5.10492,52.09012],[5.10542,52.09075],[5.10629,52.09101],[5.10581,52.09184],[5.10737,52.09226],[5.10629,52.09356],[5.11068,52.09575],[5.11522,52.09714],[5.1159,52.09647],[5.11707,52.09655],[5.1196,52.09638],[5.11999,52.09653],[5.12051,52.09712],[5.12113,52.09732],[5.12267,52.09693],[5.12433,52.09753],[5.12639,52.09786],[5.1268,52.09772],[5.12683,52.09738]]]]}},{"type":"Feature","properties":{"name":"Zuid","bezirk":"Utrecht"},"geometry":{"type":"MultiPolygon","coordinates":[[[[5.14777,52.06188],[5.15281,52.05669],[5.15106,52.05615],[5.14994,52.05559],[5.14646,52.05279],[5.14573,52.05256],[5.14309,52.05281],[5.14253,52.0527],[5.1423,52.05288],[5.14099,52.05315],[5.13417,52.05416],[5.12446,52.05526],[5.12417,52.05526],[5.12201,52.05427],[5.12134,52.05437],[5.12057,52.0545],[5.1204,52.05515],[5.11775,52.05664],[5.11316,52.0577],[5.11318,52.05791],[5.1107,52.05834],[5.12237,52.07866],[5.12852,52.07637],[5.13723,52.07214],[5.13823,52.07142],[5.13987,52.06988],[5.14777,52.06188]]]]}},{"type":"Feature","properties":{"name":"Zuidwest","bezirk":"Utrecht"},"geometry":{"type":"MultiPolygon","coordinates":[[[[5.0994,52.08468],[5.10503,52.0818],[5.10881,52.08501],[5.10971,52.08386],[5.11196,52.08466],[5.11555,52.08088],[5.11759,52.08047],[5.1192,52.07957],[5.11969,52.07976],[5.12237,52.07866],[5.1107,52.05834],[5.11126,52.05832],[5.11038,52.0574],[5.10936,52.05543],[5.10922,52.05447],[5.10842,52.05201],[5.10734,52.05003],[5.1062,52.05026],[5.1044,52.04994],[5.10324,52.05251],[5.10209,52.05426],[5.09735,52.05948],[5.0983,52.05989],[5.08403,52.07531],[5.08238,52.07735],[5.08133,52.07895],[5.0911,52.08108],[5.09422,52.08241],[5.0983,52.08522],[5.0994,52.08468]]]]}},{"type":"Feature","properties":{"name":"Leidsche Rijn","bezirk":"Utrecht"},"geometry":{"type":"MultiPolygon","coordinates":[[[[5.0335,52.11677],[5.03381,52.11644],[5.03829,52.11534],[5.03882,52.11585],[5.04787,52.11217],[5.05708,52.1076],[5.06009,52.10553],[5.06306,52.10321],[5.06535,52.10107],[5.0673,52.09892],[5.07714,52.09818],[5.0789,52.08851],[5.08029,52.08217],[5.08133,52.07895],[5.08238,52.07735],[5.08403,52.07531],[5.09725,52.06104],[5.09129,52.06163],[5.09059,52.06183],[5.09004,52.06223],[5.08582,52.06249],[5.08361,52.06311],[5.08013,52.06443],[5.07572,52.06548],[5.07396,52.06686],[5.07309,52.06805],[5.07305,52.06875],[5.07334,52.07008],[5.07325,52.07063],[5.0736,52.07212],[5.0742,52.07372],[5.07238,52.07432],[5.06988,52.07083],[5.06928,52.06931],[5.06854,52.06894],[5.06594,52.06822],[5.06428,52.06796],[5.06255,52.06805],[5.05341,52.06976],[5.05361,52.07046],[5.05394,52.0704],[5.05423,52.07096],[5.05436,52.07093],[5.05835,52.07872],[5.05995,52.0784],[5.06014,52.07875],[5.06126,52.0811],[5.05966,52.08131],[5.05976,52.08149],[5.06019,52.08149],[5.06025,52.08187],[5.05997,52.08195],[5.06011,52.08258],[5.05974,52.08258],[5.05965,52.08288],[5.05936,52.083],[5.05846,52.08299],[5.0585,52.08319],[5.05826,52.0832],[5.05821,52.08292],[5.05797,52.08294],[5.05791,52.08256],[5.05576,52.08255],[5.05575,52.08329],[5.05329,52.08353],[5.05323,52.08374],[5.0531,52.0828],[5.04849,52.08282],[5.04889,52.08434],[5.04893,52.0855],[5.04771,52.08562],[5.04793,52.08697],[5.04812,52.08699],[5.04837,52.08974],[5.04391,52.08978],[5.04381,52.08958],[5.04211,52.08892],[5.04139,52.08842],[5.04023,52.08923],[5.03994,52.09086],[5.03817,52.09355],[5.03695,52.09492],[5.03585,52.09588],[5.03293,52.09773],[5.03199,52.09788],[5.03017,52.09771],[5.02935,52.09799],[5.02898,52.09841],[5.02905,52.09865],[5.02876,52.09883],[5.02855,52.09871],[5.02728,52.09921],[5.02772,52.09963],[5.02864,52.10144],[5.02888,52.10142],[5.03172,52.10687],[5.03326,52.10702],[5.03352,52.10789],[5.03203,52.1092],[5.03519,52.11286],[5.03084,52.11504],[5.03251,52.11684],[5.03303,52.11693],[5.0335,52.11677]]]]}},{"type":"Feature","properties":{"name":"Vleuten-De Meern","bezirk":"Utrecht"},"geometry":{"type":"MultiPolygon","coordinates":[[[[5.00295,52.1418],[5.00257,52.14164],[5.0027,52.1413],[5.00719,52.13608],[5.00744,52.13572],[5.00731,52.13559],[5.00959,52.13235],[5.01221,52.1296],[5.01519,52.12741],[5.02033,52.12427],[5.02054,52.12434],[5.0207,52.12413],[5.02085,52.12416],[5.02078,52.124],[5.02697,52.12009],[5.02884,52.11905],[5.02899,52.11916],[5.02921,52.11905],[5.03068,52.11787],[5.0321,52.1172],[5.03198,52.11705],[5.03251,52.11684],[5.03084,52.11504],[5.03519,52.11286],[5.03203,52.1092],[5.03352,52.10789],[5.03326,52.10702],[5.03172,52.10687],[5.02888,52.10142],[5.02864,52.10144],[5.02772,52.09963],[5.02728,52.09921],[5.02855,52.09871],[5.02876,52.09883],[5.02905,52.09865],[5.02898,52.09841],[5.02935,52.09799],[5.03017,52.09771],[5.03199,52.09788],[5.03293,52.09773],[5.03585,52.09588],[5.03695,52.09492],[5.03817,52.09355],[5.03994,52.09086],[5.04023,52.08923],[5.04139,52.08842],[5.04211,52.08892],[5.04381,52.08958],[5.04391,52.08978],[5.04837,52.08974],[5.04812,52.08699],[5.04793,52.08697],[5.04771,52.08562],[5.04893,52.0855],[5.04889,52.08434],[5.04849,52.08282],[5.0531,52.0828],[5.05323,52.08374],[5.05329,52.08353],[5.05575,52.08329],[5.05576,52.08255],[5.05791,52.08256],[5.05797,52.08294],[5.05821,52.08292],[5.05826,52.0832],[5.0585,52.08319],[5.05846,52.08299],[5.05936,52.083],[5.05965,52.08288],[5.05974,52.08258],[5.06011,52.08258],[5.05997,52.08195],[5.06025,52.08187],[5.06019,52.08149],[5.05976,52.08149],[5.05966,52.08131],[5.06126,52.0811],[5.05995,52.0784],[5.05835,52.07872],[5.05436,52.07093],[5.05423,52.07096],[5.05394,52.0704],[5.05361,52.07046],[5.05341,52.06976],[5.06255,52.06805],[5.06428,52.06796],[5.06594,52.06822],[5.06854,52.06894],[5.06928,52.06931],[5.06988,52.07083],[5.07238,52.07432],[5.0742,52.07372],[5.0736,52.07212],[5.07325,52.07063],[5.07334,52.07008],[5.07305,52.06875],[5.07309,52.06805],[5.07396,52.06686],[5.07572,52.06548],[5.08013,52.06443],[5.08361,52.06311],[5.08582,52.06249],[5.09004,52.06223],[5.09059,52.06183],[5.09129,52.06163],[5.09725,52.06104],[5.0983,52.05989],[5.09521,52.05873],[5.09439,52.05874],[5.09284,52.05905],[5.09215,52.05938],[5.09067,52.0605],[5.08939,52.06083],[5.08606,52.06111],[5.08566,52.06092],[5.08543,52.06095],[5.08547,52.06119],[5.08158,52.06124],[5.07761,52.06204],[5.07519,52.06225],[5.07181,52.06208],[5.0706,52.0619],[5.06964,52.06141],[5.06905,52.06073],[5.06827,52.05912],[5.06793,52.05917],[5.06713,52.05727],[5.06667,52.05673],[5.06613,52.05525],[5.06531,52.05541],[5.06422,52.05196],[5.06388,52.04448],[5.06357,52.04326],[5.06373,52.04326],[5.06362,52.04136],[5.06334,52.04097],[5.06358,52.04056],[5.06357,52.03808],[5.06321,52.0298],[5.06252,52.02902],[5.06251,52.0286],[5.06314,52.02788],[5.06309,52.02687],[5.06202,52.02672],[5.06102,52.02628],[5.05491,52.02887],[5.05534,52.02974],[5.05198,52.03089],[5.05157,52.03004],[5.04991,52.03087],[5.04561,52.03474],[5.04387,52.03655],[5.03949,52.04281],[5.03806,52.04415],[5.0369,52.04511],[5.03547,52.04577],[5.03313,52.04752],[5.02845,52.05062],[5.02767,52.0517],[5.02835,52.05249],[5.02821,52.05379],[5.02811,52.05406],[5.02696,52.05463],[5.02712,52.0554],[5.02578,52.05585],[5.02292,52.0556],[5.02161,52.05581],[5.02113,52.05625],[5.01748,52.06093],[5.01707,52.06114],[5.01801,52.06222],[5.01241,52.06338],[5.00976,52.06412],[4.9995,52.06613],[5.00164,52.07829],[5.00323,52.07796],[5.00501,52.08849],[4.99422,52.09037],[4.99386,52.09078],[4.99362,52.092],[4.99253,52.09486],[4.99181,52.09476],[4.98933,52.10076],[4.97566,52.09979],[4.97344,52.10123],[4.97305,52.10166],[4.97291,52.10229],[4.9731,52.10286],[4.974,52.10372],[4.97524,52.10451],[4.97562,52.10502],[4.9761,52.10782],[4.97655,52.10809],[4.97873,52.1081],[4.97924,52.10833],[4.97962,52.10872],[4.97982,52.10911],[4.97985,52.10979],[4.97956,52.1115],[4.98023,52.11223],[4.97847,52.11316],[4.9782,52.11285],[4.9701,52.12244],[4.97022,52.12267],[4.97035,52.12255],[4.97174,52.12555],[4.97213,52.12606],[4.97207,52.12624],[4.97394,52.12967],[4.98524,52.13244],[4.9861,52.13486],[4.9864,52.13526],[4.99356,52.13831],[5.0031,52.14205],[5.00321,52.14191],[5.00295,52.1418]]]]}}]}