{"type":"FeatureCollection","features":[{"type":"Feature","properties":{"name":"Rotterdam Centrum","bezirk":"Rotterdam"},"geometry":{"type":"MultiPolygon","coordinates":[[[[4.47784,51.92627],[4.47973,51.926],[4.48151,51.92541],[4.48242,51.9256],[4.48809,51.92452],[4.49727,51.92372],[4.49778,51.9233],[4.49751,51.92318],[4.49786,51.92258],[4.49803,51.92255],[4.49787,51.92233],[4.49814,51.92224],[4.49875,51.92145],[4.49822,51.92129],[4.49907,51.92107],[4.49982,51.92016],[4.50029,51.91812],[4.4975,51.91763],[4.4954,51.91689],[4.4932,51.91575],[4.48934,51.91336],[4.48771,51.91219],[4.48631,51.91091],[4.48496,51.90892],[4.48338,51.90731],[4.47922,51.90441],[4.47396,51.90214],[4.46776,51.90035],[4.46401,51.90664],[4.46244,51.90888],[4.46081,51.90905],[4.4583,51.90855],[4.4576,51.90955],[4.45862,51.90987],[4.45998,51.91066],[4.46364,51.91176],[4.46349,51.91217],[4.46372,51.91349],[4.46279,51.91647],[4.46332,51.9195],[4.46329,51.92035],[4.46252,51.92335],[4.45496,51.92275],[4.45479,51.92405],[4.46012,51.92472],[4.46153,51.92478],[4.46159,51.9245],[4.46243,51.92459],[4.46986,51.92605],[4.46996,51.92593],[4.47195,51.92617],[4.47784,51.92627]]]]}},{"type":"Feature","properties":{"name":"Delfshaven","bezirk":"Rotterdam"},"geometry":{"type":"MultiPolygon","coordinates":[[[[4.46252,51.92335],[4.46329,51.92035],[4.46332,51.9195],[4.46279,51.91647],[4.46372,51.91349],[4.46349,51.91217],[4.46364,51.91176],[4.45998,51.91066],[4.45862,51.90987],[4.4576,51.90955],[4.4583,51.90855],[4.46081,51.90905],[4.46244,51.90888],[4.46401,51.90664],[4.46776,51.90035],[4.46588,51.89995],[4.46031,51.89926],[4.45821,51.89917],[4.4543,51.89929],[4.44875,51.89985],[4.43551,51.90196],[4.43615,51.90375],[4.44084,51.90578],[4.43402,51.91034],[4.43378,51.91032],[4.4334,51.91079],[4.43355,51.91084],[4.43294,51.91186],[4.43245,51.91235],[4.43179,51.91253],[4.43039,51.91243],[4.43026,51.91303],[4.41351,51.91395],[4.4136,51.91459],[4.41525,51.91448],[4.4157,51.91594],[4.41584,51.91592],[4.41708,51.91996],[4.41706,51.92042],[4.44588,51.92271],[4.45374,51.92308],[4.45491,51.92304],[4.45496,51.92275],[4.46252,51.92335]]]]}},{"type":"Feature","properties":{"name":"Overschie","bezirk":"Rotterdam"},"geometry":{"type":"MultiPolygon","coordinates":[[[[4.42929,51.97562],[4.44668,51.96279],[4.4473,51.96311],[4.44749,51.96296],[4.45051,51.96581],[4.45682,51.96731],[4.46068,51.96428],[4.46141,51.96324],[4.46169,51.962],[4.46165,51.95777],[4.46151,51.95658],[4.46104,51.95492],[4.46002,51.95234],[4.45974,51.95074],[4.45995,51.94136],[4.46047,51.93959],[4.45693,51.93907],[4.4541,51.93814],[4.45195,51.93673],[4.45125,51.93598],[4.45063,51.93497],[4.44788,51.93448],[4.44564,51.93386],[4.44592,51.93365],[4.43234,51.92608],[4.42571,51.93079],[4.41744,51.93775],[4.41713,51.93762],[4.41722,51.9375],[4.41483,51.9373],[4.41476,51.93737],[4.41631,51.93808],[4.41771,51.93848],[4.41515,51.94096],[4.41536,51.94109],[4.41507,51.94456],[4.41484,51.94543],[4.41399,51.94674],[4.41219,51.94806],[4.41232,51.94816],[4.41211,51.94835],[4.40784,51.94658],[4.40691,51.94676],[4.40456,51.94619],[4.40119,51.94601],[4.39827,51.94618],[4.39582,51.94661],[4.39526,51.94639],[4.39492,51.94646],[4.39519,51.94693],[4.39435,51.94711],[4.38967,51.94547],[4.38933,51.94563],[4.38891,51.94553],[4.37931,51.96341],[4.38978,51.96513],[4.38992,51.9646],[4.39175,51.96492],[4.39356,51.96247],[4.40443,51.96696],[4.40549,51.9672],[4.42084,51.9734],[4.42689,51.97591],[4.42813,51.97662],[4.42929,51.97562]]]]}},{"type":"Feature","properties":{"name":"Noord","bezirk":"Rotterdam"},"geometry":{"type":"MultiPolygon","coordinates":[[[[4.48595,51.94294],[4.48609,51.94283],[4.48578,51.94279],[4.48633,51.94232],[4.48703,51.94138],[4.4865,51.9412],[4.48649,51.94032],[4.48572,51.93953],[4.48579,51.93862],[4.48694,51.93749],[4.48745,51.93615],[4.48771,51.93584],[4.48966,51.93539],[4.48995,51.93508],[4.48979,51.93449],[4.48941,51.934],[4.48819,51.93346],[4.48737,51.93286],[4.48611,51.93104],[4.48589,51.92954],[4.48476,51.92825],[4.48451,51.92719],[4.48532,51.92611],[4.48517,51.92506],[4.48242,51.9256],[4.48151,51.92541],[4.47973,51.926],[4.47794,51.92626],[4.47195,51.92617],[4.46996,51.92593],[4.46986,51.92605],[4.46243,51.92459],[4.46159,51.9245],[4.46153,51.92478],[4.46012,51.92472],[4.45491,51.9241],[4.45479,51.92405],[4.45491,51.92304],[4.451,51.92302],[4.43725,51.92203],[4.4363,51.92295],[4.43234,51.92608],[4.44592,51.93365],[4.44564,51.93386],[4.44788,51.93448],[4.45063,51.93497],[4.4515,51.93628],[4.45268,51.93732],[4.45424,51.9382],[4.45582,51.93879],[4.45841,51.93931],[4.46078,51.93964],[4.46085,51.9395],[4.46755,51.94042],[4.46748,51.94073],[4.46897,51.94064],[4.4804,51.94226],[4.48043,51.94216],[4.48107,51.94225],[4.48191,51.9425],[4.48595,51.94294]]]]}},{"type":"Feature","properties":{"name":"Hillegersberg-Schiebroek","bezirk":"Rotterdam"},"geometry":{"type":"MultiPolygon","coordinates":[[[[4.46995,51.98009],[4.48295,51.97359],[4.48334,51.97325],[4.48581,51.97199],[4.48671,51.97173],[4.49526,51.9674],[4.49531,51.96969],[4.4958,51.97184],[4.50663,51.96635],[4.50584,51.96565],[4.50927,51.9639],[4.51225,51.96242],[4.5131,51.96292],[4.5139,51.96265],[4.51859,51.96029],[4.51973,51.96206],[4.52095,51.96341],[4.52365,51.96393],[4.52868,51.9521],[4.5289,51.95209],[4.52764,51.95155],[4.52714,51.9507],[4.52737,51.94997],[4.52835,51.94916],[4.52814,51.94909],[4.52854,51.94892],[4.52651,51.94873],[4.5266,51.94856],[4.52642,51.94848],[4.52581,51.94852],[4.5199,51.94775],[4.49236,51.94381],[4.49225,51.94401],[4.48806,51.94346],[4.48583,51.94307],[4.48594,51.94295],[4.48156,51.94245],[4.48043,51.94216],[4.4804,51.94226],[4.46897,51.94064],[4.46748,51.94073],[4.46755,51.94042],[4.46085,51.9395],[4.46078,51.93964],[4.46047,51.93959],[4.45995,51.94136],[4.45974,51.95074],[4.46002,51.95234],[4.46104,51.95492],[4.46151,51.95658],[4.46167,51.95863],[4.46164,51.96248],[4.4613,51.96345],[4.46053,51.96443],[4.45682,51.96731],[4.45878,51.96799],[4.4601,51.96878],[4.46037,51.9691],[4.46058,51.96959],[4.46057,51.97017],[4.46016,51.97161],[4.46222,51.97268],[4.4616,51.97387],[4.46135,51.97484],[4.46402,51.97715],[4.46324,51.97753],[4.46412,51.97831],[4.4658,51.97893],[4.46668,51.9785],[4.46778,51.97905],[4.46945,51.98019],[4.46887,51.98048],[4.46901,51.98055],[4.46995,51.98009]]]]}},{"type":"Feature","properties":{"name":"Kralingen-Crooswijk","bezirk":"Rotterdam"},"geometry":{"type":"MultiPolygon","coordinates":[[[[4.52872,51.94884],[4.52949,51.94839],[4.52875,51.94829],[4.5298,51.94726],[4.52932,51.94692],[4.52904,51.94649],[4.52831,51.94635],[4.52837,51.94622],[4.52938,51.94637],[4.52977,51.94526],[4.53019,51.94532],[4.53007,51.94556],[4.53047,51.94541],[4.53152,51.94559],[4.53165,51.94528],[4.53084,51.9451],[4.53195,51.94331],[4.53356,51.94012],[4.53456,51.93744],[4.53495,51.93745],[4.53514,51.937],[4.53484,51.9368],[4.53626,51.93339],[4.53668,51.93339],[4.53673,51.93326],[4.53637,51.93314],[4.53726,51.93055],[4.53762,51.92805],[4.53805,51.92812],[4.53801,51.92787],[4.53733,51.92777],[4.53698,51.92723],[4.53595,51.92666],[4.53558,51.92603],[4.53552,51.92572],[4.53746,51.92558],[4.53723,51.92507],[4.5369,51.9251],[4.53499,51.92201],[4.53535,51.92199],[4.53466,51.9209],[4.53434,51.92075],[4.53407,51.92016],[4.53417,51.91997],[4.53386,51.91903],[4.53367,51.91761],[4.53401,51.91548],[4.53448,51.91569],[4.53466,51.91525],[4.53442,51.91501],[4.53446,51.91449],[4.53474,51.91414],[4.53527,51.91392],[4.53538,51.91369],[4.53513,51.91364],[4.53553,51.91339],[4.5357,51.91306],[4.53552,51.91309],[4.53589,51.9126],[4.53563,51.91255],[4.53577,51.91233],[4.53847,51.90896],[4.53879,51.90905],[4.54192,51.90459],[4.54177,51.90447],[4.54198,51.90448],[4.54247,51.90378],[4.53781,51.90278],[4.53017,51.9005],[4.52813,51.90007],[4.52646,51.89997],[4.5247,51.90008],[4.52258,51.90048],[4.52102,51.90096],[4.51857,51.90217],[4.51704,51.90348],[4.51635,51.90543],[4.51637,51.90697],[4.51668,51.90948],[4.51651,51.91032],[4.5152,51.91235],[4.51388,51.91365],[4.51232,51.91482],[4.5099,51.91606],[4.50645,51.91714],[4.50317,51.91791],[4.50029,51.91812],[4.49982,51.92016],[4.49907,51.92107],[4.49822,51.92129],[4.49875,51.92145],[4.49814,51.92224],[4.49787,51.92233],[4.49803,51.92255],[4.49786,51.92258],[4.49751,51.92318],[4.49778,51.9233],[4.49727,51.92372],[4.48823,51.9245],[4.48517,51.92506],[4.48532,51.92611],[4.48451,51.92719],[4.48476,51.92825],[4.48589,51.92954],[4.48611,51.93104],[4.48737,51.93286],[4.48819,51.93346],[4.48941,51.934],[4.48979,51.93449],[4.48995,51.93508],[4.48966,51.93539],[4.48771,51.93584],[4.48745,51.93615],[4.48694,51.93749],[4.48579,51.93862],[4.48572,51.93953],[4.48649,51.94032],[4.4865,51.9412],[4.48703,51.94138],[4.48633,51.94232],[4.48578,51.94279],[4.48609,51.94283],[4.48583,51.94307],[4.49225,51.94401],[4.49236,51.94381],[4.52376,51.94828],[4.52642,51.94848],[4.5266,51.94856],[4.52651,51.94873],[4.52706,51.94881],[4.52872,51.94884]]]]}},{"type":"Feature","properties":{"name":"Feijenoord","bezirk":"Rotterdam"},"geometry":{"type":"MultiPolygon","coordinates":[[[[4.51486,51.89947],[4.51604,51.89809],[4.5165,51.89782],[4.51737,51.8969],[4.51761,51.89684],[4.51976,51.89465],[4.52075,51.89347],[4.52086,51.89331],[4.52068,51.89328],[4.52105,51.89278],[4.52577,51.88681],[4.52248,51.88642],[4.52242,51.88514],[4.52151,51.8829],[4.51661,51.88233],[4.51611,51.88235],[4.51605,51.88253],[4.51567,51.88248],[4.51551,51.88265],[4.51528,51.8825],[4.51344,51.88228],[4.51145,51.8811],[4.5104,51.88009],[4.50899,51.87923],[4.50902,51.87913],[4.50598,51.87754],[4.50346,51.87893],[4.49808,51.8828],[4.49365,51.88425],[4.49196,51.88501],[4.4926,51.88843],[4.49402,51.88945],[4.49383,51.89431],[4.49563,51.89802],[4.49504,51.89808],[4.49245,51.89917],[4.47662,51.8958],[4.46898,51.89851],[4.46776,51.90035],[4.47396,51.90214],[4.47922,51.90441],[4.48338,51.90731],[4.48496,51.90892],[4.48631,51.91091],[4.48771,51.91219],[4.48934,51.91336],[4.4932,51.91575],[4.49566,51.917],[4.4975,51.91763],[4.50073,51.91812],[4.50401,51.91776],[4.5099,51.91606],[4.5116,51.91526],[4.51307,51.9143],[4.51454,51.91306],[4.51553,51.91194],[4.51619,51.91098],[4.51663,51.9099],[4.51635,51.90543],[4.51679,51.90395],[4.5172,51.90324],[4.51297,51.90172],[4.51486,51.89947]]]]}},{"type":"Feature","properties":{"name":"IJsselmonde","bezirk":"Rotterdam"},"geometry":{"type":"MultiPolygon","coordinates":[[[[4.57602,51.90036],[4.57609,51.89926],[4.57565,51.89811],[4.57541,51.89808],[4.57341,51.89168],[4.57042,51.8836],[4.56892,51.87832],[4.56915,51.87818],[4.56891,51.87805],[4.56477,51.87833],[4.56146,51.8782],[4.55785,51.87692],[4.55657,51.87622],[4.55481,51.87553],[4.55194,51.8747],[4.55095,51.87466],[4.54979,51.87439],[4.54925,51.8742],[4.54938,51.87403],[4.54812,51.87382],[4.54494,51.87231],[4.54425,51.8723],[4.54371,51.87156],[4.54258,51.8708],[4.53945,51.87004],[4.53643,51.86971],[4.53524,51.86933],[4.53203,51.86878],[4.53,51.86887],[4.5282,51.86914],[4.52697,51.86938],[4.5261,51.86973],[4.52263,51.86908],[4.51524,51.86904],[4.515,51.87059],[4.51439,51.87184],[4.51107,51.87522],[4.50598,51.87754],[4.50902,51.87913],[4.50899,51.87923],[4.5104,51.88009],[4.51145,51.8811],[4.51344,51.88228],[4.51528,51.8825],[4.51551,51.88265],[4.51567,51.88248],[4.51605,51.88253],[4.51611,51.88235],[4.51661,51.88233],[4.52151,51.8829],[4.52242,51.88514],[4.52248,51.88642],[4.52577,51.88681],[4.52105,51.89278],[4.52068,51.89328],[4.52086,51.89331],[4.52075,51.89347],[4.51976,51.89465],[4.51761,51.89684],[4.51737,51.8969],[4.5165,51.89782],[4.51604,51.89809],[4.51297,51.90172],[4.5172,51.90324],[4.51907,51.90186],[4.52163,51.90075],[4.5247,51.90008],[4.52744,51.9],[4.52944,51.9003],[4.53751,51.9027],[4.5413,51.90356],[4.5541,51.90563],[4.55509,51.90565],[4.56946,51.90435],[4.57292,51.90385],[4.57633,51.90303],[4.57591,51.90125],[4.57602,51.90036]]]]}},{"type":"Feature","properties":{"name":"Pernis","bezirk":"Rotterdam"},"geometry":{"type":"MultiPolygon","coordinates":[[[[4.38489,51.89502],[4.38906,51.89459],[4.39096,51.89424],[4.39441,51.89324],[4.39869,51.89169],[4.39775,51.89162],[4.39624,51.88864],[4.39797,51.88659],[4.3974,51.88645],[4.39629,51.88395],[4.39566,51.88352],[4.39145,51.88211],[4.38983,51.8805],[4.38957,51.88044],[4.38949,51.88063],[4.3892,51.88069],[4.38873,51.87904],[4.38877,51.87819],[4.38698,51.87813],[4.38714,51.87839],[4.38583,51.87834],[4.38474,51.87954],[4.38319,51.88181],[4.38028,51.88693],[4.37937,51.88896],[4.37856,51.89195],[4.37803,51.89306],[4.37944,51.89315],[4.38219,51.89273],[4.38382,51.89275],[4.38382,51.89303],[4.38419,51.89333],[4.3843,51.8939],[4.38489,51.89502]]]]}},{"type":"Feature","properties":{"name":"Prins Alexander","bezirk":"Rotterdam"},"geometry":{"type":"MultiPolygon","coordinates":[[[[4.59377,51.9764],[4.59381,51.9759],[4.59438,51.97539],[4.60181,51.97214],[4.5994,51.97145],[4.59672,51.97028],[4.59233,51.96868],[4.59069,51.96823],[4.59002,51.96858],[4.58537,51.96648],[4.58485,51.96595],[4.58425,51.96564],[4.58431,51.96551],[4.58399,51.96537],[4.58383,51.9655],[4.57269,51.9601],[4.56801,51.95808],[4.56789,51.95819],[4.5668,51.95788],[4.56437,51.95992],[4.56205,51.95887],[4.5629,51.95686],[4.56155,51.95665],[4.56406,51.95081],[4.57278,51.94346],[4.5705,51.94243],[4.56059,51.94091],[4.56529,51.92983],[4.5647,51.92955],[4.56515,51.92918],[4.56506,51.92913],[4.56624,51.92591],[4.56569,51.92555],[4.56579,51.92509],[4.56539,51.92446],[4.56407,51.92329],[4.56144,51.92217],[4.56152,51.92187],[4.55691,51.91991],[4.55633,51.92032],[4.55207,51.91945],[4.54107,51.91926],[4.5391,51.91966],[4.53755,51.91978],[4.53785,51.91932],[4.53623,51.92016],[4.53579,51.92069],[4.53531,51.91933],[4.53522,51.9185],[4.53541,51.91708],[4.5357,51.91628],[4.53617,51.91577],[4.53667,51.91552],[4.53822,51.91537],[4.53823,51.91491],[4.53765,51.9148],[4.53727,51.91449],[4.53716,51.91412],[4.53731,51.91355],[4.53831,51.91189],[4.53883,51.91198],[4.53931,51.91157],[4.5393,51.91065],[4.54021,51.90944],[4.54008,51.9091],[4.54214,51.9062],[4.54326,51.90638],[4.54339,51.90622],[4.54402,51.90624],[4.54613,51.90652],[4.5477,51.90717],[4.54745,51.90736],[4.54754,51.90797],[4.5474,51.90799],[4.54776,51.90855],[4.54797,51.90857],[4.55026,51.91482],[4.554,51.91662],[4.55394,51.91632],[4.55426,51.9165],[4.55403,51.91478],[4.5565,51.9148],[4.55683,51.91039],[4.55555,51.91054],[4.55485,51.91045],[4.55304,51.91018],[4.55105,51.90964],[4.55094,51.90932],[4.55117,51.90903],[4.55063,51.9088],[4.54924,51.90488],[4.54247,51.90378],[4.54198,51.90448],[4.54177,51.90447],[4.54192,51.90459],[4.53879,51.90905],[4.53847,51.90896],[4.53577,51.91233],[4.53563,51.91255],[4.53589,51.9126],[4.53552,51.91309],[4.5357,51.91306],[4.53553,51.91339],[4.53513,51.91364],[4.53538,51.91369],[4.53527,51.91392],[4.53474,51.91414],[4.53446,51.91449],[4.53442,51.91501],[4.53466,51.91525],[4.53448,51.91569],[4.53401,51.91548],[4.53367,51.91761],[4.53386,51.91903],[4.53417,51.91997],[4.53407,51.92016],[4.53434,51.92075],[4.53466,51.9209],[4.53535,51.92199],[4.53499,51.92201],[4.5369,51.9251],[4.53723,51.92507],[4.53746,51.92558],[4.53552,51.92572],[4.53558,51.92603],[4.53595,51.92666],[4.53698,51.92723],[4.53733,51.92777],[4.53801,51.92787],[4.53805,51.92812],[4.53762,51.92805],[4.53726,51.93055],[4.53637,51.93314],[4.53673,51.93326],[4.53668,51.93339],[4.53626,51.93339],[4.53484,51.9368],[4.53514,51.937],[4.53495,51.93745],[4.53456,51.93744],[4.53356,51.94012],[4.53195,51.94331],[4.53084,51.9451],[4.53165,51.94528],[4.53152,51.94559],[4.53047,51.94541],[4.53007,51.94556],[4.53019,51.94532],[4.52977,51.94526],[4.52938,51.94637],[4.52837,51.94622],[4.52831,51.94635],[4.52904,51.94649],[4.5298,51.9473],[4.52875,51.94829],[4.52949,51.94839],[4.52814,51.94909],[4.52835,51.94916],[4.52737,51.94997],[4.52714,51.9507],[4.52764,51.95155],[4.5289,51.95209],[4.52868,51.9521],[4.52365,51.96393],[4.52782,51.96566],[4.52806,51.96592],[4.52815,51.96664],[4.52876,51.96702],[4.53025,51.96727],[4.53164,51.96777],[4.5337,51.96793],[4.53498,51.96827],[4.53539,51.96868],[4.53538,51.97004],[4.53569,51.97042],[4.5363,51.97049],[4.53861,51.9699],[4.53995,51.96989],[4.54318,51.97114],[4.54563,51.97235],[4.54716,51.97275],[4.54769,51.97281],[4.54808,51.97239],[4.54957,51.97159],[4.54993,51.97123],[4.55423,51.96891],[4.55638,51.96888],[4.55669,51.96872],[4.5565,51.96859],[4.55656,51.96846],[4.55821,51.96912],[4.56067,51.96969],[4.56073,51.97011],[4.5614,51.97028],[4.5611,51.97053],[4.56165,51.97076],[4.56113,51.9712],[4.56159,51.9714],[4.56144,51.97153],[4.56241,51.97193],[4.5629,51.97152],[4.56337,51.97173],[4.56321,51.97186],[4.56538,51.97128],[4.56574,51.97147],[4.56694,51.97119],[4.57028,51.97202],[4.5716,51.97213],[4.57191,51.97187],[4.57388,51.97266],[4.57436,51.97288],[4.57409,51.97311],[4.579,51.97579],[4.57852,51.97619],[4.57792,51.97585],[4.57745,51.97625],[4.5743,51.97451],[4.57394,51.97476],[4.57353,51.97458],[4.57023,51.97903],[4.57892,51.98113],[4.57911,51.98283],[4.57894,51.98401],[4.57835,51.98521],[4.57731,51.98641],[4.57969,51.98727],[4.57873,51.98855],[4.57974,51.98884],[4.57894,51.98987],[4.59437,51.99428],[4.59856,51.98861],[4.59877,51.98797],[4.59659,51.9828],[4.59578,51.98171],[4.59419,51.97766],[4.59429,51.9771],[4.5939,51.97676],[4.59377,51.9764]]]]}},{"type":"Feature","properties":{"name":"Charlois","bezirk":"Rotterdam"},"geometry":{"type":"MultiPolygon","coordinates":[[[[4.47662,51.8958],[4.49245,51.89917],[4.49504,51.89808],[4.49563,51.89802],[4.49383,51.89431],[4.49402,51.88945],[4.4926,51.88843],[4.49196,51.88501],[4.4937,51.88423],[4.49798,51.88286],[4.50449,51.87829],[4.5109,51.87534],[4.51439,51.87184],[4.515,51.87059],[4.51524,51.86904],[4.49404,51.86897],[4.48875,51.86735],[4.48718,51.86717],[4.48354,51.86591],[4.48073,51.86527],[4.47992,51.86527],[4.48021,51.86507],[4.4804,51.86233],[4.47186,51.86167],[4.46822,51.86178],[4.46368,51.86223],[4.44648,51.86605],[4.44434,51.86633],[4.44277,51.86631],[4.44102,51.86591],[4.44024,51.86642],[4.44553,51.86828],[4.45125,51.86908],[4.4516,51.86948],[4.45111,51.8695],[4.45092,51.8702],[4.45078,51.87027],[4.45262,51.87098],[4.45486,51.87116],[4.45562,51.87177],[4.45347,51.87211],[4.45296,51.87234],[4.453,51.87259],[4.45372,51.87312],[4.45405,51.87358],[4.45364,51.87694],[4.45382,51.87793],[4.45944,51.88767],[4.45975,51.88847],[4.46274,51.89304],[4.46251,51.89346],[4.46258,51.89361],[4.46342,51.89408],[4.46251,51.89478],[4.45955,51.89531],[4.45966,51.89923],[4.46375,51.89961],[4.46776,51.90035],[4.46898,51.89851],[4.47662,51.8958]]],[[[4.42571,51.89057],[4.42529,51.88966],[4.42392,51.88885],[4.42625,51.88598],[4.42557,51.88585],[4.41997,51.88716],[4.42157,51.88997],[4.4159,51.89119],[4.4155,51.89138],[4.42039,51.89306],[4.42036,51.89337],[4.41911,51.89467],[4.41876,51.89631],[4.42384,51.897],[4.42393,51.89679],[4.42249,51.89638],[4.42202,51.89589],[4.42578,51.8915],[4.42589,51.8912],[4.42571,51.89057]]]]}},{"type":"Feature","properties":{"name":"Hoogvliet","bezirk":"Rotterdam"},"geometry":{"type":"MultiPolygon","coordinates":[[[[4.38613,51.87567],[4.38652,51.87412],[4.3867,51.87217],[4.38623,51.86794],[4.38747,51.86848],[4.38787,51.86847],[4.38803,51.86827],[4.38602,51.86586],[4.38488,51.86272],[4.38549,51.86177],[4.3845,51.86173],[4.3835,51.85776],[4.38372,51.85671],[4.38502,51.85553],[4.38516,51.85376],[4.38491,51.8536],[4.38507,51.85343],[4.38424,51.85311],[4.38323,51.8524],[4.38335,51.84654],[4.38357,51.84648],[4.38366,51.84212],[4.37933,51.84237],[4.37446,51.84287],[4.3676,51.84438],[4.35998,51.84671],[4.35493,51.84849],[4.35047,51.85063],[4.34627,51.85329],[4.34268,51.8559],[4.34127,51.85741],[4.33455,51.86555],[4.33061,51.87179],[4.33385,51.87247],[4.33395,51.87229],[4.33432,51.87237],[4.33474,51.87185],[4.33841,51.87294],[4.34027,51.87325],[4.34021,51.87368],[4.34254,51.87391],[4.34935,51.87532],[4.35698,51.87616],[4.35701,51.87599],[4.36419,51.87644],[4.36421,51.87659],[4.36861,51.87645],[4.36966,51.87663],[4.37016,51.8765],[4.37019,51.87621],[4.37249,51.87593],[4.37682,51.87504],[4.37614,51.87554],[4.3757,51.8763],[4.3757,51.8768],[4.37687,51.87683],[4.37713,51.87601],[4.37759,51.87557],[4.37841,51.87526],[4.37986,51.87517],[4.38083,51.87532],[4.38185,51.87569],[4.38265,51.87627],[4.38361,51.87733],[4.38542,51.87738],[4.38613,51.87567]]]]}},{"type":"Feature","properties":{"name":"Hoek van Holland","bezirk":"Rotterdam"},"geometry":{"type":"MultiPolygon","coordinates":[[[[4.14929,51.98501],[4.14995,51.98481],[4.14728,51.98139],[4.1525,51.98001],[4.15414,51.9797],[4.15535,51.97971],[4.15506,51.97784],[4.15964,51.97674],[4.16961,51.97397],[4.1759,51.97169],[4.18749,51.96684],[4.18658,51.96587],[4.18716,51.96566],[4.18853,51.96522],[4.19061,51.96598],[4.1912,51.96544],[4.18937,51.96476],[4.18672,51.96268],[4.1924,51.95481],[4.21782,51.94164],[4.21969,51.94152],[4.21272,51.93373],[4.20935,51.93511],[4.19127,51.94175],[4.17766,51.94746],[4.1695,51.95131],[4.13398,51.96928],[4.12841,51.97171],[4.12329,51.97367],[4.11742,51.9756],[4.10837,51.9781],[4.093,51.98184],[4.0456,51.99192],[4.04715,51.99434],[4.047,51.99462],[4.04742,51.99475],[4.04818,51.99425],[4.09642,51.98429],[4.09648,51.9846],[4.09702,51.98505],[4.10677,51.99013],[4.1113,51.99269],[4.11943,51.99793],[4.12233,51.99956],[4.1253,52.00164],[4.13252,51.99854],[4.13099,51.99718],[4.13239,51.99542],[4.13564,51.99266],[4.15097,51.98764],[4.14897,51.9851],[4.14929,51.98501]]]]}},{"type":"Feature","properties":{"name":"Spaanse Polder","bezirk":"Rotterdam"},"geometry":{"type":"MultiPolygon","coordinates":[[[[4.41778,51.9374],[4.42571,51.93079],[4.43234,51.92608],[4.4363,51.92295],[4.43727,51.92199],[4.41706,51.92042],[4.41701,51.92252],[4.41684,51.92262],[4.41683,51.9231],[4.41523,51.92297],[4.4105,51.92929],[4.40987,51.92911],[4.40859,51.93061],[4.40824,51.93118],[4.40815,51.93181],[4.40876,51.93439],[4.4088,51.93518],[4.40905,51.93575],[4.40955,51.93621],[4.41069,51.93657],[4.41309,51.93668],[4.41476,51.93737],[4.41594,51.93733],[4.41722,51.9375],[4.41713,51.93762],[4.41744,51.93775],[4.41778,51.9374]]]]}},{"type":"Feature","properties":{"name":"Nieuw Mathenesse","bezirk":"Rotterdam"},"geometry":{"type":"MultiPolygon","coordinates":[[[[4.41353,51.91395],[4.43026,51.91303],[4.43039,51.91243],[4.43224,51.91244],[4.43294,51.91186],[4.43355,51.91084],[4.4334,51.91079],[4.43378,51.91032],[4.43402,51.91034],[4.44084,51.90578],[4.43615,51.90375],[4.43551,51.90196],[4.42982,51.90238],[4.42532,51.90237],[4.42047,51.90196],[4.41371,51.90076],[4.41234,51.90242],[4.41568,51.90503],[4.41362,51.90688],[4.4133,51.90728],[4.41345,51.90768],[4.41135,51.91027],[4.41,51.90985],[4.40954,51.91041],[4.40908,51.91205],[4.41239,51.9133],[4.41271,51.9139],[4.41353,51.91395]]]]}},{"type":"Feature","properties":{"name":"Waalhaven-Eemhaven","bezirk":"Rotterdam"},"geometry":{"type":"MultiPolygon","coordinates":[[[[4.4274,51.90241],[4.43123,51.90231],[4.43551,51.90196],[4.45053,51.89961],[4.45638,51.89919],[4.45966,51.89923],[4.45955,51.89531],[4.46251,51.89478],[4.46342,51.89408],[4.46258,51.89361],[4.46251,51.89346],[4.46274,51.89304],[4.45975,51.88847],[4.45944,51.88767],[4.45382,51.87793],[4.45364,51.87694],[4.45405,51.87358],[4.45372,51.87312],[4.453,51.87259],[4.45296,51.87237],[4.45347,51.87211],[4.45562,51.87177],[4.45516,51.8713],[4.4546,51.8711],[4.45239,51.87093],[4.45078,51.87027],[4.45092,51.8702],[4.45111,51.8695],[4.4516,51.86948],[4.45125,51.86908],[4.44553,51.86828],[4.44024,51.86642],[4.43904,51.8672],[4.43705,51.86806],[4.43749,51.86823],[4.43653,51.86857],[4.43174,51.86981],[4.43023,51.86941],[4.42793,51.8706],[4.42726,51.8708],[4.42029,51.87205],[4.41695,51.87245],[4.41582,51.87244],[4.415,51.87174],[4.41463,51.87189],[4.41252,51.8717],[4.41225,51.87143],[4.41126,51.8717],[4.41124,51.87185],[4.40961,51.8718],[4.40962,51.87221],[4.40836,51.87261],[4.40623,51.8728],[4.40635,51.87312],[4.40577,51.8732],[4.40563,51.87282],[4.40197,51.87277],[4.39922,51.8722],[4.39485,51.87233],[4.39497,51.8723],[4.39338,51.87197],[4.39178,51.87133],[4.39038,51.87055],[4.38802,51.86825],[4.38787,51.86847],[4.38747,51.86848],[4.38623,51.86794],[4.38668,51.87146],[4.38663,51.87339],[4.38613,51.87567],[4.38513,51.87794],[4.38619,51.87797],[4.38583,51.87834],[4.38714,51.87839],[4.38698,51.87813],[4.38877,51.87819],[4.38873,51.87904],[4.3892,51.88069],[4.38949,51.88063],[4.38957,51.88044],[4.38983,51.8805],[4.39145,51.88211],[4.39566,51.88352],[4.3962,51.88385],[4.3974,51.88645],[4.39797,51.88659],[4.39624,51.88864],[4.39775,51.89162],[4.39869,51.8917],[4.39441,51.89324],[4.39096,51.89424],[4.38906,51.89459],[4.3849,51.89502],[4.3843,51.8939],[4.38419,51.89333],[4.38382,51.89303],[4.38382,51.89275],[4.38219,51.89273],[4.37944,51.89315],[4.37803,51.89306],[4.37656,51.89488],[4.37341,51.89756],[4.37214,51.89919],[4.38762,51.89685],[4.39039,51.89669],[4.39342,51.89674],[4.39638,51.89699],[4.39903,51.89742],[4.41368,51.90075],[4.41753,51.90148],[4.4221,51.90214],[4.4274,51.90241]],[[4.42311,51.89688],[4.41876,51.89631],[4.41911,51.89467],[4.42036,51.89337],[4.42039,51.89306],[4.4155,51.89138],[4.4159,51.89119],[4.42157,51.88997],[4.42004,51.88711],[4.42537,51.88588],[4.42597,51.8859],[4.42625,51.88598],[4.42392,51.88885],[4.42538,51.88977],[4.42585,51.891],[4.42583,51.89142],[4.42202,51.89589],[4.42249,51.89638],[4.42393,51.89679],[4.42384,51.897],[4.42311,51.89688]]]]}},{"type":"Feature","properties":{"name":"Vondelingenplaat","bezirk":"Rotterdam"},"geometry":{"type":"MultiPolygon","coordinates":[[[[4.36461,51.89963],[4.36793,51.89956],[4.37214,51.89919],[4.37365,51.89733],[4.37656,51.89488],[4.37765,51.89365],[4.37831,51.89255],[4.37952,51.88857],[4.38172,51.88431],[4.38474,51.87954],[4.38619,51.87797],[4.38513,51.87794],[4.38542,51.87738],[4.38361,51.87733],[4.38228,51.87595],[4.38136,51.87548],[4.38036,51.87522],[4.37938,51.87515],[4.37794,51.87539],[4.37713,51.87601],[4.37687,51.87683],[4.3757,51.8768],[4.3757,51.8763],[4.37614,51.87554],[4.37682,51.87504],[4.37249,51.87593],[4.37019,51.87621],[4.37016,51.8765],[4.36966,51.87663],[4.36861,51.87645],[4.36421,51.87659],[4.36419,51.87644],[4.35701,51.87599],[4.35698,51.87616],[4.34935,51.87532],[4.34254,51.87391],[4.34021,51.87368],[4.34027,51.87325],[4.33841,51.87294],[4.33474,51.87185],[4.33432,51.87237],[4.33395,51.87229],[4.33385,51.87247],[4.33061,51.87179],[4.32974,51.87313],[4.32838,51.87585],[4.32621,51.88048],[4.32515,51.8836],[4.3196,51.89458],[4.32372,51.89417],[4.32799,51.89404],[4.33528,51.89443],[4.33888,51.89494],[4.34259,51.89567],[4.35038,51.89783],[4.35452,51.89872],[4.35941,51.89938],[4.36461,51.89963]]]]}},{"type":"Feature","properties":{"name":"Botlek-Europoort-Maasvlakte","bezirk":"Rotterdam"},"geometry":{"type":"MultiPolygon","coordinates":[[[[3.99425,51.91602],[3.99353,51.91585],[3.99281,51.91598],[3.99269,51.91632],[3.99326,51.91649],[3.99345,51.91623],[3.99425,51.91602]]],[[[3.99147,51.91748],[3.9921,51.91696],[3.99276,51.91687],[3.99275,51.91666],[3.99229,51.9164],[3.99072,51.9172],[3.98999,51.91735],[3.98871,51.91737],[3.98674,51.91705],[3.9865,51.91716],[3.9882,51.91757],[3.99006,51.91764],[3.9898,51.91784],[3.98994,51.91798],[3.99147,51.91748]]],[[[4.08541,51.9835],[4.1018,51.97976],[4.1134,51.97674],[4.12087,51.97451],[4.12709,51.97225],[4.1344,51.96907],[4.15503,51.95855],[4.17326,51.94949],[4.18106,51.94596],[4.19127,51.94175],[4.18708,51.93853],[4.21904,51.92259],[4.21955,51.91959],[4.22176,51.91739],[4.22349,51.9153],[4.22486,51.91315],[4.22561,51.91166],[4.22643,51.9094],[4.22817,51.90327],[4.23048,51.90352],[4.23328,51.9027],[4.23515,51.90139],[4.26049,51.89656],[4.26289,51.89921],[4.26618,51.9059],[4.27711,51.9017],[4.28189,51.90015],[4.28794,51.89856],[4.29344,51.8975],[4.29984,51.89658],[4.3196,51.89458],[4.32515,51.8836],[4.32634,51.88018],[4.32974,51.87313],[4.33384,51.86656],[4.33554,51.8643],[4.26841,51.86453],[4.26309,51.86505],[4.2605,51.8656],[4.25789,51.86639],[4.24041,51.87254],[4.23754,51.87392],[4.23506,51.87556],[4.23297,51.87749],[4.23149,51.87945],[4.23064,51.8812],[4.22922,51.88525],[4.22742,51.88807],[4.22082,51.89539],[4.21865,51.89719],[4.21591,51.89894],[4.21378,51.89995],[4.21216,51.90051],[4.209,51.90209],[4.20667,51.90355],[4.1971,51.9083],[4.18905,51.9113],[4.18537,51.91289],[4.17996,51.91566],[4.17647,51.91792],[4.17497,51.9183],[4.16819,51.91906],[4.16768,51.92066],[4.1676,51.92187],[4.16702,51.92313],[4.1662,51.92407],[4.16434,51.92569],[4.16267,51.92665],[4.15979,51.92774],[4.15811,51.92812],[4.15188,51.9288],[4.14928,51.93001],[4.14722,51.93077],[4.14504,51.93138],[4.1424,51.93189],[4.11306,51.93574],[4.11267,51.9348],[4.10772,51.93614],[4.10597,51.93338],[4.10562,51.9333],[4.10172,51.92701],[4.102,51.92353],[4.09289,51.93253],[4.08579,51.93343],[4.08101,51.93376],[4.07694,51.93377],[4.07172,51.93346],[4.06778,51.93295],[4.06372,51.93218],[3.99507,51.91621],[3.99396,51.91668],[3.99306,51.91733],[3.98988,51.91899],[3.99006,51.9195],[3.98951,51.92002],[3.98775,51.9205],[3.98656,51.92053],[3.98636,51.92005],[3.98664,51.91965],[3.98726,51.91935],[3.98735,51.91912],[3.98783,51.91904],[3.98842,51.91858],[3.98968,51.91796],[3.98896,51.91786],[3.98653,51.91903],[3.98541,51.91934],[3.98514,51.91927],[3.98502,51.91909],[3.98522,51.91894],[3.98533,51.91781],[3.9856,51.917],[3.98617,51.917],[3.98592,51.91673],[3.98602,51.91659],[3.98678,51.91668],[3.98769,51.91648],[3.98694,51.91615],[3.98559,51.91614],[3.98522,51.91625],[3.98474,51.91669],[3.98436,51.91757],[3.98379,51.91809],[3.98338,51.91885],[3.98209,51.92282],[3.98002,51.92671],[3.97898,51.92915],[3.97607,51.93432],[3.96762,51.94784],[3.96395,51.95328],[3.9635,51.9542],[3.96256,51.9571],[3.96226,51.95912],[3.96239,51.96154],[3.96271,51.96274],[3.9631,51.96327],[3.9635,51.96468],[3.96434,51.96616],[3.96606,51.96866],[3.96999,51.97309],[3.97435,51.97729],[3.97643,51.97869],[3.97658,51.97951],[3.97709,51.98039],[3.97981,51.9829],[3.98105,51.98377],[3.98259,51.98457],[3.98518,51.98546],[3.99177,51.987],[4.00096,51.98876],[4.00409,51.98904],[4.00614,51.98902],[4.01063,51.98855],[4.02353,51.98564],[4.02769,51.98693],[4.02974,51.98727],[4.03273,51.9875],[4.03628,51.98723],[4.04169,51.98597],[4.0456,51.99192],[4.08541,51.9835]]]]}},{"type":"Feature","properties":{"name":"Rotterdam-Noord-West","bezirk":"Rotterdam"},"geometry":{"type":"MultiPolygon","coordinates":[[[[4.41227,51.94826],[4.41232,51.94812],[4.41219,51.94806],[4.41399,51.94674],[4.41484,51.94543],[4.41507,51.94456],[4.41536,51.94109],[4.41515,51.94096],[4.41549,51.94076],[4.41456,51.94011],[4.41419,51.93961],[4.41321,51.93906],[4.4108,51.93827],[4.40932,51.93798],[4.40852,51.93864],[4.40392,51.93725],[4.40212,51.9384],[4.40211,51.93893],[4.40178,51.93915],[4.40078,51.93924],[4.40038,51.93948],[4.39786,51.94125],[4.39498,51.94291],[4.39422,51.944],[4.39345,51.94426],[4.39492,51.94646],[4.39526,51.94639],[4.39582,51.94661],[4.39827,51.94618],[4.40119,51.94601],[4.40456,51.94619],[4.40691,51.94676],[4.40784,51.94658],[4.41211,51.94835],[4.41227,51.94826]]]]}},{"type":"Feature","properties":{"name":"Rivium","bezirk":"Rotterdam"},"geometry":{"type":"MultiPolygon","coordinates":[[[[4.53581,51.92068],[4.53623,51.92016],[4.53785,51.91932],[4.54052,51.91524],[4.53726,51.91538],[4.53649,51.91559],[4.5359,51.916],[4.53541,51.91708],[4.53522,51.9185],[4.53531,51.91933],[4.53581,51.92068]]]]}},{"type":"Feature","properties":{"name":"Rozenburg","bezirk":"Rotterdam"},"geometry":{"type":"MultiPolygon","coordinates":[[[[4.26586,51.90524],[4.26289,51.89921],[4.26049,51.89656],[4.23515,51.90139],[4.23328,51.9027],[4.23048,51.90352],[4.22817,51.90327],[4.22643,51.9094],[4.22561,51.91166],[4.22486,51.91315],[4.22349,51.9153],[4.22176,51.91739],[4.21955,51.91959],[4.21904,51.92259],[4.18708,51.93853],[4.19127,51.94175],[4.20935,51.93511],[4.2153,51.93271],[4.22095,51.92992],[4.22501,51.92734],[4.22757,51.92516],[4.2298,51.92288],[4.23307,51.9199],[4.23479,51.91846],[4.23782,51.91648],[4.24241,51.91434],[4.25284,51.9111],[4.26618,51.9059],[4.26586,51.90524]]]]}}]}