{"type":"FeatureCollection","features":[{"type":"Feature","properties":{"zone":"VI","district":"Cottbus","rawHours":"Mo–Fr 08:00–20:00 Uhr, Sa 09:00–15:00 Uhr (Parkgebührenordnung vom 1. Juni 2025; der Datensatz der Stadt nennt noch Mo - Fr 08:00-19:00; Sa 09:00-15:00)","rawFee":"1,00 € je Stunde (Zone 2 der Parkgebührenordnung vom 1. Juni 2025; der Datensatz nennt noch 0,50 €)","note":"Bewohnerparkzone Z6 — Tarifzone 2 (außerhalb der Innenstadt) der Parkgebührenordnung","windows":[{"weekdays":[1,2,3,4,5],"fromMinute":480,"toMinute":1200},{"weekdays":[6],"fromMinute":540,"toMinute":900}],"fee":{"kind":"exact","centsPerHour":100},"unmodelledRules":[],"sourceDefect":"der Datensatz der Stadt nennt noch die Parkgebührenordnung von 2014 — 0,50 € je Stunde und Montag bis Freitag nur bis 19:00 Uhr. Gezeigt wird die seit dem 1. Juni 2025 geltende Ordnung: 1,00 € je Stunde, Mo–Fr 08:00–20:00 Uhr, Sa 09:00–15:00 Uhr","spaces":18,"maxStayMinutes":null,"maxStay":null,"maxStayShare":0,"maxStayValues":[],"chargingPoints":0,"carsharing":0},"geometry":{"type":"Polygon","coordinates":[[[14.31303,51.74295],[14.3178,51.74292],[14.31784,51.74435],[14.32149,51.74431],[14.32696,51.74436],[14.32786,51.74588],[14.32799,51.74615],[14.32812,51.7465],[14.32827,51.74718],[14.32834,51.74763],[14.32849,51.74935],[14.32547,51.74961],[14.32481,51.74965],[14.32159,51.74902],[14.31668,51.74802],[14.31681,51.74756],[14.3171,51.7476],[14.3174,51.74662],[14.31672,51.74655],[14.31651,51.74754],[14.31675,51.74759],[14.31663,51.74801],[14.31548,51.74785],[14.31558,51.74741],[14.31621,51.74747],[14.31633,51.74693],[14.31643,51.74635],[14.31638,51.74633],[14.31575,51.74632],[14.31578,51.74608],[14.31578,51.74571],[14.31659,51.74571],[14.31651,51.74453],[14.31644,51.74446],[14.31306,51.74447],[14.31303,51.74295]]]}},{"type":"Feature","properties":{"zone":"V","district":"Cottbus","rawHours":"Mo–Fr 08:00–20:00 Uhr, Sa 09:00–15:00 Uhr (Parkgebührenordnung vom 1. Juni 2025; der Datensatz der Stadt nennt noch Mo - Fr 08:00-19:00; Sa 09:00-15:00)","rawFee":"2,00 € je Stunde (Zone 1 der Parkgebührenordnung vom 1. Juni 2025; der Datensatz nennt noch 1,00 €)","note":"Bewohnerparkzone Z5 — Tarifzone 1 (Innenstadt) der Parkgebührenordnung","windows":[{"weekdays":[1,2,3,4,5],"fromMinute":480,"toMinute":1200},{"weekdays":[6],"fromMinute":540,"toMinute":900}],"fee":{"kind":"exact","centsPerHour":200},"unmodelledRules":["Bei Großveranstaltungen wie Stadtfest oder Weihnachtsmarkt kann die Stadt in Zone 1 Montag bis Sonntag 08:00–20:00 Uhr kassieren (§ 3 Abs. 2 Parkgebührenordnung)"],"sourceDefect":"der Datensatz der Stadt nennt noch die Parkgebührenordnung von 2014 — 1,00 € je Stunde und Montag bis Freitag nur bis 19:00 Uhr. Gezeigt wird die seit dem 1. Juni 2025 geltende Ordnung: 2,00 € je Stunde, Mo–Fr 08:00–20:00 Uhr, Sa 09:00–15:00 Uhr","spaces":285,"maxStayMinutes":null,"maxStay":null,"maxStayShare":0,"maxStayValues":[],"chargingPoints":0,"carsharing":0},"geometry":{"type":"Polygon","coordinates":[[[14.32233,51.75415],[14.32234,51.75388],[14.32232,51.7538],[14.32237,51.75373],[14.32279,51.75362],[14.32302,51.7536],[14.32325,51.75359],[14.32362,51.75364],[14.32384,51.7537],[14.32414,51.7538],[14.32427,51.75388],[14.32454,51.75396],[14.32464,51.75377],[14.32465,51.75372],[14.32487,51.75372],[14.32515,51.75382],[14.32515,51.75408],[14.32647,51.75415],[14.32659,51.7527],[14.32732,51.75266],[14.32721,51.75421],[14.32822,51.75425],[14.3281,51.75555],[14.32775,51.75803],[14.32763,51.75897],[14.32741,51.76154],[14.32743,51.76154],[14.32739,51.7625],[14.32734,51.76261],[14.32732,51.76263],[14.32683,51.76265],[14.32573,51.76284],[14.32549,51.76285],[14.32517,51.76283],[14.32486,51.76276],[14.32472,51.76272],[14.32441,51.76257],[14.32352,51.76254],[14.32366,51.76121],[14.3237,51.76107],[14.32393,51.75877],[14.32445,51.75423],[14.32233,51.75415]]]}},{"type":"Feature","properties":{"zone":"III","district":"Cottbus","rawHours":"Mo–Fr 08:00–20:00 Uhr, Sa 09:00–15:00 Uhr (Parkgebührenordnung vom 1. Juni 2025; der Datensatz der Stadt nennt noch Mo - Fr 08:00-19:00; Sa 09:00-15:00)","rawFee":"2,00 € je Stunde (Zone 1 der Parkgebührenordnung vom 1. Juni 2025; der Datensatz nennt noch 1,00 €)","note":"Bewohnerparkzone Z3 — Tarifzone 1 (Innenstadt) der Parkgebührenordnung","windows":[{"weekdays":[1,2,3,4,5],"fromMinute":480,"toMinute":1200},{"weekdays":[6],"fromMinute":540,"toMinute":900}],"fee":{"kind":"exact","centsPerHour":200},"unmodelledRules":["Bei Großveranstaltungen wie Stadtfest oder Weihnachtsmarkt kann die Stadt in Zone 1 Montag bis Sonntag 08:00–20:00 Uhr kassieren (§ 3 Abs. 2 Parkgebührenordnung)"],"sourceDefect":"der Datensatz der Stadt nennt noch die Parkgebührenordnung von 2014 — 1,00 € je Stunde und Montag bis Freitag nur bis 19:00 Uhr. Gezeigt wird die seit dem 1. Juni 2025 geltende Ordnung: 2,00 € je Stunde, Mo–Fr 08:00–20:00 Uhr, Sa 09:00–15:00 Uhr","spaces":146,"maxStayMinutes":null,"maxStay":null,"maxStayShare":0,"maxStayValues":[],"chargingPoints":0,"carsharing":0},"geometry":{"type":"Polygon","coordinates":[[[14.32814,51.75693],[14.32831,51.75566],[14.32837,51.75507],[14.32871,51.75508],[14.32869,51.7555],[14.33084,51.75564],[14.33093,51.75496],[14.33111,51.75473],[14.33195,51.7546],[14.33316,51.75444],[14.33291,51.75531],[14.33287,51.7557],[14.33287,51.75597],[14.33291,51.75632],[14.33295,51.75642],[14.33305,51.75661],[14.33316,51.75688],[14.33316,51.75719],[14.33125,51.75712],[14.32814,51.75693]]]}},{"type":"Feature","properties":{"zone":"II","district":"Cottbus","rawHours":"Mo–Fr 08:00–20:00 Uhr, Sa 09:00–15:00 Uhr (Parkgebührenordnung vom 1. Juni 2025; der Datensatz der Stadt nennt noch Mo - Fr 08:00-19:00; Sa 09:00-15:00)","rawFee":"2,00 € je Stunde (Zone 1 der Parkgebührenordnung vom 1. Juni 2025; der Datensatz nennt noch 1,00 €)","note":"Bewohnerparkzone Z2 — Tarifzone 1 (Innenstadt) der Parkgebührenordnung","windows":[{"weekdays":[1,2,3,4,5],"fromMinute":480,"toMinute":1200},{"weekdays":[6],"fromMinute":540,"toMinute":900}],"fee":{"kind":"exact","centsPerHour":200},"unmodelledRules":["Bei Großveranstaltungen wie Stadtfest oder Weihnachtsmarkt kann die Stadt in Zone 1 Montag bis Sonntag 08:00–20:00 Uhr kassieren (§ 3 Abs. 2 Parkgebührenordnung)"],"sourceDefect":"der Datensatz der Stadt nennt noch die Parkgebührenordnung von 2014 — 1,00 € je Stunde und Montag bis Freitag nur bis 19:00 Uhr. Gezeigt wird die seit dem 1. Juni 2025 geltende Ordnung: 2,00 € je Stunde, Mo–Fr 08:00–20:00 Uhr, Sa 09:00–15:00 Uhr","spaces":555,"maxStayMinutes":null,"maxStay":null,"maxStayShare":0,"maxStayValues":[],"chargingPoints":0,"carsharing":0},"geometry":{"type":"Polygon","coordinates":[[[14.32779,51.76121],[14.32771,51.76114],[14.32778,51.7605],[14.3277,51.76038],[14.32792,51.75842],[14.32808,51.75722],[14.32813,51.75714],[14.32823,51.7571],[14.32829,51.7571],[14.32988,51.75719],[14.33028,51.75727],[14.33096,51.75731],[14.33216,51.75737],[14.33325,51.7574],[14.33426,51.7574],[14.33499,51.75742],[14.33527,51.75744],[14.33569,51.75751],[14.33681,51.75778],[14.33709,51.75782],[14.33773,51.75786],[14.33818,51.75794],[14.33851,51.75803],[14.33932,51.75831],[14.33978,51.75842],[14.33953,51.75858],[14.33915,51.75885],[14.33861,51.75919],[14.33861,51.75924],[14.33895,51.75927],[14.33921,51.75932],[14.33933,51.75937],[14.33938,51.75941],[14.3394,51.7597],[14.33932,51.75982],[14.33921,51.75983],[14.33921,51.75999],[14.33908,51.76003],[14.33847,51.76014],[14.33841,51.76032],[14.33841,51.76037],[14.33847,51.76045],[14.33856,51.7605],[14.33864,51.76051],[14.33976,51.76079],[14.34025,51.76101],[14.34039,51.76109],[14.34028,51.76123],[14.34009,51.76158],[14.33999,51.76183],[14.33994,51.76202],[14.33992,51.7622],[14.33994,51.76225],[14.34,51.76227],[14.3396,51.76227],[14.33926,51.76224],[14.33916,51.76237],[14.33915,51.76241],[14.33921,51.76242],[14.33904,51.76293],[14.33895,51.76292],[14.33893,51.76296],[14.33872,51.76293],[14.33872,51.76291],[14.33848,51.76287],[14.33847,51.76289],[14.33811,51.76284],[14.33811,51.76282],[14.33803,51.76281],[14.33802,51.76283],[14.33773,51.7628],[14.33628,51.76259],[14.33631,51.76251],[14.33628,51.7625],[14.33627,51.76255],[14.33591,51.7625],[14.33593,51.76245],[14.33558,51.76242],[14.33455,51.76224],[14.33454,51.76227],[14.33449,51.76226],[14.33448,51.76228],[14.33408,51.76219],[14.33408,51.76218],[14.33398,51.76216],[14.33398,51.76215],[14.33308,51.76203],[14.33278,51.76195],[14.33179,51.76185],[14.33175,51.76182],[14.33165,51.7618],[14.33154,51.76169],[14.33151,51.76148],[14.33148,51.76145],[14.3314,51.76093],[14.33132,51.76095],[14.32996,51.76109],[14.32839,51.76123],[14.32797,51.76125],[14.32787,51.76124],[14.32779,51.76121]]]}},{"type":"Feature","properties":{"zone":"IV","district":"Cottbus","rawHours":"Mo–Fr 08:00–20:00 Uhr, Sa 09:00–15:00 Uhr (Parkgebührenordnung vom 1. Juni 2025; der Datensatz der Stadt nennt noch Mo - Fr 08:00-19:00; Sa 09:00-15:00)","rawFee":"2,00 € je Stunde (Zone 1 der Parkgebührenordnung vom 1. Juni 2025; der Datensatz nennt noch 1,00 €)","note":"Bewohnerparkzone Z4 — Tarifzone 1 (Innenstadt) der Parkgebührenordnung","windows":[{"weekdays":[1,2,3,4,5],"fromMinute":480,"toMinute":1200},{"weekdays":[6],"fromMinute":540,"toMinute":900}],"fee":{"kind":"exact","centsPerHour":200},"unmodelledRules":["Bei Großveranstaltungen wie Stadtfest oder Weihnachtsmarkt kann die Stadt in Zone 1 Montag bis Sonntag 08:00–20:00 Uhr kassieren (§ 3 Abs. 2 Parkgebührenordnung)"],"sourceDefect":"der Datensatz der Stadt nennt noch die Parkgebührenordnung von 2014 — 1,00 € je Stunde und Montag bis Freitag nur bis 19:00 Uhr. Gezeigt wird die seit dem 1. Juni 2025 geltende Ordnung: 2,00 € je Stunde, Mo–Fr 08:00–20:00 Uhr, Sa 09:00–15:00 Uhr","spaces":50,"maxStayMinutes":null,"maxStay":null,"maxStayShare":0,"maxStayValues":[],"chargingPoints":0,"carsharing":0},"geometry":{"type":"Polygon","coordinates":[[[14.32756,51.76342],[14.32754,51.76335],[14.32755,51.76327],[14.32759,51.76285],[14.32763,51.76279],[14.33097,51.76249],[14.33095,51.7624],[14.33114,51.7624],[14.33155,51.76243],[14.33463,51.76296],[14.33907,51.76365],[14.33924,51.76369],[14.33958,51.76382],[14.33909,51.76412],[14.33791,51.76464],[14.33709,51.76487],[14.33654,51.76496],[14.33572,51.76509],[14.33524,51.76515],[14.33413,51.76521],[14.33245,51.76513],[14.32817,51.76565],[14.32814,51.76562],[14.32806,51.76539],[14.32758,51.76399],[14.32756,51.76388],[14.32759,51.76363],[14.32756,51.76342]]]}}]}