{"type":"FeatureCollection","features":[{"type":"Feature","properties":{"name":"Transferfläche Olympiaparkharfe"},"geometry":{"type":"MultiPolygon","coordinates":[[[[11.53778,48.16591],[11.53778,48.16597],[11.53765,48.16608],[11.53764,48.16599],[11.5377,48.16594],[11.53778,48.16591]]],[[[11.5378,48.16627],[11.53767,48.16642],[11.53766,48.16626],[11.53779,48.16613],[11.5378,48.16627]]],[[[11.54105,48.17072],[11.5423,48.17087],[11.5421,48.17132],[11.54203,48.17152],[11.54199,48.17169],[11.54194,48.17204],[11.54194,48.17234],[11.54197,48.17265],[11.54205,48.17295],[11.54216,48.17323],[11.54239,48.17364],[11.5426,48.17391],[11.54287,48.17418],[11.54321,48.17445],[11.54353,48.17465],[11.54408,48.17491],[11.54457,48.17508],[11.54491,48.17514],[11.54469,48.17598],[11.54397,48.17589],[11.54319,48.17571],[11.5426,48.17552],[11.54194,48.17522],[11.54131,48.17484],[11.54073,48.1744],[11.54044,48.17414],[11.54017,48.17386],[11.53995,48.1736],[11.53972,48.1733],[11.53951,48.17297],[11.53935,48.17264],[11.53911,48.17201],[11.53896,48.17139],[11.53889,48.17105],[11.53877,48.16996],[11.53872,48.16988],[11.53865,48.16982],[11.53856,48.16977],[11.53844,48.16974],[11.53843,48.16964],[11.53865,48.16972],[11.53874,48.16977],[11.5388,48.16982],[11.53885,48.1699],[11.53886,48.16997],[11.53891,48.1704],[11.53893,48.17042],[11.53906,48.17041],[11.53909,48.16984],[11.53907,48.16966],[11.53902,48.16949],[11.53896,48.16935],[11.53885,48.16918],[11.53853,48.16879],[11.53843,48.16865],[11.53834,48.16847],[11.53829,48.16832],[11.53825,48.16784],[11.53815,48.16605],[11.53812,48.16598],[11.53804,48.16593],[11.53805,48.16602],[11.53804,48.16589],[11.53813,48.16592],[11.53819,48.16597],[11.53831,48.16803],[11.53835,48.16825],[11.53842,48.16845],[11.5385,48.16862],[11.53887,48.16907],[11.53899,48.16923],[11.5391,48.16946],[11.53915,48.16964],[11.53918,48.16992],[11.53915,48.17031],[11.53915,48.17069],[11.53918,48.17071],[11.53952,48.17074],[11.53955,48.17072],[11.53959,48.17055],[11.54105,48.17072]]]]}},{"type":"Feature","properties":{"name":"Transferfläche Passauerstr. - Tegernseer Landstr."},"geometry":{"type":"MultiPolygon","coordinates":[[[[11.53426,48.11042],[11.53441,48.11044],[11.53491,48.11046],[11.53648,48.11047],[11.53711,48.11052],[11.53942,48.11055],[11.53941,48.11064],[11.53877,48.11063],[11.53812,48.11057],[11.53451,48.1105],[11.53428,48.11048],[11.53421,48.11045],[11.53419,48.11041],[11.53426,48.11042]]],[[[11.56493,48.11314],[11.56372,48.11313],[11.56274,48.11306],[11.56149,48.11291],[11.55882,48.11256],[11.55866,48.11257],[11.55754,48.11245],[11.55674,48.11244],[11.55429,48.11247],[11.55397,48.11246],[11.55369,48.11243],[11.55144,48.11245],[11.55074,48.11244],[11.54911,48.1123],[11.54794,48.11222],[11.54539,48.11203],[11.54475,48.11201],[11.54395,48.11193],[11.54359,48.11191],[11.54322,48.11192],[11.54287,48.11194],[11.54251,48.11199],[11.54222,48.11205],[11.54163,48.11223],[11.54005,48.11281],[11.53981,48.11288],[11.53964,48.1129],[11.53949,48.11286],[11.53938,48.11279],[11.53933,48.11273],[11.53932,48.11267],[11.53951,48.11033],[11.53954,48.11031],[11.53963,48.11031],[11.53962,48.11038],[11.53964,48.11039],[11.53977,48.1103],[11.53985,48.11028],[11.54003,48.11025],[11.5402,48.11027],[11.54009,48.11023],[11.54001,48.11016],[11.54012,48.11017],[11.54023,48.11023],[11.54039,48.11028],[11.541,48.1104],[11.54149,48.11052],[11.54273,48.11094],[11.54454,48.11164],[11.54484,48.11172],[11.54518,48.11178],[11.54892,48.11207],[11.55055,48.11221],[11.55107,48.11223],[11.55369,48.11221],[11.5543,48.11213],[11.55542,48.11211],[11.55603,48.11213],[11.5576,48.1122],[11.55864,48.1123],[11.56256,48.11282],[11.56356,48.1129],[11.56459,48.11291],[11.56553,48.11285],[11.56694,48.11266],[11.56748,48.11256],[11.56811,48.1124],[11.56843,48.1123],[11.56865,48.11221],[11.56906,48.11199],[11.56939,48.11174],[11.56984,48.11133],[11.57018,48.11107],[11.57035,48.11097],[11.57056,48.11087],[11.5708,48.11078],[11.57103,48.11072],[11.57128,48.11067],[11.57159,48.11066],[11.5719,48.11068],[11.57221,48.11075],[11.57245,48.11085],[11.5727,48.11099],[11.57285,48.11112],[11.573,48.11127],[11.57321,48.11157],[11.57334,48.1117],[11.57357,48.11182],[11.57379,48.11188],[11.57396,48.1119],[11.57415,48.1119],[11.57455,48.11184],[11.57533,48.11167],[11.57598,48.11149],[11.57589,48.11155],[11.57536,48.1117],[11.57483,48.11182],[11.57443,48.11189],[11.57405,48.11193],[11.5738,48.11192],[11.57353,48.11185],[11.57332,48.11177],[11.57312,48.11164],[11.57323,48.11176],[11.57341,48.11188],[11.57361,48.11196],[11.57383,48.11201],[11.57417,48.11202],[11.57456,48.11199],[11.57588,48.11173],[11.57597,48.11169],[11.57605,48.11162],[11.57611,48.11154],[11.57613,48.11144],[11.57617,48.11143],[11.57615,48.11156],[11.57608,48.11167],[11.57598,48.11176],[11.57584,48.11183],[11.57459,48.11207],[11.57421,48.11211],[11.57385,48.1121],[11.57363,48.11205],[11.57346,48.112],[11.57332,48.11194],[11.57314,48.11183],[11.57297,48.11167],[11.57276,48.11136],[11.57265,48.11124],[11.5725,48.11112],[11.57234,48.11102],[11.57208,48.11091],[11.57179,48.11085],[11.57151,48.11084],[11.5713,48.11085],[11.57102,48.11091],[11.57085,48.11096],[11.57069,48.11103],[11.57046,48.11115],[11.57021,48.11132],[11.56999,48.11151],[11.56982,48.11168],[11.56963,48.11192],[11.5693,48.11202],[11.56849,48.11235],[11.56814,48.11246],[11.56724,48.11267],[11.56672,48.11276],[11.56592,48.11287],[11.56498,48.11295],[11.5635,48.11302],[11.56422,48.1131],[11.565,48.11311],[11.56589,48.11305],[11.56672,48.11296],[11.56758,48.11281],[11.56846,48.1126],[11.56892,48.11244],[11.56911,48.11234],[11.56926,48.11224],[11.56945,48.11217],[11.56933,48.11228],[11.56921,48.11237],[11.56895,48.1125],[11.56857,48.11264],[11.56791,48.11281],[11.56621,48.11305],[11.56553,48.11312],[11.56493,48.11314]],[[11.54168,48.11213],[11.54202,48.11201],[11.54233,48.11191],[11.54261,48.11185],[11.54292,48.11181],[11.54345,48.1118],[11.54467,48.11185],[11.54429,48.11179],[11.54357,48.11161],[11.54311,48.11144],[11.54232,48.11106],[11.54198,48.11093],[11.54148,48.11078],[11.54109,48.11071],[11.5411,48.11073],[11.54163,48.11088],[11.54181,48.11097],[11.54203,48.11116],[11.54212,48.11131],[11.54215,48.11142],[11.54216,48.11153],[11.54214,48.11164],[11.5421,48.11174],[11.54203,48.11184],[11.54194,48.11194],[11.54182,48.11204],[11.54167,48.11212],[11.54168,48.11213]],[[11.54163,48.11208],[11.54178,48.11198],[11.54193,48.11186],[11.54202,48.11173],[11.54207,48.11159],[11.54207,48.11146],[11.54204,48.11133],[11.54197,48.1112],[11.54186,48.11108],[11.54163,48.11095],[11.54118,48.1108],[11.54075,48.11073],[11.5401,48.11068],[11.53991,48.11065],[11.53993,48.11032],[11.53979,48.11036],[11.53968,48.11043],[11.53965,48.11049],[11.53961,48.11099],[11.53956,48.11108],[11.53955,48.11129],[11.53944,48.11268],[11.53945,48.11272],[11.5395,48.11277],[11.53959,48.11282],[11.53972,48.11283],[11.53998,48.11277],[11.54108,48.11234],[11.54163,48.11208]]]]}},{"type":"Feature","properties":{"name":"Transferfläche A9 - A9 / Leopoldstr."},"geometry":{"type":"MultiPolygon","coordinates":[[[[11.58494,48.17772],[11.58366,48.1777],[11.58376,48.17767],[11.58457,48.17768],[11.58486,48.17767],[11.58557,48.17769],[11.58617,48.17769],[11.58606,48.17766],[11.58602,48.17762],[11.586,48.17758],[11.58603,48.17749],[11.58612,48.17743],[11.58696,48.17737],[11.58762,48.17727],[11.5883,48.17715],[11.58889,48.17698],[11.5901,48.17655],[11.59026,48.17648],[11.59044,48.17638],[11.59051,48.1763],[11.59058,48.17617],[11.59059,48.17603],[11.59051,48.17562],[11.59049,48.17546],[11.59051,48.17533],[11.59055,48.1752],[11.59065,48.1751],[11.59079,48.17499],[11.59093,48.17493],[11.59108,48.17488],[11.59138,48.17484],[11.5917,48.17485],[11.59196,48.17489],[11.59225,48.17498],[11.59247,48.17507],[11.59266,48.17518],[11.59291,48.17539],[11.59309,48.17558],[11.593,48.17562],[11.59277,48.17539],[11.59257,48.17524],[11.59231,48.17509],[11.59204,48.17499],[11.59179,48.17494],[11.59142,48.17491],[11.59107,48.17496],[11.5909,48.17503],[11.59075,48.17513],[11.59066,48.17523],[11.59058,48.17535],[11.59055,48.17546],[11.59055,48.17555],[11.59066,48.17599],[11.59066,48.17612],[11.59064,48.1762],[11.5906,48.17629],[11.59047,48.17643],[11.58933,48.1769],[11.5889,48.17705],[11.5885,48.17717],[11.58796,48.17729],[11.58731,48.17739],[11.58674,48.17745],[11.58619,48.17748],[11.58611,48.17752],[11.5861,48.17755],[11.5861,48.17759],[11.58619,48.17764],[11.58639,48.17764],[11.58651,48.17766],[11.58687,48.17764],[11.58758,48.17755],[11.58829,48.1774],[11.58913,48.17714],[11.58963,48.17695],[11.59071,48.17654],[11.59201,48.176],[11.59219,48.17596],[11.59185,48.17613],[11.59035,48.17675],[11.58911,48.17721],[11.58821,48.17748],[11.58781,48.17757],[11.58737,48.17764],[11.58651,48.17773],[11.58567,48.17775],[11.58494,48.17772]]]]}},{"type":"Feature","properties":{"name":"Transferfläche A96 - A95"},"geometry":{"type":"MultiPolygon","coordinates":[[[[11.51922,48.12254],[11.51888,48.12206],[11.51872,48.12192],[11.51863,48.12183],[11.51845,48.1215],[11.51827,48.12113],[11.51826,48.12107],[11.51826,48.12082],[11.51802,48.12031],[11.51757,48.11925],[11.51714,48.11821],[11.51697,48.11776],[11.51691,48.11756],[11.5168,48.117],[11.51676,48.11638],[11.51676,48.11561],[11.51675,48.11538],[11.51678,48.1143],[11.51674,48.11353],[11.51671,48.11343],[11.51671,48.11335],[11.51672,48.11324],[11.51681,48.11298],[11.51688,48.1126],[11.51697,48.11231],[11.51716,48.11194],[11.51742,48.11157],[11.51766,48.1113],[11.51794,48.11103],[11.51796,48.11098],[11.51796,48.11093],[11.51807,48.11083],[11.51817,48.11084],[11.51833,48.11072],[11.51821,48.1107],[11.51824,48.11068],[11.51832,48.1107],[11.51839,48.11068],[11.51905,48.11012],[11.51928,48.11],[11.51948,48.10994],[11.5192,48.11007],[11.51911,48.11013],[11.5189,48.11033],[11.51787,48.11123],[11.51762,48.1115],[11.5174,48.11178],[11.51724,48.11202],[11.51711,48.11228],[11.517,48.11258],[11.51693,48.11299],[11.51687,48.11315],[11.5168,48.11617],[11.51683,48.11679],[11.51686,48.11706],[11.51693,48.11742],[11.51703,48.11777],[11.51729,48.11846],[11.51791,48.11995],[11.51833,48.12086],[11.51832,48.12105],[11.51833,48.12111],[11.51866,48.12176],[11.51893,48.12206],[11.51942,48.12275],[11.51945,48.12286],[11.51922,48.12254]]]]}},{"type":"Feature","properties":{"name":"Transferfläche Donnersberger Brücke"},"geometry":{"type":"MultiPolygon","coordinates":[[[[11.535,48.14557],[11.5349,48.14539],[11.53481,48.14517],[11.5347,48.14475],[11.53455,48.14366],[11.53458,48.14366],[11.53429,48.14182],[11.53426,48.14182],[11.53415,48.14123],[11.5341,48.14114],[11.53402,48.14068],[11.53396,48.14058],[11.53392,48.14024],[11.53403,48.13983],[11.53405,48.13851],[11.53409,48.13828],[11.53416,48.13804],[11.5342,48.13808],[11.53422,48.13813],[11.53415,48.13842],[11.53413,48.13861],[11.53407,48.14028],[11.5341,48.14065],[11.53429,48.14148],[11.53443,48.14194],[11.53445,48.14207],[11.53459,48.14297],[11.53463,48.14348],[11.53466,48.14371],[11.53471,48.14424],[11.5348,48.14484],[11.53491,48.14519],[11.535,48.1454],[11.53515,48.14566],[11.53519,48.14586],[11.535,48.14557]]]]}},{"type":"Feature","properties":{"name":"Umweltzone Bestand"},"geometry":{"type":"MultiPolygon","coordinates":[[[[11.59592,48.16402],[11.59586,48.16418],[11.59585,48.16428],[11.59584,48.16464],[11.59591,48.165],[11.59605,48.16539],[11.59633,48.16585],[11.59884,48.16945],[11.59901,48.16977],[11.59965,48.17074],[11.59972,48.17086],[11.59978,48.17102],[11.59983,48.17132],[11.59981,48.17155],[11.59971,48.1718],[11.59956,48.17199],[11.59942,48.17212],[11.59922,48.17227],[11.59899,48.1724],[11.59751,48.17315],[11.59702,48.17337],[11.59532,48.17422],[11.59424,48.17477],[11.59386,48.17499],[11.59292,48.1754],[11.59269,48.1752],[11.5925,48.17509],[11.59225,48.17498],[11.59196,48.17489],[11.5917,48.17485],[11.59138,48.17484],[11.59111,48.17487],[11.59089,48.17495],[11.59076,48.17501],[11.59063,48.17511],[11.59055,48.1752],[11.59049,48.17531],[11.59046,48.17539],[11.59044,48.17551],[11.59049,48.17585],[11.59048,48.17603],[11.59043,48.17613],[11.59038,48.17621],[11.59023,48.17636],[11.58999,48.17648],[11.58901,48.17685],[11.58809,48.17715],[11.58762,48.17727],[11.58692,48.17738],[11.58615,48.17742],[11.58583,48.1774],[11.5854,48.1773],[11.58512,48.17728],[11.58483,48.17731],[11.58378,48.17735],[11.58296,48.17735],[11.5821,48.17738],[11.58042,48.17746],[11.57585,48.17784],[11.57516,48.17785],[11.57335,48.17781],[11.57262,48.17786],[11.57193,48.1778],[11.57156,48.17773],[11.57124,48.17764],[11.56906,48.17703],[11.56861,48.17688],[11.56786,48.17662],[11.56755,48.17644],[11.5673,48.17636],[11.56607,48.17602],[11.56568,48.17594],[11.56524,48.17589],[11.56477,48.17587],[11.56182,48.17591],[11.56091,48.17589],[11.5592,48.1759],[11.55589,48.17594],[11.55564,48.17597],[11.5543,48.17601],[11.548,48.17607],[11.5479,48.17606],[11.54782,48.17603],[11.54677,48.17543],[11.54655,48.17536],[11.54634,48.17534],[11.54619,48.17535],[11.54597,48.17541],[11.54532,48.17578],[11.54519,48.17583],[11.54504,48.17586],[11.54521,48.17518],[11.54477,48.17513],[11.54452,48.17507],[11.54404,48.1749],[11.54353,48.17465],[11.54321,48.17445],[11.54282,48.17413],[11.54248,48.17376],[11.54227,48.17344],[11.54213,48.17316],[11.54201,48.17283],[11.54195,48.17251],[11.54193,48.17221],[11.54195,48.17197],[11.542,48.17162],[11.5421,48.17132],[11.5423,48.17087],[11.53959,48.17055],[11.53955,48.17072],[11.53952,48.17074],[11.53916,48.1707],[11.53914,48.17067],[11.53915,48.17031],[11.53918,48.16986],[11.53916,48.16969],[11.53912,48.16952],[11.53905,48.16934],[11.53895,48.16918],[11.5385,48.16862],[11.53842,48.16845],[11.53835,48.16825],[11.53831,48.16803],[11.53819,48.16597],[11.53795,48.16261],[11.53794,48.16247],[11.53779,48.16192],[11.53775,48.16166],[11.53745,48.15726],[11.53746,48.15695],[11.53752,48.15642],[11.53737,48.15414],[11.5373,48.1535],[11.53722,48.15223],[11.53723,48.15185],[11.53727,48.15138],[11.53723,48.15076],[11.53714,48.15041],[11.53706,48.1497],[11.53699,48.14889],[11.53698,48.14842],[11.53692,48.14768],[11.53688,48.14746],[11.53681,48.1472],[11.53673,48.14699],[11.53663,48.14678],[11.53653,48.14662],[11.53628,48.14627],[11.53585,48.14582],[11.5356,48.1455],[11.53549,48.1453],[11.53539,48.14509],[11.53525,48.14464],[11.535,48.14326],[11.53496,48.14321],[11.53476,48.14195],[11.53473,48.14167],[11.53472,48.14149],[11.53476,48.14023],[11.53479,48.13995],[11.5348,48.13961],[11.5348,48.13928],[11.53476,48.13917],[11.53475,48.13889],[11.53476,48.13878],[11.53483,48.13852],[11.53483,48.13829],[11.53476,48.13805],[11.53463,48.1378],[11.53455,48.13749],[11.53445,48.13673],[11.53445,48.13655],[11.53439,48.13622],[11.53432,48.13606],[11.53427,48.13586],[11.53419,48.13545],[11.53389,48.13421],[11.53375,48.13385],[11.53357,48.13355],[11.5336,48.13349],[11.53379,48.13335],[11.53342,48.13295],[11.53306,48.13266],[11.53232,48.1322],[11.53188,48.1319],[11.53095,48.13135],[11.53077,48.13122],[11.52947,48.13043],[11.52853,48.1299],[11.52776,48.12953],[11.52757,48.12947],[11.52614,48.12876],[11.52442,48.12781],[11.52349,48.12717],[11.52232,48.1263],[11.52189,48.12592],[11.5216,48.1256],[11.52153,48.12548],[11.5215,48.12537],[11.52151,48.12526],[11.52155,48.12515],[11.52162,48.12504],[11.52173,48.12495],[11.52223,48.12464],[11.52236,48.12454],[11.52244,48.12445],[11.52251,48.12433],[11.52254,48.12419],[11.52253,48.12404],[11.52248,48.12392],[11.52238,48.12379],[11.52222,48.12366],[11.52202,48.12356],[11.5218,48.1235],[11.52155,48.12347],[11.52117,48.12346],[11.52107,48.12344],[11.52037,48.12351],[11.52011,48.12311],[11.51995,48.12281],[11.51981,48.12259],[11.51948,48.12213],[11.51886,48.12135],[11.51867,48.12106],[11.51807,48.11978],[11.51735,48.11807],[11.51716,48.11751],[11.5171,48.11723],[11.51706,48.11694],[11.51706,48.11622],[11.51713,48.11529],[11.51715,48.11463],[11.51724,48.11389],[11.51726,48.11388],[11.51725,48.11387],[11.5173,48.11314],[11.51736,48.11282],[11.51747,48.11243],[11.51778,48.11168],[11.51784,48.11156],[11.51799,48.11139],[11.51921,48.11034],[11.51955,48.11023],[11.51991,48.11015],[11.52248,48.11014],[11.52376,48.11009],[11.52641,48.11006],[11.52731,48.11007],[11.52843,48.11012],[11.52957,48.11022],[11.53026,48.11029],[11.5309,48.11039],[11.53154,48.11047],[11.53432,48.11075],[11.53475,48.11076],[11.53489,48.11074],[11.53616,48.11075],[11.53646,48.11074],[11.53779,48.11072],[11.53906,48.11074],[11.53946,48.11076],[11.53933,48.11269],[11.53935,48.11276],[11.53941,48.11282],[11.53951,48.11287],[11.53961,48.11289],[11.53976,48.11289],[11.53994,48.11285],[11.54163,48.11223],[11.54208,48.11208],[11.54264,48.11197],[11.54327,48.11191],[11.54379,48.11192],[11.54469,48.11201],[11.54539,48.11203],[11.54794,48.11222],[11.54911,48.1123],[11.55063,48.11243],[11.55144,48.11245],[11.55352,48.11243],[11.5537,48.11267],[11.55334,48.11276],[11.55311,48.11276],[11.55311,48.11271],[11.55202,48.11294],[11.55242,48.1134],[11.55181,48.1136],[11.55177,48.11353],[11.55171,48.11355],[11.55193,48.11387],[11.55154,48.11397],[11.55211,48.11479],[11.55116,48.11515],[11.55151,48.11559],[11.55232,48.11649],[11.55312,48.11731],[11.5532,48.11728],[11.5538,48.11788],[11.55369,48.11792],[11.55552,48.11977],[11.5558,48.12004],[11.55583,48.12005],[11.55769,48.11918],[11.5576,48.1191],[11.55814,48.11881],[11.55812,48.11879],[11.55813,48.11878],[11.55804,48.11873],[11.55812,48.11861],[11.55815,48.11858],[11.557,48.11698],[11.55729,48.11689],[11.55666,48.11607],[11.5562,48.11555],[11.55417,48.11297],[11.55396,48.11266],[11.55396,48.1126],[11.55401,48.11255],[11.55413,48.11251],[11.55427,48.1125],[11.55614,48.11248],[11.55709,48.11244],[11.55754,48.11245],[11.55866,48.11257],[11.55882,48.11256],[11.56149,48.11291],[11.56274,48.11306],[11.56372,48.11313],[11.56516,48.11316],[11.56552,48.11315],[11.56692,48.11299],[11.56765,48.11287],[11.56808,48.11277],[11.56857,48.11264],[11.56895,48.1125],[11.56921,48.11237],[11.56933,48.11228],[11.56945,48.11217],[11.56982,48.11205],[11.57038,48.11194],[11.57104,48.11188],[11.57157,48.11189],[11.57263,48.11197],[11.5731,48.11204],[11.57362,48.11205],[11.57391,48.1121],[11.57421,48.11211],[11.57475,48.11205],[11.57584,48.11183],[11.57647,48.11169],[11.57662,48.11164],[11.57697,48.1115],[11.57736,48.11132],[11.57781,48.11103],[11.57807,48.11081],[11.57823,48.11065],[11.5787,48.11007],[11.57905,48.10955],[11.57924,48.10921],[11.58004,48.10758],[11.58019,48.10733],[11.58049,48.1069],[11.58077,48.10657],[11.58157,48.10576],[11.58217,48.10504],[11.58229,48.10494],[11.58241,48.10487],[11.58254,48.10482],[11.58268,48.10479],[11.583,48.10477],[11.58374,48.10483],[11.58525,48.10474],[11.5865,48.10473],[11.5871,48.10475],[11.5875,48.10477],[11.58832,48.10484],[11.58913,48.10495],[11.59,48.1051],[11.5904,48.10519],[11.59141,48.10546],[11.59322,48.10605],[11.59365,48.10618],[11.59443,48.10636],[11.5956,48.10659],[11.59606,48.10669],[11.59657,48.10697],[11.59688,48.10712],[11.5997,48.1077],[11.60239,48.10835],[11.60307,48.10848],[11.60427,48.10866],[11.606,48.10884],[11.60767,48.10904],[11.6084,48.10917],[11.60942,48.1094],[11.61007,48.10959],[11.61069,48.10979],[11.61136,48.11003],[11.61187,48.11024],[11.61243,48.11051],[11.613,48.11081],[11.61357,48.11114],[11.61416,48.11154],[11.615,48.11217],[11.61512,48.11229],[11.61556,48.11264],[11.61579,48.11286],[11.61622,48.11333],[11.61662,48.11381],[11.61699,48.11432],[11.61729,48.11482],[11.61767,48.11553],[11.61781,48.11583],[11.61885,48.1182],[11.61929,48.11906],[11.61994,48.1202],[11.62013,48.12067],[11.62023,48.12103],[11.62044,48.12204],[11.62051,48.12251],[11.62058,48.12329],[11.62057,48.12379],[11.62053,48.12408],[11.62048,48.1243],[11.62037,48.1246],[11.62022,48.12486],[11.62008,48.12505],[11.61982,48.12531],[11.61948,48.12557],[11.61917,48.12576],[11.618,48.12639],[11.61748,48.12671],[11.61662,48.12727],[11.61613,48.12767],[11.61589,48.12789],[11.61563,48.12819],[11.61548,48.12839],[11.61533,48.12863],[11.61528,48.12873],[11.61517,48.12903],[11.61502,48.12966],[11.61502,48.12977],[11.61505,48.12989],[11.61546,48.1308],[11.61547,48.13096],[11.61554,48.13116],[11.61568,48.13152],[11.61579,48.1317],[11.61621,48.13281],[11.61626,48.13301],[11.61628,48.13322],[11.61625,48.13346],[11.61611,48.13381],[11.61554,48.13489],[11.61518,48.13547],[11.61503,48.13577],[11.61486,48.13622],[11.61474,48.13661],[11.61474,48.13708],[11.61457,48.13801],[11.61457,48.13832],[11.61454,48.13854],[11.61459,48.13894],[11.61482,48.14011],[11.615,48.1411],[11.61529,48.14289],[11.61544,48.14391],[11.61589,48.14655],[11.61591,48.14678],[11.61604,48.14759],[11.61609,48.14812],[11.61619,48.14957],[11.61617,48.14979],[11.61609,48.15021],[11.61603,48.15043],[11.61587,48.15082],[11.61581,48.15093],[11.61527,48.15161],[11.61505,48.15183],[11.61482,48.15203],[11.61457,48.1522],[11.6142,48.15232],[11.61405,48.15239],[11.6139,48.15252],[11.61374,48.15276],[11.61363,48.15284],[11.61291,48.15331],[11.61148,48.15413],[11.6111,48.15432],[11.61012,48.15476],[11.60411,48.15721],[11.6037,48.1574],[11.60333,48.15761],[11.60275,48.15801],[11.60245,48.15825],[11.60238,48.15833],[11.60205,48.15873],[11.60152,48.15949],[11.60113,48.15997],[11.6009,48.15984],[11.60073,48.15977],[11.60045,48.1597],[11.60016,48.15966],[11.5999,48.15964],[11.59976,48.15965],[11.59956,48.15969],[11.59942,48.15976],[11.59933,48.15985],[11.59927,48.15995],[11.59925,48.16003],[11.59928,48.16015],[11.59937,48.16026],[11.59985,48.16069],[11.5999,48.16082],[11.59989,48.16088],[11.59986,48.16094],[11.59974,48.16104],[11.59928,48.1613],[11.59744,48.16232],[11.59711,48.16253],[11.59687,48.1627],[11.59657,48.16296],[11.59628,48.16328],[11.59608,48.16361],[11.59598,48.16383],[11.59592,48.16402]]]]}},{"type":"Feature","properties":{"name":"Transferfläche Ridlerstr. - Hansastr."},"geometry":{"type":"MultiPolygon","coordinates":[[[[11.53049,48.13163],[11.53113,48.13203],[11.53135,48.13213],[11.53192,48.13243],[11.53254,48.13279],[11.53288,48.13305],[11.53311,48.13326],[11.53323,48.13341],[11.53324,48.13348],[11.53308,48.13329],[11.53293,48.13314],[11.53247,48.13278],[11.53204,48.13252],[11.53119,48.13211],[11.53047,48.13166],[11.53049,48.13163]]]]}},{"type":"Feature","properties":{"name":"Transferfläche A8 - Ottobrunner Str."},"geometry":{"type":"MultiPolygon","coordinates":[[[[11.61558,48.11214],[11.61563,48.11215],[11.61567,48.11226],[11.61573,48.11236],[11.61619,48.11282],[11.61625,48.11286],[11.61633,48.11287],[11.61641,48.11287],[11.61648,48.11285],[11.61635,48.11292],[11.61622,48.1129],[11.61621,48.11291],[11.6157,48.11239],[11.61562,48.11227],[11.61558,48.11214]]]]}},{"type":"Feature","properties":{"name":"Umweltzone Erweiterung um Mittlerer Ring (ab 01.02.2023)"},"geometry":{"type":"MultiPolygon","coordinates":[[[[11.58688,48.09709],[11.58587,48.09874],[11.58589,48.09874],[11.58546,48.09945],[11.58536,48.09942],[11.58681,48.09707],[11.58688,48.09709]]],[[[11.58508,48.09989],[11.58515,48.09991],[11.58501,48.10015],[11.58492,48.10013],[11.58508,48.09989]]],[[[11.58487,48.10023],[11.58494,48.10025],[11.58427,48.10134],[11.58419,48.10132],[11.58486,48.10023],[11.58487,48.10023]]],[[[11.58413,48.10143],[11.58421,48.10145],[11.58364,48.10238],[11.58355,48.10236],[11.58413,48.10143]]],[[[11.5835,48.10246],[11.58358,48.10248],[11.5832,48.10311],[11.58311,48.10309],[11.5835,48.10246]]],[[[11.58307,48.10321],[11.58313,48.10323],[11.58245,48.10435],[11.58237,48.10433],[11.58305,48.1032],[11.58307,48.10321]]],[[[11.51876,48.11036],[11.51839,48.11068],[11.51832,48.1107],[11.51824,48.11068],[11.51855,48.11045],[11.51886,48.11028],[11.51876,48.11036]]],[[[11.54001,48.11025],[11.53985,48.11028],[11.53977,48.1103],[11.53978,48.11016],[11.54001,48.11016],[11.54009,48.11023],[11.5402,48.11027],[11.54001,48.11025]]],[[[11.51825,48.11078],[11.51817,48.11084],[11.51807,48.11083],[11.51821,48.1107],[11.51833,48.11072],[11.51825,48.11078]]],[[[11.51796,48.11094],[11.51796,48.11098],[11.51794,48.11103],[11.51766,48.1113],[11.51742,48.11157],[11.51772,48.11119],[11.51796,48.11094]]],[[[11.5432,48.1118],[11.54283,48.11182],[11.54244,48.11189],[11.54208,48.11199],[11.54167,48.11213],[11.54194,48.11195],[11.54202,48.11185],[11.5421,48.11175],[11.54214,48.11164],[11.54216,48.11153],[11.54215,48.11143],[11.54212,48.11131],[11.54203,48.11116],[11.54181,48.11097],[11.54163,48.11088],[11.54109,48.11072],[11.54148,48.11078],[11.54198,48.11093],[11.54232,48.11106],[11.54311,48.11144],[11.54359,48.11161],[11.54429,48.11179],[11.54467,48.11185],[11.5432,48.1118]]],[[[11.57494,48.11192],[11.57464,48.11198],[11.57429,48.11202],[11.57404,48.11203],[11.57383,48.11201],[11.57361,48.11196],[11.57341,48.11188],[11.57323,48.11176],[11.57312,48.11164],[11.57332,48.11177],[11.57353,48.11185],[11.5738,48.11192],[11.57405,48.11193],[11.57467,48.11185],[11.57536,48.1117],[11.57589,48.11155],[11.57598,48.11149],[11.57613,48.11144],[11.57611,48.11154],[11.57606,48.1116],[11.57599,48.11167],[11.5759,48.11172],[11.57494,48.11192]]],[[[11.53975,48.11283],[11.53963,48.11283],[11.53955,48.1128],[11.53947,48.11275],[11.53944,48.11268],[11.53956,48.11108],[11.53961,48.11099],[11.53965,48.11049],[11.53968,48.11043],[11.53973,48.11039],[11.53981,48.11035],[11.53993,48.11032],[11.53991,48.11065],[11.5401,48.11068],[11.54075,48.11073],[11.54118,48.1108],[11.5415,48.1109],[11.54168,48.11097],[11.54185,48.11108],[11.54197,48.11121],[11.54206,48.11139],[11.54208,48.1115],[11.54207,48.11161],[11.54203,48.11171],[11.54197,48.11181],[11.54188,48.1119],[11.54178,48.11199],[11.54146,48.11217],[11.54108,48.11234],[11.54001,48.11276],[11.53975,48.11283]]],[[[11.56672,48.11296],[11.56589,48.11305],[11.565,48.11311],[11.56422,48.1131],[11.5635,48.11302],[11.56498,48.11295],[11.56592,48.11287],[11.56672,48.11276],[11.56724,48.11267],[11.56814,48.11246],[11.56849,48.11235],[11.5693,48.11202],[11.56963,48.11192],[11.56982,48.11168],[11.56999,48.11151],[11.57021,48.11132],[11.57047,48.11114],[11.57069,48.11103],[11.57091,48.11094],[11.57118,48.11087],[11.57141,48.11084],[11.57161,48.11084],[11.57189,48.11087],[11.57217,48.11094],[11.57234,48.11102],[11.5725,48.11112],[11.57265,48.11124],[11.57276,48.11136],[11.57297,48.11167],[11.57314,48.11183],[11.57332,48.11194],[11.57362,48.11205],[11.5731,48.11204],[11.57263,48.11197],[11.57157,48.11189],[11.57104,48.11188],[11.57038,48.11194],[11.56982,48.11205],[11.5694,48.11218],[11.56926,48.11224],[11.56911,48.11234],[11.56892,48.11244],[11.56846,48.1126],[11.56758,48.11281],[11.56672,48.11296]]],[[[11.56566,48.11314],[11.56516,48.11316],[11.56456,48.11315],[11.56518,48.11314],[11.56576,48.1131],[11.56672,48.11299],[11.56791,48.11281],[11.56692,48.11299],[11.56566,48.11314]]],[[[11.55813,48.11878],[11.55812,48.11879],[11.55814,48.11881],[11.5576,48.1191],[11.55769,48.11918],[11.55586,48.12005],[11.5558,48.12004],[11.55369,48.11792],[11.5538,48.11788],[11.5532,48.11728],[11.55312,48.11731],[11.55232,48.11649],[11.55151,48.11559],[11.55116,48.11515],[11.55211,48.11479],[11.55154,48.11397],[11.55193,48.11387],[11.55171,48.11355],[11.55177,48.11353],[11.55181,48.1136],[11.55242,48.1134],[11.55202,48.11294],[11.55311,48.11271],[11.55311,48.11276],[11.55334,48.11276],[11.5537,48.11267],[11.55352,48.11243],[11.55373,48.11243],[11.55397,48.11246],[11.55429,48.11247],[11.55674,48.11244],[11.55723,48.11244],[11.55614,48.11248],[11.55425,48.1125],[11.55403,48.11254],[11.55397,48.11259],[11.55395,48.11264],[11.55399,48.11271],[11.55417,48.11297],[11.5562,48.11555],[11.55666,48.11607],[11.55729,48.11689],[11.557,48.11698],[11.55815,48.11858],[11.55812,48.11861],[11.55804,48.11873],[11.55813,48.11878]]],[[[11.51721,48.1184],[11.51792,48.12009],[11.51826,48.12082],[11.51826,48.12091],[11.5178,48.11993],[11.51705,48.11815],[11.51688,48.11766],[11.5168,48.11735],[11.51675,48.117],[11.51665,48.11567],[11.51668,48.11451],[11.51669,48.11451],[11.5167,48.11414],[11.51673,48.11398],[11.51674,48.11366],[11.51678,48.1143],[11.51675,48.11538],[11.51676,48.11561],[11.51675,48.1162],[11.51678,48.11683],[11.51683,48.11716],[11.51691,48.11756],[11.51704,48.11797],[11.51721,48.1184]]],[[[11.52176,48.12359],[11.52202,48.12367],[11.52221,48.12378],[11.52234,48.12393],[11.52239,48.12402],[11.52241,48.12411],[11.52239,48.12429],[11.52229,48.12444],[11.52216,48.12456],[11.52158,48.12494],[11.52146,48.12508],[11.5214,48.12522],[11.52139,48.12531],[11.52145,48.12546],[11.5216,48.12566],[11.52191,48.126],[11.52213,48.12619],[11.52252,48.1265],[11.52332,48.1271],[11.52381,48.12744],[11.52467,48.128],[11.52601,48.12877],[11.52777,48.12964],[11.52786,48.12972],[11.52847,48.13001],[11.52865,48.13012],[11.52866,48.13016],[11.52864,48.1302],[11.52837,48.13039],[11.52803,48.13019],[11.5275,48.12994],[11.52731,48.12979],[11.52618,48.12916],[11.52412,48.12789],[11.52309,48.12718],[11.52291,48.12708],[11.52194,48.12635],[11.52166,48.12609],[11.52139,48.12581],[11.52119,48.12557],[11.52091,48.12518],[11.52048,48.12451],[11.52032,48.1242],[11.51945,48.12286],[11.51942,48.12275],[11.51893,48.12206],[11.51866,48.12176],[11.51833,48.12112],[11.51832,48.12105],[11.51833,48.12086],[11.51802,48.12021],[11.51729,48.11846],[11.51703,48.11777],[11.51689,48.11724],[11.51683,48.11679],[11.5168,48.11626],[11.51687,48.11315],[11.51693,48.11299],[11.517,48.11262],[11.51708,48.11236],[11.51722,48.11205],[11.51742,48.11175],[11.51766,48.11145],[11.51793,48.11117],[11.5189,48.11033],[11.51914,48.1101],[11.51948,48.10994],[11.51956,48.10993],[11.5199,48.1096],[11.52005,48.10963],[11.52003,48.1097],[11.52007,48.10977],[11.52014,48.10982],[11.52024,48.10984],[11.52045,48.10983],[11.52187,48.10981],[11.52292,48.10987],[11.52654,48.10984],[11.52769,48.10986],[11.52903,48.10994],[11.53004,48.11004],[11.53147,48.11014],[11.53296,48.1103],[11.53369,48.11035],[11.53368,48.11036],[11.53419,48.11041],[11.53423,48.11047],[11.53434,48.11049],[11.53501,48.11051],[11.53807,48.11057],[11.53867,48.11063],[11.53941,48.11064],[11.53942,48.11055],[11.53948,48.11055],[11.53946,48.11076],[11.53906,48.11074],[11.53779,48.11072],[11.53646,48.11074],[11.53616,48.11075],[11.53489,48.11074],[11.53475,48.11076],[11.53432,48.11075],[11.53156,48.11047],[11.53013,48.11028],[11.52904,48.11017],[11.52797,48.1101],[11.52687,48.11007],[11.52376,48.11009],[11.52221,48.11014],[11.51993,48.11015],[11.51957,48.11023],[11.51921,48.11034],[11.518,48.11138],[11.51789,48.1115],[11.51778,48.11168],[11.51753,48.11228],[11.51742,48.11258],[11.51731,48.11309],[11.51725,48.11387],[11.51726,48.11388],[11.51724,48.11389],[11.51715,48.11468],[11.51713,48.11529],[11.51706,48.11622],[11.51705,48.11661],[11.51706,48.11695],[11.5171,48.11727],[11.51722,48.1177],[11.51737,48.11813],[11.51812,48.11991],[11.51865,48.12102],[11.51886,48.12135],[11.51948,48.12213],[11.51981,48.12259],[11.51995,48.12281],[11.52011,48.12311],[11.52037,48.12351],[11.52039,48.12351],[11.52046,48.12361],[11.52116,48.12355],[11.52152,48.12356],[11.52176,48.12359]]],[[[11.59715,48.17341],[11.59726,48.17339],[11.59738,48.1734],[11.59747,48.17344],[11.59754,48.1735],[11.59698,48.17379],[11.59704,48.17373],[11.59705,48.17367],[11.59699,48.17359],[11.59689,48.17353],[11.59715,48.17341]]],[[[11.54122,48.17539],[11.54136,48.1754],[11.54149,48.17543],[11.54161,48.17548],[11.5417,48.17555],[11.54176,48.17564],[11.5418,48.17573],[11.54179,48.17582],[11.54175,48.17591],[11.54168,48.17599],[11.54158,48.17606],[11.54128,48.17617],[11.54066,48.17619],[11.54062,48.17587],[11.54062,48.17577],[11.54064,48.17569],[11.54069,48.17566],[11.54078,48.17554],[11.54088,48.17547],[11.54104,48.17541],[11.54122,48.17539]]],[[[11.59736,48.17331],[11.59721,48.17334],[11.59463,48.17465],[11.59364,48.17509],[11.59399,48.17493],[11.59424,48.17477],[11.59532,48.17422],[11.59702,48.17337],[11.59751,48.17315],[11.5991,48.17234],[11.59936,48.17217],[11.59955,48.172],[11.59971,48.1718],[11.59981,48.17155],[11.59983,48.17138],[11.59981,48.17115],[11.59977,48.17098],[11.59965,48.17074],[11.59901,48.16977],[11.59884,48.16945],[11.59631,48.16582],[11.59611,48.16549],[11.59601,48.16529],[11.59591,48.165],[11.59585,48.16476],[11.59583,48.16449],[11.59585,48.16425],[11.59594,48.16393],[11.59602,48.16372],[11.59615,48.16349],[11.59632,48.16323],[11.59666,48.16287],[11.59711,48.16253],[11.5975,48.16229],[11.59931,48.16129],[11.59974,48.16104],[11.59985,48.16095],[11.59989,48.16088],[11.5999,48.16082],[11.59985,48.16069],[11.59937,48.16026],[11.59928,48.16015],[11.59925,48.16003],[11.59927,48.15994],[11.59934,48.15983],[11.59944,48.15975],[11.59956,48.15969],[11.59976,48.15965],[11.5999,48.15964],[11.60016,48.15966],[11.60045,48.1597],[11.60073,48.15977],[11.6009,48.15984],[11.60113,48.15997],[11.60152,48.15949],[11.60205,48.15873],[11.60245,48.15826],[11.60291,48.1579],[11.60337,48.15759],[11.60376,48.15737],[11.60413,48.1572],[11.61012,48.15476],[11.61095,48.15439],[11.61144,48.15415],[11.61285,48.15335],[11.61349,48.15294],[11.61374,48.15276],[11.61391,48.15251],[11.61405,48.15239],[11.61421,48.15232],[11.61455,48.15221],[11.61473,48.1521],[11.615,48.15188],[11.61527,48.15161],[11.61581,48.15093],[11.61587,48.15082],[11.61606,48.15032],[11.61617,48.14979],[11.61618,48.14942],[11.61607,48.1478],[11.61591,48.14678],[11.61589,48.14655],[11.61544,48.14391],[11.61529,48.14289],[11.615,48.1411],[11.61482,48.14011],[11.61459,48.13894],[11.61454,48.13854],[11.61457,48.13832],[11.61457,48.13801],[11.61474,48.13708],[11.61474,48.13661],[11.61486,48.13622],[11.61503,48.13577],[11.61518,48.13547],[11.61554,48.13489],[11.61611,48.13381],[11.61624,48.13349],[11.61628,48.13324],[11.61626,48.13302],[11.61621,48.13281],[11.61579,48.1317],[11.61568,48.13152],[11.61554,48.13116],[11.61547,48.13096],[11.61546,48.1308],[11.61505,48.12989],[11.61502,48.12977],[11.61502,48.12966],[11.61517,48.12903],[11.61528,48.12873],[11.61533,48.12863],[11.61548,48.12839],[11.61563,48.12819],[11.61589,48.12789],[11.61613,48.12767],[11.61662,48.12727],[11.61748,48.12671],[11.61814,48.12632],[11.61923,48.12572],[11.61954,48.12553],[11.61977,48.12536],[11.61992,48.12523],[11.62008,48.12505],[11.62022,48.12486],[11.62037,48.1246],[11.62045,48.1244],[11.6205,48.12425],[11.62057,48.12386],[11.62058,48.1235],[11.62056,48.12308],[11.62049,48.12233],[11.62041,48.12186],[11.62023,48.12103],[11.62013,48.12067],[11.61994,48.1202],[11.61929,48.11906],[11.61885,48.11821],[11.61767,48.11553],[11.61723,48.11471],[11.61684,48.1141],[11.6164,48.11354],[11.61579,48.11286],[11.61556,48.11264],[11.61512,48.11229],[11.615,48.11217],[11.61441,48.11172],[11.6136,48.11117],[11.61273,48.11066],[11.61187,48.11024],[11.61116,48.10996],[11.61025,48.10965],[11.60928,48.10937],[11.60833,48.10916],[11.60758,48.10902],[11.606,48.10884],[11.60427,48.10866],[11.60307,48.10848],[11.60239,48.10835],[11.5997,48.1077],[11.59688,48.10712],[11.59657,48.10697],[11.59606,48.10669],[11.5956,48.10659],[11.59443,48.10636],[11.59365,48.10618],[11.59322,48.10605],[11.59141,48.10546],[11.5904,48.10519],[11.59,48.1051],[11.58913,48.10495],[11.58823,48.10483],[11.5875,48.10477],[11.58655,48.10473],[11.58525,48.10474],[11.58374,48.10483],[11.5829,48.10477],[11.58262,48.1048],[11.58241,48.10487],[11.58225,48.10497],[11.58209,48.10512],[11.58169,48.10563],[11.58141,48.10593],[11.58072,48.10663],[11.58036,48.10707],[11.58017,48.10736],[11.58004,48.10758],[11.57924,48.10921],[11.57905,48.10955],[11.57869,48.11008],[11.5782,48.11069],[11.57777,48.11106],[11.57724,48.11138],[11.57662,48.11164],[11.57584,48.11183],[11.57598,48.11176],[11.57608,48.11167],[11.57615,48.11156],[11.57617,48.11143],[11.57664,48.11127],[11.57694,48.11114],[11.57725,48.11097],[11.57753,48.11077],[11.57771,48.11062],[11.57788,48.11043],[11.57837,48.10983],[11.57867,48.1094],[11.5789,48.10909],[11.57973,48.10743],[11.57995,48.10707],[11.58023,48.10668],[11.58028,48.10658],[11.58069,48.10611],[11.58108,48.10574],[11.58161,48.10503],[11.5819,48.1046],[11.58197,48.10453],[11.58207,48.10448],[11.58206,48.10445],[11.58186,48.1044],[11.58177,48.10435],[11.58184,48.10429],[11.58193,48.10434],[11.5829,48.1046],[11.58317,48.10465],[11.58344,48.10468],[11.58404,48.10469],[11.58491,48.10462],[11.58554,48.1046],[11.58646,48.1046],[11.58718,48.10462],[11.58827,48.1047],[11.58953,48.10488],[11.59043,48.10506],[11.59139,48.10531],[11.59345,48.10599],[11.59395,48.10613],[11.5946,48.10627],[11.5963,48.10658],[11.59655,48.10668],[11.5969,48.10688],[11.59702,48.10696],[11.59704,48.10695],[11.59719,48.10702],[11.59736,48.10708],[11.59945,48.1075],[11.60242,48.10823],[11.60315,48.10837],[11.60434,48.10854],[11.60759,48.1089],[11.60795,48.10896],[11.60874,48.10912],[11.60961,48.10933],[11.61046,48.10958],[11.6109,48.10973],[11.61133,48.10904],[11.61086,48.10889],[11.61137,48.10743],[11.61185,48.1068],[11.61193,48.1068],[11.61158,48.10612],[11.61144,48.106],[11.61135,48.10595],[11.61125,48.10592],[11.61155,48.10598],[11.61163,48.10606],[11.61171,48.10616],[11.61217,48.10707],[11.61262,48.10697],[11.61313,48.10703],[11.61354,48.10811],[11.61381,48.10864],[11.61433,48.11004],[11.61439,48.11032],[11.61374,48.11094],[11.614,48.11108],[11.61468,48.11155],[11.61507,48.11185],[11.61544,48.11216],[11.61549,48.11216],[11.61549,48.11212],[11.61558,48.11214],[11.61562,48.11227],[11.6157,48.11239],[11.61621,48.11292],[11.61689,48.11373],[11.61716,48.11409],[11.61741,48.11448],[11.61792,48.11542],[11.61894,48.11777],[11.61933,48.11859],[11.61959,48.11908],[11.62029,48.12026],[11.62038,48.12035],[11.62127,48.1203],[11.62146,48.12032],[11.62182,48.1203],[11.62189,48.12028],[11.62205,48.12037],[11.62051,48.12046],[11.62045,48.12048],[11.62042,48.12052],[11.62076,48.12225],[11.62085,48.12324],[11.62089,48.12389],[11.62087,48.1242],[11.62084,48.12437],[11.62071,48.12479],[11.62059,48.125],[11.62048,48.12514],[11.62035,48.12527],[11.61998,48.12554],[11.61963,48.12575],[11.61867,48.12626],[11.61793,48.12668],[11.6175,48.12697],[11.617,48.12736],[11.61629,48.12802],[11.61593,48.12842],[11.61579,48.12864],[11.61571,48.12879],[11.6156,48.12908],[11.61557,48.12922],[11.61554,48.12942],[11.61554,48.12964],[11.6156,48.13002],[11.61652,48.13248],[11.6166,48.13279],[11.61662,48.13302],[11.61657,48.13328],[11.61642,48.13373],[11.61578,48.13498],[11.61571,48.13524],[11.61553,48.13567],[11.61547,48.13588],[11.61533,48.13626],[11.61518,48.1368],[11.61512,48.13691],[11.61504,48.13701],[11.61484,48.13811],[11.61482,48.13839],[11.61483,48.13864],[11.61487,48.13895],[11.61508,48.13994],[11.61525,48.14089],[11.61554,48.14267],[11.61572,48.14389],[11.61609,48.14599],[11.61614,48.14624],[11.61628,48.14664],[11.61631,48.14681],[11.61644,48.1476],[11.61642,48.14773],[11.61635,48.14786],[11.61643,48.14886],[11.61648,48.14888],[11.61722,48.14887],[11.61734,48.14889],[11.61734,48.14896],[11.61687,48.14897],[11.61687,48.14895],[11.61653,48.14896],[11.61644,48.14899],[11.61646,48.14965],[11.61651,48.14974],[11.61651,48.14985],[11.61646,48.15011],[11.61639,48.1504],[11.6163,48.15065],[11.6162,48.15086],[11.61584,48.15148],[11.61564,48.15177],[11.61544,48.15202],[11.61522,48.15223],[11.61491,48.15246],[11.61464,48.15273],[11.61454,48.1528],[11.61439,48.15287],[11.61477,48.1531],[11.61506,48.15333],[11.61532,48.15358],[11.61563,48.15396],[11.61576,48.15403],[11.6156,48.15409],[11.61522,48.15363],[11.61487,48.1533],[11.61459,48.1531],[11.61436,48.15297],[11.61422,48.15291],[11.61411,48.15291],[11.61405,48.15293],[11.61318,48.15349],[11.61263,48.1538],[11.61233,48.15395],[11.61194,48.15412],[11.611,48.15456],[11.60474,48.15711],[11.604,48.15743],[11.60414,48.15769],[11.60421,48.15789],[11.60425,48.15811],[11.60426,48.15834],[11.60422,48.15854],[11.60413,48.15876],[11.60404,48.1589],[11.60386,48.15908],[11.60369,48.1592],[11.60353,48.15928],[11.6032,48.15939],[11.60276,48.15945],[11.60217,48.15945],[11.60198,48.15949],[11.60181,48.15956],[11.60165,48.15968],[11.60132,48.16007],[11.60154,48.1602],[11.6016,48.16027],[11.60163,48.16034],[11.60164,48.16045],[11.60162,48.16054],[11.60158,48.16062],[11.60148,48.1607],[11.60134,48.16077],[11.60118,48.1608],[11.60101,48.16078],[11.60075,48.16068],[11.60067,48.16068],[11.60059,48.1607],[11.60019,48.16098],[11.59974,48.16125],[11.59728,48.16262],[11.59695,48.16285],[11.59672,48.16307],[11.5965,48.16334],[11.59633,48.16361],[11.59628,48.1637],[11.59615,48.16414],[11.59612,48.16442],[11.59613,48.16469],[11.5962,48.16501],[11.59628,48.16525],[11.59649,48.16562],[11.59699,48.16637],[11.5977,48.16585],[11.59781,48.16592],[11.59776,48.16597],[11.59773,48.16603],[11.59771,48.16623],[11.59796,48.1674],[11.598,48.16755],[11.59814,48.16792],[11.59822,48.16808],[11.59835,48.16829],[11.59934,48.16975],[11.59968,48.17024],[11.59994,48.17053],[11.60014,48.17087],[11.60016,48.17086],[11.60024,48.17109],[11.60027,48.17128],[11.60027,48.17144],[11.60024,48.17159],[11.60019,48.17174],[11.60014,48.17186],[11.60004,48.17201],[11.59993,48.17215],[11.59982,48.17226],[11.59964,48.1724],[11.59935,48.17257],[11.59764,48.17345],[11.59753,48.17335],[11.59745,48.17332],[11.59736,48.17331]]],[[[11.59682,48.17359],[11.59689,48.17361],[11.59694,48.17365],[11.59695,48.1737],[11.59691,48.17374],[11.59623,48.17413],[11.59426,48.17512],[11.59309,48.17558],[11.59295,48.17543],[11.59408,48.17495],[11.5947,48.17465],[11.59676,48.1736],[11.59682,48.17359]]],[[[11.59147,48.17502],[11.59186,48.17505],[11.59213,48.17513],[11.59237,48.17525],[11.59269,48.1755],[11.59199,48.17579],[11.59177,48.17586],[11.59157,48.1759],[11.59143,48.17592],[11.59119,48.1759],[11.591,48.17583],[11.59087,48.17575],[11.59075,48.17561],[11.59072,48.1755],[11.59073,48.17539],[11.5908,48.17527],[11.59091,48.17516],[11.59106,48.17508],[11.59126,48.17503],[11.59147,48.17502]]],[[[11.59055,48.1752],[11.5905,48.17536],[11.59049,48.17549],[11.59058,48.17597],[11.59059,48.17613],[11.59056,48.17621],[11.59051,48.1763],[11.59039,48.17641],[11.59018,48.17652],[11.58981,48.17666],[11.58873,48.17703],[11.5883,48.17715],[11.58762,48.17727],[11.58809,48.17715],[11.58901,48.17685],[11.58999,48.17648],[11.59023,48.17636],[11.59038,48.17621],[11.59043,48.17613],[11.59048,48.17603],[11.59049,48.17585],[11.59045,48.17547],[11.59047,48.17534],[11.59055,48.1752]]],[[[11.58728,48.1776],[11.58651,48.17766],[11.58639,48.17764],[11.58617,48.17763],[11.58612,48.1776],[11.58609,48.17756],[11.58611,48.17752],[11.58619,48.17748],[11.58674,48.17745],[11.58731,48.17739],[11.58796,48.17729],[11.58844,48.17718],[11.5889,48.17705],[11.58933,48.1769],[11.59047,48.17643],[11.5906,48.17629],[11.59064,48.1762],[11.59066,48.17612],[11.59066,48.17599],[11.59055,48.17555],[11.59058,48.17537],[11.59064,48.17525],[11.59073,48.17515],[11.59087,48.17505],[11.59102,48.17498],[11.5912,48.17493],[11.59142,48.17491],[11.59183,48.17494],[11.5921,48.175],[11.59235,48.17511],[11.59257,48.17524],[11.59277,48.17539],[11.593,48.17562],[11.59296,48.17564],[11.59273,48.1754],[11.59252,48.17524],[11.59229,48.17511],[11.5921,48.17503],[11.59183,48.17497],[11.59153,48.17494],[11.59129,48.17495],[11.59105,48.175],[11.59089,48.17507],[11.59073,48.17519],[11.59064,48.17533],[11.5906,48.17546],[11.59062,48.17558],[11.59073,48.17575],[11.5908,48.17581],[11.59103,48.17593],[11.59114,48.17596],[11.59133,48.17599],[11.59152,48.17598],[11.59163,48.17596],[11.59201,48.17583],[11.59272,48.17553],[11.59287,48.17568],[11.59219,48.17596],[11.59201,48.176],[11.59071,48.17654],[11.58913,48.17714],[11.58829,48.1774],[11.58778,48.17752],[11.58728,48.1776]]],[[[11.54051,48.17633],[11.54054,48.1769],[11.54048,48.17742],[11.54039,48.17782],[11.54003,48.17905],[11.53989,48.17974],[11.53986,48.18011],[11.53985,48.18042],[11.53987,48.18086],[11.53992,48.18122],[11.53981,48.18123],[11.53975,48.18069],[11.53974,48.18017],[11.53971,48.18013],[11.53974,48.17973],[11.53984,48.17925],[11.53973,48.17924],[11.53982,48.17865],[11.53979,48.1786],[11.53982,48.17827],[11.53981,48.17797],[11.53978,48.17773],[11.53973,48.17743],[11.53945,48.17639],[11.53641,48.17641],[11.5364,48.17633],[11.53942,48.1763],[11.5394,48.17621],[11.53841,48.17622],[11.53858,48.17621],[11.53876,48.17616],[11.5388,48.17613],[11.53892,48.17607],[11.53902,48.17598],[11.53906,48.17588],[11.53906,48.17581],[11.53902,48.17563],[11.53884,48.1753],[11.53885,48.17523],[11.53876,48.17502],[11.53869,48.17475],[11.53867,48.17441],[11.53876,48.17372],[11.53876,48.17355],[11.53874,48.17322],[11.53866,48.17269],[11.53869,48.17258],[11.53859,48.17208],[11.5384,48.17137],[11.53829,48.17084],[11.53806,48.16949],[11.53791,48.16874],[11.53786,48.16835],[11.5378,48.16769],[11.53775,48.16758],[11.53767,48.16642],[11.5378,48.16627],[11.53779,48.16613],[11.53766,48.16626],[11.53765,48.16608],[11.53778,48.16597],[11.53778,48.16591],[11.5377,48.16594],[11.53764,48.16599],[11.53745,48.16259],[11.5375,48.16192],[11.53734,48.15956],[11.53718,48.15729],[11.53715,48.15706],[11.53703,48.15648],[11.53698,48.15607],[11.53684,48.15383],[11.53683,48.15353],[11.53662,48.15032],[11.53653,48.14921],[11.53639,48.14812],[11.53638,48.14771],[11.53635,48.14753],[11.53626,48.14726],[11.53608,48.1469],[11.53593,48.14674],[11.53519,48.14586],[11.53515,48.14566],[11.535,48.1454],[11.53491,48.14519],[11.5348,48.14481],[11.53471,48.14424],[11.53466,48.14371],[11.53463,48.14348],[11.53459,48.14297],[11.53445,48.14207],[11.53443,48.14194],[11.53429,48.14148],[11.53411,48.14071],[11.53407,48.14028],[11.53414,48.13851],[11.53422,48.13813],[11.5342,48.13808],[11.53416,48.13804],[11.53433,48.13768],[11.53431,48.13726],[11.53425,48.13676],[11.53417,48.13627],[11.53391,48.13503],[11.53355,48.13504],[11.53346,48.13507],[11.53341,48.13505],[11.53339,48.13502],[11.5334,48.13499],[11.53345,48.13497],[11.53349,48.13496],[11.53353,48.13499],[11.53389,48.13496],[11.53378,48.13448],[11.53374,48.13426],[11.53367,48.13408],[11.53357,48.13391],[11.53341,48.13369],[11.53327,48.13354],[11.53324,48.13348],[11.53324,48.13343],[11.53321,48.13337],[11.53298,48.13313],[11.53278,48.13297],[11.53241,48.1327],[11.53135,48.13213],[11.53113,48.13203],[11.53038,48.13156],[11.53031,48.1315],[11.53028,48.13144],[11.53001,48.13128],[11.52904,48.13075],[11.52891,48.13071],[11.52851,48.13049],[11.52843,48.13043],[11.52874,48.1302],[11.52876,48.13015],[11.52874,48.13009],[11.52858,48.12999],[11.52758,48.12948],[11.52776,48.12953],[11.52853,48.1299],[11.52947,48.13043],[11.53077,48.13122],[11.53095,48.13135],[11.53188,48.1319],[11.53232,48.1322],[11.53299,48.13262],[11.53317,48.13274],[11.53349,48.13302],[11.53379,48.13335],[11.5336,48.13349],[11.53357,48.13355],[11.53375,48.13385],[11.53389,48.13421],[11.53419,48.13545],[11.53427,48.13586],[11.53432,48.13606],[11.53439,48.13622],[11.53445,48.13655],[11.53445,48.13673],[11.53455,48.13749],[11.53463,48.1378],[11.53476,48.13805],[11.53483,48.13829],[11.53483,48.13852],[11.53476,48.13878],[11.53475,48.13889],[11.53476,48.13917],[11.5348,48.13928],[11.5348,48.13961],[11.53479,48.13995],[11.53476,48.14023],[11.53472,48.14149],[11.53473,48.14167],[11.53476,48.14195],[11.53496,48.14321],[11.535,48.14326],[11.53525,48.14464],[11.53539,48.14509],[11.53549,48.1453],[11.5356,48.1455],[11.53585,48.14582],[11.53628,48.14627],[11.53653,48.14662],[11.53663,48.14678],[11.53673,48.14699],[11.53681,48.1472],[11.53688,48.14746],[11.53692,48.14768],[11.53698,48.14842],[11.53699,48.14889],[11.53706,48.1497],[11.53714,48.15041],[11.53723,48.15076],[11.53727,48.15138],[11.53723,48.15185],[11.53722,48.15223],[11.5373,48.1535],[11.53737,48.15414],[11.53752,48.15642],[11.53746,48.15695],[11.53745,48.15726],[11.53775,48.16166],[11.53779,48.16192],[11.53794,48.16247],[11.53795,48.16261],[11.53819,48.16597],[11.53813,48.16592],[11.53804,48.16589],[11.53805,48.16602],[11.53804,48.16593],[11.53812,48.16598],[11.53815,48.16605],[11.53825,48.16784],[11.53829,48.16832],[11.53834,48.16847],[11.53843,48.16865],[11.53853,48.16879],[11.53885,48.16918],[11.53896,48.16935],[11.53902,48.16949],[11.53907,48.16966],[11.53909,48.16984],[11.53906,48.17041],[11.53893,48.17042],[11.53891,48.1704],[11.53886,48.16997],[11.53885,48.1699],[11.5388,48.16982],[11.53874,48.16977],[11.53865,48.16972],[11.53843,48.16964],[11.53844,48.16974],[11.53856,48.16977],[11.53866,48.16982],[11.53873,48.16989],[11.53877,48.16997],[11.53887,48.17088],[11.53896,48.17139],[11.53913,48.17207],[11.5393,48.17253],[11.53941,48.17277],[11.53951,48.17297],[11.53972,48.1733],[11.53995,48.1736],[11.54032,48.17402],[11.54073,48.1744],[11.5411,48.17469],[11.54155,48.175],[11.54194,48.17522],[11.54245,48.17546],[11.54295,48.17564],[11.54348,48.17579],[11.54412,48.17591],[11.54465,48.17597],[11.54469,48.17598],[11.54491,48.17514],[11.54521,48.17518],[11.54504,48.17586],[11.54519,48.17583],[11.54532,48.17578],[11.54597,48.17541],[11.54619,48.17535],[11.5464,48.17534],[11.54662,48.17538],[11.54677,48.17543],[11.54782,48.17603],[11.5479,48.17606],[11.548,48.17607],[11.5543,48.17601],[11.55564,48.17597],[11.55589,48.17594],[11.5592,48.1759],[11.56091,48.17589],[11.56182,48.17591],[11.56434,48.17587],[11.56508,48.17588],[11.56543,48.17591],[11.56578,48.17596],[11.56646,48.17612],[11.56741,48.17639],[11.56755,48.17644],[11.56786,48.17662],[11.56837,48.1768],[11.56906,48.17703],[11.57156,48.17773],[11.57193,48.1778],[11.57244,48.17786],[11.57262,48.17786],[11.57335,48.17781],[11.57516,48.17785],[11.57585,48.17784],[11.58086,48.17743],[11.58274,48.17735],[11.58378,48.17735],[11.58483,48.17731],[11.58509,48.17728],[11.5854,48.1773],[11.58585,48.1774],[11.58617,48.17742],[11.58605,48.17747],[11.58601,48.17751],[11.586,48.17756],[11.58601,48.17761],[11.58605,48.17765],[11.58617,48.17769],[11.58557,48.17769],[11.58486,48.17767],[11.58457,48.17768],[11.58376,48.17767],[11.58366,48.1777],[11.58359,48.1777],[11.58199,48.17763],[11.58129,48.17763],[11.58024,48.17769],[11.57718,48.17795],[11.57534,48.17815],[11.57502,48.17816],[11.57431,48.17815],[11.57381,48.17817],[11.57342,48.17816],[11.5723,48.178],[11.57177,48.1779],[11.57143,48.17781],[11.56856,48.17701],[11.56843,48.17699],[11.5659,48.17631],[11.56557,48.17624],[11.56502,48.17615],[11.56462,48.17612],[11.56239,48.17615],[11.5603,48.17626],[11.56027,48.17629],[11.55866,48.17635],[11.5586,48.17637],[11.55835,48.17659],[11.55831,48.17665],[11.55801,48.17694],[11.55789,48.17709],[11.5576,48.17702],[11.55774,48.17679],[11.55775,48.17673],[11.55773,48.17661],[11.55766,48.1765],[11.55756,48.17642],[11.55749,48.17638],[11.5573,48.17633],[11.55714,48.17631],[11.55689,48.17634],[11.55556,48.17632],[11.55538,48.1763],[11.55441,48.1763],[11.55078,48.17633],[11.55061,48.17638],[11.55045,48.17645],[11.54962,48.17695],[11.54948,48.17699],[11.54932,48.17701],[11.54916,48.177],[11.54904,48.17695],[11.54802,48.17636],[11.54635,48.17638],[11.54518,48.17642],[11.54266,48.17661],[11.54219,48.17662],[11.5416,48.1766],[11.5413,48.17655],[11.54093,48.17647],[11.54051,48.17633]],[[11.54063,48.1763],[11.54068,48.17632],[11.54067,48.17629],[11.54109,48.17625],[11.54143,48.1762],[11.54155,48.17616],[11.54166,48.17611],[11.54181,48.176],[11.54188,48.17588],[11.54191,48.17574],[11.54186,48.17561],[11.54179,48.17551],[11.54169,48.17543],[11.54155,48.17537],[11.5414,48.17533],[11.54125,48.17531],[11.54109,48.17532],[11.54094,48.17536],[11.5408,48.17542],[11.54071,48.17548],[11.54063,48.17556],[11.54058,48.17566],[11.54055,48.17576],[11.54056,48.17592],[11.54063,48.1763]],[[11.54035,48.17629],[11.54017,48.1762],[11.53951,48.17621],[11.53953,48.1763],[11.54035,48.17629]]]]}},{"type":"Feature","properties":{"name":"Transferfläche A96 - Tübinger Str."},"geometry":{"type":"MultiPolygon","coordinates":[[[[11.52146,48.12548],[11.52141,48.12538],[11.52139,48.1253],[11.52141,48.1252],[11.52146,48.12508],[11.52161,48.12492],[11.52216,48.12456],[11.52231,48.12442],[11.52238,48.1243],[11.52241,48.1242],[11.5224,48.12408],[11.52236,48.12396],[11.52228,48.12385],[11.52215,48.12374],[11.52198,48.12366],[11.52179,48.1236],[11.52156,48.12356],[11.5212,48.12355],[11.52046,48.12361],[11.52039,48.12351],[11.52106,48.12344],[11.52117,48.12346],[11.52163,48.12348],[11.52187,48.12352],[11.52202,48.12356],[11.52218,48.12363],[11.52232,48.12372],[11.52245,48.12387],[11.52253,48.12404],[11.52253,48.12423],[11.52248,48.12439],[11.5224,48.1245],[11.52226,48.12462],[11.52184,48.12487],[11.52168,48.12498],[11.52157,48.12511],[11.52151,48.12526],[11.52151,48.12539],[11.52156,48.12554],[11.52168,48.1257],[11.52184,48.12587],[11.52219,48.12619],[11.52254,48.12647],[11.52367,48.1273],[11.52442,48.12781],[11.52614,48.12876],[11.52858,48.12999],[11.52875,48.1301],[11.52876,48.13015],[11.52875,48.13019],[11.52843,48.13043],[11.52837,48.13039],[11.52857,48.13025],[11.52866,48.13017],[11.52865,48.13012],[11.52858,48.13008],[11.52786,48.12972],[11.52777,48.12964],[11.52601,48.12877],[11.52492,48.12816],[11.52431,48.12778],[11.52332,48.1271],[11.52225,48.12629],[11.52179,48.12588],[11.5216,48.12566],[11.52146,48.12548]]]]}},{"type":"Feature","properties":{"name":"Transferfläche Gerog-Brauchlering - Moosacher Str."},"geometry":{"type":"MultiPolygon","coordinates":[[[[11.53885,48.17621],[11.5394,48.17621],[11.53942,48.1763],[11.5364,48.17633],[11.53638,48.17623],[11.53663,48.17624],[11.53885,48.17621]]],[[[11.53952,48.17621],[11.54017,48.1762],[11.54036,48.17629],[11.53953,48.1763],[11.53951,48.17621],[11.53952,48.17621]]],[[[11.54151,48.17618],[11.54109,48.17625],[11.54067,48.17629],[11.54068,48.17632],[11.54063,48.1763],[11.54055,48.1758],[11.54057,48.1757],[11.54062,48.17557],[11.54071,48.17548],[11.54082,48.17541],[11.54097,48.17535],[11.54112,48.17532],[11.54128,48.17531],[11.54144,48.17534],[11.54158,48.17538],[11.54172,48.17545],[11.54181,48.17553],[11.54188,48.17564],[11.54191,48.17576],[11.54189,48.17586],[11.54184,48.17596],[11.54176,48.17604],[11.54164,48.17612],[11.54151,48.17618]],[[11.54121,48.17539],[11.54103,48.17541],[11.54088,48.17547],[11.54077,48.17555],[11.54069,48.17566],[11.54064,48.17569],[11.54062,48.17577],[11.54062,48.17587],[11.54066,48.17619],[11.54128,48.17617],[11.54158,48.17606],[11.54168,48.17599],[11.54175,48.17591],[11.54179,48.17582],[11.5418,48.17573],[11.54176,48.17563],[11.5417,48.17555],[11.5416,48.17548],[11.54148,48.17543],[11.54135,48.17539],[11.54121,48.17539]]]]}},{"type":"Feature","properties":{"name":"Transferfläche A9 - A9 / Ungererstr."},"geometry":{"type":"MultiPolygon","coordinates":[[[[11.59681,48.17359],[11.59676,48.1736],[11.5947,48.17465],[11.59408,48.17495],[11.59295,48.17543],[11.59292,48.1754],[11.59463,48.17465],[11.59723,48.17333],[11.59734,48.17331],[11.59748,48.17332],[11.59756,48.17337],[11.59764,48.17345],[11.59754,48.1735],[11.59747,48.17344],[11.59736,48.1734],[11.59724,48.17339],[11.59714,48.17341],[11.59689,48.17353],[11.59699,48.17359],[11.59705,48.17367],[11.59704,48.17373],[11.59698,48.17379],[11.59499,48.1748],[11.59458,48.175],[11.59426,48.17512],[11.59623,48.17413],[11.59691,48.17374],[11.59695,48.1737],[11.59694,48.17364],[11.59689,48.1736],[11.59681,48.17359]]],[[[11.59152,48.17598],[11.59133,48.17599],[11.59108,48.17595],[11.59093,48.17589],[11.59073,48.17575],[11.59062,48.17558],[11.5906,48.17546],[11.59064,48.17533],[11.59073,48.17519],[11.59084,48.17511],[11.59095,48.17504],[11.59121,48.17496],[11.59147,48.17494],[11.59189,48.17498],[11.59217,48.17506],[11.59245,48.1752],[11.5927,48.17538],[11.59296,48.17564],[11.59287,48.17568],[11.59272,48.17553],[11.59182,48.1759],[11.59152,48.17598]],[[11.59141,48.17502],[11.59118,48.17505],[11.591,48.17511],[11.59086,48.1752],[11.59075,48.17533],[11.59071,48.17545],[11.59074,48.1756],[11.59084,48.17572],[11.59095,48.17581],[11.59109,48.17587],[11.59124,48.1759],[11.59143,48.17592],[11.59162,48.1759],[11.59199,48.17579],[11.59269,48.1755],[11.59237,48.17525],[11.59209,48.17512],[11.59177,48.17504],[11.59141,48.17502]]]]}}]}