{"type":"FeatureCollection","features":[{"type":"Feature","properties":{"name":"Lend","bezirk":"4. Bezirk"},"geometry":{"type":"Polygon","coordinates":[[[15.41846,47.09374],[15.41794,47.09345],[15.41724,47.0936],[15.4166,47.09343],[15.41679,47.0927],[15.41597,47.09007],[15.41562,47.09043],[15.41305,47.08982],[15.41233,47.08946],[15.41166,47.09006],[15.41134,47.08989],[15.41052,47.09062],[15.41034,47.09052],[15.40988,47.09106],[15.40963,47.09109],[15.40934,47.09048],[15.40907,47.09034],[15.41251,47.08729],[15.41239,47.08708],[15.41188,47.08692],[15.4117,47.08701],[15.40915,47.08609],[15.40553,47.08512],[15.40597,47.08488],[15.40462,47.08461],[15.40488,47.084],[15.40341,47.08386],[15.40349,47.08354],[15.40456,47.08242],[15.40589,47.08058],[15.40776,47.07415],[15.40933,47.06996],[15.42041,47.07135],[15.43064,47.07083],[15.43177,47.0711],[15.4334,47.07079],[15.43509,47.07085],[15.43429,47.07454],[15.43234,47.07862],[15.43134,47.08019],[15.42999,47.08136],[15.42677,47.08346],[15.42536,47.08466],[15.42438,47.08602],[15.42256,47.08943],[15.42144,47.09081],[15.41846,47.09374]]]}},{"type":"Feature","properties":{"name":"St. Peter","bezirk":"8. Bezirk"},"geometry":{"type":"Polygon","coordinates":[[[15.49309,47.06542],[15.49227,47.06715],[15.49214,47.06809],[15.49179,47.06904],[15.4912,47.06955],[15.49114,47.06996],[15.48732,47.06963],[15.48625,47.06936],[15.48429,47.0679],[15.48072,47.06627],[15.48157,47.06554],[15.48111,47.06468],[15.48094,47.06396],[15.47878,47.06401],[15.47808,47.06379],[15.47739,47.06268],[15.4775,47.06198],[15.47773,47.06167],[15.47463,47.05986],[15.47183,47.06188],[15.46916,47.0606],[15.46865,47.06072],[15.46757,47.06148],[15.46746,47.06068],[15.46562,47.05975],[15.46898,47.05934],[15.46635,47.058],[15.46316,47.05662],[15.46367,47.05602],[15.46296,47.05572],[15.4637,47.05472],[15.46322,47.05452],[15.46385,47.05347],[15.4606,47.05206],[15.46162,47.05224],[15.46409,47.04905],[15.46256,47.04836],[15.46286,47.04793],[15.46302,47.04711],[15.46329,47.04684],[15.46643,47.04655],[15.46744,47.04621],[15.46867,47.04539],[15.46949,47.04641],[15.46975,47.04709],[15.47011,47.04719],[15.46989,47.04653],[15.46992,47.04582],[15.46951,47.04495],[15.46821,47.04321],[15.46803,47.04237],[15.46922,47.04116],[15.47008,47.03989],[15.47198,47.03851],[15.47276,47.03777],[15.47343,47.03748],[15.47417,47.03689],[15.47601,47.03641],[15.47696,47.03578],[15.47761,47.035],[15.47789,47.03373],[15.4781,47.03341],[15.47926,47.03249],[15.48037,47.03185],[15.48118,47.03167],[15.48364,47.03156],[15.4843,47.03128],[15.49114,47.0343],[15.49087,47.03461],[15.49268,47.03527],[15.49282,47.03546],[15.49461,47.03591],[15.49511,47.03597],[15.49531,47.03578],[15.49582,47.03598],[15.49764,47.03754],[15.49853,47.03804],[15.50222,47.03906],[15.50404,47.04012],[15.50614,47.04057],[15.50365,47.04303],[15.50154,47.04431],[15.5002,47.04489],[15.49952,47.04555],[15.49935,47.04627],[15.4986,47.04793],[15.49902,47.04966],[15.49913,47.05087],[15.49979,47.05233],[15.49962,47.05283],[15.49904,47.05361],[15.49791,47.05441],[15.49727,47.0545],[15.49704,47.05489],[15.49782,47.05513],[15.50033,47.05664],[15.50049,47.05653],[15.50196,47.05782],[15.50151,47.05811],[15.50255,47.05975],[15.5042,47.06153],[15.50472,47.06359],[15.50347,47.06378],[15.50219,47.06366],[15.50194,47.0643],[15.50151,47.06466],[15.50156,47.06485],[15.49973,47.06446],[15.49926,47.0645],[15.4994,47.06483],[15.49943,47.06618],[15.49897,47.06624],[15.49914,47.06691],[15.49867,47.06755],[15.49789,47.06814],[15.49697,47.06815],[15.49606,47.06699],[15.49524,47.06649],[15.49541,47.06602],[15.49309,47.06542]]]}},{"type":"Feature","properties":{"name":"Geidorf","bezirk":"3. Bezirk"},"geometry":{"type":"Polygon","coordinates":[[[15.44128,47.0967],[15.43929,47.09686],[15.43899,47.09733],[15.43717,47.09803],[15.43695,47.09784],[15.43698,47.09723],[15.43731,47.09717],[15.43701,47.09674],[15.43541,47.09546],[15.43348,47.09446],[15.43361,47.09427],[15.43324,47.0942],[15.4328,47.09441],[15.43278,47.09496],[15.43204,47.09481],[15.43032,47.09537],[15.42839,47.09558],[15.42686,47.09627],[15.42665,47.09596],[15.42574,47.09598],[15.42476,47.09526],[15.42348,47.09566],[15.42307,47.09508],[15.4223,47.09498],[15.42189,47.09524],[15.42148,47.09528],[15.42013,47.09483],[15.4184,47.0938],[15.42144,47.09081],[15.42256,47.08943],[15.42438,47.08602],[15.42536,47.08466],[15.42677,47.08346],[15.42999,47.08136],[15.43134,47.08019],[15.43297,47.07731],[15.43472,47.07776],[15.43568,47.07848],[15.43642,47.0788],[15.43922,47.07917],[15.44007,47.07856],[15.44355,47.07797],[15.44687,47.07426],[15.44709,47.0737],[15.46377,47.07839],[15.46416,47.07886],[15.46756,47.07918],[15.46728,47.08086],[15.46834,47.08241],[15.47008,47.08431],[15.46948,47.08508],[15.46936,47.0855],[15.46969,47.08579],[15.4702,47.08729],[15.47156,47.08854],[15.47069,47.08845],[15.4696,47.08864],[15.46892,47.08919],[15.46616,47.0865],[15.46507,47.08522],[15.46463,47.084],[15.4647,47.08329],[15.46413,47.08257],[15.46246,47.08194],[15.46153,47.08083],[15.4603,47.08052],[15.46031,47.08129],[15.45977,47.08174],[15.45956,47.08218],[15.46059,47.08356],[15.46199,47.08355],[15.46186,47.08418],[15.46124,47.08466],[15.46151,47.08538],[15.46228,47.0864],[15.45994,47.08672],[15.45996,47.08643],[15.4586,47.08618],[15.45804,47.08641],[15.45756,47.0864],[15.45681,47.0859],[15.4569,47.08621],[15.45779,47.08727],[15.45564,47.08798],[15.45464,47.08852],[15.45444,47.08973],[15.45169,47.09126],[15.45255,47.0918],[15.45222,47.09234],[15.45129,47.09203],[15.45077,47.09243],[15.45185,47.09282],[15.45155,47.09327],[15.45135,47.0934],[15.45074,47.09319],[15.45011,47.09365],[15.4492,47.09304],[15.44822,47.09429],[15.44771,47.09453],[15.44699,47.0945],[15.44669,47.09472],[15.44634,47.09559],[15.44608,47.09565],[15.44612,47.09667],[15.44466,47.09702],[15.44244,47.09651],[15.44214,47.09668],[15.44128,47.0967]]]}},{"type":"Feature","properties":{"name":"Jakomini","bezirk":"6. Bezirk"},"geometry":{"type":"Polygon","coordinates":[[[15.44615,47.06673],[15.44265,47.06719],[15.44204,47.06697],[15.44211,47.06672],[15.44145,47.06664],[15.43835,47.06635],[15.43496,47.06629],[15.43431,47.06265],[15.43432,47.06097],[15.43622,47.0544],[15.4389,47.05025],[15.44176,47.04655],[15.44228,47.0456],[15.44244,47.04489],[15.44303,47.04478],[15.44318,47.04509],[15.44341,47.04702],[15.44258,47.0484],[15.44413,47.04888],[15.44522,47.04801],[15.44601,47.04777],[15.44643,47.04685],[15.44788,47.04745],[15.44808,47.04743],[15.44829,47.04708],[15.44889,47.04729],[15.44915,47.04709],[15.45102,47.04839],[15.45203,47.04698],[15.45251,47.04702],[15.45241,47.04758],[15.45268,47.04845],[15.45405,47.04867],[15.45421,47.04834],[15.45403,47.04806],[15.45417,47.04737],[15.45597,47.04727],[15.45749,47.04627],[15.46409,47.04905],[15.46162,47.05224],[15.4606,47.05206],[15.46385,47.05347],[15.46322,47.05452],[15.4637,47.05472],[15.46296,47.05572],[15.46367,47.05602],[15.46316,47.05662],[15.46635,47.058],[15.46898,47.05934],[15.46617,47.05964],[15.46432,47.06001],[15.45878,47.06141],[15.45559,47.06363],[15.45465,47.06478],[15.45312,47.06597],[15.45187,47.06601],[15.4502,47.0664],[15.44823,47.06648],[15.44668,47.06627],[15.44607,47.06648],[15.44615,47.06673]]]}},{"type":"Feature","properties":{"name":"Ries","bezirk":"10. Bezirk"},"geometry":{"type":"Polygon","coordinates":[[[15.52968,47.11041],[15.52973,47.11062],[15.52835,47.11067],[15.52809,47.1101],[15.52663,47.10961],[15.52671,47.10953],[15.52501,47.10909],[15.52372,47.10797],[15.52292,47.10758],[15.52204,47.1075],[15.52121,47.10698],[15.51996,47.107],[15.51759,47.10738],[15.51763,47.10684],[15.51725,47.10648],[15.51637,47.10633],[15.51486,47.1065],[15.51504,47.10688],[15.51364,47.1071],[15.51354,47.10691],[15.51199,47.10734],[15.50971,47.10835],[15.50715,47.10624],[15.5061,47.10564],[15.5035,47.1052],[15.50076,47.10399],[15.49858,47.10422],[15.49707,47.1042],[15.49691,47.1041],[15.4984,47.10309],[15.49615,47.1017],[15.49481,47.10057],[15.49408,47.09959],[15.49351,47.09844],[15.49234,47.09795],[15.49018,47.09737],[15.48871,47.09766],[15.48791,47.09803],[15.48716,47.0978],[15.48646,47.09741],[15.48662,47.09745],[15.48711,47.09708],[15.48684,47.09692],[15.48676,47.09616],[15.48613,47.09613],[15.48632,47.09564],[15.4861,47.0954],[15.48547,47.09559],[15.48499,47.09539],[15.48519,47.09515],[15.4848,47.09412],[15.48355,47.09531],[15.4834,47.09598],[15.4827,47.09578],[15.4817,47.09667],[15.48153,47.09584],[15.48132,47.09588],[15.48128,47.09564],[15.48171,47.09546],[15.48143,47.09529],[15.48189,47.09513],[15.48159,47.09484],[15.48148,47.09446],[15.48101,47.0942],[15.48037,47.0948],[15.48018,47.09523],[15.47975,47.09479],[15.47901,47.0944],[15.47974,47.09356],[15.47904,47.09345],[15.47878,47.09388],[15.47826,47.0936],[15.4777,47.09304],[15.47672,47.09292],[15.47585,47.09233],[15.47571,47.09241],[15.47549,47.09227],[15.47402,47.09261],[15.47398,47.09319],[15.47344,47.09329],[15.47287,47.09211],[15.47226,47.09178],[15.47161,47.09174],[15.47125,47.09138],[15.4706,47.0911],[15.46943,47.09],[15.46892,47.08919],[15.4696,47.08864],[15.47069,47.08845],[15.47156,47.08854],[15.4702,47.08729],[15.46969,47.08579],[15.46936,47.0855],[15.46948,47.08508],[15.47008,47.08431],[15.46834,47.08241],[15.46728,47.08086],[15.46756,47.07918],[15.46895,47.07921],[15.47151,47.0787],[15.472,47.07888],[15.4725,47.07934],[15.47263,47.07927],[15.47244,47.07903],[15.47534,47.07859],[15.47509,47.07798],[15.4765,47.07774],[15.47661,47.07758],[15.47657,47.0769],[15.47714,47.07667],[15.47878,47.07698],[15.48063,47.07659],[15.48166,47.0766],[15.48271,47.07625],[15.48348,47.07626],[15.48522,47.07687],[15.48601,47.07669],[15.48869,47.07743],[15.48967,47.07723],[15.49112,47.07654],[15.49235,47.07634],[15.49542,47.07689],[15.49651,47.07663],[15.49828,47.07651],[15.49855,47.07636],[15.49859,47.07615],[15.4995,47.07592],[15.49991,47.07553],[15.50114,47.07524],[15.5022,47.07453],[15.50352,47.07446],[15.50464,47.07387],[15.5052,47.07392],[15.50604,47.07359],[15.50617,47.07399],[15.50672,47.07443],[15.50666,47.0755],[15.50652,47.07573],[15.5066,47.0762],[15.50709,47.07695],[15.50692,47.07715],[15.50708,47.07747],[15.50697,47.07787],[15.50789,47.0784],[15.50814,47.07906],[15.5079,47.07928],[15.50883,47.07945],[15.51076,47.0804],[15.51149,47.08166],[15.51235,47.08221],[15.51266,47.08276],[15.51292,47.08272],[15.51302,47.08371],[15.51256,47.08539],[15.51446,47.08898],[15.51389,47.09003],[15.5139,47.09042],[15.5127,47.09046],[15.51182,47.09118],[15.51676,47.09252],[15.51972,47.09386],[15.52023,47.09421],[15.52068,47.09494],[15.5224,47.09606],[15.52404,47.09668],[15.5266,47.09859],[15.52732,47.09867],[15.52922,47.09815],[15.53109,47.09849],[15.53242,47.099],[15.53369,47.09916],[15.53419,47.09954],[15.53209,47.10175],[15.53183,47.10138],[15.5315,47.10146],[15.53009,47.10334],[15.5279,47.10294],[15.52709,47.10307],[15.52569,47.103],[15.52586,47.10346],[15.52656,47.10369],[15.52714,47.10419],[15.52772,47.10518],[15.52717,47.10549],[15.52724,47.10562],[15.5302,47.10688],[15.53003,47.10727],[15.5307,47.10741],[15.53024,47.10992],[15.53077,47.1104],[15.52968,47.11041]]]}},{"type":"Feature","properties":{"name":"Andritz","bezirk":"12. Bezirk"},"geometry":{"type":"Polygon","coordinates":[[[15.40183,47.13435],[15.40084,47.1345],[15.4,47.13392],[15.39889,47.13374],[15.39837,47.13334],[15.39807,47.13252],[15.39753,47.13237],[15.39784,47.13185],[15.39827,47.1303],[15.3989,47.12889],[15.39933,47.12831],[15.39927,47.12733],[15.39994,47.12602],[15.39985,47.12567],[15.39966,47.12532],[15.39937,47.1252],[15.39824,47.12521],[15.39764,47.12493],[15.39774,47.12458],[15.39758,47.12381],[15.39634,47.12273],[15.39699,47.12198],[15.39709,47.12147],[15.39659,47.1199],[15.39566,47.11893],[15.39496,47.11876],[15.39468,47.11733],[15.39358,47.11514],[15.39163,47.1129],[15.39019,47.11286],[15.38875,47.11313],[15.38643,47.11312],[15.38635,47.11344],[15.38498,47.11317],[15.38451,47.11331],[15.38253,47.11304],[15.3818,47.1128],[15.38123,47.11286],[15.38066,47.11244],[15.3793,47.11268],[15.37891,47.11219],[15.37562,47.11664],[15.37483,47.11848],[15.37466,47.11934],[15.3742,47.12006],[15.37377,47.12043],[15.37313,47.11984],[15.37308,47.11932],[15.3727,47.11866],[15.37403,47.11854],[15.37445,47.11799],[15.37622,47.11345],[15.37735,47.112],[15.37824,47.11136],[15.38161,47.10976],[15.38459,47.10766],[15.38632,47.10726],[15.38781,47.1073],[15.38965,47.10787],[15.39575,47.10828],[15.39884,47.10766],[15.40017,47.10695],[15.40388,47.1045],[15.40678,47.10297],[15.41203,47.09957],[15.41607,47.09641],[15.4184,47.0938],[15.42013,47.09483],[15.42148,47.09528],[15.42189,47.09524],[15.4223,47.09498],[15.42307,47.09508],[15.42348,47.09566],[15.42476,47.09526],[15.42574,47.09598],[15.42665,47.09596],[15.42686,47.09627],[15.42839,47.09558],[15.43032,47.09537],[15.43204,47.09481],[15.43278,47.09496],[15.4328,47.09441],[15.43324,47.0942],[15.43361,47.09427],[15.43348,47.09446],[15.43541,47.09546],[15.43701,47.09674],[15.43731,47.09717],[15.43698,47.09723],[15.43695,47.09784],[15.43717,47.09803],[15.43899,47.09733],[15.43929,47.09686],[15.44202,47.0967],[15.44241,47.09651],[15.44466,47.09702],[15.44599,47.0967],[15.44657,47.09751],[15.4485,47.09915],[15.44844,47.09986],[15.44812,47.10057],[15.44846,47.1012],[15.44939,47.10188],[15.45101,47.10223],[15.45659,47.10483],[15.45691,47.10505],[15.45738,47.10578],[15.45819,47.10756],[15.4588,47.10784],[15.45927,47.10833],[15.46195,47.10949],[15.4632,47.10926],[15.46423,47.1094],[15.46486,47.1091],[15.46706,47.11041],[15.46695,47.11124],[15.46829,47.11163],[15.46805,47.11247],[15.4677,47.11298],[15.46843,47.11411],[15.46915,47.11469],[15.46927,47.11577],[15.46974,47.1157],[15.46967,47.11717],[15.46932,47.11817],[15.46939,47.11863],[15.46922,47.11922],[15.46936,47.11963],[15.47036,47.12028],[15.47312,47.12076],[15.47307,47.12209],[15.4734,47.12315],[15.47371,47.12358],[15.47452,47.12404],[15.47598,47.12438],[15.47634,47.12474],[15.47767,47.12516],[15.47807,47.12551],[15.4784,47.12637],[15.47816,47.12671],[15.47427,47.12759],[15.47256,47.12764],[15.47045,47.12734],[15.46924,47.12746],[15.46632,47.12899],[15.46518,47.12943],[15.4654,47.12984],[15.46536,47.13065],[15.46576,47.13114],[15.46549,47.13127],[15.46446,47.13118],[15.46386,47.13094],[15.46137,47.13099],[15.46029,47.13068],[15.45646,47.13033],[15.45493,47.12985],[15.45375,47.12905],[15.45271,47.12861],[15.45238,47.12816],[15.45175,47.12833],[15.45058,47.128],[15.45003,47.12754],[15.44965,47.12758],[15.44815,47.1268],[15.44764,47.12694],[15.44725,47.12663],[15.4463,47.12688],[15.44561,47.12654],[15.44363,47.12693],[15.44327,47.12665],[15.44071,47.12739],[15.43969,47.12749],[15.43786,47.12816],[15.4374,47.12768],[15.43649,47.12775],[15.4356,47.12751],[15.43521,47.12718],[15.43518,47.12671],[15.43467,47.12639],[15.43371,47.12654],[15.4318,47.1265],[15.43005,47.12685],[15.42864,47.12609],[15.42764,47.12614],[15.42736,47.12573],[15.42713,47.12569],[15.42494,47.1262],[15.42498,47.12774],[15.42271,47.12843],[15.42225,47.12803],[15.41999,47.12764],[15.41884,47.12705],[15.41663,47.12667],[15.41391,47.12855],[15.41244,47.12983],[15.4129,47.13019],[15.41334,47.13107],[15.41344,47.13156],[15.41316,47.1322],[15.41231,47.13196],[15.41116,47.13279],[15.41069,47.13237],[15.41002,47.13274],[15.4094,47.13242],[15.40877,47.13329],[15.40836,47.13353],[15.40706,47.13364],[15.40523,47.13351],[15.40288,47.13433],[15.40183,47.13435]]]}},{"type":"Feature","properties":{"name":"Wetzelsdorf","bezirk":"15. Bezirk"},"geometry":{"type":"Polygon","coordinates":[[[15.38284,47.06102],[15.38187,47.06113],[15.37957,47.06095],[15.37667,47.05951],[15.37529,47.05845],[15.37397,47.05546],[15.37055,47.05344],[15.36908,47.0522],[15.36796,47.05071],[15.36735,47.05037],[15.36595,47.05],[15.36503,47.05043],[15.36004,47.05145],[15.36169,47.05024],[15.36148,47.04976],[15.36163,47.04854],[15.36149,47.04764],[15.36295,47.04604],[15.36384,47.04477],[15.36478,47.04248],[15.36592,47.04149],[15.36786,47.04037],[15.36777,47.0411],[15.3679,47.04187],[15.36807,47.04212],[15.3687,47.0423],[15.36905,47.04266],[15.36879,47.04313],[15.36889,47.0443],[15.37107,47.0447],[15.37267,47.04534],[15.37328,47.0459],[15.3738,47.04612],[15.37487,47.04716],[15.37586,47.04774],[15.37595,47.04798],[15.37713,47.0484],[15.37745,47.04889],[15.37736,47.05027],[15.37751,47.05071],[15.38099,47.05055],[15.38103,47.05025],[15.38173,47.04974],[15.38157,47.04898],[15.38165,47.04835],[15.38224,47.04719],[15.38098,47.04582],[15.38158,47.04528],[15.38153,47.04472],[15.38279,47.04438],[15.3864,47.04409],[15.38647,47.04455],[15.39099,47.04399],[15.39525,47.04406],[15.39556,47.04348],[15.40313,47.04415],[15.40296,47.04488],[15.40749,47.04611],[15.41512,47.04672],[15.41675,47.05516],[15.41622,47.0559],[15.41556,47.05577],[15.41548,47.05715],[15.41437,47.0592],[15.41046,47.05882],[15.40759,47.05884],[15.40362,47.05947],[15.3958,47.05995],[15.38997,47.05938],[15.38738,47.05995],[15.38669,47.05955],[15.38592,47.05974],[15.38479,47.06062],[15.38284,47.06102]]]}},{"type":"Feature","properties":{"name":"Puntigam","bezirk":"17. Bezirk"},"geometry":{"type":"Polygon","coordinates":[[[15.43308,47.04592],[15.42958,47.04551],[15.42953,47.04453],[15.42907,47.0435],[15.42198,47.04247],[15.42638,47.03531],[15.42049,47.03443],[15.42029,47.03134],[15.42066,47.03119],[15.42033,47.03002],[15.4191,47.03013],[15.41899,47.02878],[15.42056,47.02836],[15.42058,47.02763],[15.41862,47.02749],[15.41878,47.02607],[15.41519,47.02551],[15.41561,47.02505],[15.41575,47.02417],[15.41508,47.02291],[15.41485,47.02069],[15.41446,47.02043],[15.41447,47.01795],[15.41507,47.01761],[15.41574,47.01751],[15.42013,47.01771],[15.42004,47.01802],[15.43086,47.01964],[15.43386,47.02029],[15.43442,47.02028],[15.43745,47.02102],[15.43912,47.0183],[15.43928,47.01784],[15.4391,47.01728],[15.43997,47.01709],[15.44077,47.01585],[15.44219,47.01634],[15.44276,47.01531],[15.44761,47.01649],[15.44715,47.01736],[15.44656,47.0177],[15.44687,47.01825],[15.44767,47.01814],[15.44869,47.01859],[15.45052,47.01731],[15.45312,47.01926],[15.45306,47.01958],[15.45421,47.02052],[15.4553,47.02134],[15.45578,47.02151],[15.45169,47.02964],[15.45094,47.03153],[15.44888,47.03362],[15.44362,47.03803],[15.44314,47.03871],[15.44276,47.03994],[15.44267,47.04118],[15.43852,47.04035],[15.43806,47.04148],[15.43559,47.0418],[15.43459,47.04148],[15.43332,47.04148],[15.43308,47.04592]]]}},{"type":"Feature","properties":{"name":"Gösting","bezirk":"13. Bezirk"},"geometry":{"type":"Polygon","coordinates":[[[15.37113,47.11865],[15.36627,47.11883],[15.35921,47.11949],[15.35918,47.11743],[15.35962,47.11585],[15.36002,47.11581],[15.3611,47.11531],[15.36257,47.11406],[15.36345,47.11095],[15.36333,47.10975],[15.3619,47.10965],[15.35896,47.10889],[15.3576,47.10822],[15.35679,47.10821],[15.35571,47.10773],[15.35463,47.10789],[15.35408,47.10774],[15.35343,47.10716],[15.35219,47.10755],[15.35154,47.1074],[15.35056,47.10671],[15.34987,47.10659],[15.35026,47.10601],[15.34971,47.10475],[15.34972,47.10447],[15.35015,47.10396],[15.35242,47.10222],[15.35082,47.1012],[15.35159,47.10094],[15.35321,47.10077],[15.35437,47.10147],[15.35571,47.10165],[15.35816,47.10245],[15.35937,47.10165],[15.36024,47.10146],[15.3602,47.10102],[15.3604,47.10051],[15.36074,47.10028],[15.36169,47.09989],[15.36291,47.09994],[15.36376,47.09928],[15.36409,47.09854],[15.36403,47.09809],[15.36445,47.09757],[15.36466,47.09687],[15.36554,47.09554],[15.36616,47.09495],[15.366,47.09425],[15.36492,47.09295],[15.36494,47.09272],[15.36454,47.09213],[15.36578,47.09016],[15.36583,47.08927],[15.36628,47.0883],[15.3666,47.08802],[15.36833,47.08834],[15.37189,47.08729],[15.37219,47.08744],[15.37288,47.08728],[15.37239,47.08689],[15.37173,47.08583],[15.37091,47.08563],[15.37086,47.08499],[15.36899,47.08387],[15.36842,47.083],[15.36828,47.08236],[15.36787,47.08196],[15.36782,47.08138],[15.36725,47.08106],[15.36686,47.08048],[15.37006,47.07918],[15.37142,47.07811],[15.37402,47.0792],[15.37512,47.07982],[15.37631,47.08102],[15.37664,47.0814],[15.37657,47.08161],[15.37685,47.08237],[15.37819,47.08316],[15.38006,47.08376],[15.38065,47.08421],[15.38138,47.08442],[15.38232,47.08499],[15.38376,47.08686],[15.38512,47.08802],[15.38534,47.08859],[15.38995,47.08857],[15.3917,47.08836],[15.39169,47.0887],[15.39394,47.08804],[15.39515,47.0874],[15.39701,47.0875],[15.39764,47.08726],[15.39817,47.08673],[15.40067,47.0865],[15.40129,47.08668],[15.40276,47.08656],[15.40259,47.08683],[15.4083,47.08889],[15.40934,47.08838],[15.41012,47.08771],[15.41092,47.08755],[15.41188,47.08692],[15.41239,47.08708],[15.41251,47.08729],[15.40907,47.09034],[15.40934,47.09048],[15.40963,47.09109],[15.40988,47.09106],[15.41034,47.09052],[15.41052,47.09062],[15.41134,47.08989],[15.41166,47.09006],[15.41233,47.08946],[15.41305,47.08982],[15.41562,47.09043],[15.41597,47.09007],[15.41679,47.0927],[15.4166,47.09343],[15.41724,47.0936],[15.41794,47.09345],[15.4184,47.0938],[15.41607,47.09641],[15.41203,47.09957],[15.40678,47.10297],[15.40388,47.1045],[15.40017,47.10695],[15.39884,47.10766],[15.39575,47.10828],[15.38965,47.10787],[15.38781,47.1073],[15.38632,47.10726],[15.38459,47.10766],[15.38161,47.10976],[15.37824,47.11136],[15.37735,47.112],[15.37622,47.11345],[15.37445,47.11799],[15.37403,47.11854],[15.37113,47.11865]]]}},{"type":"Feature","properties":{"name":"Mariatrost","bezirk":"11. Bezirk"},"geometry":{"type":"Polygon","coordinates":[[[15.48447,47.12888],[15.48291,47.12942],[15.48258,47.1291],[15.48063,47.1288],[15.47939,47.12775],[15.48045,47.12642],[15.4784,47.12637],[15.47807,47.12551],[15.47767,47.12516],[15.47634,47.12474],[15.47598,47.12438],[15.47401,47.12381],[15.47351,47.12336],[15.47307,47.12209],[15.47312,47.12076],[15.47036,47.12028],[15.46936,47.11963],[15.46922,47.11922],[15.46939,47.11863],[15.46932,47.11817],[15.46967,47.11717],[15.46974,47.1157],[15.46927,47.11577],[15.46915,47.11469],[15.46843,47.11411],[15.4677,47.11298],[15.46805,47.11247],[15.46829,47.11163],[15.46695,47.11124],[15.46706,47.11041],[15.46486,47.1091],[15.46423,47.1094],[15.4632,47.10926],[15.46195,47.10949],[15.45927,47.10833],[15.4588,47.10784],[15.45819,47.10756],[15.45738,47.10578],[15.45691,47.10505],[15.45659,47.10483],[15.45101,47.10223],[15.44939,47.10188],[15.44846,47.1012],[15.44812,47.10057],[15.44844,47.09986],[15.4485,47.09915],[15.44657,47.09751],[15.44599,47.0967],[15.44612,47.09667],[15.44608,47.09565],[15.44634,47.09559],[15.44686,47.09457],[15.44771,47.09453],[15.44822,47.09429],[15.4492,47.09304],[15.45011,47.09365],[15.45074,47.09319],[15.45135,47.0934],[15.45155,47.09327],[15.45185,47.09282],[15.45077,47.09243],[15.45129,47.09203],[15.45222,47.09234],[15.45255,47.0918],[15.45169,47.09126],[15.45444,47.08973],[15.45464,47.08852],[15.45564,47.08798],[15.45779,47.08727],[15.4569,47.08621],[15.45681,47.0859],[15.45756,47.0864],[15.45804,47.08641],[15.4586,47.08618],[15.45996,47.08643],[15.45994,47.08672],[15.46228,47.0864],[15.46151,47.08538],[15.46124,47.08466],[15.46186,47.08418],[15.46199,47.08355],[15.46059,47.08356],[15.45956,47.08218],[15.45977,47.08174],[15.46031,47.08129],[15.4603,47.08052],[15.46153,47.08083],[15.46246,47.08194],[15.46413,47.08257],[15.4647,47.08329],[15.46463,47.084],[15.4648,47.0847],[15.46574,47.08605],[15.46814,47.08837],[15.46892,47.08919],[15.46943,47.09],[15.4706,47.0911],[15.47125,47.09138],[15.47161,47.09174],[15.47226,47.09178],[15.47287,47.09211],[15.47344,47.09329],[15.47398,47.09319],[15.47402,47.09261],[15.47549,47.09227],[15.47571,47.09241],[15.47585,47.09233],[15.47672,47.09292],[15.4777,47.09304],[15.47826,47.0936],[15.47878,47.09388],[15.47904,47.09345],[15.47974,47.09356],[15.47901,47.0944],[15.47975,47.09479],[15.48018,47.09523],[15.48037,47.0948],[15.48101,47.0942],[15.48148,47.09446],[15.48159,47.09484],[15.48189,47.09513],[15.48143,47.09529],[15.48171,47.09546],[15.48128,47.09564],[15.48132,47.09588],[15.48153,47.09584],[15.4817,47.09667],[15.4827,47.09578],[15.4834,47.09598],[15.48355,47.09531],[15.4848,47.09412],[15.48519,47.09515],[15.48499,47.09539],[15.48547,47.09559],[15.4861,47.0954],[15.48632,47.09564],[15.48613,47.09613],[15.48676,47.09616],[15.48684,47.09692],[15.48711,47.09708],[15.48662,47.09745],[15.48646,47.09741],[15.48716,47.0978],[15.48791,47.09803],[15.48871,47.09766],[15.49018,47.09737],[15.49234,47.09795],[15.49351,47.09844],[15.49408,47.09959],[15.49481,47.10057],[15.49615,47.1017],[15.4984,47.10309],[15.49691,47.1041],[15.49707,47.1042],[15.49858,47.10422],[15.50076,47.10399],[15.5035,47.1052],[15.5061,47.10564],[15.50715,47.10624],[15.50971,47.10835],[15.51016,47.10807],[15.51043,47.10881],[15.51032,47.10885],[15.51117,47.10937],[15.51207,47.1103],[15.51279,47.11074],[15.51329,47.11135],[15.51459,47.11417],[15.51493,47.11575],[15.51573,47.11689],[15.52026,47.11909],[15.5212,47.12014],[15.52052,47.12038],[15.52029,47.12083],[15.5206,47.12225],[15.51983,47.12328],[15.51954,47.12406],[15.51862,47.12489],[15.51735,47.12562],[15.51704,47.12621],[15.51745,47.12646],[15.51616,47.12773],[15.51571,47.12753],[15.5151,47.12841],[15.51459,47.12798],[15.51382,47.12854],[15.5126,47.12851],[15.51175,47.12902],[15.51098,47.12926],[15.50971,47.12796],[15.50906,47.12778],[15.50794,47.12783],[15.50726,47.12736],[15.50688,47.12749],[15.50368,47.12745],[15.50293,47.12759],[15.50095,47.12754],[15.49944,47.12731],[15.49659,47.12524],[15.49619,47.12466],[15.49482,47.12395],[15.49504,47.1244],[15.49482,47.1249],[15.4935,47.12584],[15.49404,47.12667],[15.49389,47.12684],[15.49353,47.12693],[15.49247,47.12675],[15.49193,47.12692],[15.49111,47.12768],[15.48952,47.12833],[15.48851,47.1284],[15.48822,47.12824],[15.48684,47.1282],[15.48447,47.12888]]]}},{"type":"Feature","properties":{"name":"Gries","bezirk":"5. Bezirk"},"geometry":{"type":"Polygon","coordinates":[[[15.42041,47.07135],[15.40927,47.06996],[15.40964,47.0688],[15.41074,47.06665],[15.41086,47.06649],[15.41108,47.06659],[15.41115,47.06649],[15.41298,47.06172],[15.41548,47.05715],[15.41556,47.05577],[15.41622,47.0559],[15.41668,47.05518],[15.41672,47.05533],[15.41698,47.05461],[15.41924,47.05069],[15.42195,47.0466],[15.42172,47.04657],[15.42199,47.04574],[15.42081,47.04551],[15.42257,47.04256],[15.42907,47.0435],[15.42953,47.04453],[15.42958,47.04551],[15.43308,47.04596],[15.43332,47.04148],[15.43459,47.04148],[15.43559,47.0418],[15.43806,47.04148],[15.43852,47.04035],[15.44267,47.04118],[15.44259,47.04403],[15.44228,47.0456],[15.44176,47.04655],[15.4389,47.05025],[15.43622,47.0544],[15.43432,47.06097],[15.43425,47.0622],[15.43506,47.06764],[15.43509,47.07085],[15.4334,47.07079],[15.43177,47.0711],[15.43064,47.07083],[15.42041,47.07135]]]}},{"type":"Feature","properties":{"name":"Liebenau","bezirk":"7. Bezirk"},"geometry":{"type":"Polygon","coordinates":[[[15.44639,47.0469],[15.44601,47.04777],[15.44522,47.04801],[15.44413,47.04888],[15.44258,47.0484],[15.44341,47.04702],[15.44318,47.04509],[15.44303,47.04478],[15.44244,47.04489],[15.44276,47.03994],[15.44314,47.03871],[15.44362,47.03803],[15.44888,47.03362],[15.45094,47.03153],[15.45169,47.02964],[15.45369,47.02589],[15.45564,47.02174],[15.45983,47.01419],[15.4608,47.01189],[15.46396,47.01239],[15.46577,47.0129],[15.4673,47.01288],[15.46783,47.01325],[15.46787,47.01371],[15.46872,47.01322],[15.46927,47.01422],[15.46972,47.01398],[15.47371,47.01522],[15.47408,47.01474],[15.47815,47.0162],[15.48864,47.02068],[15.48825,47.02103],[15.4884,47.02109],[15.48821,47.02127],[15.48851,47.0214],[15.48806,47.0218],[15.48848,47.02198],[15.48824,47.02218],[15.48845,47.02227],[15.48819,47.02249],[15.48556,47.02146],[15.4849,47.02225],[15.48414,47.02261],[15.48241,47.0245],[15.48656,47.02615],[15.48484,47.02932],[15.48516,47.02941],[15.48475,47.03024],[15.48539,47.03052],[15.48385,47.0315],[15.48066,47.03177],[15.47926,47.03249],[15.47797,47.03357],[15.47779,47.03461],[15.47742,47.03535],[15.47696,47.03578],[15.47601,47.03641],[15.47417,47.03689],[15.47343,47.03748],[15.47276,47.03777],[15.47198,47.03851],[15.47008,47.03989],[15.46922,47.04116],[15.46803,47.04237],[15.46821,47.04321],[15.46951,47.04495],[15.46992,47.04582],[15.46989,47.04653],[15.47011,47.04719],[15.46975,47.04709],[15.46949,47.04641],[15.46867,47.04539],[15.46744,47.04621],[15.46643,47.04655],[15.46329,47.04684],[15.46302,47.04711],[15.46286,47.04793],[15.46256,47.04836],[15.45749,47.04627],[15.45597,47.04727],[15.45417,47.04737],[15.45403,47.04806],[15.45421,47.04834],[15.45405,47.04867],[15.45268,47.04845],[15.45241,47.04758],[15.45251,47.04702],[15.45203,47.04698],[15.45102,47.04839],[15.44915,47.04709],[15.44889,47.04729],[15.44829,47.04708],[15.44808,47.04743],[15.44788,47.04745],[15.44639,47.0469]]]}},{"type":"Feature","properties":{"name":"St. Leonhard","bezirk":"2. Bezirk"},"geometry":{"type":"Polygon","coordinates":[[[15.47448,47.07873],[15.47244,47.07903],[15.47263,47.07927],[15.4725,47.07934],[15.472,47.07888],[15.47151,47.0787],[15.46895,47.07921],[15.46416,47.07886],[15.46377,47.07839],[15.44703,47.07372],[15.44795,47.07051],[15.44735,47.06968],[15.4457,47.06807],[15.44384,47.06763],[15.4437,47.06706],[15.44615,47.06673],[15.44607,47.06648],[15.44668,47.06627],[15.44823,47.06648],[15.4502,47.0664],[15.45187,47.06601],[15.45312,47.06597],[15.45465,47.06478],[15.45559,47.06363],[15.45878,47.06141],[15.46562,47.05975],[15.46746,47.06068],[15.46757,47.06148],[15.46578,47.06339],[15.46489,47.06495],[15.46441,47.06498],[15.46382,47.06544],[15.46148,47.06462],[15.4603,47.06606],[15.46133,47.06617],[15.46254,47.06676],[15.46173,47.06756],[15.46292,47.06811],[15.4612,47.06995],[15.46093,47.06986],[15.46045,47.07085],[15.4604,47.07096],[15.46206,47.07121],[15.46167,47.072],[15.4605,47.07197],[15.45983,47.0735],[15.45989,47.07466],[15.46061,47.075],[15.46296,47.07514],[15.46505,47.07627],[15.46742,47.07646],[15.46785,47.07674],[15.46812,47.0774],[15.46848,47.07763],[15.47067,47.07753],[15.47196,47.077],[15.47279,47.07703],[15.47411,47.07798],[15.47509,47.07798],[15.47534,47.07859],[15.47448,47.07873]]]}},{"type":"Feature","properties":{"name":"Innere Stadt","bezirk":"1. Bezirk"},"geometry":{"type":"Polygon","coordinates":[[[15.43992,47.07864],[15.43922,47.07917],[15.43684,47.07891],[15.43579,47.07854],[15.43472,47.07776],[15.43297,47.07731],[15.43429,47.07454],[15.43509,47.07085],[15.43496,47.06629],[15.43866,47.06637],[15.44211,47.06672],[15.44204,47.06697],[15.44265,47.06719],[15.4437,47.06706],[15.44384,47.06763],[15.4457,47.06807],[15.44735,47.06968],[15.44795,47.07051],[15.44687,47.07426],[15.44355,47.07797],[15.43992,47.07864]]]}},{"type":"Feature","properties":{"name":"Waltendorf","bezirk":"9. Bezirk"},"geometry":{"type":"Polygon","coordinates":[[[15.47575,47.07779],[15.47434,47.07806],[15.47295,47.07709],[15.47239,47.07696],[15.47184,47.07704],[15.47067,47.07753],[15.46848,47.07763],[15.46812,47.0774],[15.46785,47.07674],[15.46742,47.07646],[15.46505,47.07627],[15.46296,47.07514],[15.46061,47.075],[15.46006,47.07484],[15.45989,47.07466],[15.45983,47.07352],[15.4605,47.07197],[15.46167,47.072],[15.46206,47.07121],[15.4604,47.07096],[15.46093,47.06986],[15.4612,47.06995],[15.46292,47.06811],[15.46173,47.06756],[15.46254,47.06676],[15.46133,47.06617],[15.4603,47.06606],[15.46148,47.06462],[15.46382,47.06544],[15.46441,47.06498],[15.46489,47.06495],[15.46547,47.06382],[15.46668,47.0623],[15.46865,47.06072],[15.46916,47.0606],[15.46964,47.06077],[15.47183,47.06188],[15.47463,47.05986],[15.47773,47.06167],[15.4775,47.06198],[15.47739,47.06268],[15.47808,47.06379],[15.47878,47.06401],[15.48094,47.06396],[15.48111,47.06468],[15.48157,47.06554],[15.48072,47.06627],[15.48429,47.0679],[15.48625,47.06936],[15.48695,47.06958],[15.49114,47.06996],[15.4912,47.06955],[15.49179,47.06904],[15.49214,47.06809],[15.49227,47.06715],[15.49313,47.06538],[15.49541,47.06602],[15.49524,47.06649],[15.49606,47.06699],[15.49697,47.06815],[15.49789,47.06814],[15.49867,47.06755],[15.49914,47.06691],[15.49897,47.06624],[15.49943,47.06618],[15.4994,47.06483],[15.49926,47.0645],[15.49973,47.06446],[15.50156,47.06485],[15.50151,47.06466],[15.50194,47.0643],[15.50219,47.06366],[15.50347,47.06378],[15.50472,47.06359],[15.50514,47.06443],[15.50506,47.06609],[15.50526,47.06653],[15.50569,47.06679],[15.50757,47.06725],[15.50779,47.06752],[15.50863,47.06767],[15.50838,47.06942],[15.50817,47.06991],[15.50927,47.07113],[15.50894,47.07258],[15.50928,47.07341],[15.50765,47.07335],[15.50759,47.0741],[15.5072,47.07433],[15.50636,47.07415],[15.50604,47.07359],[15.5052,47.07392],[15.50464,47.07387],[15.50362,47.07444],[15.5022,47.07453],[15.50114,47.07524],[15.49991,47.07553],[15.4995,47.07592],[15.49859,47.07615],[15.49855,47.07636],[15.49828,47.07651],[15.49651,47.07663],[15.49558,47.07688],[15.49482,47.07687],[15.49437,47.07667],[15.49235,47.07634],[15.49112,47.07654],[15.48967,47.07723],[15.48832,47.07741],[15.48601,47.07669],[15.48529,47.07689],[15.48408,47.0764],[15.48296,47.07623],[15.48166,47.0766],[15.48063,47.07659],[15.47903,47.07697],[15.47714,47.07667],[15.47657,47.0769],[15.47661,47.07758],[15.4765,47.07774],[15.47575,47.07779]]]}},{"type":"Feature","properties":{"name":"Straßgang","bezirk":"16. Bezirk"},"geometry":{"type":"Polygon","coordinates":[[[15.42103,47.048],[15.41924,47.05069],[15.41675,47.05516],[15.41512,47.04672],[15.40749,47.04611],[15.40296,47.04488],[15.40313,47.04415],[15.40089,47.04389],[15.39556,47.04348],[15.39525,47.04406],[15.39099,47.04399],[15.38647,47.04455],[15.3864,47.04409],[15.38242,47.04443],[15.38153,47.04472],[15.38158,47.04528],[15.38098,47.04582],[15.38224,47.04719],[15.38165,47.04835],[15.38157,47.04898],[15.38173,47.04974],[15.38103,47.05025],[15.38099,47.05055],[15.37751,47.05071],[15.37736,47.05027],[15.37745,47.04889],[15.37713,47.0484],[15.37595,47.04798],[15.37586,47.04774],[15.37487,47.04716],[15.3738,47.04612],[15.37328,47.0459],[15.37267,47.04534],[15.37107,47.0447],[15.36889,47.0443],[15.36879,47.04313],[15.36905,47.04266],[15.3687,47.0423],[15.36807,47.04212],[15.3679,47.04187],[15.36777,47.0411],[15.36794,47.04005],[15.36759,47.03878],[15.36744,47.03713],[15.36714,47.03583],[15.36772,47.03428],[15.36881,47.03277],[15.36889,47.03204],[15.36853,47.03126],[15.36903,47.03006],[15.36892,47.02936],[15.36922,47.02794],[15.36959,47.0275],[15.36957,47.02725],[15.37047,47.02644],[15.37136,47.02528],[15.37225,47.02491],[15.37296,47.02491],[15.37293,47.02312],[15.37654,47.02293],[15.37849,47.0225],[15.37917,47.02187],[15.38002,47.02151],[15.38267,47.02095],[15.38328,47.02098],[15.38324,47.02066],[15.38543,47.01993],[15.38687,47.01974],[15.38821,47.01978],[15.38961,47.02031],[15.39072,47.01896],[15.39251,47.01749],[15.39431,47.01725],[15.39535,47.01648],[15.39571,47.01639],[15.3961,47.01655],[15.39712,47.01632],[15.3987,47.01624],[15.40511,47.01641],[15.41328,47.01718],[15.41325,47.01739],[15.41471,47.01732],[15.4147,47.01751],[15.41526,47.01752],[15.41447,47.01795],[15.41446,47.02043],[15.41485,47.02069],[15.41508,47.02291],[15.41575,47.02417],[15.41561,47.02505],[15.41519,47.02551],[15.41878,47.02607],[15.41862,47.02749],[15.42058,47.02763],[15.42056,47.02836],[15.41899,47.02878],[15.4191,47.03013],[15.42033,47.03002],[15.42066,47.03119],[15.42029,47.03134],[15.42049,47.03443],[15.42638,47.03531],[15.42203,47.04235],[15.42198,47.04247],[15.42257,47.04256],[15.42081,47.04551],[15.42199,47.04574],[15.42172,47.04657],[15.42195,47.0466],[15.42103,47.048]]]}},{"type":"Feature","properties":{"name":"Eggenberg","bezirk":"14. Bezirk"},"geometry":{"type":"Polygon","coordinates":[[[15.41121,47.08683],[15.41171,47.08704],[15.41092,47.08755],[15.41012,47.08771],[15.40934,47.08838],[15.4083,47.08889],[15.40259,47.08683],[15.40276,47.08656],[15.40129,47.08668],[15.40067,47.0865],[15.39817,47.08673],[15.39764,47.08726],[15.39701,47.0875],[15.39515,47.0874],[15.39394,47.08804],[15.39169,47.0887],[15.3917,47.08836],[15.38995,47.08857],[15.38534,47.08859],[15.38512,47.08802],[15.38376,47.08686],[15.38232,47.08499],[15.38138,47.08442],[15.38065,47.08421],[15.38006,47.08376],[15.37758,47.08284],[15.37685,47.08237],[15.37657,47.08161],[15.37664,47.0814],[15.37512,47.07982],[15.37402,47.0792],[15.37142,47.07811],[15.37218,47.07789],[15.37325,47.07812],[15.37486,47.0782],[15.37698,47.07869],[15.37652,47.07818],[15.37758,47.07703],[15.37751,47.07682],[15.37788,47.07682],[15.37801,47.0765],[15.37981,47.07487],[15.37996,47.07443],[15.3799,47.07386],[15.37967,47.07317],[15.37934,47.0729],[15.37978,47.0721],[15.38043,47.07148],[15.37998,47.0699],[15.37679,47.07053],[15.37483,47.07069],[15.37433,47.06887],[15.37445,47.06837],[15.37535,47.06723],[15.37537,47.0667],[15.37577,47.06631],[15.37584,47.066],[15.37652,47.06569],[15.36965,47.06078],[15.37015,47.06017],[15.37017,47.05947],[15.37052,47.05879],[15.37042,47.05836],[15.37026,47.05834],[15.37035,47.05766],[15.36999,47.0573],[15.36953,47.0556],[15.36944,47.05434],[15.36863,47.05242],[15.36844,47.0513],[15.3695,47.05263],[15.37087,47.05368],[15.37405,47.05554],[15.37541,47.05861],[15.37722,47.05984],[15.3782,47.06021],[15.37919,47.06082],[15.37998,47.06102],[15.38324,47.06104],[15.38499,47.06054],[15.38592,47.05974],[15.38669,47.05955],[15.38738,47.05995],[15.38997,47.05938],[15.3958,47.05995],[15.40362,47.05947],[15.40759,47.05884],[15.41046,47.05882],[15.41437,47.0592],[15.41298,47.06172],[15.41115,47.06649],[15.41079,47.06656],[15.40957,47.06895],[15.40928,47.07014],[15.40738,47.07533],[15.40589,47.08058],[15.40456,47.08242],[15.40349,47.08354],[15.40341,47.08386],[15.40488,47.084],[15.40462,47.08461],[15.40597,47.08488],[15.40553,47.08512],[15.40756,47.08561],[15.41121,47.08683]]]}}]}