{"type":"FeatureCollection","features":[{"type":"Feature","properties":{"name":"Nijmegen-Centrum","bezirk":"Nijmegen"},"geometry":{"type":"MultiPolygon","coordinates":[[[[5.86119,51.85149],[5.86424,51.85131],[5.87029,51.85138],[5.87135,51.85157],[5.87381,51.84691],[5.87471,51.84613],[5.8747,51.8455],[5.87429,51.84502],[5.87263,51.84444],[5.87283,51.8443],[5.87276,51.84412],[5.87183,51.84355],[5.87127,51.84358],[5.87116,51.84333],[5.87034,51.84351],[5.86987,51.84334],[5.87056,51.84319],[5.87041,51.84243],[5.86967,51.84239],[5.86944,51.84225],[5.86936,51.84184],[5.86915,51.8418],[5.86885,51.84205],[5.86847,51.84195],[5.86867,51.84163],[5.86769,51.84146],[5.86796,51.8411],[5.86598,51.84065],[5.86561,51.84126],[5.8653,51.84118],[5.86543,51.84098],[5.86515,51.84092],[5.86523,51.84079],[5.86447,51.84061],[5.86443,51.84102],[5.86322,51.84095],[5.86243,51.84058],[5.8622,51.84068],[5.86195,51.84044],[5.8615,51.84062],[5.86217,51.84106],[5.86112,51.84161],[5.86046,51.84113],[5.86017,51.8416],[5.85963,51.84143],[5.8598,51.84131],[5.85938,51.84095],[5.85958,51.84067],[5.85907,51.8406],[5.85854,51.84069],[5.85864,51.84086],[5.85835,51.84091],[5.8586,51.84104],[5.8585,51.84123],[5.85867,51.84156],[5.85835,51.84182],[5.8576,51.8414],[5.85715,51.84158],[5.8573,51.84197],[5.85464,51.84222],[5.85435,51.84193],[5.85375,51.84215],[5.85331,51.84184],[5.85311,51.84187],[5.85236,51.84038],[5.85119,51.83898],[5.85114,51.84105],[5.85673,51.85213],[5.86119,51.85149]]]]}},{"type":"Feature","properties":{"name":"Nijmegen-Oost","bezirk":"Nijmegen"},"geometry":{"type":"MultiPolygon","coordinates":[[[[5.88612,51.85868],[5.88732,51.85901],[5.88756,51.85626],[5.88741,51.85454],[5.88678,51.8533],[5.88616,51.85323],[5.88574,51.8526],[5.8857,51.85239],[5.88597,51.85194],[5.88575,51.85144],[5.88593,51.85082],[5.88462,51.85017],[5.88536,51.85034],[5.88739,51.84972],[5.88704,51.84951],[5.88549,51.84766],[5.88285,51.84606],[5.88129,51.8456],[5.88086,51.84531],[5.88061,51.84531],[5.88039,51.84505],[5.88402,51.84406],[5.88844,51.84221],[5.89453,51.84056],[5.89301,51.84017],[5.89248,51.84023],[5.89217,51.84001],[5.89258,51.83951],[5.89337,51.83929],[5.89319,51.83905],[5.89504,51.83842],[5.8969,51.83726],[5.89726,51.83694],[5.89734,51.83658],[5.89829,51.83636],[5.89746,51.83515],[5.89675,51.83477],[5.89579,51.83358],[5.8957,51.83324],[5.89589,51.83258],[5.89709,51.83215],[5.90323,51.83149],[5.90545,51.83097],[5.90651,51.83059],[5.90835,51.8293],[5.90788,51.82891],[5.90612,51.82818],[5.90525,51.82744],[5.90398,51.82719],[5.90143,51.82739],[5.90032,51.82575],[5.90051,51.82544],[5.90012,51.82536],[5.89944,51.82471],[5.89371,51.82393],[5.89352,51.82428],[5.8888,51.8227],[5.88831,51.8231],[5.88403,51.82141],[5.88193,51.82104],[5.88112,51.82069],[5.88092,51.82043],[5.88053,51.82037],[5.8814,51.81843],[5.88133,51.81787],[5.88151,51.81742],[5.8824,51.81605],[5.88419,51.81371],[5.88565,51.81237],[5.88596,51.8125],[5.88616,51.81233],[5.88592,51.81172],[5.88616,51.81075],[5.88578,51.81033],[5.88476,51.80989],[5.88245,51.8095],[5.8793,51.80967],[5.87907,51.80967],[5.87911,51.80953],[5.8767,51.80986],[5.87698,51.81848],[5.87663,51.82001],[5.87567,51.82156],[5.87407,51.82296],[5.85324,51.83604],[5.85181,51.83738],[5.85135,51.83829],[5.85119,51.83898],[5.85236,51.84038],[5.85311,51.84187],[5.85331,51.84184],[5.85375,51.84215],[5.85435,51.84193],[5.85464,51.84222],[5.8573,51.84197],[5.85715,51.84158],[5.8576,51.8414],[5.85835,51.84182],[5.85867,51.84156],[5.8585,51.84123],[5.8586,51.84104],[5.85835,51.84091],[5.85864,51.84086],[5.85854,51.84069],[5.85907,51.8406],[5.85958,51.84067],[5.85938,51.84095],[5.8598,51.84131],[5.85963,51.84143],[5.86017,51.8416],[5.86046,51.84113],[5.86112,51.84161],[5.86217,51.84106],[5.8615,51.84062],[5.86195,51.84044],[5.8622,51.84068],[5.86243,51.84058],[5.86322,51.84095],[5.86443,51.84102],[5.86447,51.84061],[5.86523,51.84079],[5.86515,51.84092],[5.86543,51.84098],[5.8653,51.84118],[5.86561,51.84126],[5.86598,51.84065],[5.86796,51.8411],[5.86769,51.84146],[5.86867,51.84163],[5.86847,51.84195],[5.86885,51.84205],[5.86915,51.8418],[5.86936,51.84184],[5.86944,51.84225],[5.86967,51.84239],[5.87041,51.84243],[5.87056,51.84319],[5.86987,51.84334],[5.87034,51.84351],[5.87116,51.84333],[5.87127,51.84358],[5.87183,51.84355],[5.87276,51.84412],[5.87283,51.8443],[5.87263,51.84444],[5.87429,51.84502],[5.87472,51.84559],[5.87471,51.84613],[5.87381,51.84691],[5.87135,51.85157],[5.87289,51.8519],[5.87496,51.85278],[5.87781,51.85437],[5.87917,51.85574],[5.88158,51.8591],[5.88612,51.85868]]]]}},{"type":"Feature","properties":{"name":"Nijmegen-Oud-West","bezirk":"Nijmegen"},"geometry":{"type":"MultiPolygon","coordinates":[[[[5.84909,51.85461],[5.85288,51.85309],[5.85673,51.85213],[5.85111,51.84094],[5.84842,51.8373],[5.84699,51.83611],[5.84569,51.83526],[5.84257,51.83378],[5.84216,51.83414],[5.84194,51.83402],[5.84168,51.83412],[5.84122,51.83467],[5.84094,51.83456],[5.84062,51.8349],[5.84028,51.83478],[5.84003,51.83505],[5.83968,51.83487],[5.83937,51.83515],[5.83904,51.83499],[5.83877,51.83521],[5.83923,51.83544],[5.83915,51.83572],[5.83884,51.83599],[5.83841,51.83586],[5.8375,51.83681],[5.83801,51.83712],[5.83786,51.83733],[5.83718,51.83704],[5.83692,51.83725],[5.83738,51.83752],[5.83721,51.83768],[5.83636,51.83718],[5.83595,51.83748],[5.83669,51.83806],[5.83626,51.83854],[5.83653,51.83871],[5.83639,51.83894],[5.8368,51.8392],[5.83734,51.8392],[5.83761,51.83937],[5.83734,51.83954],[5.83756,51.83967],[5.83772,51.83951],[5.83802,51.83963],[5.83859,51.83923],[5.83874,51.83931],[5.83901,51.83914],[5.83953,51.83941],[5.83856,51.83995],[5.83882,51.84011],[5.83851,51.84028],[5.83895,51.84033],[5.83922,51.84054],[5.83899,51.84064],[5.83914,51.84074],[5.83974,51.84033],[5.84056,51.84085],[5.83979,51.84124],[5.84075,51.84206],[5.84106,51.8421],[5.84078,51.84265],[5.84047,51.84253],[5.84038,51.84264],[5.8407,51.84271],[5.84061,51.84296],[5.84086,51.84316],[5.84018,51.84295],[5.84013,51.84311],[5.8402,51.84345],[5.84072,51.84344],[5.84059,51.84348],[5.84071,51.8436],[5.84103,51.84353],[5.84127,51.8438],[5.84049,51.84401],[5.84109,51.84467],[5.84028,51.84489],[5.84034,51.845],[5.84006,51.84507],[5.84017,51.84522],[5.83845,51.84555],[5.83827,51.84536],[5.83666,51.84588],[5.8406,51.85051],[5.84058,51.8527],[5.8409,51.85341],[5.84307,51.85498],[5.84288,51.85503],[5.84325,51.85571],[5.84416,51.85682],[5.84909,51.85461]]]]}},{"type":"Feature","properties":{"name":"Nijmegen-Nieuw-West","bezirk":"Nijmegen"},"geometry":{"type":"MultiPolygon","coordinates":[[[[5.84333,51.85567],[5.84288,51.85503],[5.84307,51.85498],[5.84258,51.85453],[5.84235,51.85455],[5.8409,51.85341],[5.84058,51.8527],[5.8406,51.85051],[5.83666,51.84588],[5.83827,51.84536],[5.83845,51.84555],[5.84017,51.84522],[5.84006,51.84507],[5.84034,51.845],[5.84028,51.84489],[5.84109,51.84467],[5.84049,51.84401],[5.84127,51.8438],[5.84103,51.84353],[5.84071,51.8436],[5.84059,51.84348],[5.84072,51.84344],[5.8402,51.84345],[5.84013,51.84311],[5.84018,51.84295],[5.84086,51.84316],[5.84061,51.84296],[5.8407,51.84271],[5.84038,51.84264],[5.84047,51.84253],[5.84078,51.84265],[5.84106,51.8421],[5.84075,51.84206],[5.83979,51.84124],[5.84056,51.84085],[5.83974,51.84033],[5.83914,51.84074],[5.83899,51.84064],[5.83922,51.84054],[5.83895,51.84033],[5.83851,51.84028],[5.83882,51.84011],[5.83856,51.83995],[5.83953,51.83941],[5.83901,51.83914],[5.83874,51.83931],[5.83859,51.83923],[5.83802,51.83963],[5.83772,51.83951],[5.83756,51.83967],[5.83734,51.83954],[5.83761,51.83937],[5.83734,51.8392],[5.8368,51.8392],[5.83639,51.83894],[5.83653,51.83871],[5.83626,51.83854],[5.83669,51.83806],[5.83595,51.83748],[5.83636,51.83718],[5.83721,51.83768],[5.83738,51.83752],[5.83692,51.83725],[5.83718,51.83704],[5.83786,51.83733],[5.83801,51.83712],[5.8375,51.83681],[5.83841,51.83586],[5.83884,51.83599],[5.83915,51.83572],[5.83923,51.83544],[5.83877,51.83521],[5.83904,51.83499],[5.83937,51.83515],[5.83968,51.83487],[5.84003,51.83505],[5.84028,51.83478],[5.84062,51.8349],[5.84094,51.83456],[5.84122,51.83467],[5.84168,51.83412],[5.84194,51.83402],[5.84216,51.83414],[5.84257,51.83378],[5.82868,51.82875],[5.8265,51.82813],[5.8224,51.82728],[5.80842,51.82562],[5.80753,51.82791],[5.80715,51.83056],[5.80741,51.83309],[5.80808,51.83533],[5.80931,51.83752],[5.81727,51.84732],[5.81614,51.84764],[5.81752,51.84948],[5.81737,51.84949],[5.81829,51.85137],[5.81914,51.85258],[5.82033,51.85387],[5.82151,51.8556],[5.82215,51.85542],[5.82392,51.8578],[5.82539,51.86013],[5.82569,51.86156],[5.82556,51.86251],[5.8252,51.863],[5.82419,51.86359],[5.82376,51.86404],[5.82369,51.86431],[5.82391,51.86485],[5.82569,51.86621],[5.83144,51.86333],[5.83725,51.86015],[5.84416,51.85682],[5.84333,51.85567]]]]}},{"type":"Feature","properties":{"name":"Nijmegen-Midden","bezirk":"Nijmegen"},"geometry":{"type":"MultiPolygon","coordinates":[[[[5.87519,51.82036],[5.87443,51.82003],[5.8749,51.81955],[5.87082,51.81791],[5.87047,51.81744],[5.87058,51.81686],[5.86712,51.8167],[5.86695,51.81703],[5.86685,51.81853],[5.86236,51.8185],[5.86205,51.81845],[5.86203,51.81643],[5.85491,51.8165],[5.85563,51.81912],[5.85085,51.81957],[5.84732,51.82015],[5.84634,51.82048],[5.83992,51.8161],[5.83896,51.81664],[5.83616,51.81489],[5.83598,51.81506],[5.83381,51.81383],[5.83412,51.8136],[5.8324,51.81259],[5.83154,51.81316],[5.83095,51.81284],[5.83059,51.81313],[5.83035,51.81302],[5.82962,51.8136],[5.82867,51.81313],[5.82802,51.81368],[5.82279,51.8119],[5.81997,51.81056],[5.81742,51.81213],[5.8164,51.81128],[5.81554,51.81179],[5.81518,51.81173],[5.81535,51.81128],[5.81421,51.81112],[5.80842,51.82562],[5.8224,51.82728],[5.8265,51.82813],[5.82868,51.82875],[5.84217,51.83363],[5.84503,51.83489],[5.84699,51.83611],[5.84842,51.8373],[5.85111,51.84094],[5.85128,51.83846],[5.85181,51.83738],[5.85274,51.83642],[5.85492,51.83491],[5.87434,51.82278],[5.87567,51.82156],[5.87634,51.8206],[5.87519,51.82036]]]]}},{"type":"Feature","properties":{"name":"Nijmegen-Zuid","bezirk":"Nijmegen"},"geometry":{"type":"MultiPolygon","coordinates":[[[[5.87696,51.81707],[5.8767,51.80986],[5.86866,51.81007],[5.86468,51.8098],[5.85751,51.80839],[5.85313,51.80805],[5.85282,51.8075],[5.85148,51.80762],[5.85159,51.80795],[5.84904,51.80791],[5.84876,51.80827],[5.84822,51.80828],[5.84441,51.8079],[5.84197,51.80749],[5.84094,51.8072],[5.84133,51.8059],[5.83922,51.80454],[5.83711,51.80608],[5.8366,51.80591],[5.82554,51.80015],[5.82716,51.79942],[5.82468,51.79809],[5.81978,51.80179],[5.81785,51.80366],[5.81612,51.80633],[5.81421,51.81112],[5.81535,51.81128],[5.81518,51.81173],[5.81554,51.81179],[5.8164,51.81128],[5.81742,51.81213],[5.81997,51.81056],[5.82279,51.8119],[5.82802,51.81368],[5.82867,51.81313],[5.82962,51.8136],[5.83035,51.81302],[5.83059,51.81313],[5.83095,51.81284],[5.83154,51.81316],[5.8324,51.81259],[5.83412,51.8136],[5.83381,51.81383],[5.83598,51.81506],[5.83616,51.81489],[5.83896,51.81664],[5.83992,51.8161],[5.84634,51.82048],[5.84732,51.82015],[5.85085,51.81957],[5.85563,51.81912],[5.85491,51.8165],[5.86203,51.81643],[5.86205,51.81845],[5.86236,51.8185],[5.86685,51.81853],[5.86695,51.81703],[5.86712,51.8167],[5.87058,51.81686],[5.87047,51.81744],[5.87082,51.81791],[5.8749,51.81955],[5.87443,51.82003],[5.87519,51.82036],[5.87634,51.8206],[5.87693,51.81893],[5.87696,51.81707]]]]}},{"type":"Feature","properties":{"name":"Dukenburg","bezirk":"Nijmegen"},"geometry":{"type":"MultiPolygon","coordinates":[[[[5.80842,51.82562],[5.81535,51.80822],[5.81665,51.80541],[5.81785,51.80366],[5.81978,51.80179],[5.82468,51.79809],[5.81411,51.79284],[5.8137,51.7928],[5.81022,51.79059],[5.80219,51.79447],[5.79816,51.79675],[5.79608,51.79814],[5.79554,51.79801],[5.79437,51.79731],[5.79265,51.79853],[5.7921,51.79916],[5.79206,51.80004],[5.7918,51.8008],[5.79043,51.80202],[5.79046,51.80214],[5.78667,51.805],[5.78436,51.80726],[5.78247,51.80812],[5.78165,51.80888],[5.78141,51.80932],[5.78138,51.81036],[5.78115,51.81082],[5.78049,51.81172],[5.78019,51.81163],[5.78,51.81187],[5.78041,51.812],[5.77726,51.81624],[5.77472,51.82053],[5.79216,51.82368],[5.80842,51.82562]]]]}},{"type":"Feature","properties":{"name":"Lindenholt","bezirk":"Nijmegen"},"geometry":{"type":"MultiPolygon","coordinates":[[[[5.81258,51.84959],[5.81752,51.84948],[5.81614,51.84764],[5.81727,51.84732],[5.80931,51.83752],[5.80808,51.83533],[5.80741,51.83309],[5.80715,51.83056],[5.80753,51.82791],[5.80842,51.82562],[5.79216,51.82368],[5.77472,51.82053],[5.77399,51.8215],[5.77194,51.82234],[5.77133,51.82306],[5.76432,51.82321],[5.75762,51.82399],[5.77508,51.84425],[5.7781,51.84459],[5.77961,51.84458],[5.78105,51.84372],[5.78109,51.84305],[5.78244,51.84223],[5.7853,51.84155],[5.78657,51.84088],[5.78722,51.84093],[5.80208,51.84825],[5.80334,51.84921],[5.80411,51.84926],[5.80478,51.84954],[5.8049,51.84982],[5.80605,51.85041],[5.80733,51.85184],[5.80791,51.85187],[5.8124,51.85032],[5.81232,51.84964],[5.81258,51.84959]]]]}},{"type":"Feature","properties":{"name":"Nijmegen-Noord","bezirk":"Nijmegen"},"geometry":{"type":"MultiPolygon","coordinates":[[[[5.85713,51.89456],[5.85763,51.88839],[5.85775,51.88833],[5.85939,51.8885],[5.85931,51.88857],[5.86107,51.88836],[5.86129,51.88866],[5.86175,51.88877],[5.86446,51.88863],[5.86542,51.88895],[5.86564,51.8888],[5.86551,51.88844],[5.86765,51.88825],[5.86926,51.88827],[5.87148,51.88865],[5.87204,51.88727],[5.87284,51.88739],[5.87503,51.88217],[5.87578,51.88088],[5.87606,51.8767],[5.87696,51.87648],[5.87764,51.87463],[5.87836,51.87354],[5.87906,51.87188],[5.87979,51.86942],[5.88136,51.86797],[5.88181,51.86778],[5.8819,51.86768],[5.88174,51.86728],[5.88246,51.86684],[5.88295,51.86672],[5.88292,51.86648],[5.88253,51.86629],[5.88274,51.86614],[5.88432,51.86701],[5.88677,51.8652],[5.88371,51.86207],[5.87917,51.85574],[5.87757,51.85421],[5.87496,51.85278],[5.87289,51.8519],[5.87029,51.85138],[5.86424,51.85131],[5.86119,51.85149],[5.85904,51.85172],[5.85484,51.85256],[5.85288,51.85309],[5.85045,51.854],[5.84433,51.85673],[5.83725,51.86015],[5.83005,51.86405],[5.82101,51.86853],[5.81707,51.87026],[5.82119,51.87156],[5.82407,51.87274],[5.82408,51.87297],[5.82637,51.8727],[5.82727,51.87338],[5.82808,51.87341],[5.829,51.87239],[5.83146,51.87236],[5.83161,51.87223],[5.83269,51.87359],[5.83253,51.87369],[5.83408,51.87566],[5.83515,51.87762],[5.83281,51.87843],[5.83597,51.88142],[5.83779,51.88343],[5.83665,51.88373],[5.83588,51.886],[5.83615,51.8876],[5.8355,51.88898],[5.83453,51.89024],[5.83411,51.89051],[5.8302,51.89173],[5.83024,51.89386],[5.8343,51.89369],[5.8383,51.89379],[5.83831,51.89369],[5.85713,51.89456]]]]}}]}