{"type":"FeatureCollection","features":[{"type":"Feature","properties":{"zone":"ZONE_CEN","district":"Nijmegen-Centrum","rawHours":"Mo–Sa 9–23, So 12–18 Uhr","rawFee":"4,00 per uur — 4,00 €/h","note":"Centrum — ma-za 9-23 zo 12-18","windows":[{"weekdays":[2],"fromMinute":540,"toMinute":1380},{"weekdays":[4],"fromMinute":540,"toMinute":1380},{"weekdays":[1],"fromMinute":540,"toMinute":1380},{"weekdays":[5],"fromMinute":540,"toMinute":1380},{"weekdays":[3],"fromMinute":540,"toMinute":1380},{"weekdays":[6],"fromMinute":540,"toMinute":1380},{"weekdays":[0],"fromMinute":720,"toMinute":1080}],"fee":{"kind":"exact","centsPerHour":400},"unmodelledRules":["Feiertage 2026 laut Quelle: frei am 01.01., 25.12.; gebührenpflichtig wie am Wochentag am 06.04., 27.04., 14.05., 25.05.; mit eigenen Zeiten (hier nicht gerechnet) am 26.12."],"sourceDefect":null,"freeOnHolidays":false,"spaces":null,"maxStayMinutes":null,"maxStay":null,"maxStayShare":0,"maxStayValues":[],"chargingPoints":0,"carsharing":0},"geometry":{"type":"Polygon","coordinates":[[[5.86996,51.84872],[5.86998,51.84877],[5.86943,51.84885],[5.8694,51.8488],[5.86897,51.84886],[5.869,51.84887],[5.86915,51.84903],[5.86968,51.84905],[5.86979,51.84952],[5.87024,51.84973],[5.87195,51.8495],[5.87272,51.84949],[5.87315,51.84935],[5.87346,51.84895],[5.87334,51.84898],[5.87294,51.84902],[5.87235,51.84891],[5.87292,51.84797],[5.87362,51.84649],[5.87373,51.84614],[5.87375,51.84586],[5.87336,51.84525],[5.8732,51.84514],[5.8728,51.8449],[5.87197,51.8445],[5.87071,51.84396],[5.87005,51.84373],[5.86904,51.84345],[5.86635,51.8428],[5.86457,51.84235],[5.86403,51.84223],[5.86343,51.84214],[5.86269,51.84205],[5.86216,51.84203],[5.86133,51.84203],[5.8609,51.84206],[5.86075,51.84209],[5.86055,51.84222],[5.86036,51.84251],[5.86002,51.8427],[5.85986,51.84277],[5.85971,51.8428],[5.85945,51.84283],[5.85928,51.84283],[5.85886,51.84272],[5.85859,51.84262],[5.85841,51.84246],[5.85832,51.84241],[5.85427,51.8428],[5.85428,51.84271],[5.85422,51.84257],[5.85414,51.84248],[5.85412,51.84242],[5.85396,51.84243],[5.85397,51.84244],[5.85389,51.84246],[5.85384,51.84244],[5.85372,51.84246],[5.85366,51.84259],[5.85342,51.8421],[5.85312,51.84218],[5.85267,51.84227],[5.8523,51.84236],[5.85369,51.84501],[5.85423,51.84635],[5.85446,51.8471],[5.85465,51.84764],[5.85512,51.84871],[5.85515,51.84875],[5.85574,51.84872],[5.85601,51.84909],[5.8568,51.84897],[5.85676,51.8489],[5.85715,51.84885],[5.857,51.84843],[5.85688,51.84828],[5.8566,51.84835],[5.85644,51.84777],[5.85636,51.84698],[5.85641,51.84629],[5.85653,51.84579],[5.85683,51.84518],[5.8571,51.84489],[5.85735,51.8447],[5.85768,51.84467],[5.858,51.84427],[5.85831,51.84399],[5.8588,51.84405],[5.85923,51.84414],[5.85966,51.84445],[5.85933,51.84501],[5.85949,51.84511],[5.85981,51.84457],[5.8612,51.84566],[5.86129,51.84561],[5.86166,51.84588],[5.86176,51.84583],[5.86139,51.84556],[5.85989,51.8444],[5.8602,51.84404],[5.86135,51.84349],[5.86188,51.84338],[5.86228,51.84333],[5.86261,51.84336],[5.8633,51.84351],[5.86503,51.84395],[5.86694,51.84438],[5.86718,51.84409],[5.86818,51.84433],[5.86828,51.84465],[5.86729,51.84483],[5.86737,51.84497],[5.86833,51.8448],[5.86854,51.84533],[5.86879,51.84583],[5.86797,51.84599],[5.868,51.84611],[5.86882,51.84594],[5.86901,51.84644],[5.86829,51.84651],[5.86837,51.84679],[5.86865,51.84738],[5.86888,51.84841],[5.86935,51.84839],[5.87056,51.84828],[5.8709,51.84844],[5.87096,51.84858],[5.86996,51.84872]]]}},{"type":"Feature","properties":{"zone":"ZONE_D","district":"Nijmegen-Midden","rawHours":"Mo–Fr 9–16 Uhr","rawFee":"eerste uur ?1,00 daarna 2,90 per uur — 1. Stunde 1,00 €, 2. Stunde 2,90 €, 3. Stunde 2,90 €","note":"Brakkenstein — ma-vrij 09-16","windows":[{"weekdays":[2],"fromMinute":540,"toMinute":960},{"weekdays":[4],"fromMinute":540,"toMinute":960},{"weekdays":[1],"fromMinute":540,"toMinute":960},{"weekdays":[5],"fromMinute":540,"toMinute":960},{"weekdays":[3],"fromMinute":540,"toMinute":960}],"fee":{"kind":"range","minCentsPerHour":100,"maxCentsPerHour":290},"unmodelledRules":["Feiertage 2026 laut Quelle: frei am 01.01., 25.12., 26.12.; gebührenpflichtig wie am Wochentag am 06.04., 27.04., 14.05., 25.05."],"sourceDefect":null,"freeOnHolidays":false,"spaces":null,"maxStayMinutes":null,"maxStay":null,"maxStayShare":0,"maxStayValues":[],"chargingPoints":0,"carsharing":0},"geometry":{"type":"Polygon","coordinates":[[[5.87436,51.82258],[5.87451,51.82264],[5.87516,51.8221],[5.87535,51.82191],[5.8758,51.82141],[5.87599,51.82115],[5.87635,51.82058],[5.87663,51.82001],[5.87676,51.81964],[5.87685,51.81932],[5.87693,51.81893],[5.87698,51.81848],[5.87699,51.81782],[5.87693,51.81611],[5.87422,51.81495],[5.87265,51.81452],[5.8709,51.81409],[5.87072,51.814],[5.87028,51.81399],[5.87012,51.81414],[5.86997,51.81462],[5.86849,51.81407],[5.8679,51.8139],[5.86768,51.81389],[5.86759,51.814],[5.86738,51.8141],[5.86696,51.81404],[5.86663,51.81404],[5.86663,51.81385],[5.8661,51.81384],[5.86606,51.81403],[5.86561,51.81404],[5.86561,51.81395],[5.86553,51.8139],[5.86553,51.81396],[5.86503,51.81398],[5.86502,51.81443],[5.86434,51.81444],[5.86434,51.81457],[5.864,51.81459],[5.86397,51.81444],[5.86326,51.81444],[5.86322,51.81459],[5.86285,51.81459],[5.86285,51.81445],[5.86211,51.81445],[5.86208,51.81459],[5.86131,51.81458],[5.86125,51.81431],[5.86123,51.81403],[5.85985,51.81414],[5.85998,51.81458],[5.85796,51.81458],[5.85812,51.8157],[5.85678,51.81574],[5.85682,51.81655],[5.86187,51.81654],[5.86674,51.81648],[5.86687,51.81654],[5.86703,51.81665],[5.86717,51.81672],[5.86734,51.81674],[5.86856,51.81675],[5.86989,51.81681],[5.87015,51.81684],[5.87005,51.81815],[5.86988,51.81929],[5.86997,51.82139],[5.87001,51.82156],[5.87014,51.82156],[5.87023,51.8216],[5.87037,51.82172],[5.87045,51.82176],[5.87055,51.82178],[5.87061,51.82156],[5.87411,51.82238],[5.87436,51.82258]]]}},{"type":"Feature","properties":{"zone":"ZONE_DOD","district":"Nijmegen-Centrum","rawHours":"Mo–Sa 9–23, So 12–18 Uhr","rawFee":"4,00 per uur — 4,00 €/h","note":"Doddendaal — ma-za 9-23 zo 12-18","windows":[{"weekdays":[2],"fromMinute":540,"toMinute":1380},{"weekdays":[4],"fromMinute":540,"toMinute":1380},{"weekdays":[1],"fromMinute":540,"toMinute":1380},{"weekdays":[5],"fromMinute":540,"toMinute":1380},{"weekdays":[3],"fromMinute":540,"toMinute":1380},{"weekdays":[6],"fromMinute":540,"toMinute":1380},{"weekdays":[0],"fromMinute":720,"toMinute":1080}],"fee":{"kind":"exact","centsPerHour":400},"unmodelledRules":["Feiertage 2026 laut Quelle: frei am 01.01., 25.12.; gebührenpflichtig wie am Wochentag am 06.04., 27.04., 14.05., 25.05.; mit eigenen Zeiten (hier nicht gerechnet) am 26.12."],"sourceDefect":null,"freeOnHolidays":false,"spaces":null,"maxStayMinutes":null,"maxStay":null,"maxStayShare":0,"maxStayValues":[],"chargingPoints":0,"carsharing":0},"geometry":{"type":"Polygon","coordinates":[[[5.85934,51.84678],[5.86022,51.84656],[5.86096,51.84634],[5.86085,51.84624],[5.8601,51.84647],[5.85929,51.84667],[5.85934,51.84678]]]}},{"type":"Feature","properties":{"zone":"ZONE_DOH","district":"Nijmegen-Centrum","rawHours":"Mo–Sa 9–23, So 12–18 Uhr","rawFee":"4,00 per uur — 4,00 €/h","note":"De Oude Haven — ma-za 9-23 zo 12-18","windows":[{"weekdays":[2],"fromMinute":540,"toMinute":1380},{"weekdays":[4],"fromMinute":540,"toMinute":1380},{"weekdays":[1],"fromMinute":540,"toMinute":1380},{"weekdays":[5],"fromMinute":540,"toMinute":1380},{"weekdays":[3],"fromMinute":540,"toMinute":1380},{"weekdays":[6],"fromMinute":540,"toMinute":1380},{"weekdays":[0],"fromMinute":720,"toMinute":1080}],"fee":{"kind":"exact","centsPerHour":400},"unmodelledRules":["Feiertage 2026 laut Quelle: frei am 01.01., 25.12.; gebührenpflichtig wie am Wochentag am 06.04., 27.04., 14.05., 25.05.; mit eigenen Zeiten (hier nicht gerechnet) am 26.12."],"sourceDefect":null,"freeOnHolidays":false,"spaces":null,"maxStayMinutes":null,"maxStay":null,"maxStayShare":0,"maxStayValues":[],"chargingPoints":0,"carsharing":0},"geometry":{"type":"Polygon","coordinates":[[[5.86015,51.84982],[5.86136,51.84969],[5.86135,51.84955],[5.86005,51.84965],[5.86015,51.84982]]]}},{"type":"Feature","properties":{"zone":"ZONE_GB","district":"Nijmegen-Centrum","rawHours":"Mo–Sa 9–23, So 12–18 Uhr","rawFee":"4,00 per uur — 4,00 €/h","note":"Groene Balkon — ma-za 9-23 zo 12-18","windows":[{"weekdays":[2],"fromMinute":540,"toMinute":1380},{"weekdays":[4],"fromMinute":540,"toMinute":1380},{"weekdays":[1],"fromMinute":540,"toMinute":1380},{"weekdays":[5],"fromMinute":540,"toMinute":1380},{"weekdays":[3],"fromMinute":540,"toMinute":1380},{"weekdays":[6],"fromMinute":540,"toMinute":1380},{"weekdays":[0],"fromMinute":720,"toMinute":1080}],"fee":{"kind":"exact","centsPerHour":400},"unmodelledRules":["Feiertage 2026 laut Quelle: frei am 01.01., 25.12.; gebührenpflichtig wie am Wochentag am 06.04., 27.04., 14.05., 25.05.; mit eigenen Zeiten (hier nicht gerechnet) am 26.12."],"sourceDefect":null,"freeOnHolidays":false,"spaces":null,"maxStayMinutes":null,"maxStay":null,"maxStayShare":0,"maxStayValues":[],"chargingPoints":0,"carsharing":0},"geometry":{"type":"Polygon","coordinates":[[[5.8667,51.8486],[5.86682,51.84887],[5.86743,51.84878],[5.86737,51.84864],[5.86728,51.84866],[5.86722,51.84851],[5.8667,51.8486]]]}},{"type":"Feature","properties":{"zone":"ZONE_J","district":"Lindenholt","rawHours":"Mo–Mi 9–18, Do 9–21, Fr, Sa 9–18, So 12–18 Uhr","rawFee":"1,00  per 3 uur — Pauschale 1,00 € je 180 Minuten","note":"Woonboulevard Wijchenseweg — ma-za 9-18 do 9-21 zo 12-18 - 1 Euro per 3 uur max parkeerduur 3 uur","windows":[{"weekdays":[2],"fromMinute":540,"toMinute":1080},{"weekdays":[4],"fromMinute":540,"toMinute":1260},{"weekdays":[1],"fromMinute":540,"toMinute":1080},{"weekdays":[5],"fromMinute":540,"toMinute":1080},{"weekdays":[3],"fromMinute":540,"toMinute":1080},{"weekdays":[6],"fromMinute":540,"toMinute":1080},{"weekdays":[0],"fromMinute":720,"toMinute":1080}],"fee":{"kind":"range","minCentsPerHour":33,"maxCentsPerHour":100},"unmodelledRules":["Feiertage 2026 laut Quelle: frei am 01.01., 25.12.; gebührenpflichtig wie am Wochentag am 06.04., 27.04., 14.05., 25.05.; mit eigenen Zeiten (hier nicht gerechnet) am 26.12."],"sourceDefect":null,"freeOnHolidays":false,"spaces":null,"maxStayMinutes":180,"maxStay":null,"maxStayShare":0,"maxStayValues":[],"chargingPoints":0,"carsharing":0},"geometry":{"type":"Polygon","coordinates":[[[5.79704,51.82531],[5.7973,51.8254],[5.79753,51.82546],[5.79774,51.82548],[5.79891,51.82551],[5.79937,51.82551],[5.80091,51.82556],[5.80133,51.8256],[5.8032,51.82566],[5.80337,51.82509],[5.79729,51.82441],[5.79692,51.82529],[5.79704,51.82531]]]}},{"type":"Feature","properties":{"zone":"ZONE_K","district":"Dukenburg","rawHours":"Mo–Mi 9–18, Do 9–21, Fr, Sa 9–18 Uhr","rawFee":"2,90 per uur — 2,90 €/h","note":"parkeerterrein Zwanenveld bij winkelcentrum Dukenburg — ma-za 9-18 do 9-21","windows":[{"weekdays":[2],"fromMinute":540,"toMinute":1080},{"weekdays":[4],"fromMinute":540,"toMinute":1260},{"weekdays":[1],"fromMinute":540,"toMinute":1080},{"weekdays":[5],"fromMinute":540,"toMinute":1080},{"weekdays":[3],"fromMinute":540,"toMinute":1080},{"weekdays":[6],"fromMinute":540,"toMinute":1080}],"fee":{"kind":"exact","centsPerHour":290},"unmodelledRules":["Feiertage 2026 laut Quelle: frei am 01.01., 25.12., 26.12.; gebührenpflichtig wie am Wochentag am 06.04., 27.04., 14.05., 25.05."],"sourceDefect":null,"freeOnHolidays":false,"spaces":null,"maxStayMinutes":null,"maxStay":null,"maxStayShare":0,"maxStayValues":[],"chargingPoints":0,"carsharing":0},"geometry":{"type":"Polygon","coordinates":[[[5.79667,51.8224],[5.79666,51.82244],[5.79633,51.82241],[5.79635,51.82237],[5.79601,51.82233],[5.79584,51.8224],[5.79575,51.82266],[5.794,51.82245],[5.79418,51.82177],[5.79449,51.82074],[5.79445,51.82066],[5.7944,51.82062],[5.79423,51.82071],[5.79387,51.82095],[5.79344,51.82139],[5.7933,51.82139],[5.79311,51.82165],[5.79297,51.82192],[5.79285,51.8222],[5.79277,51.82255],[5.79266,51.82292],[5.79252,51.82321],[5.79235,51.82375],[5.7934,51.82388],[5.79363,51.824],[5.79954,51.82466],[5.79983,51.82369],[5.79946,51.82365],[5.79964,51.82306],[5.79902,51.82299],[5.79899,51.8231],[5.79824,51.823],[5.79845,51.82222],[5.79812,51.82216],[5.79807,51.82235],[5.79789,51.82234],[5.79784,51.82253],[5.79727,51.82245],[5.79667,51.8224]]]}},{"type":"Feature","properties":{"zone":"ZONE_K","district":"Dukenburg","rawHours":"Mo–Mi 9–18, Do 9–21, Fr, Sa 9–18 Uhr","rawFee":"2,90 per uur — 2,90 €/h","note":"parkeerterrein Zwanenveld bij winkelcentrum Dukenburg — ma-za 9-18 do 9-21","windows":[{"weekdays":[2],"fromMinute":540,"toMinute":1080},{"weekdays":[4],"fromMinute":540,"toMinute":1260},{"weekdays":[1],"fromMinute":540,"toMinute":1080},{"weekdays":[5],"fromMinute":540,"toMinute":1080},{"weekdays":[3],"fromMinute":540,"toMinute":1080},{"weekdays":[6],"fromMinute":540,"toMinute":1080}],"fee":{"kind":"exact","centsPerHour":290},"unmodelledRules":["Feiertage 2026 laut Quelle: frei am 01.01., 25.12., 26.12.; gebührenpflichtig wie am Wochentag am 06.04., 27.04., 14.05., 25.05."],"sourceDefect":null,"freeOnHolidays":false,"spaces":null,"maxStayMinutes":null,"maxStay":null,"maxStayShare":0,"maxStayValues":[],"chargingPoints":0,"carsharing":0},"geometry":{"type":"Polygon","coordinates":[[[5.79954,51.82466],[5.80188,51.82492],[5.80202,51.82443],[5.80192,51.82442],[5.80201,51.82415],[5.80214,51.82394],[5.80194,51.82386],[5.80138,51.82327],[5.80151,51.82287],[5.80101,51.8227],[5.80096,51.8225],[5.79932,51.82237],[5.79845,51.82222],[5.79824,51.823],[5.79899,51.8231],[5.79902,51.82299],[5.79964,51.82306],[5.79946,51.82365],[5.79983,51.82369],[5.79954,51.82466]]]}},{"type":"Feature","properties":{"zone":"ZONE_L","district":"Dukenburg","rawHours":"Mo–Mi 9–18, Do 9–21, Fr, Sa 9–18 Uhr","rawFee":"2,90 per uur — 2,90 €/h","note":"Woonwijk Zwanenveld — ma-za 9-18 do 9-21","windows":[{"weekdays":[2],"fromMinute":540,"toMinute":1080},{"weekdays":[4],"fromMinute":540,"toMinute":1260},{"weekdays":[1],"fromMinute":540,"toMinute":1080},{"weekdays":[5],"fromMinute":540,"toMinute":1080},{"weekdays":[3],"fromMinute":540,"toMinute":1080},{"weekdays":[6],"fromMinute":540,"toMinute":1080}],"fee":{"kind":"exact","centsPerHour":290},"unmodelledRules":["Feiertage 2026 laut Quelle: frei am 01.01., 25.12., 26.12.; gebührenpflichtig wie am Wochentag am 06.04., 27.04., 14.05., 25.05."],"sourceDefect":null,"freeOnHolidays":false,"spaces":null,"maxStayMinutes":null,"maxStay":null,"maxStayShare":0,"maxStayValues":[],"chargingPoints":0,"carsharing":0},"geometry":{"type":"Polygon","coordinates":[[[5.79666,51.82244],[5.79667,51.8224],[5.79727,51.82245],[5.79784,51.82253],[5.79789,51.82234],[5.79807,51.82235],[5.79812,51.82216],[5.79932,51.82237],[5.80096,51.8225],[5.8012,51.8221],[5.80129,51.82187],[5.80134,51.821],[5.80075,51.82061],[5.80042,51.82025],[5.80003,51.81987],[5.79938,51.81986],[5.79907,51.81977],[5.7983,51.8191],[5.798,51.81893],[5.79761,51.81909],[5.79518,51.82023],[5.7944,51.82062],[5.79445,51.82066],[5.79449,51.82074],[5.79418,51.82177],[5.794,51.82245],[5.79575,51.82266],[5.79584,51.8224],[5.79601,51.82233],[5.79635,51.82236],[5.79633,51.82241],[5.79666,51.82244]]]}},{"type":"Feature","properties":{"zone":"ZONE_LM","district":"Nijmegen-Centrum","rawHours":"Mo–Sa 9–23, So 12–18 Uhr","rawFee":"4,00 per uur — 4,00 €/h","note":"Lage Markt — ma-za 9-23 zo 12-18","windows":[{"weekdays":[2],"fromMinute":540,"toMinute":1380},{"weekdays":[4],"fromMinute":540,"toMinute":1380},{"weekdays":[1],"fromMinute":540,"toMinute":1380},{"weekdays":[5],"fromMinute":540,"toMinute":1380},{"weekdays":[3],"fromMinute":540,"toMinute":1380},{"weekdays":[6],"fromMinute":540,"toMinute":1380},{"weekdays":[0],"fromMinute":720,"toMinute":1080}],"fee":{"kind":"exact","centsPerHour":400},"unmodelledRules":["Feiertage 2026 laut Quelle: frei am 01.01., 25.12.; gebührenpflichtig wie am Wochentag am 06.04., 27.04., 14.05., 25.05.; mit eigenen Zeiten (hier nicht gerechnet) am 26.12."],"sourceDefect":null,"freeOnHolidays":false,"spaces":null,"maxStayMinutes":null,"maxStay":null,"maxStayShare":0,"maxStayValues":[],"chargingPoints":0,"carsharing":0},"geometry":{"type":"Polygon","coordinates":[[[5.86281,51.84963],[5.86357,51.84968],[5.86369,51.84959],[5.86281,51.84954],[5.86281,51.84963]]]}},{"type":"Feature","properties":{"zone":"ZONE_OS","district":"Nijmegen-Oud-West","rawHours":"Mo–So 9–18 und 18–21 Uhr","rawFee":"2,60 per uur — 2,60 €/h · 0,50 per uur — 0,50 €/h","note":"Oude Stad — ma-zo 9-18","windows":[{"weekdays":[2],"fromMinute":540,"toMinute":1080},{"weekdays":[2],"fromMinute":1080,"toMinute":1260},{"weekdays":[4],"fromMinute":540,"toMinute":1080},{"weekdays":[4],"fromMinute":1080,"toMinute":1260},{"weekdays":[1],"fromMinute":540,"toMinute":1080},{"weekdays":[1],"fromMinute":1080,"toMinute":1260},{"weekdays":[5],"fromMinute":540,"toMinute":1080},{"weekdays":[5],"fromMinute":1080,"toMinute":1260},{"weekdays":[3],"fromMinute":540,"toMinute":1080},{"weekdays":[3],"fromMinute":1080,"toMinute":1260},{"weekdays":[6],"fromMinute":540,"toMinute":1080},{"weekdays":[6],"fromMinute":1080,"toMinute":1260},{"weekdays":[0],"fromMinute":540,"toMinute":1080},{"weekdays":[0],"fromMinute":1080,"toMinute":1260}],"fee":{"kind":"range","minCentsPerHour":50,"maxCentsPerHour":260},"unmodelledRules":["Feiertage 2026 laut Quelle: frei am 01.01., 25.12.; gebührenpflichtig wie am Wochentag am 06.04., 27.04., 14.05., 25.05., 26.12."],"sourceDefect":null,"freeOnHolidays":false,"spaces":null,"maxStayMinutes":null,"maxStay":null,"maxStayShare":0,"maxStayValues":[],"chargingPoints":0,"carsharing":0},"geometry":{"type":"Polygon","coordinates":[[[5.85529,51.84897],[5.85512,51.84871],[5.85464,51.84762],[5.85423,51.84635],[5.85414,51.8461],[5.85229,51.84643],[5.85233,51.84651],[5.85321,51.84767],[5.8533,51.84785],[5.85299,51.84851],[5.85371,51.84865],[5.85364,51.84882],[5.8537,51.84889],[5.85354,51.84887],[5.85355,51.84933],[5.85389,51.84957],[5.85424,51.85098],[5.85431,51.85107],[5.85441,51.85113],[5.85448,51.85114],[5.85446,51.85121],[5.85472,51.85133],[5.85502,51.85132],[5.85551,51.85099],[5.85623,51.85083],[5.85529,51.84897]]]}},{"type":"Feature","properties":{"zone":"ZONE_P","district":"Nijmegen-Oost","rawHours":"Mo–Mi 9–18, Do 9–21, Fr, Sa 9–18 Uhr","rawFee":"2,90 per uur — 2,90 €/h","note":"Wijk Ooyse Schependom — ma-za 9-18 do 9-21","windows":[{"weekdays":[2],"fromMinute":540,"toMinute":1080},{"weekdays":[4],"fromMinute":540,"toMinute":1260},{"weekdays":[1],"fromMinute":540,"toMinute":1080},{"weekdays":[5],"fromMinute":540,"toMinute":1080},{"weekdays":[3],"fromMinute":540,"toMinute":1080},{"weekdays":[6],"fromMinute":540,"toMinute":1080}],"fee":{"kind":"exact","centsPerHour":290},"unmodelledRules":["Feiertage 2026 laut Quelle: frei am 01.01., 25.12., 26.12.; gebührenpflichtig wie am Wochentag am 06.04., 27.04., 14.05., 25.05."],"sourceDefect":null,"freeOnHolidays":false,"spaces":null,"maxStayMinutes":null,"maxStay":null,"maxStayShare":0,"maxStayValues":[],"chargingPoints":0,"carsharing":0},"geometry":{"type":"Polygon","coordinates":[[[5.8826,51.84401],[5.88179,51.84414],[5.88101,51.84439],[5.88022,51.84468],[5.8793,51.84508],[5.87838,51.84556],[5.87756,51.84595],[5.87738,51.84583],[5.87652,51.84613],[5.87641,51.84608],[5.87603,51.8462],[5.87542,51.84634],[5.87495,51.84652],[5.87447,51.84676],[5.87413,51.84696],[5.8737,51.84775],[5.87325,51.8485],[5.87349,51.84857],[5.87342,51.84864],[5.87328,51.84869],[5.87308,51.8487],[5.87256,51.84858],[5.87235,51.84891],[5.87294,51.84902],[5.87334,51.84898],[5.87346,51.84895],[5.87403,51.84909],[5.87453,51.84824],[5.87476,51.84795],[5.87505,51.84769],[5.87537,51.84749],[5.87623,51.84717],[5.87608,51.84705],[5.87603,51.847],[5.87612,51.84698],[5.87633,51.84688],[5.87661,51.84673],[5.8764,51.84657],[5.87723,51.8462],[5.87806,51.84587],[5.87976,51.84502],[5.88017,51.84483],[5.88112,51.8445],[5.88151,51.84439],[5.88267,51.84411],[5.8826,51.84401]]]}},{"type":"Feature","properties":{"zone":"ZONE_P4","district":"Nijmegen-Centrum","rawHours":"Mo–So 0–24 Uhr","rawFee":"4,00 per uur — 4,00 €/h","note":"P4 Molenpoortdak (centrum Nijmegen) — ma-zo 00-24","windows":[{"weekdays":[2],"fromMinute":0,"toMinute":1440},{"weekdays":[4],"fromMinute":0,"toMinute":1440},{"weekdays":[1],"fromMinute":0,"toMinute":1440},{"weekdays":[5],"fromMinute":0,"toMinute":1440},{"weekdays":[3],"fromMinute":0,"toMinute":1440},{"weekdays":[6],"fromMinute":0,"toMinute":1440},{"weekdays":[0],"fromMinute":0,"toMinute":1440}],"fee":{"kind":"exact","centsPerHour":400},"unmodelledRules":["Feiertage 2026 laut Quelle: frei am 01.01., 25.12.; gebührenpflichtig wie am Wochentag am 06.04., 27.04., 14.05., 25.05., 26.12."],"sourceDefect":null,"freeOnHolidays":false,"spaces":null,"maxStayMinutes":null,"maxStay":null,"maxStayShare":0,"maxStayValues":[],"chargingPoints":0,"carsharing":0},"geometry":{"type":"Polygon","coordinates":[[[5.86293,51.84408],[5.86267,51.8442],[5.86312,51.84456],[5.86318,51.84453],[5.86323,51.84457],[5.86361,51.84442],[5.86366,51.84446],[5.86376,51.84443],[5.864,51.8446],[5.86438,51.84441],[5.86453,51.8445],[5.8648,51.84433],[5.86456,51.84419],[5.86464,51.84408],[5.86455,51.84406],[5.86459,51.84402],[5.86361,51.84377],[5.86354,51.8438],[5.86349,51.84388],[5.86331,51.84383],[5.86289,51.84403],[5.86293,51.84408]]]}},{"type":"Feature","properties":{"zone":"ZONE_P7","district":"Nijmegen-Centrum","rawHours":"Mo–So 9–21 Uhr","rawFee":"2,60 per uur — 2,60 €/h","note":"P7 Wedren — ma-zo 09-21","windows":[{"weekdays":[2],"fromMinute":540,"toMinute":1260},{"weekdays":[4],"fromMinute":540,"toMinute":1260},{"weekdays":[1],"fromMinute":540,"toMinute":1260},{"weekdays":[5],"fromMinute":540,"toMinute":1260},{"weekdays":[3],"fromMinute":540,"toMinute":1260},{"weekdays":[6],"fromMinute":540,"toMinute":1260},{"weekdays":[0],"fromMinute":540,"toMinute":1260}],"fee":{"kind":"exact","centsPerHour":260},"unmodelledRules":["Feiertage 2026 laut Quelle: frei am 01.01., 25.12.; gebührenpflichtig wie am Wochentag am 06.04., 27.04., 14.05., 25.05., 26.12."],"sourceDefect":null,"freeOnHolidays":false,"spaces":null,"maxStayMinutes":null,"maxStay":null,"maxStayShare":0,"maxStayValues":[],"chargingPoints":0,"carsharing":0},"geometry":{"type":"Polygon","coordinates":[[[5.86661,51.84153],[5.86703,51.84088],[5.86596,51.84062],[5.86555,51.84126],[5.86661,51.84153]]]}},{"type":"Feature","properties":{"zone":"ZONE_P8","district":"Nijmegen-Centrum","rawHours":"Mo–So 9–18 und 18–21 Uhr","rawFee":"2,60 per uur — 2,60 €/h · 0,50 per uur — 0,50 €/h","note":"P8 Vierdaagseplein — ma-zo 9-18","windows":[{"weekdays":[2],"fromMinute":540,"toMinute":1080},{"weekdays":[2],"fromMinute":1080,"toMinute":1260},{"weekdays":[4],"fromMinute":540,"toMinute":1080},{"weekdays":[4],"fromMinute":1080,"toMinute":1260},{"weekdays":[1],"fromMinute":540,"toMinute":1080},{"weekdays":[1],"fromMinute":1080,"toMinute":1260},{"weekdays":[5],"fromMinute":540,"toMinute":1080},{"weekdays":[5],"fromMinute":1080,"toMinute":1260},{"weekdays":[3],"fromMinute":540,"toMinute":1080},{"weekdays":[3],"fromMinute":1080,"toMinute":1260},{"weekdays":[6],"fromMinute":540,"toMinute":1080},{"weekdays":[6],"fromMinute":1080,"toMinute":1260},{"weekdays":[0],"fromMinute":540,"toMinute":1080},{"weekdays":[0],"fromMinute":1080,"toMinute":1260}],"fee":{"kind":"range","minCentsPerHour":50,"maxCentsPerHour":260},"unmodelledRules":["Feiertage 2026 laut Quelle: frei am 01.01., 25.12.; gebührenpflichtig wie am Wochentag am 06.04., 27.04., 14.05., 25.05., 26.12."],"sourceDefect":null,"freeOnHolidays":false,"spaces":null,"maxStayMinutes":null,"maxStay":null,"maxStayShare":0,"maxStayValues":[],"chargingPoints":0,"carsharing":0},"geometry":{"type":"Polygon","coordinates":[[[5.86756,51.84175],[5.86799,51.84112],[5.86737,51.84097],[5.86696,51.84161],[5.86756,51.84175]]]}},{"type":"Feature","properties":{"zone":"ZONE_Q","district":"Nijmegen-Zuid","rawHours":"Mo–Fr 9–16 Uhr","rawFee":"2,90 per uur — 2,90 €/h","note":"Zone Q — ma-vrij 9-16","windows":[{"weekdays":[2],"fromMinute":540,"toMinute":960},{"weekdays":[4],"fromMinute":540,"toMinute":960},{"weekdays":[1],"fromMinute":540,"toMinute":960},{"weekdays":[5],"fromMinute":540,"toMinute":960},{"weekdays":[3],"fromMinute":540,"toMinute":960}],"fee":{"kind":"exact","centsPerHour":290},"unmodelledRules":["Feiertage 2026 laut Quelle: frei am 01.01., 25.12., 26.12.; gebührenpflichtig wie am Wochentag am 06.04., 27.04., 14.05., 25.05."],"sourceDefect":null,"freeOnHolidays":false,"spaces":null,"maxStayMinutes":null,"maxStay":null,"maxStayShare":0,"maxStayValues":[],"chargingPoints":0,"carsharing":0},"geometry":{"type":"Polygon","coordinates":[[[5.85712,51.82578],[5.85742,51.82576],[5.85747,51.82566],[5.85739,51.82516],[5.85725,51.82484],[5.85722,51.82472],[5.85703,51.82379],[5.85651,51.82155],[5.85648,51.82131],[5.85646,51.82089],[5.85641,51.82081],[5.85636,51.82066],[5.85594,51.81888],[5.85579,51.81831],[5.85555,51.81759],[5.85526,51.81666],[5.85521,51.81656],[5.85508,51.81638],[5.8547,51.81501],[5.85446,51.81399],[5.8544,51.81386],[5.8535,51.81394],[5.85352,51.81415],[5.85168,51.8142],[5.85165,51.81386],[5.85129,51.81393],[5.85124,51.81378],[5.85099,51.8138],[5.85085,51.81341],[5.85056,51.81342],[5.8507,51.81389],[5.85004,51.8139],[5.85004,51.81386],[5.85007,51.81386],[5.85007,51.81383],[5.85004,51.81383],[5.85003,51.81344],[5.84978,51.81345],[5.84978,51.81343],[5.84913,51.81351],[5.84925,51.81384],[5.84842,51.81389],[5.84824,51.81393],[5.84827,51.8143],[5.84806,51.81431],[5.8481,51.81442],[5.84839,51.81441],[5.84858,51.81469],[5.84875,51.81468],[5.84883,51.81489],[5.84879,51.81497],[5.84895,51.81537],[5.84844,51.81544],[5.84855,51.8158],[5.84899,51.81574],[5.8491,51.81598],[5.84906,51.81598],[5.84913,51.81617],[5.84944,51.8161],[5.8498,51.817],[5.84984,51.81715],[5.8496,51.81722],[5.84926,51.81729],[5.84933,51.81738],[5.84954,51.81735],[5.84959,51.81749],[5.84972,51.81747],[5.84975,51.81755],[5.84967,51.81758],[5.84971,51.81764],[5.84957,51.81787],[5.84953,51.81789],[5.84967,51.81812],[5.84998,51.81807],[5.85021,51.81863],[5.84992,51.81867],[5.84998,51.81879],[5.85027,51.81876],[5.85044,51.81914],[5.85065,51.81911],[5.85069,51.81926],[5.85061,51.81928],[5.85062,51.81934],[5.85049,51.81935],[5.85054,51.81954],[5.84959,51.8197],[5.84954,51.81955],[5.84942,51.81957],[5.84933,51.81936],[5.84912,51.81941],[5.8493,51.81974],[5.84826,51.81992],[5.84736,51.82011],[5.84632,51.82047],[5.84645,51.82055],[5.84703,51.82037],[5.84736,51.82053],[5.84835,51.82031],[5.84839,51.8204],[5.84803,51.82063],[5.84793,51.82071],[5.84803,51.82077],[5.84803,51.82085],[5.8489,51.8213],[5.84939,51.82099],[5.85015,51.82179],[5.85062,51.82232],[5.85074,51.82251],[5.85072,51.82253],[5.85079,51.82258],[5.85076,51.8226],[5.85099,51.82276],[5.85123,51.82303],[5.85127,51.82305],[5.85112,51.82314],[5.85168,51.82353],[5.85193,51.82351],[5.85188,51.82342],[5.85279,51.8231],[5.853,51.82336],[5.85308,51.82334],[5.85315,51.82342],[5.85357,51.82336],[5.85374,51.82399],[5.8537,51.82445],[5.85385,51.82467],[5.85382,51.82469],[5.85353,51.82479],[5.85359,51.82486],[5.85371,51.82482],[5.85424,51.82487],[5.85442,51.82518],[5.85531,51.82619],[5.8555,51.82647],[5.85638,51.82645],[5.8565,51.8267],[5.85659,51.82763],[5.85686,51.82775],[5.85738,51.82769],[5.85751,51.82825],[5.85769,51.82844],[5.85712,51.82578]]]}},{"type":"Feature","properties":{"zone":"ZONE_R","district":"Nijmegen-Oud-West","rawHours":"Mo–Mi 9–18, Do 9–21, Fr, Sa 9–18 Uhr","rawFee":"2,90 per uur — 2,90 €/h","note":"R — ma-za 9-18 do 9-21","windows":[{"weekdays":[2],"fromMinute":540,"toMinute":1080},{"weekdays":[4],"fromMinute":540,"toMinute":1260},{"weekdays":[1],"fromMinute":540,"toMinute":1080},{"weekdays":[5],"fromMinute":540,"toMinute":1080},{"weekdays":[3],"fromMinute":540,"toMinute":1080},{"weekdays":[6],"fromMinute":540,"toMinute":1080}],"fee":{"kind":"exact","centsPerHour":290},"unmodelledRules":["Feiertage 2026 laut Quelle: frei am 01.01., 25.12., 26.12.; gebührenpflichtig wie am Wochentag am 06.04., 27.04., 14.05., 25.05."],"sourceDefect":null,"freeOnHolidays":false,"spaces":null,"maxStayMinutes":null,"maxStay":null,"maxStayShare":0,"maxStayValues":[],"chargingPoints":0,"carsharing":0},"geometry":{"type":"Polygon","coordinates":[[[5.84931,51.85306],[5.85098,51.85234],[5.85099,51.85217],[5.8518,51.85185],[5.85313,51.85142],[5.85334,51.85166],[5.85354,51.85163],[5.85366,51.85133],[5.85444,51.8512],[5.85446,51.85121],[5.85448,51.85114],[5.85441,51.85113],[5.85431,51.85107],[5.85424,51.85098],[5.85389,51.84957],[5.85355,51.84933],[5.85354,51.84887],[5.8537,51.84889],[5.85364,51.84882],[5.85371,51.84865],[5.85299,51.84851],[5.8533,51.84785],[5.85321,51.84767],[5.85233,51.84651],[5.85229,51.84643],[5.85414,51.8461],[5.85369,51.84501],[5.85305,51.8438],[5.85154,51.84372],[5.85041,51.84368],[5.84882,51.84373],[5.84832,51.84376],[5.84827,51.84384],[5.84829,51.84389],[5.84808,51.84393],[5.84773,51.84408],[5.8468,51.84433],[5.84702,51.84482],[5.84691,51.84493],[5.84714,51.84536],[5.84794,51.84522],[5.84787,51.84505],[5.84858,51.84495],[5.84878,51.84549],[5.84952,51.84716],[5.84979,51.84782],[5.84978,51.84791],[5.8499,51.84802],[5.85018,51.84805],[5.85025,51.84826],[5.85,51.84823],[5.85009,51.84838],[5.84961,51.84845],[5.84978,51.84889],[5.85004,51.84913],[5.84926,51.84946],[5.84937,51.84969],[5.84977,51.84952],[5.85019,51.84992],[5.85051,51.85019],[5.84886,51.85108],[5.85017,51.85175],[5.85013,51.85179],[5.85033,51.85189],[5.85024,51.85195],[5.8503,51.85198],[5.84983,51.85224],[5.84986,51.85226],[5.84898,51.85269],[5.84894,51.85267],[5.84886,51.85272],[5.84931,51.85306]]]}},{"type":"Feature","properties":{"zone":"ZONE_RING1","district":"Nijmegen-Oost","rawHours":"Mo–Sa 9–21, So 12–18 Uhr","rawFee":"2,90 per uur — 2,90 €/h","note":"1e ring — ma-za 09-21, zon 12-18","windows":[{"weekdays":[2],"fromMinute":540,"toMinute":1260},{"weekdays":[4],"fromMinute":540,"toMinute":1260},{"weekdays":[1],"fromMinute":540,"toMinute":1260},{"weekdays":[5],"fromMinute":540,"toMinute":1260},{"weekdays":[3],"fromMinute":540,"toMinute":1260},{"weekdays":[6],"fromMinute":540,"toMinute":1260},{"weekdays":[0],"fromMinute":720,"toMinute":1080}],"fee":{"kind":"exact","centsPerHour":290},"unmodelledRules":["Feiertage 2026 laut Quelle: frei am 01.01., 25.12.; gebührenpflichtig wie am Wochentag am 06.04., 27.04., 14.05., 25.05.; mit eigenen Zeiten (hier nicht gerechnet) am 26.12.","Ereignistage laut Quelle mit eigenen Zeiten, hier nicht gerechnet: KOOPAVOND"],"sourceDefect":null,"freeOnHolidays":false,"spaces":null,"maxStayMinutes":null,"maxStay":null,"maxStayShare":0,"maxStayValues":[],"chargingPoints":0,"carsharing":0},"geometry":{"type":"Polygon","coordinates":[[[5.86819,51.84102],[5.86588,51.84048],[5.86601,51.84031],[5.86561,51.84014],[5.86505,51.83999],[5.86497,51.84001],[5.8648,51.83997],[5.86465,51.84009],[5.86448,51.84002],[5.86431,51.83992],[5.86449,51.83981],[5.86419,51.83963],[5.86447,51.83943],[5.86509,51.83905],[5.86488,51.8389],[5.86504,51.83881],[5.86485,51.83868],[5.865,51.83859],[5.86463,51.83838],[5.86471,51.83832],[5.86431,51.83821],[5.86426,51.8383],[5.86404,51.83817],[5.8642,51.838],[5.86374,51.83784],[5.86258,51.83783],[5.86258,51.83801],[5.86235,51.83801],[5.86235,51.83787],[5.8619,51.83784],[5.86109,51.83789],[5.86091,51.83701],[5.86055,51.83705],[5.86041,51.83646],[5.85989,51.8365],[5.85942,51.83649],[5.85915,51.83652],[5.85912,51.83639],[5.85865,51.83643],[5.85868,51.83656],[5.85824,51.8366],[5.85821,51.83647],[5.85787,51.8365],[5.85792,51.83663],[5.85764,51.83663],[5.85743,51.83667],[5.85742,51.83657],[5.85667,51.83664],[5.8567,51.83672],[5.85614,51.83677],[5.85611,51.83669],[5.8561,51.83669],[5.85603,51.83627],[5.85566,51.8363],[5.85577,51.83672],[5.85547,51.83678],[5.8555,51.83684],[5.8551,51.83688],[5.85507,51.83674],[5.85488,51.83676],[5.85492,51.83688],[5.85352,51.83704],[5.85348,51.83691],[5.85311,51.83695],[5.85304,51.83699],[5.85296,51.837],[5.85287,51.83704],[5.85231,51.83691],[5.85211,51.83713],[5.8518,51.8376],[5.85144,51.83838],[5.85129,51.83913],[5.85138,51.83953],[5.85141,51.84018],[5.85187,51.84107],[5.8519,51.84165],[5.8523,51.84236],[5.85267,51.84227],[5.85312,51.84218],[5.85342,51.8421],[5.85366,51.84259],[5.85372,51.84246],[5.85384,51.84244],[5.85381,51.84239],[5.85375,51.84218],[5.85387,51.84217],[5.85396,51.84243],[5.85412,51.84242],[5.85414,51.84248],[5.85422,51.84257],[5.85428,51.84271],[5.85427,51.8428],[5.85832,51.84241],[5.85841,51.84246],[5.85859,51.84262],[5.85886,51.84272],[5.85928,51.84283],[5.85945,51.84283],[5.85971,51.8428],[5.85986,51.84277],[5.86002,51.8427],[5.86036,51.84251],[5.86055,51.84222],[5.86075,51.84209],[5.8609,51.84206],[5.86133,51.84203],[5.8617,51.84202],[5.86216,51.84203],[5.86269,51.84205],[5.86343,51.84214],[5.86403,51.84223],[5.86457,51.84235],[5.86635,51.8428],[5.86904,51.84345],[5.87005,51.84373],[5.87071,51.84396],[5.87197,51.8445],[5.8728,51.8449],[5.8732,51.84514],[5.87336,51.84525],[5.87389,51.84496],[5.87417,51.84467],[5.87427,51.84464],[5.87551,51.84448],[5.87546,51.84432],[5.87516,51.84405],[5.87494,51.84407],[5.87476,51.84383],[5.87491,51.84375],[5.87473,51.84357],[5.87457,51.84363],[5.87421,51.84318],[5.87434,51.84314],[5.87424,51.84303],[5.87363,51.84272],[5.87331,51.8422],[5.87259,51.84236],[5.87275,51.84266],[5.87287,51.84283],[5.87268,51.84286],[5.87246,51.8427],[5.87228,51.84272],[5.87224,51.84268],[5.87201,51.84265],[5.87141,51.84191],[5.87129,51.84195],[5.87108,51.84172],[5.87089,51.84161],[5.87067,51.84161],[5.87059,51.84166],[5.87028,51.84151],[5.87032,51.84106],[5.8691,51.84096],[5.86896,51.84105],[5.86862,51.84084],[5.8686,51.84082],[5.86834,51.84087],[5.86838,51.84094],[5.86819,51.84102]],[[5.86596,51.84062],[5.86703,51.84088],[5.86661,51.84153],[5.86555,51.84126],[5.86596,51.84062]],[[5.86799,51.84112],[5.86756,51.84175],[5.86696,51.84161],[5.86737,51.84097],[5.86799,51.84112]]]}},{"type":"Feature","properties":{"zone":"ZONE_RING2","district":"Nijmegen-Oost","rawHours":"Mo–Mi 9–18, Do 9–21, Fr, Sa 9–18 Uhr","rawFee":"2,90 per uur — 2,90 €/h","note":"2e ring — ma-za 9-18 do 9-21","windows":[{"weekdays":[2],"fromMinute":540,"toMinute":1080},{"weekdays":[4],"fromMinute":540,"toMinute":1260},{"weekdays":[1],"fromMinute":540,"toMinute":1080},{"weekdays":[5],"fromMinute":540,"toMinute":1080},{"weekdays":[3],"fromMinute":540,"toMinute":1080},{"weekdays":[6],"fromMinute":540,"toMinute":1080}],"fee":{"kind":"exact","centsPerHour":290},"unmodelledRules":["Feiertage 2026 laut Quelle: frei am 01.01., 25.12., 26.12.; gebührenpflichtig wie am Wochentag am 06.04., 27.04., 14.05., 25.05."],"sourceDefect":null,"freeOnHolidays":false,"spaces":null,"maxStayMinutes":null,"maxStay":null,"maxStayShare":0,"maxStayValues":[],"chargingPoints":0,"carsharing":0},"geometry":{"type":"Polygon","coordinates":[[[5.8699,51.82935],[5.86985,51.82902],[5.86859,51.82908],[5.86859,51.8291],[5.86826,51.82912],[5.86833,51.82946],[5.8681,51.82947],[5.86801,51.82888],[5.86767,51.82886],[5.8661,51.82896],[5.8661,51.82901],[5.86526,51.82906],[5.86404,51.82981],[5.86409,51.82983],[5.86411,51.82986],[5.86281,51.82998],[5.85875,51.83256],[5.8583,51.83297],[5.85552,51.8347],[5.85467,51.83519],[5.85376,51.83576],[5.85304,51.83627],[5.85248,51.83673],[5.85231,51.83691],[5.85287,51.83704],[5.85296,51.837],[5.85304,51.83699],[5.85311,51.83695],[5.85348,51.83691],[5.85352,51.83704],[5.85492,51.83688],[5.85488,51.83676],[5.85507,51.83674],[5.8551,51.83688],[5.8555,51.83684],[5.85547,51.83678],[5.85577,51.83672],[5.85566,51.8363],[5.85603,51.83627],[5.8561,51.83669],[5.85611,51.83669],[5.85614,51.83677],[5.8567,51.83672],[5.85667,51.83664],[5.85742,51.83657],[5.85743,51.83667],[5.85764,51.83663],[5.85792,51.83663],[5.85787,51.8365],[5.85821,51.83647],[5.85824,51.8366],[5.85868,51.83656],[5.85865,51.83643],[5.85912,51.83639],[5.85915,51.83652],[5.85942,51.83649],[5.85989,51.8365],[5.86041,51.83646],[5.86055,51.83705],[5.86091,51.83701],[5.86109,51.83789],[5.8619,51.83784],[5.86235,51.83787],[5.86235,51.83801],[5.86258,51.83801],[5.86258,51.83783],[5.86374,51.83784],[5.8642,51.838],[5.86404,51.83817],[5.86426,51.8383],[5.86431,51.83821],[5.86471,51.83832],[5.86463,51.83838],[5.865,51.83859],[5.86485,51.83868],[5.86504,51.83881],[5.86488,51.8389],[5.86509,51.83905],[5.86447,51.83943],[5.86419,51.83963],[5.86449,51.83981],[5.86431,51.83992],[5.86448,51.84002],[5.86465,51.84009],[5.8648,51.83997],[5.86497,51.84001],[5.86505,51.83999],[5.86561,51.84014],[5.86601,51.84031],[5.86588,51.84048],[5.86729,51.84081],[5.86757,51.84047],[5.86866,51.83961],[5.86891,51.83936],[5.86906,51.83914],[5.86916,51.83894],[5.86923,51.83863],[5.86921,51.83787],[5.86929,51.8367],[5.86941,51.83607],[5.87043,51.8355],[5.87071,51.83528],[5.87093,51.83506],[5.87113,51.83476],[5.8712,51.83478],[5.87137,51.8346],[5.87148,51.83447],[5.87202,51.83369],[5.8716,51.8336],[5.87153,51.83372],[5.87042,51.83353],[5.87014,51.83352],[5.87015,51.83334],[5.87014,51.83332],[5.86972,51.8333],[5.86974,51.83319],[5.86954,51.83317],[5.86954,51.83298],[5.86909,51.83294],[5.86931,51.83166],[5.86972,51.83168],[5.86975,51.83133],[5.86994,51.83036],[5.87004,51.82966],[5.87004,51.82963],[5.87,51.8296],[5.86991,51.8296],[5.8699,51.82935]]]}},{"type":"Feature","properties":{"zone":"ZONE_RING2","district":"Nijmegen-Oost","rawHours":"Mo–Mi 9–18, Do 9–21, Fr, Sa 9–18 Uhr","rawFee":"2,90 per uur — 2,90 €/h","note":"2e ring — ma-za 9-18 do 9-21","windows":[{"weekdays":[2],"fromMinute":540,"toMinute":1080},{"weekdays":[4],"fromMinute":540,"toMinute":1260},{"weekdays":[1],"fromMinute":540,"toMinute":1080},{"weekdays":[5],"fromMinute":540,"toMinute":1080},{"weekdays":[3],"fromMinute":540,"toMinute":1080},{"weekdays":[6],"fromMinute":540,"toMinute":1080}],"fee":{"kind":"exact","centsPerHour":290},"unmodelledRules":["Feiertage 2026 laut Quelle: frei am 01.01., 25.12., 26.12.; gebührenpflichtig wie am Wochentag am 06.04., 27.04., 14.05., 25.05."],"sourceDefect":null,"freeOnHolidays":false,"spaces":null,"maxStayMinutes":null,"maxStay":null,"maxStayShare":0,"maxStayValues":[],"chargingPoints":0,"carsharing":0},"geometry":{"type":"Polygon","coordinates":[[[5.8833,51.83454],[5.88222,51.8347],[5.88218,51.83465],[5.88196,51.83468],[5.88193,51.83462],[5.88194,51.83462],[5.88193,51.83456],[5.88195,51.83455],[5.88193,51.83452],[5.88194,51.83451],[5.88192,51.83445],[5.88194,51.83445],[5.88189,51.83431],[5.88216,51.83426],[5.88214,51.83404],[5.88147,51.83415],[5.88122,51.83373],[5.88056,51.83424],[5.88029,51.83432],[5.87917,51.83326],[5.87817,51.83357],[5.87658,51.83373],[5.8766,51.83378],[5.87581,51.83387],[5.87578,51.83382],[5.87403,51.83402],[5.87402,51.83401],[5.87369,51.83404],[5.87383,51.83467],[5.87387,51.8352],[5.8736,51.83521],[5.87323,51.8351],[5.87321,51.83511],[5.87266,51.83493],[5.87137,51.8346],[5.8712,51.83478],[5.87113,51.83476],[5.87093,51.83506],[5.87071,51.83528],[5.87043,51.8355],[5.86941,51.83607],[5.86929,51.8367],[5.86921,51.83787],[5.86923,51.83863],[5.86916,51.83894],[5.86906,51.83914],[5.86891,51.83936],[5.86866,51.83961],[5.86757,51.84047],[5.86729,51.84081],[5.86819,51.84102],[5.86838,51.84094],[5.86834,51.84087],[5.8686,51.84082],[5.86862,51.84084],[5.86896,51.84105],[5.8691,51.84096],[5.87032,51.84106],[5.87028,51.84151],[5.87059,51.84166],[5.87065,51.84162],[5.87089,51.84161],[5.87108,51.84172],[5.87129,51.84195],[5.87141,51.84191],[5.87201,51.84265],[5.87224,51.84268],[5.87228,51.84272],[5.87246,51.8427],[5.87268,51.84286],[5.87287,51.84283],[5.87275,51.84266],[5.87259,51.84236],[5.87331,51.8422],[5.87363,51.84272],[5.87424,51.84303],[5.87434,51.84314],[5.87421,51.84318],[5.87457,51.84363],[5.87473,51.84357],[5.87491,51.84375],[5.87476,51.84383],[5.87494,51.84407],[5.87516,51.84405],[5.87546,51.84432],[5.87551,51.84448],[5.87427,51.84464],[5.87429,51.84475],[5.8755,51.84541],[5.87597,51.84538],[5.87601,51.84545],[5.87609,51.84549],[5.87635,51.84547],[5.8774,51.84519],[5.87751,51.84512],[5.87766,51.84507],[5.87764,51.84505],[5.87886,51.84469],[5.87957,51.84434],[5.87965,51.84427],[5.8802,51.84418],[5.88219,51.84357],[5.88254,51.84349],[5.88363,51.84285],[5.88352,51.84276],[5.88471,51.84222],[5.88501,51.84258],[5.88587,51.84236],[5.88707,51.842],[5.8882,51.84156],[5.88729,51.84106],[5.88575,51.84048],[5.88521,51.84016],[5.8849,51.83982],[5.88568,51.83953],[5.88519,51.83911],[5.88592,51.83881],[5.88606,51.83889],[5.88658,51.83857],[5.88638,51.83838],[5.8865,51.83833],[5.88627,51.83812],[5.88651,51.83802],[5.88547,51.83705],[5.88651,51.83596],[5.88632,51.83545],[5.88598,51.83548],[5.88593,51.83535],[5.88585,51.83536],[5.88574,51.835],[5.88613,51.83472],[5.8861,51.83464],[5.88569,51.8347],[5.88539,51.83395],[5.88511,51.834],[5.88506,51.83388],[5.88496,51.83389],[5.88492,51.83377],[5.88478,51.83379],[5.88483,51.83391],[5.88473,51.83393],[5.88478,51.83406],[5.88431,51.83414],[5.88426,51.83401],[5.88416,51.83402],[5.88411,51.83391],[5.884,51.83393],[5.88406,51.83405],[5.88394,51.83407],[5.88397,51.83415],[5.88349,51.83423],[5.88346,51.83413],[5.88333,51.83415],[5.88331,51.83409],[5.88314,51.83411],[5.8833,51.83454]]]}},{"type":"Feature","properties":{"zone":"ZONE_S","district":"Nijmegen-Midden","rawHours":"Mo–Fr 9–16 Uhr","rawFee":"2,90 per uur — 2,90 €/h","note":"Zone S — ma-vrij 9-16","windows":[{"weekdays":[2],"fromMinute":540,"toMinute":960},{"weekdays":[4],"fromMinute":540,"toMinute":960},{"weekdays":[1],"fromMinute":540,"toMinute":960},{"weekdays":[5],"fromMinute":540,"toMinute":960},{"weekdays":[3],"fromMinute":540,"toMinute":960}],"fee":{"kind":"exact","centsPerHour":290},"unmodelledRules":["Feiertage 2026 laut Quelle: frei am 01.01., 25.12., 26.12.; gebührenpflichtig wie am Wochentag am 06.04., 27.04., 14.05., 25.05."],"sourceDefect":null,"freeOnHolidays":false,"spaces":null,"maxStayMinutes":null,"maxStay":null,"maxStayShare":0,"maxStayValues":[],"chargingPoints":0,"carsharing":0},"geometry":{"type":"Polygon","coordinates":[[[5.85769,51.82844],[5.85818,51.83045],[5.85781,51.83048],[5.85785,51.83067],[5.85772,51.83068],[5.85773,51.83073],[5.85767,51.83074],[5.85769,51.83085],[5.85736,51.83088],[5.85738,51.831],[5.85741,51.831],[5.85747,51.83124],[5.8582,51.83116],[5.85835,51.83185],[5.85851,51.83182],[5.85861,51.83227],[5.85875,51.83256],[5.86281,51.82998],[5.86179,51.83009],[5.86198,51.82855],[5.86217,51.82841],[5.86221,51.82836],[5.86224,51.82804],[5.86223,51.82775],[5.86224,51.82754],[5.86228,51.82754],[5.8623,51.82737],[5.86315,51.82729],[5.86343,51.82678],[5.8634,51.82652],[5.86239,51.826],[5.86216,51.82595],[5.85947,51.82602],[5.8584,51.82598],[5.85799,51.82599],[5.85762,51.82604],[5.85741,51.82609],[5.85745,51.82577],[5.85712,51.82578],[5.85769,51.82844]]]}},{"type":"Feature","properties":{"zone":"ZONE_S1","district":"Nijmegen-Midden","rawHours":"Mo–Fr 9–16 Uhr","rawFee":"2,90 per uur — 2,90 €/h","note":"Verlengde Groenestraat — ma-vrij 9-16","windows":[{"weekdays":[2],"fromMinute":540,"toMinute":960},{"weekdays":[4],"fromMinute":540,"toMinute":960},{"weekdays":[1],"fromMinute":540,"toMinute":960},{"weekdays":[5],"fromMinute":540,"toMinute":960},{"weekdays":[3],"fromMinute":540,"toMinute":960}],"fee":{"kind":"exact","centsPerHour":290},"unmodelledRules":["Feiertage 2026 laut Quelle: frei am 01.01., 25.12., 26.12.; gebührenpflichtig wie am Wochentag am 06.04., 27.04., 14.05., 25.05."],"sourceDefect":null,"freeOnHolidays":false,"spaces":null,"maxStayMinutes":null,"maxStay":null,"maxStayShare":0,"maxStayValues":[],"chargingPoints":0,"carsharing":0},"geometry":{"type":"Polygon","coordinates":[[[5.86179,51.83009],[5.86281,51.82998],[5.86598,51.82798],[5.8688,51.82625],[5.86849,51.82597],[5.8682,51.82595],[5.86677,51.82607],[5.8668,51.82629],[5.86652,51.82659],[5.86604,51.82689],[5.86603,51.82713],[5.86626,51.82728],[5.86562,51.82766],[5.86533,51.82748],[5.86489,51.82773],[5.86518,51.82791],[5.86214,51.82983],[5.86182,51.82984],[5.86179,51.83009]]]}},{"type":"Feature","properties":{"zone":"ZONE_STAT","district":"Nijmegen-Centrum","rawHours":"Mo–Sa 18–21, So 12–18 Uhr","rawFee":"4,00 per uur — 4,00 €/h","note":"Station — ma-za 9-21 zo 12-18 max 30 min.","windows":[{"weekdays":[2],"fromMinute":1080,"toMinute":1260},{"weekdays":[4],"fromMinute":1080,"toMinute":1260},{"weekdays":[1],"fromMinute":1080,"toMinute":1260},{"weekdays":[5],"fromMinute":1080,"toMinute":1260},{"weekdays":[3],"fromMinute":1080,"toMinute":1260},{"weekdays":[6],"fromMinute":1080,"toMinute":1260},{"weekdays":[0],"fromMinute":720,"toMinute":1080}],"fee":{"kind":"exact","centsPerHour":400},"unmodelledRules":["Feiertage 2026 laut Quelle: frei am 01.01., 25.12.; gebührenpflichtig wie am Wochentag am 06.04., 27.04., 14.05., 25.05.; mit eigenen Zeiten (hier nicht gerechnet) am 26.12."],"sourceDefect":null,"freeOnHolidays":false,"spaces":null,"maxStayMinutes":30,"maxStay":null,"maxStayShare":0,"maxStayValues":[],"chargingPoints":0,"carsharing":0},"geometry":{"type":"Polygon","coordinates":[[[5.85387,51.84217],[5.85375,51.84218],[5.85381,51.84239],[5.85385,51.84246],[5.85389,51.84246],[5.85397,51.84244],[5.85392,51.84235],[5.85387,51.84217]]]}},{"type":"Feature","properties":{"zone":"ZONE_TB","district":"Nijmegen-Centrum","rawHours":"Mo–Sa 9–23, So 12–18 Uhr","rawFee":"4,00 per uur — 4,00 €/h","note":"Titus Brandsmastraat — ma-za 9-23 zo 12-18","windows":[{"weekdays":[2],"fromMinute":540,"toMinute":1380},{"weekdays":[4],"fromMinute":540,"toMinute":1380},{"weekdays":[1],"fromMinute":540,"toMinute":1380},{"weekdays":[5],"fromMinute":540,"toMinute":1380},{"weekdays":[3],"fromMinute":540,"toMinute":1380},{"weekdays":[6],"fromMinute":540,"toMinute":1380},{"weekdays":[0],"fromMinute":720,"toMinute":1080}],"fee":{"kind":"exact","centsPerHour":400},"unmodelledRules":["Feiertage 2026 laut Quelle: frei am 01.01., 25.12.; gebührenpflichtig wie am Wochentag am 06.04., 27.04., 14.05., 25.05.; mit eigenen Zeiten (hier nicht gerechnet) am 26.12."],"sourceDefect":null,"freeOnHolidays":false,"spaces":null,"maxStayMinutes":null,"maxStay":null,"maxStayShare":0,"maxStayValues":[],"chargingPoints":0,"carsharing":0},"geometry":{"type":"Polygon","coordinates":[[[5.86114,51.84625],[5.86096,51.84631],[5.86141,51.84676],[5.86157,51.84669],[5.86114,51.84625]]]}},{"type":"Feature","properties":{"zone":"ZONE_V","district":"Nijmegen-Oost","rawHours":"Mo–Fr 9–16 Uhr","rawFee":"2,90 per uur — 2,90 €/h","note":"Zone V — ma-vrij 9-16","windows":[{"weekdays":[2],"fromMinute":540,"toMinute":960},{"weekdays":[4],"fromMinute":540,"toMinute":960},{"weekdays":[1],"fromMinute":540,"toMinute":960},{"weekdays":[5],"fromMinute":540,"toMinute":960},{"weekdays":[3],"fromMinute":540,"toMinute":960}],"fee":{"kind":"exact","centsPerHour":290},"unmodelledRules":["Feiertage 2026 laut Quelle: frei am 01.01., 25.12., 26.12.; gebührenpflichtig wie am Wochentag am 06.04., 27.04., 14.05., 25.05."],"sourceDefect":null,"freeOnHolidays":false,"spaces":null,"maxStayMinutes":null,"maxStay":null,"maxStayShare":0,"maxStayValues":[],"chargingPoints":0,"carsharing":0},"geometry":{"type":"Polygon","coordinates":[[[5.87272,51.82933],[5.87459,51.82611],[5.87368,51.82593],[5.87372,51.82586],[5.87171,51.82541],[5.87164,51.82534],[5.87176,51.82513],[5.87188,51.82516],[5.87197,51.8251],[5.87178,51.82501],[5.87184,51.82491],[5.8712,51.82477],[5.86598,51.82798],[5.86281,51.82998],[5.86411,51.82986],[5.86409,51.82983],[5.86404,51.82981],[5.86526,51.82906],[5.8661,51.82901],[5.8661,51.82896],[5.86767,51.82886],[5.86801,51.82888],[5.8681,51.82947],[5.86833,51.82946],[5.86826,51.82912],[5.86859,51.8291],[5.86859,51.82908],[5.86985,51.82902],[5.8699,51.82938],[5.87014,51.82936],[5.87057,51.82939],[5.87095,51.82944],[5.87092,51.82942],[5.87091,51.82925],[5.8712,51.82929],[5.87126,51.82912],[5.87272,51.82933]]]}},{"type":"Feature","properties":{"zone":"ZONE_W","district":"Nijmegen-Midden","rawHours":"Mo–Mi 9–18, Do 9–21, Fr, Sa 9–18 Uhr","rawFee":"2,90 per uur — 2,90 €/h","note":"W — ma-za 9-18 don 9-21","windows":[{"weekdays":[2],"fromMinute":540,"toMinute":1080},{"weekdays":[4],"fromMinute":540,"toMinute":1260},{"weekdays":[1],"fromMinute":540,"toMinute":1080},{"weekdays":[5],"fromMinute":540,"toMinute":1080},{"weekdays":[3],"fromMinute":540,"toMinute":1080},{"weekdays":[6],"fromMinute":540,"toMinute":1080}],"fee":{"kind":"exact","centsPerHour":290},"unmodelledRules":["Feiertage 2026 laut Quelle: frei am 01.01., 25.12., 26.12.; gebührenpflichtig wie am Wochentag am 06.04., 27.04., 14.05., 25.05."],"sourceDefect":null,"freeOnHolidays":false,"spaces":null,"maxStayMinutes":null,"maxStay":null,"maxStayShare":0,"maxStayValues":[],"chargingPoints":0,"carsharing":0},"geometry":{"type":"Polygon","coordinates":[[[5.84906,51.83597],[5.84891,51.83598],[5.84907,51.83665],[5.84859,51.83676],[5.84863,51.83696],[5.84885,51.83715],[5.84876,51.83719],[5.84894,51.83752],[5.84913,51.83779],[5.84882,51.83777],[5.849,51.83801],[5.84951,51.83786],[5.84971,51.83778],[5.85001,51.83757],[5.8502,51.83737],[5.85104,51.83686],[5.85154,51.83654],[5.85233,51.83546],[5.85218,51.83541],[5.85189,51.83587],[5.85149,51.83578],[5.8512,51.83582],[5.85117,51.83571],[5.85083,51.83574],[5.85079,51.83555],[5.85113,51.83551],[5.85111,51.83542],[5.84983,51.83554],[5.84969,51.83561],[5.84973,51.8358],[5.84906,51.83586],[5.84906,51.83597]]]}},{"type":"Feature","properties":{"zone":"ZONE_WK","district":"Nijmegen-Centrum","rawHours":"Mo–Sa 9–23, So 12–18 Uhr","rawFee":"4 per uur — 4,00 €/h","note":"Waalkade — ma-za 9-23 zo 12-18","windows":[{"weekdays":[2],"fromMinute":540,"toMinute":1380},{"weekdays":[4],"fromMinute":540,"toMinute":1380},{"weekdays":[1],"fromMinute":540,"toMinute":1380},{"weekdays":[5],"fromMinute":540,"toMinute":1380},{"weekdays":[3],"fromMinute":540,"toMinute":1380},{"weekdays":[6],"fromMinute":540,"toMinute":1380},{"weekdays":[0],"fromMinute":720,"toMinute":1080}],"fee":{"kind":"exact","centsPerHour":400},"unmodelledRules":["Feiertage 2026 laut Quelle: frei am 01.01., 25.12.; gebührenpflichtig wie am Wochentag am 06.04., 27.04., 14.05., 25.05.; mit eigenen Zeiten (hier nicht gerechnet) am 26.12."],"sourceDefect":null,"freeOnHolidays":false,"spaces":null,"maxStayMinutes":30,"maxStay":null,"maxStayShare":0,"maxStayValues":[],"chargingPoints":0,"carsharing":0},"geometry":{"type":"Polygon","coordinates":[[[5.8694,51.8488],[5.86943,51.84885],[5.86998,51.84877],[5.86996,51.84872],[5.8694,51.8488]]]}},{"type":"Feature","properties":{"zone":"ZONE_WW","district":"Lindenholt","rawHours":"Mo–Mi 9–18, Do 9–21, Fr, Sa 9–18 Uhr","rawFee":"2,90 per uur — 2,90 €/h","note":"Wijchenseweg — ma-za 9-18 do 9-21","windows":[{"weekdays":[2],"fromMinute":540,"toMinute":1080},{"weekdays":[4],"fromMinute":540,"toMinute":1260},{"weekdays":[1],"fromMinute":540,"toMinute":1080},{"weekdays":[5],"fromMinute":540,"toMinute":1080},{"weekdays":[3],"fromMinute":540,"toMinute":1080},{"weekdays":[6],"fromMinute":540,"toMinute":1080}],"fee":{"kind":"exact","centsPerHour":290},"unmodelledRules":["Feiertage 2026 laut Quelle: frei am 01.01., 25.12., 26.12.; gebührenpflichtig wie am Wochentag am 06.04., 27.04., 14.05., 25.05."],"sourceDefect":null,"freeOnHolidays":false,"spaces":null,"maxStayMinutes":null,"maxStay":null,"maxStayShare":0,"maxStayValues":[],"chargingPoints":0,"carsharing":0},"geometry":{"type":"Polygon","coordinates":[[[5.79347,51.8251],[5.79607,51.82541],[5.79634,51.82539],[5.7937,51.82507],[5.79347,51.8251]]]}},{"type":"Feature","properties":{"zone":"ZONE_X","district":"Nijmegen-Oud-West","rawHours":"Mo–Sa 12–18 Uhr","rawFee":"2,90 per uur — 2,90 €/h","note":"Zone X — ma-za 12-18","windows":[{"weekdays":[2],"fromMinute":720,"toMinute":1080},{"weekdays":[4],"fromMinute":720,"toMinute":1080},{"weekdays":[1],"fromMinute":720,"toMinute":1080},{"weekdays":[5],"fromMinute":720,"toMinute":1080},{"weekdays":[3],"fromMinute":720,"toMinute":1080},{"weekdays":[6],"fromMinute":720,"toMinute":1080}],"fee":{"kind":"exact","centsPerHour":290},"unmodelledRules":["Feiertage 2026 laut Quelle: frei am 01.01., 25.12., 26.12.; gebührenpflichtig wie am Wochentag am 06.04., 27.04., 14.05., 25.05."],"sourceDefect":null,"freeOnHolidays":false,"spaces":null,"maxStayMinutes":null,"maxStay":null,"maxStayShare":0,"maxStayValues":[],"chargingPoints":0,"carsharing":0},"geometry":{"type":"Polygon","coordinates":[[[5.84991,51.84802],[5.84978,51.84791],[5.84979,51.84782],[5.84952,51.84716],[5.84877,51.84549],[5.84857,51.84495],[5.84786,51.84505],[5.84794,51.84522],[5.84713,51.84536],[5.8469,51.84493],[5.84702,51.84482],[5.84677,51.8443],[5.84518,51.84464],[5.84504,51.84447],[5.84498,51.84425],[5.8449,51.84413],[5.84459,51.84416],[5.84464,51.84412],[5.84464,51.84409],[5.84458,51.84395],[5.84347,51.84416],[5.84206,51.84447],[5.8422,51.84467],[5.84226,51.84468],[5.84209,51.84478],[5.8419,51.84451],[5.84174,51.84433],[5.84094,51.84451],[5.84108,51.84467],[5.84027,51.84489],[5.84033,51.845],[5.84006,51.84507],[5.84012,51.84516],[5.84021,51.84521],[5.83886,51.84544],[5.83865,51.84554],[5.83819,51.84571],[5.83693,51.84611],[5.83692,51.84619],[5.83715,51.84648],[5.84022,51.85002],[5.84035,51.85021],[5.84048,51.85048],[5.84059,51.85051],[5.84057,51.85061],[5.84059,51.85101],[5.84057,51.8527],[5.84063,51.85299],[5.84088,51.85341],[5.84015,51.85358],[5.83939,51.85372],[5.83863,51.85384],[5.83785,51.85393],[5.83894,51.85468],[5.83928,51.85508],[5.83994,51.85592],[5.84053,51.85678],[5.84448,51.85524],[5.84629,51.8545],[5.84931,51.85306],[5.84886,51.85272],[5.84894,51.85267],[5.84898,51.85269],[5.84986,51.85226],[5.84983,51.85224],[5.8503,51.85198],[5.85024,51.85195],[5.85033,51.85189],[5.85013,51.85179],[5.85017,51.85175],[5.84886,51.85108],[5.85051,51.85019],[5.84977,51.84952],[5.84937,51.84969],[5.84926,51.84946],[5.85004,51.84913],[5.84978,51.84889],[5.84961,51.84845],[5.85009,51.84838],[5.85,51.84823],[5.85025,51.84826],[5.85018,51.84805],[5.84991,51.84802]]]}},{"type":"Feature","properties":{"zone":"ZONE_Y","district":"Nijmegen-Oud-West","rawHours":"Mo–Sa 12–18 Uhr","rawFee":"2,90 per uur — 2,90 €/h","note":"Zone Y — ma-za 12-18","windows":[{"weekdays":[2],"fromMinute":720,"toMinute":1080},{"weekdays":[4],"fromMinute":720,"toMinute":1080},{"weekdays":[1],"fromMinute":720,"toMinute":1080},{"weekdays":[5],"fromMinute":720,"toMinute":1080},{"weekdays":[3],"fromMinute":720,"toMinute":1080},{"weekdays":[6],"fromMinute":720,"toMinute":1080}],"fee":{"kind":"exact","centsPerHour":290},"unmodelledRules":["Feiertage 2026 laut Quelle: frei am 01.01., 25.12., 26.12.; gebührenpflichtig wie am Wochentag am 06.04., 27.04., 14.05., 25.05."],"sourceDefect":null,"freeOnHolidays":false,"spaces":null,"maxStayMinutes":null,"maxStay":null,"maxStayShare":0,"maxStayValues":[],"chargingPoints":0,"carsharing":0},"geometry":{"type":"Polygon","coordinates":[[[5.83772,51.84308],[5.83817,51.84301],[5.83827,51.84336],[5.83831,51.84343],[5.83797,51.8435],[5.83799,51.84355],[5.83795,51.84356],[5.83792,51.84352],[5.83782,51.84354],[5.83832,51.84423],[5.83798,51.84431],[5.83809,51.84446],[5.83882,51.84428],[5.83889,51.84439],[5.83872,51.84443],[5.83869,51.84442],[5.8385,51.84447],[5.83906,51.84529],[5.83894,51.84536],[5.83888,51.84544],[5.84021,51.84521],[5.84012,51.84516],[5.84006,51.84507],[5.84034,51.845],[5.84027,51.84489],[5.84108,51.84467],[5.84094,51.84451],[5.84174,51.84433],[5.8419,51.84451],[5.84209,51.84478],[5.84226,51.84468],[5.8422,51.84467],[5.84206,51.84447],[5.84347,51.84416],[5.84458,51.84395],[5.84465,51.84409],[5.84465,51.84412],[5.84459,51.84416],[5.84491,51.84413],[5.84499,51.84425],[5.84505,51.84447],[5.84519,51.84464],[5.84678,51.8443],[5.8468,51.84433],[5.84773,51.84408],[5.84808,51.84393],[5.84829,51.84389],[5.84827,51.84384],[5.84832,51.84376],[5.84882,51.84373],[5.85041,51.84368],[5.85154,51.84372],[5.85305,51.8438],[5.8523,51.84236],[5.8519,51.84165],[5.85187,51.84107],[5.85171,51.84076],[5.85111,51.84094],[5.84994,51.83929],[5.84904,51.83805],[5.84882,51.83777],[5.84799,51.83745],[5.84794,51.83756],[5.84762,51.83783],[5.84735,51.83771],[5.84592,51.83884],[5.84613,51.83893],[5.84593,51.83908],[5.84574,51.83899],[5.84391,51.83993],[5.84283,51.8406],[5.84292,51.84068],[5.84282,51.84074],[5.8427,51.84065],[5.84187,51.84114],[5.84198,51.84123],[5.84179,51.84133],[5.84169,51.84125],[5.8408,51.84181],[5.84063,51.84182],[5.84056,51.84185],[5.84055,51.84183],[5.8387,51.84195],[5.83873,51.8421],[5.83847,51.84211],[5.83847,51.84216],[5.83845,51.84217],[5.83815,51.84217],[5.83806,51.84234],[5.83808,51.84281],[5.83793,51.84283],[5.83775,51.8429],[5.8376,51.84297],[5.83772,51.84308]]]}},{"type":"Feature","properties":{"zone":"ZONE_Z","district":"Nijmegen-Noord","rawHours":"Mo–Sa 12–18 Uhr","rawFee":"2,90 per uur — 2,90 €/h","note":"Zone Z — ma-za 12-18","windows":[{"weekdays":[2],"fromMinute":720,"toMinute":1080},{"weekdays":[4],"fromMinute":720,"toMinute":1080},{"weekdays":[1],"fromMinute":720,"toMinute":1080},{"weekdays":[5],"fromMinute":720,"toMinute":1080},{"weekdays":[3],"fromMinute":720,"toMinute":1080},{"weekdays":[6],"fromMinute":720,"toMinute":1080}],"fee":{"kind":"exact","centsPerHour":290},"unmodelledRules":["Feiertage 2026 laut Quelle: frei am 01.01., 25.12., 26.12.; gebührenpflichtig wie am Wochentag am 06.04., 27.04., 14.05., 25.05."],"sourceDefect":null,"freeOnHolidays":false,"spaces":null,"maxStayMinutes":null,"maxStay":null,"maxStayShare":0,"maxStayValues":[],"chargingPoints":0,"carsharing":0},"geometry":{"type":"Polygon","coordinates":[[[5.84712,51.86493],[5.84705,51.86499],[5.84711,51.86516],[5.84713,51.86518],[5.84671,51.86558],[5.8465,51.86605],[5.84605,51.86711],[5.84741,51.86677],[5.8486,51.86654],[5.84927,51.86623],[5.84947,51.86612],[5.84966,51.86617],[5.85024,51.86629],[5.85135,51.86647],[5.85241,51.86647],[5.8525,51.86642],[5.85315,51.86641],[5.8538,51.86635],[5.85439,51.86626],[5.85528,51.86605],[5.85562,51.86595],[5.85652,51.86553],[5.85705,51.86526],[5.85748,51.86496],[5.85832,51.86418],[5.85851,51.86404],[5.85885,51.86391],[5.85924,51.86386],[5.85957,51.86391],[5.85963,51.86394],[5.85976,51.86394],[5.85977,51.86388],[5.86011,51.86393],[5.86011,51.86389],[5.86053,51.86386],[5.86127,51.86419],[5.86185,51.8634],[5.86301,51.8623],[5.86499,51.8603],[5.8666,51.85859],[5.86813,51.85713],[5.86843,51.85697],[5.86873,51.85655],[5.86896,51.85619],[5.86947,51.85525],[5.87011,51.85546],[5.87056,51.85565],[5.87148,51.85608],[5.87191,51.85624],[5.87238,51.85638],[5.87314,51.85655],[5.87439,51.85671],[5.87355,51.85533],[5.87307,51.85477],[5.87297,51.85469],[5.87279,51.85459],[5.87246,51.85446],[5.87172,51.85419],[5.87144,51.85411],[5.87019,51.85381],[5.86983,51.85376],[5.8685,51.85348],[5.86798,51.85342],[5.86767,51.85345],[5.8675,51.85344],[5.86725,51.85341],[5.86642,51.85323],[5.86598,51.85319],[5.86586,51.85321],[5.86512,51.8526],[5.86489,51.85269],[5.86427,51.8528],[5.86384,51.85284],[5.86313,51.85295],[5.86284,51.85297],[5.86259,51.85297],[5.86254,51.85293],[5.86259,51.8529],[5.86252,51.85285],[5.86163,51.85292],[5.86078,51.85309],[5.85975,51.85325],[5.85934,51.85328],[5.85857,51.85338],[5.8583,51.85347],[5.85794,51.85352],[5.85781,51.85358],[5.85774,51.85366],[5.8577,51.85368],[5.85754,51.85373],[5.85739,51.85375],[5.85889,51.85672],[5.85886,51.85673],[5.85888,51.85676],[5.85891,51.85676],[5.85912,51.85718],[5.85914,51.85718],[5.85923,51.85739],[5.85935,51.85787],[5.85824,51.85867],[5.85625,51.8608],[5.85542,51.86148],[5.85452,51.86231],[5.8526,51.8632],[5.85155,51.86331],[5.85064,51.8637],[5.84896,51.86232],[5.84793,51.86316],[5.84776,51.86344],[5.84735,51.86391],[5.84731,51.86399],[5.84728,51.86408],[5.84733,51.86444],[5.84732,51.8645],[5.84716,51.86486],[5.84712,51.86493]]]}}]}