{"type":"FeatureCollection","features":[{"type":"Feature","properties":{"name":"Evershagen"},"geometry":{"type":"Polygon","coordinates":[[[12.03383,54.13068],[12.03899,54.13071],[12.04404,54.13125],[12.04507,54.13155],[12.04787,54.13064],[12.05069,54.13052],[12.05418,54.12964],[12.05856,54.12978],[12.06013,54.12952],[12.06421,54.12991],[12.0647,54.1312],[12.06468,54.13204],[12.06505,54.13217],[12.06596,54.12748],[12.06678,54.12563],[12.07003,54.12145],[12.07798,54.11374],[12.0777,54.11338],[12.07701,54.11319],[12.07756,54.11287],[12.07823,54.11201],[12.07521,54.11066],[12.07496,54.10995],[12.07564,54.1096],[12.07548,54.1087],[12.07464,54.10843],[12.0737,54.10838],[12.07112,54.10701],[12.07028,54.10679],[12.06978,54.10625],[12.0682,54.10583],[12.06552,54.10727],[12.06483,54.10509],[12.05416,54.10601],[12.04956,54.10609],[12.04957,54.10649],[12.04879,54.1066],[12.03706,54.10763],[12.03675,54.11018],[12.03608,54.11117],[12.03702,54.11132],[12.03731,54.11167],[12.0372,54.11222],[12.03837,54.1119],[12.03873,54.11269],[12.03916,54.11268],[12.03886,54.11349],[12.03774,54.11324],[12.03651,54.11466],[12.0373,54.11496],[12.03712,54.11626],[12.03467,54.11536],[12.0328,54.11982],[12.03195,54.11999],[12.02464,54.12258],[12.02234,54.12295],[12.02213,54.12335],[12.02085,54.12444],[12.01988,54.12499],[12.01957,54.12501],[12.01933,54.12878],[12.02024,54.12864],[12.02311,54.12771],[12.02675,54.12762],[12.03018,54.12692],[12.03143,54.12684],[12.03316,54.127],[12.03367,54.13036],[12.03383,54.13068]]]}},{"type":"Feature","properties":{"name":"Wiethagen"},"geometry":{"type":"Polygon","coordinates":[[[12.26497,54.2276],[12.26544,54.22652],[12.26467,54.22614],[12.26485,54.2257],[12.26441,54.22511],[12.26377,54.22333],[12.26416,54.22174],[12.26483,54.22143],[12.26502,54.21904],[12.26473,54.21757],[12.26427,54.21683],[12.26413,54.21589],[12.26346,54.21508],[12.26553,54.21462],[12.2694,54.21431],[12.27082,54.21404],[12.27199,54.21355],[12.27231,54.21255],[12.27234,54.21059],[12.27264,54.21029],[12.27427,54.20974],[12.27603,54.20944],[12.2772,54.20854],[12.27963,54.20757],[12.27975,54.20733],[12.28308,54.2052],[12.28533,54.20408],[12.29542,54.19539],[12.26715,54.18426],[12.26549,54.18527],[12.26238,54.18551],[12.26131,54.18544],[12.26087,54.18423],[12.25992,54.18435],[12.25931,54.1832],[12.25754,54.18276],[12.25746,54.18262],[12.24453,54.18419],[12.23186,54.18238],[12.2303,54.18239],[12.22893,54.18217],[12.22879,54.18192],[12.22869,54.18078],[12.22827,54.18073],[12.228,54.17962],[12.2258,54.17881],[12.22441,54.17866],[12.22533,54.18332],[12.21166,54.1827],[12.22073,54.19428],[12.22314,54.19586],[12.22544,54.19555],[12.22434,54.197],[12.22385,54.19862],[12.22451,54.22235],[12.25566,54.22656],[12.26051,54.22697],[12.26497,54.2276]]]}},{"type":"Feature","properties":{"name":"Gartenstadt/Stadtweide"},"geometry":{"type":"Polygon","coordinates":[[[12.08803,54.08987],[12.08803,54.08624],[12.08774,54.08469],[12.0876,54.08269],[12.08699,54.08093],[12.08689,54.08008],[12.08788,54.07984],[12.0891,54.08],[12.09198,54.07998],[12.09486,54.07952],[12.0944,54.07933],[12.09437,54.07882],[12.09604,54.07628],[12.09272,54.07556],[12.09063,54.07442],[12.09302,54.07258],[12.09849,54.06759],[12.09809,54.06724],[12.09813,54.06664],[12.09773,54.06637],[12.09543,54.06572],[12.09203,54.06579],[12.08736,54.06539],[12.08574,54.06605],[12.08323,54.06608],[12.08185,54.06644],[12.07882,54.06589],[12.07819,54.06556],[12.0753,54.06528],[12.07446,54.06488],[12.07434,54.06503],[12.07281,54.06473],[12.07293,54.06433],[12.0728,54.06429],[12.07285,54.0638],[12.07244,54.06345],[12.07023,54.06247],[12.06984,54.06189],[12.0685,54.06158],[12.06852,54.06134],[12.06838,54.06126],[12.06672,54.06102],[12.06493,54.05936],[12.06389,54.05987],[12.06494,54.06061],[12.06343,54.06182],[12.06463,54.06234],[12.06421,54.06301],[12.06961,54.06531],[12.07342,54.06654],[12.07364,54.06738],[12.07306,54.06779],[12.07281,54.06823],[12.07064,54.06848],[12.06959,54.06844],[12.066,54.06782],[12.06054,54.0759],[12.06196,54.07595],[12.06143,54.07712],[12.0622,54.07793],[12.06136,54.0787],[12.06014,54.07935],[12.06117,54.07953],[12.06179,54.08014],[12.06285,54.08073],[12.07048,54.08345],[12.06825,54.08587],[12.068,54.08679],[12.06777,54.08679],[12.06783,54.08748],[12.06766,54.08843],[12.07033,54.08921],[12.07041,54.08957],[12.07006,54.08991],[12.07013,54.09036],[12.07098,54.09054],[12.07149,54.09095],[12.07307,54.09107],[12.07377,54.09135],[12.07413,54.09185],[12.07795,54.0909],[12.081,54.08982],[12.08054,54.08913],[12.08079,54.08878],[12.08139,54.08864],[12.08128,54.08846],[12.08231,54.08833],[12.08266,54.08931],[12.08734,54.08947],[12.0873,54.08986],[12.08803,54.08987]]]}},{"type":"Feature","properties":{"name":"Brinckmansdorf"},"geometry":{"type":"Polygon","coordinates":[[[12.19236,54.10892],[12.19244,54.10872],[12.19434,54.10981],[12.19391,54.10947],[12.1935,54.10876],[12.1906,54.10705],[12.19056,54.10678],[12.19399,54.10516],[12.19432,54.10511],[12.19507,54.10563],[12.19533,54.10532],[12.19469,54.10489],[12.19615,54.10396],[12.19748,54.10278],[12.19789,54.10198],[12.19966,54.09993],[12.20058,54.09824],[12.20124,54.09641],[12.20117,54.09577],[12.2014,54.09413],[12.20107,54.09235],[12.19808,54.08487],[12.19808,54.08431],[12.19922,54.08285],[12.19885,54.08123],[12.19894,54.08085],[12.19726,54.08096],[12.19589,54.07986],[12.19264,54.0786],[12.1909,54.07813],[12.19047,54.06917],[12.17006,54.06699],[12.16981,54.06678],[12.16617,54.06981],[12.16541,54.0707],[12.1653,54.07106],[12.15864,54.06863],[12.15774,54.06894],[12.15593,54.07044],[12.15356,54.07158],[12.1531,54.07234],[12.15266,54.07423],[12.15289,54.07526],[12.15392,54.07698],[12.15394,54.07873],[12.15343,54.08003],[12.15272,54.0808],[12.15252,54.08126],[12.15555,54.08359],[12.15558,54.08435],[12.1549,54.08595],[12.15363,54.08813],[12.15419,54.09102],[12.15395,54.092],[12.15237,54.09419],[12.15143,54.09497],[12.14873,54.09606],[12.15226,54.0974],[12.15314,54.09854],[12.15195,54.09882],[12.15411,54.10063],[12.15617,54.09985],[12.15674,54.09938],[12.1596,54.09887],[12.16086,54.09879],[12.16626,54.09771],[12.16903,54.09683],[12.16993,54.09639],[12.17527,54.0989],[12.18584,54.10508],[12.18609,54.10562],[12.18571,54.10639],[12.18631,54.10793],[12.18622,54.10912],[12.18679,54.10927],[12.18894,54.10808],[12.19006,54.10765],[12.19236,54.10892]]]}},{"type":"Feature","properties":{"name":"Torfbrücke"},"geometry":{"type":"Polygon","coordinates":[[[12.20104,54.24451],[12.22476,54.2421],[12.22496,54.24288],[12.2261,54.24313],[12.22805,54.24257],[12.22944,54.24244],[12.23004,54.242],[12.23227,54.24133],[12.23489,54.24186],[12.23964,54.24095],[12.24028,54.24112],[12.24251,54.24265],[12.24305,54.24284],[12.24494,54.24291],[12.24587,54.2424],[12.24698,54.24215],[12.24729,54.24164],[12.24785,54.24162],[12.2485,54.24226],[12.24929,54.24156],[12.25149,54.24137],[12.2522,54.24182],[12.25444,54.24225],[12.25521,54.24255],[12.25599,54.2432],[12.25851,54.24295],[12.2627,54.24341],[12.26373,54.24236],[12.26472,54.24177],[12.26716,54.24159],[12.26809,54.24019],[12.26782,54.23966],[12.26766,54.23842],[12.26641,54.23794],[12.26763,54.23641],[12.26729,54.23582],[12.26663,54.23544],[12.26646,54.23488],[12.26689,54.23437],[12.26653,54.23377],[12.26644,54.2328],[12.26599,54.23216],[12.26583,54.23087],[12.26497,54.22892],[12.26474,54.22804],[12.26497,54.2276],[12.26051,54.22697],[12.25566,54.22656],[12.22187,54.22197],[12.18789,54.22388],[12.1805,54.22918],[12.17781,54.23071],[12.18283,54.23477],[12.18993,54.23923],[12.19335,54.24092],[12.19467,54.24175],[12.19952,54.24373],[12.20104,54.24451]]]}},{"type":"Feature","properties":{"name":"Hinrichsdorf"},"geometry":{"type":"Polygon","coordinates":[[[12.16168,54.13979],[12.16284,54.13916],[12.16415,54.13882],[12.16469,54.13962],[12.16519,54.13973],[12.16597,54.13503],[12.17137,54.1331],[12.17549,54.13231],[12.17871,54.13121],[12.17626,54.12979],[12.17294,54.12887],[12.17283,54.12865],[12.17292,54.12593],[12.17333,54.12448],[12.17277,54.12442],[12.17119,54.12186],[12.17168,54.1206],[12.17243,54.12005],[12.1735,54.11886],[12.17195,54.11724],[12.17153,54.11633],[12.17149,54.11573],[12.16905,54.11689],[12.15678,54.12449],[12.1409,54.13287],[12.14158,54.13348],[12.14105,54.13356],[12.13867,54.13704],[12.13755,54.14035],[12.13997,54.14203],[12.1441,54.1424],[12.14515,54.1416],[12.15324,54.13709],[12.15841,54.14031],[12.16061,54.13909],[12.16168,54.13979]]]}},{"type":"Feature","properties":{"name":"Stuthof"},"geometry":{"type":"Polygon","coordinates":[[[12.17546,54.17811],[12.17358,54.17295],[12.1801,54.17264],[12.18021,54.16808],[12.1825,54.16806],[12.18371,54.1685],[12.18516,54.16835],[12.18869,54.16877],[12.18801,54.16834],[12.18881,54.16724],[12.17501,54.16231],[12.17474,54.16203],[12.17472,54.16177],[12.17588,54.15942],[12.17496,54.15935],[12.17004,54.16006],[12.16825,54.16136],[12.16229,54.16124],[12.15802,54.16202],[12.15755,54.16197],[12.15503,54.15954],[12.15489,54.15955],[12.15306,54.1599],[12.15189,54.16048],[12.15036,54.16072],[12.15006,54.1611],[12.14899,54.16176],[12.14707,54.16253],[12.14362,54.16165],[12.14312,54.16135],[12.14263,54.1605],[12.14205,54.16033],[12.13964,54.16077],[12.13678,54.15991],[12.1324,54.16046],[12.12819,54.16698],[12.13463,54.17013],[12.1399,54.17323],[12.14388,54.17479],[12.15388,54.1804],[12.15435,54.18069],[12.15458,54.18107],[12.17546,54.17811]]]}},{"type":"Feature","properties":{"name":"Dierkow-Neu"},"geometry":{"type":"Polygon","coordinates":[[[12.17149,54.11573],[12.17702,54.11294],[12.18546,54.10923],[12.18622,54.10912],[12.18631,54.10793],[12.18571,54.10639],[12.18609,54.10562],[12.18584,54.10508],[12.17499,54.09877],[12.17252,54.10059],[12.16977,54.10174],[12.16861,54.10204],[12.16695,54.10199],[12.15875,54.1035],[12.15662,54.09945],[12.15617,54.09985],[12.15369,54.10079],[12.15346,54.10102],[12.15317,54.10167],[12.15318,54.10219],[12.15482,54.10457],[12.15651,54.10578],[12.15839,54.10622],[12.15784,54.10686],[12.16363,54.10957],[12.16312,54.10986],[12.16468,54.11042],[12.16545,54.11119],[12.1666,54.11493],[12.1661,54.11874],[12.16905,54.11689],[12.17149,54.11573]]]}},{"type":"Feature","properties":{"name":"Krummendorf"},"geometry":{"type":"Polygon","coordinates":[[[12.1409,54.13287],[12.15678,54.12449],[12.1661,54.11874],[12.16661,54.11509],[12.16643,54.11415],[12.1645,54.11524],[12.16359,54.11554],[12.15449,54.12081],[12.1471,54.12451],[12.1437,54.12649],[12.14217,54.12544],[12.14151,54.12569],[12.13947,54.12449],[12.13777,54.12177],[12.13413,54.12185],[12.12739,54.11984],[12.12454,54.11988],[12.12381,54.11961],[12.12385,54.11799],[12.12186,54.11837],[12.12075,54.11921],[12.11179,54.12109],[12.10934,54.1218],[12.10588,54.12217],[12.10522,54.12281],[12.10349,54.12331],[12.10044,54.12461],[12.09346,54.12464],[12.09389,54.1291],[12.09505,54.13155],[12.09446,54.13442],[12.09385,54.13569],[12.10024,54.13568],[12.10421,54.13536],[12.10643,54.13537],[12.11071,54.1359],[12.11608,54.1374],[12.11878,54.13797],[12.12246,54.13833],[12.12565,54.1383],[12.12898,54.13789],[12.13264,54.1369],[12.13449,54.13612],[12.1409,54.13287]]]}},{"type":"Feature","properties":{"name":"Stadtmitte"},"geometry":{"type":"Polygon","coordinates":[[[12.14873,54.09606],[12.15143,54.09497],[12.15237,54.09419],[12.15395,54.092],[12.15419,54.09102],[12.15363,54.08813],[12.1549,54.08595],[12.15558,54.08435],[12.15555,54.08359],[12.15252,54.08126],[12.15272,54.0808],[12.15343,54.08003],[12.15394,54.07873],[12.15392,54.07698],[12.15289,54.07526],[12.15266,54.07423],[12.1531,54.07234],[12.15356,54.07158],[12.15593,54.07044],[12.15718,54.06933],[12.15821,54.06874],[12.1542,54.06468],[12.14803,54.06312],[12.14765,54.06172],[12.14702,54.06188],[12.14625,54.06234],[12.14607,54.06091],[12.14575,54.061],[12.14543,54.06191],[12.14461,54.06284],[12.14281,54.06431],[12.14205,54.06521],[12.14167,54.06588],[12.14041,54.07052],[12.13985,54.07166],[12.13889,54.07288],[12.13657,54.07443],[12.13429,54.07561],[12.13373,54.07577],[12.13344,54.07568],[12.13137,54.07748],[12.13094,54.07726],[12.13059,54.07778],[12.12984,54.07833],[12.12772,54.0798],[12.12645,54.08038],[12.12727,54.08143],[12.1275,54.08201],[12.12736,54.0826],[12.12605,54.08549],[12.12604,54.08643],[12.12642,54.08789],[12.12748,54.0882],[12.12766,54.08847],[12.12768,54.08919],[12.12792,54.08989],[12.12854,54.09079],[12.12971,54.09151],[12.12991,54.09198],[12.12454,54.09203],[12.12255,54.0922],[12.12044,54.09256],[12.11609,54.09363],[12.11379,54.09391],[12.1138,54.09665],[12.12058,54.09495],[12.12483,54.09443],[12.13787,54.09548],[12.14873,54.09606]]]}},{"type":"Feature","properties":{"name":"Seebad Markgrafenheide"},"geometry":{"type":"Polygon","coordinates":[[[12.16033,54.21293],[12.16144,54.21277],[12.16421,54.21194],[12.16351,54.21163],[12.16116,54.20924],[12.1577,54.20764],[12.15714,54.20713],[12.15671,54.20584],[12.15683,54.20568],[12.15662,54.20484],[12.15771,54.20254],[12.16894,54.20556],[12.17483,54.2037],[12.16789,54.19319],[12.17899,54.1916],[12.17808,54.19099],[12.17814,54.18947],[12.17662,54.18769],[12.17671,54.18617],[12.17531,54.18306],[12.17517,54.18145],[12.1745,54.18005],[12.17448,54.17941],[12.17546,54.17811],[12.15458,54.18107],[12.15435,54.18069],[12.15388,54.1804],[12.14388,54.17479],[12.1399,54.17323],[12.14044,54.17592],[12.13961,54.17631],[12.13922,54.17688],[12.14126,54.17956],[12.14102,54.17974],[12.14114,54.18022],[12.14104,54.18092],[12.13936,54.1831],[12.13938,54.18447],[12.13801,54.18436],[12.13041,54.18765],[12.13448,54.19007],[12.13812,54.1931],[12.13914,54.19366],[12.14055,54.19483],[12.14295,54.19704],[12.14995,54.20278],[12.15209,54.2048],[12.15437,54.20662],[12.15604,54.20833],[12.15721,54.20982],[12.16033,54.21293]]]}},{"type":"Feature","properties":{"name":"Hinrichshagen"},"geometry":{"type":"Polygon","coordinates":[[[12.17781,54.23071],[12.1805,54.22918],[12.18789,54.22388],[12.22187,54.22197],[12.22451,54.22235],[12.22385,54.19862],[12.22434,54.197],[12.22544,54.19555],[12.22314,54.19586],[12.22073,54.19428],[12.21166,54.1827],[12.20806,54.1825],[12.20568,54.18219],[12.20324,54.18298],[12.19982,54.18361],[12.17671,54.18617],[12.17662,54.18769],[12.17814,54.18947],[12.17808,54.19099],[12.17899,54.1916],[12.16789,54.19319],[12.17483,54.2037],[12.16894,54.20556],[12.15771,54.20254],[12.15662,54.20484],[12.15688,54.20651],[12.15729,54.20728],[12.1577,54.20764],[12.16116,54.20924],[12.16351,54.21163],[12.16421,54.21194],[12.16144,54.21277],[12.16033,54.21293],[12.16161,54.21432],[12.16276,54.21607],[12.1652,54.21864],[12.16718,54.22113],[12.17156,54.22551],[12.17395,54.22753],[12.17533,54.22898],[12.17781,54.23071]]]}},{"type":"Feature","properties":{"name":"Groß Klein"},"geometry":{"type":"Polygon","coordinates":[[[12.0968,54.15571],[12.09573,54.1543],[12.09328,54.14702],[12.09144,54.14404],[12.08279,54.14388],[12.07984,54.1432],[12.07925,54.14324],[12.07787,54.14371],[12.07271,54.14362],[12.07188,54.14339],[12.07073,54.14221],[12.07077,54.14184],[12.07117,54.14114],[12.0708,54.14048],[12.07039,54.13921],[12.06964,54.13879],[12.0695,54.13825],[12.06719,54.13786],[12.06485,54.13792],[12.06487,54.14085],[12.06522,54.14243],[12.06604,54.14411],[12.06846,54.14702],[12.06953,54.14888],[12.07192,54.1562],[12.07203,54.15983],[12.07228,54.16101],[12.07321,54.16279],[12.07469,54.16438],[12.07528,54.16418],[12.07515,54.16385],[12.07417,54.16298],[12.07411,54.16273],[12.07527,54.16149],[12.07503,54.16091],[12.07772,54.15925],[12.07819,54.15917],[12.07806,54.15823],[12.07851,54.1578],[12.08375,54.15599],[12.08734,54.15535],[12.0889,54.15552],[12.08937,54.15604],[12.09026,54.1556],[12.09188,54.15529],[12.09243,54.15535],[12.09263,54.15557],[12.0968,54.15571]]]}},{"type":"Feature","properties":{"name":"Nienhagen"},"geometry":{"type":"Polygon","coordinates":[[[12.17588,54.15942],[12.17597,54.15916],[12.17863,54.15932],[12.18284,54.15901],[12.18408,54.15675],[12.1837,54.15559],[12.18572,54.15511],[12.18627,54.15475],[12.18678,54.15351],[12.18672,54.15293],[12.18693,54.15184],[12.188,54.1483],[12.19008,54.14797],[12.18718,54.14147],[12.18468,54.13627],[12.18368,54.13451],[12.17871,54.13121],[12.17549,54.13231],[12.17137,54.1331],[12.16597,54.13503],[12.16519,54.13973],[12.16469,54.13962],[12.16415,54.13882],[12.16284,54.13916],[12.16168,54.13979],[12.16433,54.1418],[12.16338,54.14231],[12.16502,54.14332],[12.16422,54.14499],[12.1617,54.14563],[12.16237,54.14642],[12.16226,54.1468],[12.15943,54.14714],[12.15958,54.14794],[12.15973,54.14794],[12.16027,54.15081],[12.15593,54.1511],[12.15604,54.15171],[12.14983,54.15212],[12.15437,54.15569],[12.15563,54.1578],[12.15538,54.15876],[12.15552,54.15948],[12.15503,54.15954],[12.15758,54.16198],[12.15802,54.16202],[12.16229,54.16124],[12.16825,54.16136],[12.17004,54.16006],[12.17496,54.15935],[12.17588,54.15942]]]}},{"type":"Feature","properties":{"name":"Dierkow-West"},"geometry":{"type":"Polygon","coordinates":[[[12.15368,54.1008],[12.14958,54.10239],[12.14392,54.10373],[12.14311,54.10431],[12.1422,54.10579],[12.14146,54.1064],[12.14142,54.10682],[12.14335,54.10899],[12.14363,54.1099],[12.14456,54.11119],[12.14481,54.11234],[12.14474,54.11332],[12.14653,54.11358],[12.14767,54.1135],[12.14898,54.1131],[12.15016,54.11236],[12.15102,54.11291],[12.15302,54.11218],[12.15417,54.11081],[12.15486,54.11065],[12.15475,54.11006],[12.15452,54.10979],[12.15641,54.10852],[12.15836,54.10951],[12.15809,54.10976],[12.15934,54.11011],[12.161,54.11023],[12.16172,54.11111],[12.16304,54.11085],[12.16273,54.1105],[12.16278,54.11014],[12.16363,54.10957],[12.15784,54.10686],[12.15839,54.10622],[12.15651,54.10578],[12.15452,54.10427],[12.15318,54.10219],[12.15323,54.10146],[12.15368,54.1008]]]}},{"type":"Feature","properties":{"name":"Seebad Diedrichshagen"},"geometry":{"type":"Polygon","coordinates":[[[12.05288,54.17731],[12.05327,54.1759],[12.05056,54.17478],[12.05171,54.17378],[12.05164,54.17286],[12.05236,54.17288],[12.05498,54.17405],[12.05604,54.17414],[12.05719,54.17069],[12.0591,54.16875],[12.06344,54.16554],[12.05996,54.16502],[12.05724,54.16424],[12.0529,54.16335],[12.04677,54.16398],[12.04582,54.16372],[12.04481,54.16395],[12.04401,54.16394],[12.04156,54.16343],[12.03696,54.16304],[12.03319,54.16322],[12.02977,54.16357],[12.01935,54.16649],[12.0177,54.16654],[12.01273,54.16925],[12.01167,54.1714],[12.01009,54.17115],[12.00864,54.17132],[11.99975,54.1733],[11.99955,54.1739],[11.99878,54.17372],[11.99837,54.17411],[11.99852,54.17496],[12.00641,54.17715],[12.01167,54.17826],[12.01358,54.17806],[12.0201,54.17694],[12.02611,54.17646],[12.03318,54.17623],[12.03728,54.17624],[12.04656,54.17663],[12.04997,54.17689],[12.05288,54.17731]]]}},{"type":"Feature","properties":{"name":"Kröpeliner-Tor-Vorstadt"},"geometry":{"type":"Polygon","coordinates":[[[12.09567,54.1125],[12.09702,54.11037],[12.10162,54.1052],[12.1138,54.09665],[12.11379,54.09391],[12.11609,54.09363],[12.12044,54.09256],[12.12255,54.0922],[12.12454,54.09203],[12.12991,54.09198],[12.12971,54.09151],[12.12854,54.09079],[12.12792,54.08989],[12.12768,54.08919],[12.12766,54.08847],[12.12748,54.0882],[12.12642,54.08789],[12.12604,54.08643],[12.12605,54.08549],[12.12736,54.0826],[12.1275,54.08201],[12.12727,54.08143],[12.12645,54.08038],[12.12362,54.08113],[12.11966,54.08116],[12.1177,54.08102],[12.11765,54.08138],[12.11495,54.08183],[12.11222,54.08262],[12.1093,54.08402],[12.10745,54.08534],[12.09648,54.09604],[12.09063,54.10134],[12.08595,54.10607],[12.08766,54.10674],[12.08678,54.10769],[12.09077,54.11083],[12.09088,54.11112],[12.09567,54.1125]]]}},{"type":"Feature","properties":{"name":"Reutershagen"},"geometry":{"type":"Polygon","coordinates":[[[12.08595,54.10607],[12.09063,54.10134],[12.09447,54.09791],[12.10007,54.09256],[12.09834,54.09242],[12.09626,54.09297],[12.09075,54.09089],[12.08917,54.09019],[12.08907,54.08999],[12.0873,54.08986],[12.08734,54.08947],[12.08266,54.08931],[12.08231,54.08833],[12.08128,54.08846],[12.08139,54.08864],[12.08079,54.08878],[12.08054,54.08913],[12.081,54.08982],[12.07795,54.0909],[12.07413,54.09185],[12.07377,54.09135],[12.07307,54.09107],[12.07182,54.09104],[12.07098,54.09054],[12.07013,54.09036],[12.07006,54.08991],[12.07041,54.08957],[12.07033,54.08921],[12.06766,54.08843],[12.06783,54.08748],[12.06777,54.08679],[12.068,54.08679],[12.06825,54.08587],[12.07048,54.08345],[12.06473,54.08139],[12.06444,54.08139],[12.06394,54.08282],[12.06369,54.08309],[12.06212,54.08368],[12.06012,54.08407],[12.05984,54.08557],[12.06014,54.08643],[12.05928,54.08641],[12.05917,54.08711],[12.0586,54.08713],[12.05768,54.08875],[12.05376,54.0899],[12.05352,54.08962],[12.05272,54.08976],[12.05164,54.09025],[12.051,54.09075],[12.04776,54.09168],[12.04816,54.0937],[12.05001,54.09404],[12.05164,54.09518],[12.05171,54.09532],[12.05056,54.09629],[12.05012,54.09645],[12.05006,54.0971],[12.05114,54.09812],[12.05189,54.09855],[12.05244,54.09862],[12.0523,54.09985],[12.05269,54.10017],[12.05277,54.10125],[12.05482,54.10297],[12.04953,54.10405],[12.04956,54.10609],[12.05416,54.10601],[12.06483,54.10509],[12.06553,54.10727],[12.0682,54.10583],[12.06962,54.10619],[12.07028,54.10679],[12.07112,54.10701],[12.07362,54.10835],[12.07464,54.10843],[12.07548,54.1087],[12.07564,54.1096],[12.07496,54.10995],[12.07518,54.11062],[12.07565,54.11096],[12.07823,54.11201],[12.07756,54.11287],[12.07701,54.11319],[12.0777,54.11338],[12.07798,54.11374],[12.07983,54.11178],[12.08595,54.10607]]]}},{"type":"Feature","properties":{"name":"Toitenwinkel"},"geometry":{"type":"Polygon","coordinates":[[[12.16643,54.11415],[12.16585,54.11267],[12.16556,54.11138],[12.16468,54.11042],[12.16312,54.10986],[12.16272,54.1103],[12.16304,54.11085],[12.16172,54.11111],[12.161,54.11023],[12.15934,54.11011],[12.15809,54.10976],[12.15836,54.10951],[12.15641,54.10852],[12.15452,54.10979],[12.15475,54.11006],[12.15486,54.11065],[12.15417,54.11081],[12.15302,54.11218],[12.15102,54.11291],[12.15016,54.11236],[12.14898,54.1131],[12.14767,54.1135],[12.14653,54.11358],[12.14474,54.11332],[12.14481,54.11234],[12.14456,54.11119],[12.14363,54.1099],[12.14335,54.10899],[12.14142,54.10682],[12.14146,54.1064],[12.13989,54.10689],[12.13822,54.10685],[12.13641,54.10628],[12.13407,54.10498],[12.13278,54.10573],[12.13193,54.10665],[12.13065,54.10759],[12.12875,54.108],[12.12767,54.10893],[12.125,54.10941],[12.12224,54.1106],[12.12149,54.11076],[12.12131,54.11238],[12.12161,54.11308],[12.12174,54.11421],[12.1228,54.11539],[12.12392,54.11811],[12.12387,54.11967],[12.12477,54.11992],[12.12739,54.11984],[12.13413,54.12185],[12.13777,54.12177],[12.13947,54.12449],[12.14151,54.12569],[12.14217,54.12544],[12.1437,54.12649],[12.1471,54.12451],[12.15449,54.12081],[12.16359,54.11554],[12.1645,54.11524],[12.16643,54.11415]]]}},{"type":"Feature","properties":{"name":"Peez"},"geometry":{"type":"Polygon","coordinates":[[[12.12819,54.16698],[12.1324,54.16046],[12.13678,54.15991],[12.13964,54.16077],[12.14205,54.16033],[12.14263,54.1605],[12.14312,54.16135],[12.14362,54.16165],[12.14707,54.16253],[12.14899,54.16176],[12.15006,54.1611],[12.15039,54.16071],[12.15189,54.16048],[12.15306,54.1599],[12.15552,54.15948],[12.15538,54.15876],[12.15563,54.1578],[12.15437,54.15569],[12.14983,54.15212],[12.15604,54.15171],[12.15593,54.1511],[12.16027,54.15081],[12.15973,54.14794],[12.15958,54.14794],[12.15943,54.14714],[12.16226,54.1468],[12.16237,54.14642],[12.1617,54.14563],[12.16422,54.14499],[12.16502,54.14332],[12.16338,54.14231],[12.16433,54.1418],[12.16061,54.13909],[12.15841,54.14031],[12.15324,54.13709],[12.14515,54.1416],[12.1441,54.1424],[12.13997,54.14203],[12.13755,54.14035],[12.13867,54.13704],[12.14105,54.13356],[12.14158,54.13348],[12.1409,54.13287],[12.13449,54.13612],[12.13264,54.1369],[12.12898,54.13789],[12.12565,54.1383],[12.12246,54.13833],[12.11878,54.13797],[12.11608,54.1374],[12.11071,54.1359],[12.10643,54.13537],[12.10421,54.13536],[12.10024,54.13568],[12.09385,54.13569],[12.09221,54.1391],[12.09144,54.14404],[12.09328,54.14702],[12.09573,54.1543],[12.10043,54.16051],[12.11238,54.16454],[12.12819,54.16698]]]}},{"type":"Feature","properties":{"name":"Jürgeshof"},"geometry":{"type":"Polygon","coordinates":[[[12.20568,54.18219],[12.20541,54.18053],[12.20553,54.17859],[12.20586,54.17805],[12.20697,54.17753],[12.20523,54.17754],[12.20146,54.17457],[12.20127,54.17425],[12.2011,54.17047],[12.19845,54.16846],[12.19751,54.168],[12.19168,54.16811],[12.18881,54.16724],[12.18801,54.16834],[12.18869,54.16877],[12.18516,54.16835],[12.18371,54.1685],[12.1825,54.16806],[12.18021,54.16808],[12.1801,54.17264],[12.17358,54.17295],[12.17546,54.17811],[12.17448,54.17941],[12.1745,54.18005],[12.17517,54.18145],[12.17531,54.18306],[12.17671,54.18617],[12.19982,54.18361],[12.20324,54.18298],[12.20568,54.18219]]]}},{"type":"Feature","properties":{"name":"Seebad Hohe Düne"},"geometry":{"type":"Polygon","coordinates":[[[12.13041,54.18765],[12.13801,54.18436],[12.13938,54.18447],[12.13936,54.1831],[12.14104,54.18092],[12.14114,54.18022],[12.14102,54.17974],[12.14126,54.17956],[12.13922,54.17688],[12.13961,54.17631],[12.14044,54.17592],[12.13982,54.17315],[12.13463,54.17013],[12.12819,54.16698],[12.11238,54.16454],[12.10043,54.16051],[12.09905,54.16501],[12.09849,54.16909],[12.1012,54.16931],[12.1011,54.16947],[12.10061,54.16941],[12.1,54.17048],[12.09982,54.17125],[12.09744,54.17544],[12.09671,54.17738],[12.09679,54.17759],[12.09731,54.17772],[12.09702,54.17835],[12.09514,54.18119],[12.09392,54.18185],[12.09406,54.18194],[12.0954,54.18132],[12.09499,54.18325],[12.09403,54.18527],[12.09847,54.18505],[12.10031,54.18427],[12.10266,54.18261],[12.10401,54.18064],[12.10397,54.1798],[12.10287,54.1789],[12.1052,54.17837],[12.10685,54.17836],[12.109,54.17856],[12.1122,54.17932],[12.1157,54.18037],[12.11995,54.18192],[12.12231,54.18296],[12.13041,54.18765]]]}},{"type":"Feature","properties":{"name":"Biestow"},"geometry":{"type":"Polygon","coordinates":[[[12.11723,54.05817],[12.1161,54.05842],[12.11464,54.05745],[12.11194,54.05722],[12.10917,54.05598],[12.10728,54.05533],[12.10551,54.05507],[12.10443,54.05409],[12.10187,54.05405],[12.10141,54.05393],[12.10052,54.05337],[12.09861,54.05305],[12.09732,54.053],[12.09662,54.0508],[12.09634,54.0509],[12.09617,54.05168],[12.09497,54.05257],[12.09143,54.05211],[12.09006,54.05242],[12.08867,54.05123],[12.0883,54.05109],[12.08601,54.05152],[12.08549,54.05125],[12.08168,54.05145],[12.07944,54.05194],[12.07875,54.05221],[12.0787,54.05257],[12.07743,54.05272],[12.07368,54.05534],[12.07241,54.05709],[12.07292,54.05738],[12.07315,54.0627],[12.07281,54.06473],[12.07434,54.06503],[12.07446,54.06488],[12.07559,54.06533],[12.07819,54.06556],[12.07882,54.06589],[12.08185,54.06644],[12.08323,54.06608],[12.08574,54.06605],[12.08736,54.06539],[12.09203,54.06579],[12.09543,54.06572],[12.09798,54.06649],[12.09816,54.0667],[12.09809,54.06724],[12.09849,54.06759],[12.09834,54.06772],[12.09972,54.06776],[12.10364,54.06848],[12.10535,54.06816],[12.10751,54.06843],[12.10823,54.0687],[12.11141,54.0682],[12.11137,54.0677],[12.11007,54.06672],[12.11048,54.06649],[12.10915,54.06523],[12.10859,54.06537],[12.10609,54.06315],[12.10752,54.06262],[12.10676,54.06192],[12.10676,54.06149],[12.11737,54.06227],[12.11723,54.05817]]]}},{"type":"Feature","properties":{"name":"Seebad Warnemünde"},"geometry":{"type":"Polygon","coordinates":[[[12.09849,54.16909],[12.09905,54.16501],[12.10043,54.16051],[12.0968,54.15571],[12.09263,54.15557],[12.09243,54.15535],[12.09188,54.15529],[12.09026,54.1556],[12.08937,54.15604],[12.0889,54.15552],[12.0878,54.15534],[12.08698,54.15539],[12.08375,54.15599],[12.07822,54.15797],[12.07806,54.15823],[12.07819,54.15917],[12.07772,54.15925],[12.07503,54.16091],[12.07527,54.16149],[12.07412,54.16267],[12.07417,54.16298],[12.07515,54.16385],[12.07528,54.16418],[12.07329,54.16497],[12.06932,54.16571],[12.06824,54.16557],[12.06344,54.16554],[12.0591,54.16875],[12.05719,54.17069],[12.05604,54.17414],[12.05498,54.17405],[12.05236,54.17288],[12.05164,54.17286],[12.05171,54.17378],[12.05056,54.17478],[12.05327,54.1759],[12.05288,54.17731],[12.05509,54.17762],[12.0589,54.17783],[12.06608,54.17882],[12.06644,54.17883],[12.06656,54.17864],[12.06786,54.17873],[12.07449,54.18017],[12.07822,54.18172],[12.08035,54.18238],[12.08228,54.1833],[12.08559,54.18449],[12.08659,54.18468],[12.08673,54.18482],[12.08677,54.18563],[12.08665,54.18566],[12.08683,54.1859],[12.08642,54.18672],[12.08655,54.18679],[12.08697,54.18582],[12.08857,54.18567],[12.09128,54.18172],[12.09163,54.18147],[12.09402,54.17737],[12.09381,54.17733],[12.0942,54.17665],[12.09736,54.17133],[12.09769,54.16998],[12.09849,54.16909]]]}},{"type":"Feature","properties":{"name":"Lichtenhagen"},"geometry":{"type":"Polygon","coordinates":[[[12.07469,54.16438],[12.07321,54.16279],[12.07228,54.16101],[12.07203,54.15983],[12.07192,54.1562],[12.06953,54.14888],[12.06846,54.14702],[12.06604,54.14411],[12.06522,54.14243],[12.06316,54.14257],[12.0633,54.14283],[12.06071,54.14301],[12.06073,54.14397],[12.05751,54.144],[12.05769,54.14661],[12.05653,54.14694],[12.05516,54.1469],[12.0551,54.14742],[12.05456,54.14838],[12.05325,54.14926],[12.04789,54.15028],[12.04695,54.14823],[12.03128,54.14402],[12.03027,54.14363],[12.02967,54.1439],[12.02896,54.14335],[12.02736,54.14401],[12.02711,54.14588],[12.02676,54.14627],[12.02849,54.14681],[12.02783,54.14816],[12.02767,54.14891],[12.02515,54.14819],[12.02466,54.14901],[12.0222,54.152],[12.01959,54.15375],[12.02085,54.15413],[12.01957,54.15511],[12.02694,54.15638],[12.02673,54.15682],[12.02761,54.15704],[12.02741,54.15712],[12.02775,54.158],[12.03319,54.16322],[12.03696,54.16304],[12.04156,54.16343],[12.04401,54.16394],[12.04481,54.16395],[12.04582,54.16372],[12.04677,54.16398],[12.0529,54.16335],[12.06198,54.1654],[12.06511,54.16563],[12.06824,54.16557],[12.06932,54.16571],[12.07329,54.16497],[12.07469,54.16438]]]}},{"type":"Feature","properties":{"name":"Gehlsdorf"},"geometry":{"type":"Polygon","coordinates":[[[12.12385,54.11799],[12.1228,54.11539],[12.12172,54.11413],[12.12161,54.11308],[12.12131,54.11238],[12.12149,54.11076],[12.12224,54.1106],[12.125,54.10941],[12.12767,54.10893],[12.12875,54.108],[12.13065,54.10759],[12.13193,54.10665],[12.13278,54.10573],[12.13407,54.10498],[12.13641,54.10628],[12.13777,54.10676],[12.13943,54.10693],[12.14108,54.10658],[12.14206,54.10594],[12.14311,54.10431],[12.14392,54.10373],[12.14958,54.10239],[12.15411,54.10063],[12.15195,54.09882],[12.15314,54.09854],[12.15226,54.0974],[12.14873,54.09606],[12.13787,54.09548],[12.12483,54.09443],[12.12058,54.09495],[12.1138,54.09665],[12.10162,54.1052],[12.09702,54.11037],[12.09334,54.11621],[12.09346,54.12464],[12.10044,54.12461],[12.10349,54.12331],[12.10522,54.12281],[12.10588,54.12217],[12.10934,54.1218],[12.11179,54.12109],[12.12075,54.11921],[12.12186,54.11837],[12.12385,54.11799]]]}},{"type":"Feature","properties":{"name":"Lütten Klein"},"geometry":{"type":"Polygon","coordinates":[[[12.06485,54.13792],[12.06484,54.13407],[12.06505,54.13217],[12.06468,54.13204],[12.0647,54.1312],[12.06438,54.13014],[12.06414,54.12988],[12.06013,54.12952],[12.05856,54.12978],[12.05418,54.12964],[12.05069,54.13052],[12.04787,54.13064],[12.04507,54.13155],[12.04404,54.13125],[12.03899,54.13071],[12.03382,54.13069],[12.03296,54.13469],[12.03668,54.13511],[12.03595,54.13641],[12.0366,54.13654],[12.03599,54.13706],[12.03692,54.13732],[12.03742,54.1378],[12.03725,54.13821],[12.03674,54.13813],[12.03675,54.13999],[12.03694,54.1401],[12.03607,54.1401],[12.03573,54.14123],[12.0338,54.141],[12.03302,54.14181],[12.0329,54.14221],[12.03035,54.14355],[12.03014,54.14353],[12.03071,54.14387],[12.04695,54.14823],[12.04789,54.15028],[12.04859,54.15021],[12.05325,54.14926],[12.05456,54.14838],[12.0551,54.14742],[12.05516,54.1469],[12.05653,54.14694],[12.05769,54.14661],[12.05751,54.144],[12.06073,54.14397],[12.06071,54.14301],[12.0633,54.14283],[12.06316,54.14257],[12.06522,54.14243],[12.06487,54.14085],[12.06485,54.13792]]]}},{"type":"Feature","properties":{"name":"Südstadt"},"geometry":{"type":"Polygon","coordinates":[[[12.12645,54.08038],[12.12772,54.0798],[12.12984,54.07833],[12.13059,54.07778],[12.13094,54.07726],[12.13137,54.07748],[12.13344,54.07568],[12.13373,54.07577],[12.13429,54.07561],[12.13657,54.07443],[12.13904,54.07273],[12.13985,54.07166],[12.14041,54.07052],[12.14167,54.06588],[12.14205,54.06521],[12.14281,54.06431],[12.14461,54.06284],[12.14543,54.06191],[12.14575,54.061],[12.1461,54.06091],[12.1459,54.05857],[12.14494,54.05835],[12.13972,54.05908],[12.13357,54.05957],[12.13361,54.05932],[12.13152,54.05921],[12.13138,54.05891],[12.12761,54.0592],[12.12692,54.05836],[12.12046,54.05868],[12.11723,54.05817],[12.11737,54.06227],[12.10676,54.06149],[12.10676,54.06192],[12.10752,54.06262],[12.10609,54.06315],[12.10859,54.06537],[12.10915,54.06523],[12.11013,54.06611],[12.11048,54.06649],[12.11007,54.06672],[12.11137,54.0677],[12.11141,54.0682],[12.10816,54.06871],[12.10751,54.06843],[12.10535,54.06816],[12.10364,54.06848],[12.09972,54.06776],[12.09834,54.06772],[12.09302,54.07258],[12.09063,54.07442],[12.09272,54.07556],[12.09604,54.07628],[12.09597,54.0764],[12.10177,54.0784],[12.11122,54.07921],[12.11287,54.07959],[12.11635,54.08073],[12.11824,54.08109],[12.12362,54.08113],[12.12645,54.08038]]]}},{"type":"Feature","properties":{"name":"Hansaviertel"},"geometry":{"type":"Polygon","coordinates":[[[12.1177,54.08102],[12.11122,54.07921],[12.10177,54.0784],[12.09597,54.0764],[12.09437,54.07882],[12.0944,54.07933],[12.09485,54.07952],[12.09198,54.07998],[12.0891,54.08],[12.08788,54.07984],[12.08689,54.08008],[12.08699,54.08093],[12.0876,54.08269],[12.08774,54.08469],[12.08803,54.08624],[12.08803,54.08987],[12.08907,54.08999],[12.08917,54.09019],[12.09075,54.09089],[12.09626,54.09297],[12.09834,54.09242],[12.10007,54.09256],[12.10745,54.08534],[12.1093,54.08402],[12.11222,54.08262],[12.11495,54.08183],[12.11765,54.08138],[12.1177,54.08102]]]}},{"type":"Feature","properties":{"name":"Schmarl"},"geometry":{"type":"Polygon","coordinates":[[[12.09385,54.13569],[12.09446,54.13442],[12.09505,54.13155],[12.09389,54.1291],[12.09341,54.12416],[12.09334,54.11621],[12.09567,54.1125],[12.09088,54.11112],[12.09077,54.11083],[12.08678,54.10769],[12.08766,54.10674],[12.08595,54.10607],[12.07983,54.11178],[12.07762,54.11409],[12.071,54.12045],[12.06964,54.12192],[12.06678,54.12563],[12.06634,54.12644],[12.06584,54.12795],[12.06496,54.13261],[12.06485,54.13792],[12.06719,54.13786],[12.0695,54.13825],[12.06964,54.13879],[12.07039,54.13921],[12.0708,54.14048],[12.07117,54.14114],[12.07077,54.14184],[12.07073,54.14221],[12.07188,54.14339],[12.07271,54.14362],[12.07787,54.14371],[12.07925,54.14324],[12.07984,54.1432],[12.08279,54.14388],[12.09144,54.14404],[12.09221,54.1391],[12.09385,54.13569]]]}},{"type":"Feature","properties":{"name":"Dierkow-Ost"},"geometry":{"type":"Polygon","coordinates":[[[12.17499,54.09877],[12.16993,54.09639],[12.16903,54.09683],[12.16626,54.09771],[12.16122,54.09873],[12.1596,54.09887],[12.15662,54.09945],[12.15875,54.1035],[12.16695,54.10199],[12.16861,54.10204],[12.16977,54.10174],[12.17252,54.10059],[12.17499,54.09877]]]}}]}