{"type":"FeatureCollection","features":[{"type":"Feature","properties":{"zone":"A3","district":"Stadtmitte","rawHours":"08:00-19:00","rawFee":"2,00 €; 1,50 €","note":"Bewohnerparkgebiet Östliche Altstadt — Tarif A2, B1, B3","windows":[{"weekdays":[0,1,2,3,4,5,6],"fromMinute":480,"toMinute":1140}],"fee":{"kind":"range","minCentsPerHour":150,"maxCentsPerHour":200},"unmodelledRules":["Veranstaltungstarif laut Quelle: 2,00 € je Stunde — wann er gilt, sagt die Quelle nicht (§ 5 Parkgebührenordnung nennt Hanse Sail und Weihnachtsmarkt)"],"sourceDefect":null,"spaces":null,"maxStayMinutes":null,"maxStay":"2h","maxStayShare":1,"maxStayValues":["2h","1h","4h"],"chargingPoints":0,"carsharing":0},"geometry":{"type":"Polygon","coordinates":[[[12.14307,54.09167],[12.14309,54.09209],[12.14314,54.09219],[12.14373,54.09221],[12.14594,54.09217],[12.14727,54.09187],[12.14724,54.09165],[12.14859,54.09139],[12.14865,54.09087],[12.14856,54.09027],[12.14842,54.08986],[12.14822,54.08939],[12.1497,54.08914],[12.14896,54.08805],[12.14794,54.0883],[12.1475,54.08746],[12.14717,54.08711],[12.14642,54.08678],[12.14492,54.08661],[12.14443,54.08724],[12.14359,54.08712],[12.14125,54.08689],[12.14117,54.08651],[12.14062,54.08652],[12.14025,54.08802],[12.14079,54.08808],[12.14078,54.08815],[12.14165,54.08825],[12.1421,54.08824],[12.14214,54.0884],[12.14192,54.08875],[12.14159,54.08874],[12.14143,54.08903],[12.1423,54.08915],[12.14195,54.08959],[12.14163,54.08949],[12.14125,54.08984],[12.14152,54.09011],[12.14338,54.0908],[12.14307,54.09167]]]}},{"type":"Feature","properties":{"zone":"H1","district":"Hansaviertel","rawHours":"08:00-18:00","rawFee":"1,00 €","note":"Bewohnerparkgebiet Thünenviertel/Hansaviertel — Tarif C1","windows":[{"weekdays":[0,1,2,3,4,5,6],"fromMinute":480,"toMinute":1080}],"fee":{"kind":"exact","centsPerHour":100},"unmodelledRules":[],"sourceDefect":null,"spaces":null,"maxStayMinutes":null,"maxStay":"24h","maxStayShare":1,"maxStayValues":["24h"],"chargingPoints":0,"carsharing":0},"geometry":{"type":"Polygon","coordinates":[[[12.10377,54.08843],[12.10839,54.08413],[12.10813,54.0838],[12.10565,54.08218],[12.10416,54.08178],[12.10113,54.0831],[12.09955,54.08396],[12.09997,54.08427],[12.10195,54.08368],[12.10384,54.08599],[12.10188,54.08659],[12.10319,54.08804],[12.10377,54.08843]]]}},{"type":"Feature","properties":{"zone":"A4","district":"Stadtmitte","rawHours":"08:00-18:00","rawFee":"1,00 €","note":"Bewohnerparkgebiet Steintor-Vorstadt — Tarif C1","windows":[{"weekdays":[0,1,2,3,4,5,6],"fromMinute":480,"toMinute":1080}],"fee":{"kind":"exact","centsPerHour":100},"unmodelledRules":[],"sourceDefect":null,"spaces":null,"maxStayMinutes":null,"maxStay":"24h","maxStayShare":1,"maxStayValues":["24h"],"chargingPoints":0,"carsharing":0},"geometry":{"type":"Polygon","coordinates":[[[12.13335,54.07823],[12.13332,54.07886],[12.14071,54.08174],[12.14152,54.08291],[12.14176,54.08262],[12.14184,54.08215],[12.14263,54.0815],[12.14296,54.08061],[12.14304,54.07993],[12.14583,54.0787],[12.14543,54.07834],[12.14272,54.07947],[12.14212,54.07814],[12.14131,54.0767],[12.13927,54.07418],[12.13335,54.07823]]]}},{"type":"Feature","properties":{"zone":"W4","district":"Seebad Warnemünde","rawHours":"08:00-19:00","rawFee":"3,00 €","note":"Bewohnerparkgebiet Ostseebad Warnemünde — Tarif W2","windows":[{"weekdays":[0,1,2,3,4,5,6],"fromMinute":480,"toMinute":1140}],"fee":{"kind":"exact","centsPerHour":300},"unmodelledRules":["Veranstaltungstarif laut Quelle: 1,00 € je Stunde — wann er gilt, sagt die Quelle nicht (§ 5 Parkgebührenordnung nennt Hanse Sail und Weihnachtsmarkt)"],"sourceDefect":null,"spaces":null,"maxStayMinutes":null,"maxStay":"2h","maxStayShare":1,"maxStayValues":["2h"],"chargingPoints":0,"carsharing":0},"geometry":{"type":"Polygon","coordinates":[[[12.06619,54.1776],[12.0713,54.17786],[12.07341,54.17806],[12.0735,54.17775],[12.07131,54.17755],[12.06625,54.17727],[12.06619,54.1776]]]}},{"type":"Feature","properties":{"zone":"B2","district":"Kröpeliner-Tor-Vorstadt","rawHours":"08:00-19:00","rawFee":"1,50 €","note":"Bewohnerparkgebiet KTV — Tarif B1","windows":[{"weekdays":[0,1,2,3,4,5,6],"fromMinute":480,"toMinute":1140}],"fee":{"kind":"exact","centsPerHour":150},"unmodelledRules":["Veranstaltungstarif laut Quelle: 2,00 € je Stunde — wann er gilt, sagt die Quelle nicht (§ 5 Parkgebührenordnung nennt Hanse Sail und Weihnachtsmarkt)"],"sourceDefect":null,"spaces":null,"maxStayMinutes":null,"maxStay":"2h","maxStayShare":1,"maxStayValues":["2h"],"chargingPoints":0,"carsharing":0},"geometry":{"type":"Polygon","coordinates":[[[12.12422,54.0883],[12.12291,54.08852],[12.12265,54.08821],[12.12168,54.08863],[12.12186,54.0888],[12.12065,54.08932],[12.12109,54.08972],[12.12164,54.08948],[12.12185,54.08936],[12.12246,54.08937],[12.12241,54.09212],[12.1235,54.092],[12.12547,54.09193],[12.12783,54.09191],[12.12657,54.09028],[12.12706,54.08999],[12.12701,54.08987],[12.12674,54.08981],[12.12508,54.08843],[12.12422,54.0883]]]}},{"type":"Feature","properties":{"zone":"B1","district":"Kröpeliner-Tor-Vorstadt","rawHours":"08:00-19:00","rawFee":"1,50 €","note":"Bewohnerparkgebiet KTV — Tarif B1","windows":[{"weekdays":[0,1,2,3,4,5,6],"fromMinute":480,"toMinute":1140}],"fee":{"kind":"exact","centsPerHour":150},"unmodelledRules":["Veranstaltungstarif laut Quelle: 2,00 € je Stunde — wann er gilt, sagt die Quelle nicht (§ 5 Parkgebührenordnung nennt Hanse Sail und Weihnachtsmarkt)"],"sourceDefect":null,"spaces":null,"maxStayMinutes":null,"maxStay":"2h","maxStayShare":1,"maxStayValues":["2h"],"chargingPoints":0,"carsharing":0},"geometry":{"type":"Polygon","coordinates":[[[12.12144,54.08676],[12.12157,54.08717],[12.12148,54.08727],[12.12135,54.08737],[12.12209,54.08768],[12.12353,54.08805],[12.12433,54.08778],[12.12451,54.08811],[12.12598,54.08781],[12.1256,54.08739],[12.12387,54.08709],[12.12439,54.08586],[12.12337,54.08572],[12.12318,54.086],[12.12293,54.08595],[12.12263,54.08645],[12.12199,54.08627],[12.12193,54.08635],[12.12209,54.08657],[12.12201,54.08668],[12.12167,54.0866],[12.12144,54.08676]]]}},{"type":"Feature","properties":{"zone":"A1","district":"Stadtmitte","rawHours":"08:00-19:00","rawFee":"1,50 €","note":"Bewohnerparkgebiet Nördliche Altstadt — Tarif B1, B2","windows":[{"weekdays":[0,1,2,3,4,5,6],"fromMinute":480,"toMinute":1140}],"fee":{"kind":"exact","centsPerHour":150},"unmodelledRules":["Veranstaltungstarif laut Quelle: 2,00 € je Stunde — wann er gilt, sagt die Quelle nicht (§ 5 Parkgebührenordnung nennt Hanse Sail und Weihnachtsmarkt)"],"sourceDefect":null,"spaces":null,"maxStayMinutes":null,"maxStay":"2h","maxStayShare":1,"maxStayValues":["2h","24h"],"chargingPoints":0,"carsharing":0},"geometry":{"type":"Polygon","coordinates":[[[12.1353,54.09211],[12.13717,54.09233],[12.1393,54.09233],[12.1401,54.09226],[12.14253,54.09228],[12.14272,54.09192],[12.1427,54.09182],[12.1422,54.09179],[12.14219,54.09159],[12.14251,54.09158],[12.14256,54.09119],[12.14274,54.09078],[12.14144,54.09029],[12.14089,54.09006],[12.13976,54.08996],[12.13957,54.09012],[12.13724,54.09016],[12.13721,54.09025],[12.13321,54.09016],[12.13275,54.09009],[12.13055,54.09005],[12.13044,54.09127],[12.13179,54.0913],[12.13271,54.09176],[12.1353,54.09211]]]}},{"type":"Feature","properties":{"zone":"W1","district":"Seebad Warnemünde","rawHours":"08:00-19:00","rawFee":"3,00 €","note":"Bewohnerparkgebiet Ostseebad Warnemünde — Tarif W2, W1","windows":[{"weekdays":[0,1,2,3,4,5,6],"fromMinute":480,"toMinute":1140}],"fee":{"kind":"exact","centsPerHour":300},"unmodelledRules":["Veranstaltungstarif laut Quelle: 1,00 € je Stunde — wann er gilt, sagt die Quelle nicht (§ 5 Parkgebührenordnung nennt Hanse Sail und Weihnachtsmarkt)"],"sourceDefect":null,"spaces":null,"maxStayMinutes":null,"maxStay":"2h","maxStayShare":1,"maxStayValues":["2h","6h"],"chargingPoints":0,"carsharing":0},"geometry":{"type":"Polygon","coordinates":[[[12.07852,54.17627],[12.0837,54.17672],[12.08382,54.17635],[12.0861,54.17645],[12.08611,54.17634],[12.08651,54.17638],[12.08646,54.17662],[12.08721,54.17677],[12.08767,54.17665],[12.08829,54.17673],[12.08865,54.17561],[12.08892,54.175],[12.08971,54.1743],[12.09062,54.17384],[12.09113,54.17349],[12.09163,54.17293],[12.09134,54.17276],[12.08922,54.17393],[12.08904,54.17355],[12.0913,54.17242],[12.09068,54.17215],[12.08943,54.17186],[12.08892,54.17263],[12.08354,54.17008],[12.08277,54.17049],[12.07982,54.17362],[12.07936,54.17348],[12.07887,54.17398],[12.07829,54.17518],[12.07876,54.17521],[12.07852,54.17627]]]}},{"type":"Feature","properties":{"zone":"A2","district":"Stadtmitte","rawHours":"08:00-19:00","rawFee":"2,00 €","note":"Bewohnerparkgebiet Zentrum — Tarif A1, A3","windows":[{"weekdays":[0,1,2,3,4,5,6],"fromMinute":480,"toMinute":1140}],"fee":{"kind":"exact","centsPerHour":200},"unmodelledRules":[],"sourceDefect":null,"spaces":null,"maxStayMinutes":null,"maxStay":"2h","maxStayShare":1,"maxStayValues":["2h","30min"],"chargingPoints":0,"carsharing":0},"geometry":{"type":"Polygon","coordinates":[[[12.13096,54.08969],[12.13713,54.08979],[12.13737,54.08968],[12.1378,54.08965],[12.1379,54.08918],[12.13951,54.08918],[12.13959,54.08821],[12.13933,54.08819],[12.13931,54.08833],[12.13849,54.08821],[12.13832,54.0885],[12.13811,54.08847],[12.13786,54.08848],[12.13824,54.08783],[12.13832,54.08786],[12.13864,54.08736],[12.13855,54.08729],[12.1386,54.08715],[12.13862,54.08675],[12.13812,54.08674],[12.13815,54.08649],[12.13706,54.08648],[12.13704,54.08689],[12.13658,54.08754],[12.13644,54.08749],[12.13608,54.08816],[12.13538,54.08801],[12.13366,54.08735],[12.1336,54.08746],[12.13332,54.08757],[12.13327,54.08765],[12.13321,54.08784],[12.13258,54.08775],[12.13257,54.08786],[12.13241,54.08789],[12.13207,54.08791],[12.13124,54.0879],[12.13106,54.08772],[12.13079,54.08771],[12.13042,54.08778],[12.12996,54.08801],[12.12956,54.08823],[12.12922,54.08868],[12.12908,54.0889],[12.13035,54.08896],[12.13034,54.08918],[12.13097,54.0892],[12.13096,54.08969]]]}},{"type":"Feature","properties":{"zone":"W2","district":"Seebad Warnemünde","rawHours":"08:00-19:00; Mo-Fr,So 08:00-19:00; Sa 15:00-19:00","rawFee":"3,00 €","note":"Bewohnerparkgebiet Ostseebad Warnemünde — Tarif W2, W3, W4","windows":[{"weekdays":[0,1,2,3,4,5,6],"fromMinute":480,"toMinute":1140},{"weekdays":[0,1,2,3,4,5],"fromMinute":480,"toMinute":1140},{"weekdays":[6],"fromMinute":900,"toMinute":1140}],"fee":{"kind":"exact","centsPerHour":300},"unmodelledRules":["Veranstaltungstarif laut Quelle: 1,00 € je Stunde — wann er gilt, sagt die Quelle nicht (§ 5 Parkgebührenordnung nennt Hanse Sail und Weihnachtsmarkt)"],"sourceDefect":null,"spaces":null,"maxStayMinutes":null,"maxStay":"2h","maxStayShare":1,"maxStayValues":["2h","1h","3h"],"chargingPoints":0,"carsharing":0},"geometry":{"type":"Polygon","coordinates":[[[12.07991,54.1797],[12.08114,54.18],[12.08236,54.18027],[12.08425,54.18064],[12.08519,54.18069],[12.08606,54.18076],[12.08628,54.18167],[12.08696,54.18184],[12.08677,54.18076],[12.08714,54.17969],[12.08738,54.17851],[12.08827,54.17678],[12.08769,54.1767],[12.08725,54.1768],[12.0864,54.17664],[12.08645,54.1764],[12.08615,54.17637],[12.08612,54.17649],[12.08386,54.17638],[12.0837,54.1768],[12.07846,54.17635],[12.07787,54.17633],[12.0771,54.17824],[12.07894,54.17847],[12.07942,54.17721],[12.08365,54.17756],[12.08246,54.17996],[12.08012,54.17944],[12.07991,54.1797]]]}}]}