{"type":"FeatureCollection","features":[{"type":"Feature","properties":{"name":"Altstadt"},"geometry":{"type":"MultiPolygon","coordinates":[[[[8.68783,50.11481],[8.68628,50.1148],[8.6862,50.11416],[8.68538,50.11415],[8.6854,50.11403],[8.68366,50.1139],[8.68354,50.11414],[8.68324,50.11414],[8.67927,50.11282],[8.67953,50.11248],[8.67865,50.11214],[8.67784,50.11155],[8.67767,50.11086],[8.67787,50.11068],[8.6769,50.10955],[8.67476,50.10922],[8.67581,50.10746],[8.67684,50.10639],[8.67977,50.10749],[8.68173,50.10802],[8.68495,50.10845],[8.68773,50.10851],[8.68771,50.1095],[8.68731,50.11018],[8.68799,50.11025],[8.68816,50.11148],[8.68783,50.11481]]]]}},{"type":"Feature","properties":{"name":"Innenstadt"},"geometry":{"type":"MultiPolygon","coordinates":[[[[8.6882,50.11905],[8.68713,50.11987],[8.68633,50.11999],[8.68408,50.11902],[8.68323,50.11882],[8.68248,50.11881],[8.68091,50.11915],[8.68002,50.11808],[8.6791,50.11786],[8.67817,50.11772],[8.67646,50.11812],[8.67519,50.11714],[8.67468,50.11693],[8.67331,50.11676],[8.67099,50.11674],[8.67075,50.11493],[8.66995,50.11411],[8.66851,50.1132],[8.67271,50.10837],[8.67365,50.10663],[8.67341,50.10649],[8.6735,50.1063],[8.6737,50.10612],[8.67412,50.10632],[8.67491,50.10558],[8.67684,50.10639],[8.67581,50.10746],[8.67476,50.10922],[8.6769,50.10955],[8.67787,50.11068],[8.67767,50.11086],[8.67784,50.11155],[8.67865,50.11214],[8.67953,50.11248],[8.67927,50.11282],[8.68324,50.11414],[8.68354,50.11414],[8.68366,50.1139],[8.6862,50.11416],[8.68628,50.1148],[8.68783,50.11481],[8.68816,50.11148],[8.68799,50.11025],[8.68731,50.11018],[8.68771,50.1095],[8.68773,50.10851],[8.69479,50.10773],[8.69429,50.10922],[8.69416,50.1104],[8.69455,50.1113],[8.69579,50.11229],[8.69487,50.11343],[8.69479,50.11388],[8.69549,50.11538],[8.69549,50.11576],[8.69492,50.1161],[8.69327,50.11661],[8.69213,50.11726],[8.69153,50.1183],[8.68935,50.11818],[8.6882,50.11905]]]]}},{"type":"Feature","properties":{"name":"Bahnhofsviertel"},"geometry":{"type":"MultiPolygon","coordinates":[[[[8.6735,50.1063],[8.67341,50.10649],[8.67365,50.10663],[8.67271,50.10837],[8.66851,50.1132],[8.66632,50.11174],[8.66061,50.10948],[8.66306,50.10837],[8.66431,50.10798],[8.66519,50.10718],[8.66528,50.10668],[8.66515,50.10617],[8.66555,50.10611],[8.66685,50.10505],[8.66835,50.10353],[8.66862,50.10357],[8.6697,50.1026],[8.67301,50.10461],[8.67491,50.10558],[8.67412,50.10632],[8.6737,50.10612],[8.6735,50.1063]]]]}},{"type":"Feature","properties":{"name":"Westend-Süd"},"geometry":{"type":"MultiPolygon","coordinates":[[[[8.65648,50.12594],[8.65572,50.12668],[8.65344,50.12579],[8.65232,50.12497],[8.65235,50.12453],[8.65333,50.12317],[8.65368,50.12232],[8.65393,50.11993],[8.65358,50.11995],[8.65351,50.11977],[8.65267,50.11977],[8.65014,50.12002],[8.64912,50.11695],[8.64861,50.11695],[8.64844,50.11647],[8.64764,50.11621],[8.64708,50.11584],[8.64618,50.11462],[8.64587,50.11388],[8.64333,50.1141],[8.6434,50.10906],[8.65083,50.1094],[8.65053,50.11047],[8.65391,50.11082],[8.65376,50.11142],[8.65474,50.1123],[8.65497,50.11229],[8.65521,50.11251],[8.6589,50.11038],[8.6608,50.10955],[8.66632,50.11174],[8.66995,50.11411],[8.67084,50.11509],[8.67099,50.11674],[8.67331,50.11676],[8.67468,50.11693],[8.67519,50.11714],[8.67646,50.11812],[8.67817,50.11772],[8.6791,50.11786],[8.67784,50.11967],[8.67573,50.12082],[8.67195,50.12107],[8.6679,50.12227],[8.66464,50.12353],[8.66179,50.12311],[8.6584,50.12316],[8.65726,50.1259],[8.65648,50.12594]]]]}},{"type":"Feature","properties":{"name":"Westend-Nord"},"geometry":{"type":"MultiPolygon","coordinates":[[[[8.67136,50.13631],[8.67039,50.13866],[8.66601,50.13711],[8.66489,50.13642],[8.66388,50.13622],[8.6637,50.13585],[8.66159,50.13513],[8.66192,50.1348],[8.66228,50.13131],[8.65965,50.1311],[8.65793,50.13036],[8.65726,50.12972],[8.65698,50.12922],[8.65655,50.12715],[8.65572,50.12668],[8.65641,50.12596],[8.65726,50.1259],[8.6584,50.12316],[8.66179,50.12311],[8.66464,50.12353],[8.6679,50.12227],[8.67195,50.12107],[8.67573,50.12082],[8.67563,50.12128],[8.67578,50.12268],[8.67566,50.12323],[8.6746,50.12575],[8.67354,50.12693],[8.67243,50.12936],[8.67204,50.13348],[8.67136,50.13631]]]]}},{"type":"Feature","properties":{"name":"Nordend-West"},"geometry":{"type":"MultiPolygon","coordinates":[[[[8.69826,50.13932],[8.69889,50.14088],[8.69615,50.1429],[8.69457,50.14239],[8.69289,50.14216],[8.69376,50.14001],[8.69168,50.13966],[8.69129,50.13906],[8.69108,50.13922],[8.68916,50.13913],[8.6891,50.13937],[8.68484,50.13876],[8.68442,50.13664],[8.68326,50.13675],[8.68052,50.1365],[8.68025,50.13712],[8.6797,50.13725],[8.67491,50.13671],[8.67498,50.13634],[8.67141,50.1361],[8.67204,50.13348],[8.67243,50.12936],[8.67354,50.12693],[8.6746,50.12575],[8.67566,50.12323],[8.67574,50.12079],[8.67784,50.11967],[8.6791,50.11786],[8.68002,50.11808],[8.68091,50.11915],[8.68248,50.11881],[8.68323,50.11882],[8.68408,50.11902],[8.68633,50.11999],[8.68713,50.11987],[8.68872,50.11863],[8.68935,50.11949],[8.6898,50.12187],[8.69028,50.12207],[8.69095,50.12208],[8.69163,50.12303],[8.69226,50.12841],[8.69387,50.12963],[8.69826,50.13932]]]]}},{"type":"Feature","properties":{"name":"Nordend-Ost"},"geometry":{"type":"MultiPolygon","coordinates":[[[[8.70192,50.12226],[8.70217,50.12242],[8.69932,50.12499],[8.70204,50.12672],[8.70425,50.12785],[8.70434,50.12856],[8.70523,50.13005],[8.7056,50.13147],[8.7056,50.13327],[8.70642,50.13377],[8.7016,50.13642],[8.7002,50.13856],[8.69812,50.13902],[8.69387,50.12963],[8.69226,50.12841],[8.69163,50.12303],[8.69095,50.12208],[8.69028,50.12207],[8.6898,50.12187],[8.68935,50.11949],[8.68872,50.11863],[8.68935,50.11818],[8.69153,50.1183],[8.69213,50.11726],[8.69327,50.11661],[8.69492,50.1161],[8.69549,50.11576],[8.69549,50.11623],[8.69701,50.11844],[8.7005,50.1214],[8.70192,50.12226]]]]}},{"type":"Feature","properties":{"name":"Ostend"},"geometry":{"type":"MultiPolygon","coordinates":[[[[8.74335,50.12484],[8.74195,50.12515],[8.72979,50.1208],[8.72894,50.12183],[8.72846,50.12177],[8.7275,50.12258],[8.72607,50.12301],[8.71959,50.1232],[8.71883,50.12172],[8.71842,50.12184],[8.71848,50.12212],[8.71783,50.12213],[8.71726,50.12247],[8.71696,50.1221],[8.71159,50.12253],[8.71109,50.12271],[8.71037,50.12229],[8.7099,50.12261],[8.70494,50.12296],[8.70511,50.12313],[8.70449,50.12349],[8.70434,50.12337],[8.70406,50.12352],[8.7005,50.1214],[8.69837,50.11964],[8.69701,50.11844],[8.69549,50.11623],[8.69549,50.11538],[8.69479,50.11388],[8.69487,50.11343],[8.69579,50.11229],[8.69455,50.1113],[8.6942,50.11051],[8.69442,50.10875],[8.69479,50.10773],[8.69925,50.10708],[8.71703,50.10637],[8.71941,50.10673],[8.72337,50.10778],[8.73615,50.11156],[8.73898,50.11316],[8.74132,50.11427],[8.7449,50.11527],[8.74463,50.11606],[8.74515,50.1169],[8.74709,50.12136],[8.74763,50.12126],[8.74798,50.12214],[8.7455,50.12297],[8.74432,50.12419],[8.74481,50.12439],[8.74427,50.1249],[8.74335,50.12484]]]]}},{"type":"Feature","properties":{"name":"Bornheim"},"geometry":{"type":"MultiPolygon","coordinates":[[[[8.72551,50.12372],[8.7253,50.12503],[8.72442,50.12695],[8.72456,50.12716],[8.72497,50.1273],[8.7244,50.12913],[8.72423,50.13301],[8.72336,50.13463],[8.7219,50.13588],[8.72057,50.13658],[8.71867,50.13718],[8.71238,50.1379],[8.7107,50.13833],[8.70933,50.13887],[8.70794,50.13968],[8.70679,50.14068],[8.70558,50.1422],[8.70467,50.14404],[8.70357,50.14322],[8.69904,50.14097],[8.69868,50.1406],[8.69863,50.14014],[8.69812,50.13902],[8.7002,50.13856],[8.7016,50.13642],[8.70642,50.13377],[8.7056,50.13327],[8.7056,50.13147],[8.70523,50.13005],[8.70434,50.12856],[8.70425,50.12785],[8.70204,50.12672],[8.69932,50.12499],[8.70217,50.12242],[8.70406,50.12352],[8.70434,50.12337],[8.70449,50.12349],[8.70511,50.12313],[8.70494,50.12296],[8.7099,50.12261],[8.71037,50.12229],[8.71109,50.12271],[8.71159,50.12253],[8.71696,50.1221],[8.71726,50.12247],[8.71783,50.12213],[8.71848,50.12212],[8.71842,50.12184],[8.71883,50.12172],[8.71959,50.1232],[8.72557,50.12305],[8.72551,50.12372]]]]}},{"type":"Feature","properties":{"name":"Gutleutviertel"},"geometry":{"type":"MultiPolygon","coordinates":[[[[8.66608,50.10564],[8.66555,50.10611],[8.66515,50.10617],[8.65763,50.10336],[8.65703,50.10298],[8.65397,50.10176],[8.65381,50.10198],[8.65028,50.10058],[8.65016,50.10017],[8.6484,50.10008],[8.64731,50.09981],[8.6389,50.09633],[8.63682,50.09529],[8.63344,50.09328],[8.63205,50.09276],[8.62919,50.0924],[8.62584,50.09303],[8.62577,50.09289],[8.62422,50.09307],[8.62114,50.09287],[8.6215,50.09201],[8.62166,50.09203],[8.62175,50.09082],[8.62048,50.09058],[8.62064,50.08902],[8.62255,50.08877],[8.62802,50.08878],[8.6313,50.0893],[8.63407,50.09006],[8.64335,50.09364],[8.65891,50.09706],[8.66436,50.09934],[8.6697,50.1026],[8.66862,50.10357],[8.66835,50.10353],[8.66608,50.10564]]]]}},{"type":"Feature","properties":{"name":"Gallus"},"geometry":{"type":"MultiPolygon","coordinates":[[[[8.65521,50.11251],[8.65497,50.11229],[8.65474,50.1123],[8.65376,50.11142],[8.65391,50.11082],[8.65053,50.11047],[8.65083,50.1094],[8.63607,50.10887],[8.63593,50.11031],[8.62595,50.11001],[8.62356,50.10844],[8.62254,50.10807],[8.61921,50.10766],[8.61777,50.10772],[8.61731,50.1075],[8.6167,50.1076],[8.6159,50.10721],[8.61312,50.10677],[8.61366,50.1056],[8.61457,50.10561],[8.61624,50.10046],[8.61626,50.10035],[8.61597,50.10029],[8.61827,50.09732],[8.62093,50.09509],[8.6212,50.09434],[8.6233,50.09434],[8.62332,50.09296],[8.62449,50.09306],[8.62577,50.09289],[8.62584,50.09303],[8.62849,50.09247],[8.63048,50.09249],[8.63205,50.09276],[8.63311,50.09312],[8.6389,50.09633],[8.64707,50.09972],[8.6484,50.10008],[8.65016,50.10017],[8.65028,50.10058],[8.65381,50.10198],[8.65397,50.10176],[8.65703,50.10298],[8.65763,50.10336],[8.66515,50.10617],[8.66528,50.10668],[8.66519,50.10718],[8.66431,50.10798],[8.66107,50.10924],[8.66061,50.10948],[8.6608,50.10955],[8.6589,50.11038],[8.65521,50.11251]]]]}},{"type":"Feature","properties":{"name":"Bockenheim"},"geometry":{"type":"MultiPolygon","coordinates":[[[[8.63693,50.13898],[8.6354,50.13866],[8.63621,50.13745],[8.6349,50.137],[8.63337,50.13621],[8.63473,50.1349],[8.63495,50.13456],[8.63492,50.13434],[8.63113,50.13484],[8.63101,50.13453],[8.63198,50.13378],[8.63332,50.13238],[8.63294,50.13213],[8.63303,50.13176],[8.63232,50.13143],[8.631,50.13101],[8.62966,50.13081],[8.62907,50.1292],[8.62808,50.12965],[8.62408,50.12926],[8.62236,50.12986],[8.62193,50.1295],[8.62132,50.12099],[8.61852,50.12022],[8.61821,50.12039],[8.61762,50.11943],[8.61688,50.11896],[8.61488,50.11896],[8.61433,50.11857],[8.61378,50.11785],[8.613,50.11758],[8.61195,50.11758],[8.61152,50.11712],[8.61145,50.11682],[8.61047,50.11639],[8.61019,50.11609],[8.60827,50.11658],[8.60671,50.11665],[8.60497,50.1164],[8.60278,50.11555],[8.60088,50.11554],[8.59964,50.11574],[8.59948,50.1159],[8.59841,50.11549],[8.60378,50.10725],[8.60486,50.10583],[8.60897,50.10558],[8.61366,50.1056],[8.61312,50.10677],[8.6159,50.10721],[8.6167,50.1076],[8.61731,50.1075],[8.61777,50.10772],[8.61921,50.10766],[8.62254,50.10807],[8.62356,50.10844],[8.62595,50.11001],[8.63593,50.11031],[8.63607,50.10887],[8.6434,50.1092],[8.64333,50.1141],[8.64587,50.11388],[8.64618,50.11462],[8.64708,50.11584],[8.64764,50.11621],[8.64844,50.11647],[8.64861,50.11695],[8.64912,50.11695],[8.65014,50.12002],[8.65267,50.11977],[8.65351,50.11977],[8.65358,50.11995],[8.65393,50.11993],[8.65368,50.12232],[8.65333,50.12317],[8.65235,50.12453],[8.65232,50.12497],[8.65344,50.12579],[8.65646,50.12704],[8.65708,50.12943],[8.65816,50.13051],[8.65994,50.13116],[8.66228,50.13131],[8.66192,50.1348],[8.66159,50.13513],[8.6637,50.13585],[8.66388,50.13622],[8.66176,50.13636],[8.65717,50.13616],[8.65106,50.13625],[8.6474,50.13693],[8.64576,50.13702],[8.64578,50.13717],[8.64265,50.1371],[8.6426,50.13692],[8.64218,50.13694],[8.64202,50.13745],[8.64062,50.13753],[8.64064,50.13788],[8.63977,50.13797],[8.63994,50.13827],[8.63693,50.13898]]]]}},{"type":"Feature","properties":{"name":"Sachsenhausen-Nord"},"geometry":{"type":"MultiPolygon","coordinates":[[[[8.71547,50.10635],[8.7001,50.107],[8.68843,50.1085],[8.6851,50.10846],[8.68208,50.10808],[8.67945,50.10739],[8.6744,50.10536],[8.6642,50.09927],[8.65853,50.09693],[8.65372,50.09586],[8.65552,50.09428],[8.657,50.09349],[8.66254,50.09234],[8.66539,50.09125],[8.66745,50.0899],[8.66882,50.08847],[8.68093,50.09511],[8.68302,50.09591],[8.68508,50.09741],[8.68929,50.09976],[8.69535,50.10194],[8.69732,50.10224],[8.69926,50.10216],[8.7044,50.09928],[8.70547,50.09894],[8.71452,50.09939],[8.71418,50.1012],[8.71821,50.10243],[8.718,50.10307],[8.71793,50.10433],[8.71725,50.10639],[8.71547,50.10635]]]]}},{"type":"Feature","properties":{"name":"Sachsenhausen-Süd"},"geometry":{"type":"MultiPolygon","coordinates":[[[[8.70595,50.09889],[8.7046,50.09918],[8.69926,50.10216],[8.69811,50.10226],[8.69642,50.10215],[8.6933,50.10131],[8.68929,50.09976],[8.68508,50.09741],[8.68302,50.09591],[8.68093,50.09511],[8.66882,50.08847],[8.66691,50.09032],[8.66539,50.09125],[8.66392,50.09189],[8.66025,50.08887],[8.65966,50.08808],[8.6515,50.0885],[8.64991,50.08615],[8.64975,50.08552],[8.65112,50.08351],[8.65155,50.08262],[8.65442,50.07921],[8.65442,50.07903],[8.65389,50.0782],[8.65127,50.07678],[8.64356,50.07143],[8.64204,50.07084],[8.63616,50.07009],[8.62979,50.06963],[8.62804,50.06983],[8.62706,50.06932],[8.62614,50.06927],[8.62502,50.06971],[8.6229,50.06968],[8.62306,50.06946],[8.62075,50.06952],[8.61655,50.07026],[8.61262,50.06989],[8.59876,50.04216],[8.59966,50.04185],[8.60091,50.04103],[8.60334,50.0403],[8.60639,50.03911],[8.60898,50.04347],[8.61072,50.04509],[8.61596,50.04891],[8.6217,50.05201],[8.62462,50.05509],[8.62628,50.0549],[8.62897,50.0555],[8.63349,50.05543],[8.63673,50.0558],[8.64203,50.05568],[8.64406,50.05587],[8.6509,50.05558],[8.655,50.05572],[8.66118,50.05552],[8.66323,50.05531],[8.66518,50.05537],[8.67416,50.05608],[8.67808,50.05723],[8.68237,50.05809],[8.69944,50.05832],[8.70148,50.05872],[8.70496,50.06021],[8.70946,50.06068],[8.71902,50.06111],[8.72231,50.06112],[8.72496,50.06173],[8.72503,50.06234],[8.72462,50.06323],[8.72375,50.06392],[8.72248,50.06429],[8.72244,50.06505],[8.72429,50.0652],[8.72492,50.06546],[8.726,50.06627],[8.72722,50.06665],[8.72782,50.06749],[8.72822,50.06863],[8.73049,50.07051],[8.72777,50.07164],[8.72601,50.07214],[8.72593,50.07231],[8.72614,50.07303],[8.73228,50.07498],[8.73433,50.07589],[8.7341,50.07699],[8.73437,50.07803],[8.73376,50.07884],[8.73333,50.07974],[8.73282,50.08021],[8.73156,50.08065],[8.73219,50.08222],[8.73338,50.08375],[8.73435,50.08447],[8.73554,50.0862],[8.73602,50.08663],[8.7368,50.08695],[8.73876,50.08864],[8.73942,50.08929],[8.73966,50.08976],[8.74109,50.09083],[8.74203,50.09223],[8.74286,50.09274],[8.74382,50.0929],[8.7448,50.09341],[8.74686,50.0941],[8.74881,50.0942],[8.74932,50.095],[8.74942,50.09567],[8.75021,50.09649],[8.74955,50.09774],[8.74805,50.09923],[8.74729,50.09975],[8.74555,50.10037],[8.7455,50.10071],[8.74472,50.10127],[8.74459,50.10182],[8.74335,50.10153],[8.7426,50.10093],[8.74198,50.10072],[8.73887,50.10087],[8.73847,50.10071],[8.73923,50.10061],[8.7394,50.09995],[8.74008,50.0988],[8.74027,50.09768],[8.74029,50.09683],[8.73932,50.09643],[8.73895,50.09544],[8.73976,50.09327],[8.73962,50.093],[8.73585,50.09216],[8.73519,50.09481],[8.73306,50.09415],[8.73163,50.09396],[8.72518,50.09442],[8.72523,50.09407],[8.72478,50.09405],[8.72521,50.09246],[8.72379,50.09178],[8.72229,50.09048],[8.71898,50.08956],[8.71719,50.08952],[8.71622,50.0896],[8.71595,50.09335],[8.71494,50.09338],[8.71502,50.09569],[8.71517,50.09572],[8.7152,50.09613],[8.7148,50.09614],[8.71458,50.09796],[8.71485,50.09796],[8.71452,50.09939],[8.70595,50.09889]]]]}},{"type":"Feature","properties":{"name":"Flughafen"},"geometry":{"type":"MultiPolygon","coordinates":[[[[8.58629,50.07099],[8.58353,50.07093],[8.58099,50.07062],[8.58083,50.07019],[8.58011,50.07059],[8.5766,50.07075],[8.56967,50.06979],[8.56606,50.06886],[8.56386,50.06848],[8.56193,50.06832],[8.55732,50.06848],[8.54977,50.06685],[8.55014,50.06607],[8.54995,50.06602],[8.5502,50.06579],[8.55044,50.06449],[8.55041,50.06345],[8.55028,50.06316],[8.55013,50.06318],[8.55025,50.06279],[8.54998,50.06197],[8.55077,50.06146],[8.55103,50.06097],[8.55102,50.06066],[8.55069,50.06023],[8.54958,50.05958],[8.5503,50.0586],[8.55074,50.05745],[8.55102,50.05742],[8.55065,50.05626],[8.55059,50.05523],[8.54987,50.05507],[8.55151,50.05184],[8.55252,50.05078],[8.55277,50.05019],[8.55293,50.05023],[8.55349,50.04959],[8.5525,50.04927],[8.55299,50.0493],[8.55328,50.04893],[8.54847,50.04793],[8.54444,50.04664],[8.52314,50.03818],[8.52324,50.0381],[8.5198,50.03685],[8.52009,50.03661],[8.5216,50.03403],[8.51665,50.03282],[8.51951,50.02787],[8.51633,50.02711],[8.51999,50.02078],[8.53149,50.02134],[8.53858,50.0233],[8.54303,50.02433],[8.54878,50.0253],[8.55078,50.02524],[8.55757,50.02602],[8.55904,50.02583],[8.56301,50.02663],[8.5698,50.02532],[8.57009,50.02539],[8.57268,50.02109],[8.57461,50.01878],[8.57615,50.01535],[8.57816,50.01647],[8.58046,50.01695],[8.58114,50.01754],[8.58335,50.01757],[8.58576,50.01786],[8.59201,50.0177],[8.59251,50.01869],[8.59162,50.02258],[8.59137,50.02436],[8.5914,50.02628],[8.59206,50.02901],[8.59278,50.03081],[8.59848,50.04225],[8.59876,50.04216],[8.61258,50.06981],[8.61163,50.06994],[8.60959,50.0697],[8.60594,50.06976],[8.60132,50.07007],[8.59986,50.06973],[8.59907,50.06986],[8.59917,50.06999],[8.59005,50.07048],[8.58629,50.07099]]]]}},{"type":"Feature","properties":{"name":"Oberrad"},"geometry":{"type":"MultiPolygon","coordinates":[[[[8.72676,50.10717],[8.72636,50.10777],[8.72564,50.10839],[8.71965,50.10678],[8.71725,50.10639],[8.71793,50.10433],[8.718,50.10307],[8.71821,50.10243],[8.71418,50.1012],[8.71485,50.09796],[8.71458,50.09796],[8.7148,50.09614],[8.7152,50.09613],[8.71517,50.09572],[8.71502,50.09569],[8.71494,50.09338],[8.71595,50.09335],[8.71622,50.0896],[8.71869,50.08951],[8.72229,50.09048],[8.72379,50.09178],[8.72521,50.09246],[8.72478,50.09405],[8.72523,50.09407],[8.72518,50.09442],[8.73163,50.09396],[8.73306,50.09415],[8.73519,50.09481],[8.73585,50.09216],[8.73962,50.093],[8.73976,50.09327],[8.73895,50.09544],[8.73932,50.09643],[8.74031,50.09689],[8.74017,50.09849],[8.7394,50.09995],[8.7392,50.10065],[8.73847,50.10071],[8.73925,50.10092],[8.74198,50.10072],[8.7426,50.10093],[8.74335,50.10153],[8.74459,50.10182],[8.74348,50.10256],[8.74236,50.10299],[8.74172,50.10429],[8.74058,50.10423],[8.7405,50.10462],[8.73906,50.10456],[8.73903,50.10472],[8.73806,50.10469],[8.73799,50.10533],[8.73271,50.10511],[8.73086,50.10528],[8.72902,50.10586],[8.7277,50.10668],[8.72751,50.10664],[8.72715,50.10722],[8.72676,50.10717]]]]}},{"type":"Feature","properties":{"name":"Niederrad"},"geometry":{"type":"MultiPolygon","coordinates":[[[[8.66025,50.08887],[8.66392,50.09189],[8.6617,50.09255],[8.65853,50.09307],[8.657,50.09349],[8.65552,50.09428],[8.65372,50.09586],[8.64824,50.09481],[8.64335,50.09364],[8.6339,50.09],[8.63082,50.0892],[8.6283,50.0888],[8.62318,50.08875],[8.61757,50.0894],[8.61832,50.08558],[8.61828,50.0829],[8.61795,50.08118],[8.61704,50.07874],[8.61262,50.06989],[8.61655,50.07026],[8.62041,50.06954],[8.62306,50.06946],[8.6229,50.06968],[8.62502,50.06971],[8.62614,50.06927],[8.62706,50.06932],[8.62804,50.06983],[8.62979,50.06963],[8.63616,50.07009],[8.63986,50.07053],[8.64204,50.07084],[8.64356,50.07143],[8.65127,50.07678],[8.65389,50.0782],[8.65444,50.07907],[8.65155,50.08262],[8.65112,50.08351],[8.64975,50.08552],[8.64991,50.08615],[8.6515,50.0885],[8.65966,50.08808],[8.66025,50.08887]]]]}},{"type":"Feature","properties":{"name":"Schwanheim"},"geometry":{"type":"MultiPolygon","coordinates":[[[[8.58706,50.08868],[8.58283,50.08909],[8.57899,50.08987],[8.57417,50.092],[8.56308,50.09761],[8.56109,50.09822],[8.55694,50.0991],[8.55501,50.09932],[8.55368,50.09926],[8.55132,50.0988],[8.54825,50.09717],[8.54225,50.09273],[8.53162,50.08772],[8.52819,50.08571],[8.52568,50.08386],[8.52912,50.08209],[8.53086,50.08151],[8.52996,50.08065],[8.53241,50.07877],[8.53487,50.07847],[8.53619,50.07733],[8.53768,50.07673],[8.54099,50.07636],[8.54284,50.07529],[8.54286,50.07398],[8.5436,50.0712],[8.54456,50.07141],[8.54547,50.07039],[8.54817,50.06871],[8.54977,50.06685],[8.55732,50.06848],[8.56193,50.06832],[8.56386,50.06848],[8.56606,50.06886],[8.56967,50.06979],[8.5766,50.07075],[8.58011,50.07059],[8.58083,50.07019],[8.58099,50.07062],[8.58353,50.07093],[8.58629,50.07099],[8.59005,50.07048],[8.59917,50.06999],[8.59907,50.06986],[8.59986,50.06973],[8.60132,50.07007],[8.60594,50.06976],[8.60959,50.0697],[8.61163,50.06994],[8.61258,50.06981],[8.61704,50.07874],[8.61772,50.08041],[8.61816,50.08208],[8.61836,50.08381],[8.61832,50.08558],[8.61757,50.0894],[8.61144,50.08929],[8.59666,50.08968],[8.59193,50.08932],[8.58706,50.08868]]]]}},{"type":"Feature","properties":{"name":"Griesheim"},"geometry":{"type":"MultiPolygon","coordinates":[[[[8.60362,50.10749],[8.59841,50.11549],[8.59358,50.11422],[8.59389,50.11337],[8.59389,50.11289],[8.59473,50.11104],[8.59463,50.10999],[8.59436,50.10992],[8.59622,50.10847],[8.59768,50.10814],[8.59799,50.10787],[8.59923,50.10755],[8.60018,50.10695],[8.59795,50.10598],[8.59658,50.10592],[8.59663,50.10544],[8.5936,50.10495],[8.59241,50.10453],[8.59028,50.10465],[8.58894,50.10446],[8.58657,50.10372],[8.58577,50.10328],[8.58556,50.10339],[8.58517,50.10322],[8.58441,50.10264],[8.58349,50.10105],[8.58335,50.09981],[8.58455,50.0996],[8.58403,50.09938],[8.58443,50.09829],[8.5839,50.09758],[8.58405,50.09725],[8.58336,50.09633],[8.58107,50.09522],[8.57933,50.09337],[8.57807,50.09258],[8.57773,50.09254],[8.57742,50.09278],[8.57562,50.09207],[8.57461,50.09256],[8.574,50.09208],[8.57936,50.08976],[8.58283,50.08909],[8.58686,50.08869],[8.59193,50.08932],[8.59666,50.08968],[8.61144,50.08929],[8.61796,50.0894],[8.62064,50.08902],[8.62048,50.09058],[8.62175,50.09082],[8.62166,50.09203],[8.6215,50.09201],[8.62114,50.09287],[8.62332,50.09296],[8.6233,50.09434],[8.6212,50.09434],[8.62093,50.09509],[8.61827,50.09732],[8.61597,50.10029],[8.61626,50.10035],[8.61624,50.10046],[8.61457,50.10561],[8.60897,50.10558],[8.60486,50.10583],[8.60362,50.10749]]]]}},{"type":"Feature","properties":{"name":"Rödelheim"},"geometry":{"type":"MultiPolygon","coordinates":[[[[8.60754,50.13169],[8.60481,50.13197],[8.60405,50.13432],[8.60327,50.13561],[8.59714,50.14121],[8.59336,50.13989],[8.5905,50.13856],[8.58535,50.13661],[8.58081,50.1344],[8.58232,50.13234],[8.58435,50.13055],[8.58621,50.12985],[8.58746,50.12983],[8.59046,50.12846],[8.59101,50.12704],[8.59166,50.1259],[8.59841,50.11549],[8.59948,50.1159],[8.59964,50.11574],[8.60088,50.11554],[8.60278,50.11555],[8.60497,50.1164],[8.60671,50.11665],[8.60827,50.11658],[8.61019,50.11609],[8.61047,50.11639],[8.61145,50.11682],[8.61152,50.11712],[8.61195,50.11758],[8.613,50.11758],[8.61378,50.11785],[8.61433,50.11857],[8.61488,50.11896],[8.61688,50.11896],[8.61762,50.11943],[8.61821,50.12039],[8.61852,50.12022],[8.62132,50.12099],[8.62182,50.12771],[8.61907,50.12779],[8.61988,50.13013],[8.62121,50.13136],[8.62144,50.13186],[8.62144,50.13227],[8.62125,50.13275],[8.6181,50.13634],[8.61688,50.13603],[8.61613,50.13614],[8.61604,50.13556],[8.61571,50.13545],[8.61705,50.13388],[8.6116,50.13212],[8.60949,50.13177],[8.60754,50.13169]]]]}},{"type":"Feature","properties":{"name":"Hausen"},"geometry":{"type":"MultiPolygon","coordinates":[[[[8.62781,50.14061],[8.62708,50.14106],[8.62557,50.13979],[8.62445,50.14001],[8.62444,50.14029],[8.62289,50.14028],[8.62289,50.13998],[8.61939,50.13996],[8.61938,50.14045],[8.6176,50.14045],[8.61715,50.13894],[8.61723,50.13811],[8.61763,50.13702],[8.62125,50.13275],[8.62144,50.13227],[8.62144,50.13186],[8.62121,50.13136],[8.61988,50.13013],[8.61907,50.12779],[8.62182,50.12771],[8.62186,50.12937],[8.62236,50.12986],[8.62386,50.12927],[8.62808,50.12965],[8.62907,50.1292],[8.62966,50.13081],[8.631,50.13101],[8.63232,50.13143],[8.63303,50.13176],[8.63294,50.13213],[8.63332,50.13238],[8.63198,50.13378],[8.63101,50.13453],[8.63113,50.13484],[8.63492,50.13434],[8.63492,50.13463],[8.63451,50.13517],[8.63335,50.13613],[8.63478,50.13694],[8.63621,50.13745],[8.6354,50.13866],[8.63472,50.13841],[8.63425,50.13929],[8.63334,50.13949],[8.63293,50.13992],[8.63189,50.14023],[8.63229,50.14044],[8.63181,50.14036],[8.63037,50.13965],[8.62932,50.1401],[8.62934,50.14028],[8.62877,50.14076],[8.62781,50.14061]]]]}},{"type":"Feature","properties":{"name":"Praunheim"},"geometry":{"type":"MultiPolygon","coordinates":[[[[8.63198,50.1594],[8.6315,50.16003],[8.62887,50.15932],[8.62611,50.15886],[8.62636,50.1583],[8.62603,50.15821],[8.62205,50.15754],[8.62248,50.15639],[8.62252,50.15457],[8.62311,50.15314],[8.62298,50.15311],[8.62042,50.15331],[8.61531,50.1543],[8.61229,50.15466],[8.61027,50.15518],[8.60905,50.15518],[8.60738,50.15547],[8.60654,50.15517],[8.60546,50.15575],[8.60376,50.15578],[8.60208,50.15607],[8.60177,50.15507],[8.6002,50.15209],[8.59682,50.1461],[8.59499,50.14321],[8.59336,50.13989],[8.59714,50.14121],[8.60327,50.13561],[8.60405,50.13432],[8.60481,50.13197],[8.60812,50.13169],[8.6116,50.13212],[8.61705,50.13388],[8.61571,50.13545],[8.61604,50.13556],[8.61613,50.13614],[8.61688,50.13603],[8.6181,50.13634],[8.61763,50.13702],[8.61719,50.13831],[8.61726,50.13957],[8.6176,50.14045],[8.61938,50.14045],[8.61939,50.13996],[8.62289,50.13998],[8.62289,50.14028],[8.62444,50.14029],[8.62445,50.14001],[8.62557,50.13979],[8.62708,50.14106],[8.62785,50.1406],[8.62877,50.14076],[8.62934,50.14028],[8.62932,50.1401],[8.63037,50.13965],[8.63181,50.14036],[8.63229,50.14044],[8.63327,50.14124],[8.634,50.14138],[8.63517,50.14228],[8.63477,50.14296],[8.63574,50.14374],[8.6356,50.14916],[8.62796,50.14907],[8.62804,50.15068],[8.62701,50.15052],[8.62649,50.15113],[8.6259,50.15144],[8.62811,50.15206],[8.6263,50.15438],[8.62945,50.15533],[8.63219,50.15658],[8.63111,50.15849],[8.63131,50.15901],[8.63198,50.1594]]]]}},{"type":"Feature","properties":{"name":"Heddernheim"},"geometry":{"type":"MultiPolygon","coordinates":[[[[8.64417,50.16744],[8.64301,50.16789],[8.64235,50.16749],[8.64142,50.16749],[8.64097,50.16717],[8.64092,50.16686],[8.64043,50.16633],[8.63958,50.16628],[8.63817,50.16656],[8.63336,50.16609],[8.63395,50.16525],[8.63425,50.16447],[8.63413,50.16193],[8.63443,50.16072],[8.63259,50.16044],[8.6315,50.16003],[8.63204,50.15933],[8.6314,50.15908],[8.63111,50.15849],[8.63219,50.15658],[8.62945,50.15533],[8.6263,50.15438],[8.62811,50.15206],[8.6259,50.15144],[8.62649,50.15113],[8.62701,50.15052],[8.62804,50.15068],[8.62796,50.14907],[8.63879,50.1492],[8.64015,50.14945],[8.64166,50.15023],[8.64462,50.15319],[8.64558,50.15368],[8.6477,50.15438],[8.64963,50.15568],[8.65086,50.15679],[8.65183,50.15839],[8.65309,50.15967],[8.65344,50.16086],[8.65321,50.16158],[8.65055,50.16497],[8.64993,50.16475],[8.64864,50.16622],[8.64753,50.16715],[8.64641,50.16753],[8.64417,50.16744]]]]}},{"type":"Feature","properties":{"name":"Niederursel"},"geometry":{"type":"MultiPolygon","coordinates":[[[[8.6162,50.18078],[8.61755,50.18302],[8.61881,50.18458],[8.61814,50.18456],[8.61696,50.18423],[8.61428,50.18295],[8.61,50.18231],[8.60563,50.18096],[8.60527,50.1807],[8.60546,50.18062],[8.60582,50.17976],[8.60628,50.17915],[8.60932,50.17704],[8.61003,50.17625],[8.60971,50.17627],[8.60732,50.1749],[8.60468,50.17378],[8.60235,50.17159],[8.59687,50.17324],[8.59532,50.17087],[8.59206,50.16732],[8.58829,50.16845],[8.58794,50.1682],[8.5893,50.16058],[8.58977,50.15921],[8.5898,50.15939],[8.59092,50.16023],[8.59775,50.15787],[8.60273,50.15699],[8.60208,50.15607],[8.60376,50.15578],[8.60546,50.15575],[8.60654,50.15517],[8.60738,50.15547],[8.60905,50.15518],[8.61027,50.15518],[8.61229,50.15466],[8.61531,50.1543],[8.62042,50.15331],[8.62298,50.15311],[8.62311,50.15314],[8.62252,50.15457],[8.62248,50.15639],[8.62205,50.15754],[8.62603,50.15821],[8.62636,50.1583],[8.62611,50.15886],[8.62887,50.15932],[8.6307,50.15977],[8.63259,50.16044],[8.63443,50.16072],[8.63413,50.16193],[8.63425,50.16447],[8.63395,50.16525],[8.63336,50.16609],[8.63817,50.16656],[8.63958,50.16628],[8.64043,50.16633],[8.64092,50.16686],[8.64097,50.16717],[8.64136,50.16745],[8.64235,50.16749],[8.64301,50.16789],[8.64425,50.16742],[8.64641,50.16753],[8.64753,50.16715],[8.64864,50.16622],[8.64993,50.16475],[8.65055,50.16497],[8.65011,50.16641],[8.64998,50.16742],[8.65098,50.16848],[8.65234,50.17127],[8.65019,50.17233],[8.64875,50.1736],[8.64789,50.17502],[8.64766,50.1759],[8.64768,50.17692],[8.64729,50.17676],[8.64678,50.17694],[8.6463,50.17688],[8.64454,50.1757],[8.63966,50.17371],[8.63624,50.17078],[8.63573,50.17106],[8.63539,50.17152],[8.6356,50.17281],[8.63525,50.1734],[8.63035,50.17689],[8.62646,50.1741],[8.6251,50.17273],[8.6172,50.17473],[8.61654,50.17462],[8.61576,50.17557],[8.61587,50.17615],[8.6152,50.17605],[8.61396,50.17674],[8.6162,50.18078]]]]}},{"type":"Feature","properties":{"name":"Ginnheim"},"geometry":{"type":"MultiPolygon","coordinates":[[[[8.65164,50.14939],[8.64863,50.15044],[8.64935,50.1513],[8.64603,50.15291],[8.64651,50.15351],[8.64616,50.15386],[8.64517,50.15351],[8.64433,50.15297],[8.64166,50.15023],[8.64063,50.14962],[8.63879,50.1492],[8.6356,50.14916],[8.63574,50.14374],[8.63477,50.14296],[8.63517,50.14228],[8.634,50.14138],[8.63331,50.14126],[8.63189,50.14023],[8.63293,50.13992],[8.63334,50.13949],[8.63425,50.13929],[8.63472,50.13841],[8.63573,50.13877],[8.63693,50.13898],[8.63823,50.13861],[8.63831,50.13875],[8.63994,50.13827],[8.63977,50.13797],[8.64064,50.13788],[8.64062,50.13753],[8.64202,50.13745],[8.64218,50.13694],[8.6426,50.13692],[8.64265,50.1371],[8.64578,50.13717],[8.64576,50.13702],[8.6474,50.13693],[8.65057,50.13628],[8.65561,50.13615],[8.65504,50.13673],[8.65677,50.1373],[8.65877,50.13722],[8.65863,50.13775],[8.65914,50.13892],[8.65927,50.13889],[8.65983,50.14042],[8.65972,50.14048],[8.66263,50.14288],[8.66151,50.14353],[8.66284,50.14416],[8.66086,50.14696],[8.65972,50.14982],[8.65673,50.14868],[8.65659,50.14876],[8.65634,50.15],[8.65338,50.151],[8.6529,50.14971],[8.65243,50.1491],[8.65164,50.14939]]]]}},{"type":"Feature","properties":{"name":"Dornbusch"},"geometry":{"type":"MultiPolygon","coordinates":[[[[8.67637,50.15824],[8.6745,50.15829],[8.67423,50.15703],[8.67348,50.15709],[8.67306,50.15626],[8.67241,50.15592],[8.67172,50.15649],[8.67047,50.15607],[8.66952,50.15526],[8.66985,50.15406],[8.66818,50.15374],[8.66802,50.1541],[8.66703,50.15394],[8.66746,50.15297],[8.66653,50.15269],[8.66783,50.15025],[8.66685,50.15005],[8.6676,50.14826],[8.66628,50.14798],[8.66361,50.15043],[8.65972,50.14982],[8.66086,50.14696],[8.66284,50.14416],[8.66151,50.14353],[8.66263,50.14288],[8.65972,50.14048],[8.65983,50.14042],[8.65927,50.13889],[8.65914,50.13892],[8.65863,50.13775],[8.65877,50.13722],[8.65677,50.1373],[8.65504,50.13673],[8.65561,50.13615],[8.66176,50.13636],[8.66432,50.13627],[8.66489,50.13642],[8.66601,50.13711],[8.67039,50.13866],[8.67141,50.1361],[8.67498,50.13634],[8.67491,50.13671],[8.6797,50.13725],[8.68025,50.13712],[8.68052,50.1365],[8.68326,50.13675],[8.68442,50.13664],[8.68483,50.13878],[8.68354,50.14201],[8.67726,50.14056],[8.67639,50.14217],[8.67603,50.14373],[8.67634,50.14397],[8.6766,50.14529],[8.6774,50.14616],[8.67882,50.14731],[8.6774,50.14821],[8.67571,50.14974],[8.6749,50.15195],[8.6748,50.15307],[8.67492,50.15416],[8.67553,50.15538],[8.67672,50.15689],[8.67723,50.1578],[8.67715,50.15825],[8.67637,50.15824]]]]}},{"type":"Feature","properties":{"name":"Eschersheim"},"geometry":{"type":"MultiPolygon","coordinates":[[[[8.65673,50.17403],[8.65529,50.17326],[8.65474,50.17363],[8.65285,50.17182],[8.65221,50.17106],[8.65169,50.16973],[8.65098,50.16848],[8.64998,50.16742],[8.65011,50.16641],[8.65055,50.16496],[8.6534,50.16119],[8.65338,50.16058],[8.65304,50.15957],[8.65183,50.15839],[8.65106,50.15703],[8.65011,50.15604],[8.6477,50.15438],[8.64616,50.15386],[8.64651,50.15351],[8.64603,50.15291],[8.64935,50.1513],[8.64863,50.15044],[8.65056,50.14987],[8.65243,50.1491],[8.6529,50.14971],[8.65338,50.151],[8.65634,50.15],[8.65659,50.14876],[8.65673,50.14868],[8.6595,50.14978],[8.66361,50.15043],[8.66628,50.14798],[8.6676,50.14826],[8.66685,50.15005],[8.66783,50.15025],[8.66653,50.15269],[8.66746,50.15297],[8.66703,50.15394],[8.66802,50.1541],[8.66818,50.15374],[8.66985,50.15406],[8.66952,50.15526],[8.67047,50.15607],[8.67172,50.15649],[8.67241,50.15592],[8.67306,50.15626],[8.67348,50.15709],[8.67423,50.15703],[8.6745,50.15829],[8.67715,50.15825],[8.67713,50.15797],[8.67745,50.15812],[8.67729,50.15917],[8.67674,50.15989],[8.67295,50.16106],[8.66936,50.16277],[8.66755,50.16397],[8.6631,50.16743],[8.66429,50.16826],[8.66581,50.16903],[8.66477,50.16932],[8.66523,50.1704],[8.66036,50.17131],[8.66079,50.17214],[8.65966,50.17261],[8.6598,50.17273],[8.65902,50.17321],[8.65864,50.17289],[8.65673,50.17403]]]]}},{"type":"Feature","properties":{"name":"Eckenheim"},"geometry":{"type":"MultiPolygon","coordinates":[[[[8.68017,50.16128],[8.67812,50.16315],[8.67774,50.16331],[8.67768,50.16353],[8.67679,50.16408],[8.67458,50.16372],[8.67285,50.16313],[8.67337,50.16266],[8.67273,50.16246],[8.67348,50.16179],[8.67204,50.16155],[8.67213,50.16139],[8.67359,50.16082],[8.67674,50.15989],[8.67738,50.15895],[8.67745,50.15812],[8.67528,50.15494],[8.67483,50.15383],[8.6748,50.15307],[8.67507,50.1513],[8.67571,50.14974],[8.6774,50.14821],[8.67882,50.14731],[8.6774,50.14616],[8.6766,50.14529],[8.67634,50.14397],[8.67603,50.14373],[8.67651,50.14185],[8.67726,50.14056],[8.68354,50.14201],[8.68484,50.13876],[8.6891,50.13937],[8.68916,50.13913],[8.69108,50.13922],[8.69129,50.13906],[8.69168,50.13966],[8.69376,50.14001],[8.69289,50.14216],[8.69457,50.14239],[8.69615,50.1429],[8.69417,50.14423],[8.69263,50.1457],[8.69199,50.14743],[8.69194,50.14881],[8.69105,50.15132],[8.6899,50.15107],[8.68792,50.15407],[8.68771,50.15417],[8.68713,50.15402],[8.68704,50.15417],[8.68661,50.15405],[8.68626,50.1553],[8.68591,50.15513],[8.68556,50.1557],[8.68522,50.15594],[8.68357,50.1567],[8.68138,50.157],[8.6817,50.15791],[8.68298,50.15874],[8.68426,50.1587],[8.68433,50.15902],[8.6803,50.15926],[8.68207,50.16015],[8.6818,50.16032],[8.68138,50.16023],[8.68017,50.16128]]]]}},{"type":"Feature","properties":{"name":"Preungesheim"},"geometry":{"type":"MultiPolygon","coordinates":[[[[8.6875,50.1655],[8.68748,50.1656],[8.68661,50.16536],[8.68297,50.16367],[8.68158,50.1649],[8.68033,50.16453],[8.67807,50.16312],[8.68138,50.16023],[8.6818,50.16032],[8.68207,50.16015],[8.6803,50.15926],[8.68433,50.15902],[8.68426,50.1587],[8.68298,50.15874],[8.6817,50.15791],[8.68138,50.157],[8.68357,50.1567],[8.68522,50.15594],[8.68556,50.1557],[8.68591,50.15513],[8.68626,50.1553],[8.68661,50.15405],[8.68704,50.15417],[8.68713,50.15402],[8.68771,50.15417],[8.68792,50.15407],[8.6899,50.15107],[8.69105,50.15132],[8.69194,50.14881],[8.69199,50.14743],[8.69263,50.1457],[8.69417,50.14423],[8.69889,50.14088],[8.70419,50.14365],[8.70467,50.14404],[8.70376,50.14639],[8.70669,50.14699],[8.70612,50.14873],[8.70586,50.14872],[8.70561,50.14931],[8.7062,50.14945],[8.70613,50.1496],[8.70684,50.14974],[8.70815,50.15039],[8.70768,50.15043],[8.70942,50.15159],[8.70913,50.15253],[8.71018,50.15281],[8.70954,50.15399],[8.70927,50.15416],[8.70946,50.15427],[8.70928,50.15528],[8.7087,50.15666],[8.71084,50.15698],[8.7103,50.15832],[8.71293,50.15872],[8.71246,50.16034],[8.71047,50.16322],[8.70969,50.16403],[8.70862,50.16461],[8.70268,50.16278],[8.70098,50.16247],[8.70016,50.16261],[8.69796,50.16219],[8.69674,50.16519],[8.69532,50.16493],[8.69295,50.16489],[8.69284,50.16445],[8.69188,50.16451],[8.6914,50.16409],[8.69007,50.16431],[8.68789,50.16408],[8.6875,50.1655]]]]}},{"type":"Feature","properties":{"name":"Bonames"},"geometry":{"type":"MultiPolygon","coordinates":[[[[8.66192,50.18736],[8.66173,50.18744],[8.66172,50.18798],[8.66051,50.18797],[8.66035,50.18735],[8.66013,50.1872],[8.65987,50.18738],[8.65795,50.18737],[8.6579,50.18643],[8.65766,50.18568],[8.65683,50.18439],[8.65552,50.1833],[8.65359,50.18223],[8.65446,50.18178],[8.6563,50.18127],[8.65864,50.17986],[8.65833,50.17967],[8.6584,50.17948],[8.66001,50.17837],[8.6602,50.17804],[8.66143,50.17832],[8.66179,50.17769],[8.66051,50.17741],[8.66067,50.17692],[8.66103,50.17656],[8.66181,50.17677],[8.66545,50.17673],[8.66796,50.17769],[8.66901,50.17794],[8.6715,50.17782],[8.67218,50.17865],[8.67298,50.1792],[8.67293,50.17943],[8.67262,50.17961],[8.67332,50.18058],[8.67413,50.1804],[8.67487,50.1814],[8.67552,50.18123],[8.67874,50.18317],[8.67378,50.1864],[8.67273,50.18566],[8.67112,50.18657],[8.6697,50.18773],[8.66823,50.18664],[8.66676,50.18788],[8.66612,50.18754],[8.66601,50.18718],[8.66518,50.18721],[8.66371,50.18798],[8.66319,50.18752],[8.66192,50.18736]]]]}},{"type":"Feature","properties":{"name":"Berkersheim"},"geometry":{"type":"MultiPolygon","coordinates":[[[[8.70162,50.18056],[8.69948,50.18112],[8.69851,50.18106],[8.69809,50.18084],[8.6976,50.18011],[8.69688,50.17953],[8.69746,50.17888],[8.69736,50.1787],[8.69657,50.17863],[8.6953,50.17908],[8.6944,50.17855],[8.6942,50.1782],[8.69485,50.17695],[8.69482,50.17641],[8.69436,50.17608],[8.69278,50.17596],[8.69215,50.17566],[8.69119,50.17376],[8.69011,50.17234],[8.68818,50.1711],[8.68726,50.17099],[8.68631,50.17128],[8.68605,50.17117],[8.68651,50.16988],[8.68701,50.1694],[8.68724,50.16874],[8.68719,50.16837],[8.68617,50.16837],[8.68642,50.16809],[8.68667,50.16819],[8.68687,50.16795],[8.68702,50.16732],[8.68689,50.16731],[8.68789,50.16408],[8.69007,50.16431],[8.6914,50.16409],[8.69188,50.16451],[8.69284,50.16445],[8.69295,50.16489],[8.69532,50.16493],[8.69674,50.16519],[8.69796,50.16219],[8.70016,50.16261],[8.70098,50.16247],[8.70268,50.16278],[8.70862,50.16461],[8.70985,50.1639],[8.71176,50.1614],[8.71698,50.163],[8.72025,50.16341],[8.72301,50.16348],[8.72232,50.16443],[8.71999,50.1665],[8.71867,50.16852],[8.71786,50.16928],[8.71459,50.17023],[8.71404,50.17131],[8.71372,50.17164],[8.71305,50.17187],[8.71189,50.1726],[8.71152,50.17324],[8.70914,50.17607],[8.70928,50.17615],[8.709,50.17725],[8.7093,50.17785],[8.70884,50.17799],[8.70926,50.17846],[8.70897,50.17892],[8.70611,50.17922],[8.70162,50.18056]]]]}},{"type":"Feature","properties":{"name":"Riederwald"},"geometry":{"type":"MultiPolygon","coordinates":[[[[8.73729,50.13128],[8.73726,50.1318],[8.73333,50.1317],[8.7327,50.1315],[8.73287,50.13119],[8.73051,50.13051],[8.73019,50.13083],[8.72877,50.13011],[8.72736,50.12905],[8.72481,50.1277],[8.72497,50.1273],[8.72456,50.12716],[8.72442,50.12695],[8.7253,50.12503],[8.72557,50.12305],[8.72718,50.12273],[8.72799,50.12226],[8.72846,50.12177],[8.72894,50.12183],[8.72979,50.1208],[8.74195,50.12515],[8.7408,50.12602],[8.7403,50.12687],[8.73991,50.12691],[8.73944,50.12944],[8.73965,50.12954],[8.73927,50.13151],[8.73729,50.13128]]]]}},{"type":"Feature","properties":{"name":"Seckbach"},"geometry":{"type":"MultiPolygon","coordinates":[[[[8.729,50.16284],[8.72301,50.16348],[8.72025,50.16341],[8.71698,50.163],[8.71176,50.1614],[8.71246,50.16034],[8.71292,50.1587],[8.7103,50.15832],[8.71084,50.15698],[8.7087,50.15666],[8.70928,50.15528],[8.70946,50.15427],[8.70927,50.15416],[8.70954,50.15399],[8.71018,50.15281],[8.70913,50.15253],[8.70942,50.15159],[8.70768,50.15043],[8.70815,50.15039],[8.70684,50.14974],[8.70613,50.1496],[8.7062,50.14945],[8.70561,50.14931],[8.70586,50.14872],[8.70612,50.14873],[8.70669,50.14699],[8.70376,50.14639],[8.70426,50.1449],[8.70574,50.14197],[8.70709,50.14038],[8.70878,50.13916],[8.71028,50.13847],[8.71209,50.13795],[8.71381,50.13764],[8.71764,50.13736],[8.71914,50.13707],[8.72087,50.13645],[8.72245,50.13551],[8.72354,50.1344],[8.72423,50.13301],[8.7244,50.12913],[8.72481,50.1277],[8.72736,50.12905],[8.72877,50.13011],[8.73008,50.13079],[8.73051,50.13051],[8.73287,50.13119],[8.7327,50.1315],[8.73316,50.13168],[8.73726,50.1318],[8.73729,50.13128],[8.74187,50.1318],[8.74358,50.1342],[8.74714,50.13582],[8.74798,50.1358],[8.74541,50.13867],[8.74605,50.139],[8.74176,50.14389],[8.74108,50.14487],[8.74437,50.14574],[8.74345,50.14754],[8.74477,50.14792],[8.74491,50.14805],[8.74448,50.14825],[8.74456,50.14832],[8.74645,50.14869],[8.74552,50.1503],[8.74571,50.15036],[8.74522,50.1507],[8.74488,50.15072],[8.74415,50.15135],[8.74416,50.15154],[8.74356,50.15237],[8.74325,50.15233],[8.74329,50.1525],[8.74301,50.153],[8.7429,50.15295],[8.74134,50.15578],[8.74254,50.15623],[8.74168,50.15764],[8.74073,50.15725],[8.73936,50.16007],[8.7359,50.16295],[8.73299,50.1622],[8.73073,50.16225],[8.729,50.16284]]]]}},{"type":"Feature","properties":{"name":"Fechenheim"},"geometry":{"type":"MultiPolygon","coordinates":[[[[8.78387,50.14092],[8.78246,50.14251],[8.78235,50.14379],[8.77984,50.14377],[8.77743,50.14354],[8.76883,50.14196],[8.76893,50.14171],[8.76592,50.14046],[8.7643,50.13996],[8.76007,50.1393],[8.75817,50.13867],[8.75858,50.13801],[8.75619,50.1378],[8.75249,50.13794],[8.75083,50.13748],[8.74994,50.13616],[8.74827,50.13575],[8.74714,50.13582],[8.74358,50.1342],[8.74187,50.1318],[8.73927,50.13151],[8.73965,50.12954],[8.73944,50.12944],[8.73991,50.12691],[8.7403,50.12687],[8.7408,50.12602],[8.74213,50.12506],[8.7431,50.12485],[8.74427,50.1249],[8.74481,50.12439],[8.74432,50.12419],[8.7455,50.12297],[8.74798,50.12214],[8.74763,50.12126],[8.74709,50.12136],[8.74515,50.1169],[8.74463,50.11606],[8.7449,50.11527],[8.74848,50.11563],[8.75021,50.11559],[8.75296,50.11532],[8.75433,50.11498],[8.75587,50.11424],[8.76057,50.11073],[8.76212,50.10984],[8.76578,50.10862],[8.76889,50.10793],[8.77169,50.10787],[8.77342,50.10812],[8.77673,50.10928],[8.77917,50.11053],[8.78037,50.1117],[8.78095,50.11314],[8.78089,50.11459],[8.78053,50.11573],[8.77976,50.1172],[8.77901,50.11815],[8.776,50.1203],[8.77486,50.12133],[8.77326,50.12289],[8.77232,50.12422],[8.77001,50.12675],[8.76901,50.12894],[8.76898,50.1306],[8.76931,50.13198],[8.76974,50.13276],[8.77066,50.13377],[8.77307,50.13546],[8.77448,50.13608],[8.77735,50.13691],[8.77977,50.13729],[8.77995,50.13833],[8.78491,50.13937],[8.78439,50.14055],[8.78387,50.14092]]]]}},{"type":"Feature","properties":{"name":"Höchst"},"geometry":{"type":"MultiPolygon","coordinates":[[[[8.5524,50.1152],[8.5483,50.11476],[8.54873,50.11309],[8.5472,50.11274],[8.54758,50.11192],[8.54524,50.1113],[8.54638,50.11017],[8.54407,50.10899],[8.54312,50.10834],[8.54426,50.10733],[8.53981,50.10528],[8.5378,50.10461],[8.53936,50.10133],[8.538,50.10142],[8.53689,50.1013],[8.53249,50.09986],[8.52061,50.09441],[8.52001,50.09398],[8.51369,50.0884],[8.51369,50.08767],[8.51468,50.08593],[8.51471,50.08553],[8.51493,50.08548],[8.515,50.08526],[8.51572,50.08538],[8.51611,50.08471],[8.51669,50.08485],[8.51854,50.08294],[8.51903,50.08222],[8.52037,50.08149],[8.52294,50.08059],[8.52383,50.08206],[8.52516,50.08344],[8.52819,50.08571],[8.53162,50.08772],[8.54083,50.09197],[8.54254,50.0929],[8.54802,50.09703],[8.55147,50.09884],[8.5512,50.09921],[8.55142,50.09945],[8.55534,50.10095],[8.55554,50.10196],[8.55576,50.10203],[8.55554,50.10231],[8.55653,50.10262],[8.55749,50.10318],[8.55747,50.1038],[8.56556,50.10418],[8.56523,50.10593],[8.56535,50.10688],[8.56607,50.10809],[8.5668,50.10873],[8.56656,50.10905],[8.56673,50.1094],[8.56624,50.11017],[8.56533,50.11034],[8.56505,50.11058],[8.56372,50.10915],[8.55794,50.11341],[8.55768,50.11346],[8.55627,50.11208],[8.55519,50.11146],[8.55342,50.10954],[8.55146,50.10936],[8.55164,50.11023],[8.55142,50.11028],[8.55318,50.11418],[8.55301,50.11421],[8.55303,50.1151],[8.55242,50.11507],[8.5524,50.1152]]]]}},{"type":"Feature","properties":{"name":"Nied"},"geometry":{"type":"MultiPolygon","coordinates":[[[[8.59589,50.10874],[8.59488,50.10939],[8.59436,50.10992],[8.59463,50.10999],[8.59473,50.11104],[8.59389,50.11289],[8.59389,50.11337],[8.59358,50.11422],[8.58885,50.11321],[8.57987,50.11208],[8.57783,50.11147],[8.57226,50.10879],[8.57077,50.10861],[8.56817,50.10904],[8.56703,50.10885],[8.56628,50.10834],[8.56535,50.10688],[8.56523,50.10593],[8.56556,50.10418],[8.55747,50.1038],[8.55749,50.10318],[8.55653,50.10262],[8.55554,50.10231],[8.55576,50.10203],[8.55554,50.10196],[8.55534,50.10095],[8.55169,50.09958],[8.5512,50.09921],[8.55147,50.09884],[8.55368,50.09926],[8.55549,50.09929],[8.56109,50.09822],[8.56432,50.09708],[8.574,50.09208],[8.57461,50.09256],[8.57562,50.09207],[8.57742,50.09278],[8.57788,50.09253],[8.57916,50.09322],[8.58107,50.09522],[8.58324,50.09622],[8.58378,50.09678],[8.58408,50.09731],[8.5839,50.09758],[8.58444,50.09836],[8.58403,50.09938],[8.58455,50.09966],[8.58335,50.09981],[8.58349,50.10105],[8.58441,50.10264],[8.58499,50.10312],[8.58894,50.10446],[8.59028,50.10465],[8.59241,50.10453],[8.5936,50.10495],[8.59663,50.10544],[8.59658,50.10592],[8.59795,50.10598],[8.60018,50.10695],[8.59923,50.10755],[8.59799,50.10787],[8.59768,50.10814],[8.59625,50.10846],[8.59589,50.10874]]]]}},{"type":"Feature","properties":{"name":"Sindlingen"},"geometry":{"type":"MultiPolygon","coordinates":[[[[8.51459,50.08609],[8.51369,50.08767],[8.51369,50.0884],[8.51963,50.09365],[8.49785,50.08804],[8.49869,50.08668],[8.4947,50.08611],[8.49474,50.08587],[8.49508,50.08592],[8.49476,50.0844],[8.49879,50.0823],[8.49875,50.08205],[8.49988,50.0816],[8.50189,50.08134],[8.50149,50.08012],[8.50112,50.0778],[8.50075,50.07655],[8.50101,50.07615],[8.50136,50.07631],[8.50137,50.07542],[8.50201,50.07528],[8.50321,50.0746],[8.50473,50.07409],[8.50708,50.073],[8.50579,50.07195],[8.5086,50.07052],[8.51093,50.06783],[8.5178,50.06494],[8.51717,50.06423],[8.51909,50.0629],[8.52039,50.06177],[8.52197,50.06238],[8.52567,50.06445],[8.52676,50.06559],[8.527,50.06625],[8.52715,50.06702],[8.52696,50.06863],[8.52668,50.06946],[8.52597,50.07064],[8.52382,50.07302],[8.52212,50.07769],[8.52213,50.0789],[8.52294,50.08059],[8.52037,50.08149],[8.51903,50.08222],[8.51854,50.08294],[8.51669,50.08485],[8.51611,50.08471],[8.51572,50.08538],[8.515,50.08526],[8.51493,50.08548],[8.51471,50.08553],[8.51459,50.08609]]]]}},{"type":"Feature","properties":{"name":"Zeilsheim"},"geometry":{"type":"MultiPolygon","coordinates":[[[[8.47998,50.11019],[8.47962,50.11074],[8.47862,50.11001],[8.47781,50.11031],[8.47587,50.10871],[8.48096,50.10528],[8.4773,50.10285],[8.47756,50.10274],[8.47556,50.10115],[8.47436,50.10134],[8.47276,50.09982],[8.47412,50.09919],[8.4735,50.09845],[8.47548,50.09775],[8.47988,50.09575],[8.47848,50.09516],[8.47998,50.09374],[8.47974,50.09357],[8.48186,50.09234],[8.48151,50.09196],[8.48549,50.08998],[8.48519,50.0897],[8.48792,50.0883],[8.48695,50.08621],[8.48786,50.08591],[8.48753,50.08492],[8.4889,50.08442],[8.48909,50.08489],[8.49472,50.0857],[8.4947,50.08611],[8.49869,50.08668],[8.49785,50.08804],[8.51904,50.09345],[8.51963,50.09365],[8.52061,50.09441],[8.52455,50.09621],[8.52357,50.09699],[8.52266,50.09735],[8.51688,50.09727],[8.51672,50.0999],[8.51749,50.1005],[8.51604,50.10118],[8.5154,50.10083],[8.51389,50.10193],[8.5122,50.10116],[8.51162,50.1018],[8.50996,50.103],[8.50836,50.10388],[8.50765,50.10402],[8.50662,50.10457],[8.50611,50.10436],[8.5056,50.10477],[8.50583,50.10485],[8.50547,50.10518],[8.506,50.10537],[8.50229,50.10775],[8.49966,50.10672],[8.49782,50.10764],[8.4961,50.10601],[8.49411,50.10662],[8.49194,50.10809],[8.49138,50.10668],[8.48881,50.10738],[8.48807,50.10732],[8.48554,50.1082],[8.48239,50.10954],[8.48208,50.10923],[8.47998,50.11019]]]]}},{"type":"Feature","properties":{"name":"Unterliederbach"},"geometry":{"type":"MultiPolygon","coordinates":[[[[8.55163,50.11612],[8.55194,50.12238],[8.53666,50.11677],[8.53424,50.11605],[8.53342,50.11564],[8.53353,50.11551],[8.53296,50.1153],[8.53259,50.11582],[8.53099,50.11595],[8.53073,50.11627],[8.5294,50.11567],[8.5283,50.1164],[8.52645,50.11803],[8.52584,50.1178],[8.52323,50.11997],[8.52299,50.11985],[8.52201,50.12096],[8.52061,50.12014],[8.5186,50.12138],[8.51809,50.12104],[8.51354,50.12192],[8.51174,50.11938],[8.51288,50.11925],[8.51239,50.11751],[8.51188,50.11765],[8.51168,50.11761],[8.5115,50.11731],[8.51069,50.11743],[8.50985,50.11727],[8.50962,50.11692],[8.5088,50.11662],[8.50787,50.11657],[8.50722,50.11564],[8.50733,50.11553],[8.50655,50.11481],[8.49964,50.10913],[8.50245,50.10768],[8.506,50.10537],[8.50547,50.10518],[8.50583,50.10485],[8.5056,50.10477],[8.50611,50.10436],[8.50662,50.10457],[8.50765,50.10402],[8.50836,50.10388],[8.50996,50.103],[8.51162,50.1018],[8.5122,50.10116],[8.51389,50.10193],[8.5154,50.10083],[8.51604,50.10118],[8.51749,50.1005],[8.51672,50.0999],[8.51688,50.09727],[8.52266,50.09735],[8.52357,50.09699],[8.52455,50.09621],[8.53225,50.09977],[8.53483,50.10072],[8.53759,50.10141],[8.53936,50.10133],[8.5378,50.10461],[8.53981,50.10528],[8.54426,50.10733],[8.54312,50.10834],[8.54407,50.10899],[8.54638,50.11017],[8.54524,50.1113],[8.54758,50.11192],[8.5472,50.11274],[8.54873,50.11309],[8.5483,50.11476],[8.55158,50.11511],[8.55163,50.11612]]]]}},{"type":"Feature","properties":{"name":"Sossenheim"},"geometry":{"type":"MultiPolygon","coordinates":[[[[8.58638,50.12982],[8.58408,50.13074],[8.58232,50.13234],[8.58081,50.1344],[8.56412,50.12732],[8.56064,50.12593],[8.56056,50.12601],[8.55194,50.12238],[8.55158,50.11511],[8.55303,50.1151],[8.55301,50.11421],[8.55318,50.11418],[8.55142,50.11028],[8.55164,50.11023],[8.55146,50.10936],[8.55251,50.10936],[8.5535,50.10959],[8.55519,50.11146],[8.55627,50.11208],[8.55768,50.11346],[8.55828,50.11321],[8.56372,50.10915],[8.56505,50.11058],[8.56533,50.11034],[8.56619,50.11022],[8.56673,50.1094],[8.56656,50.10905],[8.5668,50.10873],[8.56817,50.10904],[8.57041,50.10864],[8.57164,50.10866],[8.5728,50.10898],[8.57751,50.11132],[8.57911,50.11191],[8.5903,50.11347],[8.59841,50.11549],[8.59166,50.1259],[8.59101,50.12704],[8.59046,50.12846],[8.58746,50.12983],[8.58638,50.12982]]]]}},{"type":"Feature","properties":{"name":"Nieder-Erlenbach"},"geometry":{"type":"MultiPolygon","coordinates":[[[[8.71277,50.22507],[8.71236,50.22711],[8.70928,50.22714],[8.70968,50.22594],[8.71032,50.2228],[8.71115,50.22222],[8.70555,50.21925],[8.70577,50.21907],[8.70175,50.21709],[8.7006,50.21796],[8.69861,50.21689],[8.69835,50.21708],[8.69517,50.2162],[8.6941,50.21675],[8.69293,50.21581],[8.69151,50.21662],[8.69053,50.2155],[8.68693,50.21387],[8.68547,50.21517],[8.68105,50.21183],[8.68197,50.21125],[8.68272,50.21049],[8.68145,50.20985],[8.68834,50.20189],[8.68904,50.20134],[8.69318,50.1987],[8.69457,50.19747],[8.6986,50.19568],[8.70545,50.19176],[8.7128,50.19488],[8.71314,50.19464],[8.71408,50.19442],[8.71574,50.19531],[8.71604,50.19524],[8.71853,50.19618],[8.71905,50.19655],[8.71992,50.19898],[8.72899,50.20229],[8.72962,50.20259],[8.72926,50.20301],[8.73069,50.20358],[8.73043,50.20526],[8.73093,50.20543],[8.73174,50.20632],[8.73108,50.20737],[8.73149,50.20745],[8.73071,50.2108],[8.73498,50.21127],[8.73498,50.21163],[8.73401,50.21405],[8.73442,50.21451],[8.73495,50.21556],[8.73214,50.21585],[8.7318,50.21703],[8.73133,50.21764],[8.72684,50.21915],[8.72434,50.21975],[8.72358,50.22123],[8.72212,50.22134],[8.72157,50.22195],[8.72073,50.22248],[8.71923,50.22516],[8.71641,50.2243],[8.71548,50.22582],[8.71277,50.22507]]]]}},{"type":"Feature","properties":{"name":"Kalbach-Riedberg"},"geometry":{"type":"MultiPolygon","coordinates":[[[[8.64449,50.20034],[8.63874,50.20174],[8.63585,50.19743],[8.63313,50.19518],[8.63307,50.19503],[8.63368,50.19454],[8.62495,50.18946],[8.62312,50.18855],[8.62087,50.18679],[8.61909,50.18514],[8.61708,50.18232],[8.61396,50.17674],[8.6152,50.17605],[8.61587,50.17615],[8.61576,50.17557],[8.61654,50.17462],[8.6172,50.17473],[8.6251,50.17273],[8.62646,50.1741],[8.63035,50.17689],[8.63525,50.1734],[8.6356,50.17281],[8.63539,50.17152],[8.63573,50.17106],[8.63624,50.17078],[8.63948,50.1736],[8.64454,50.1757],[8.64645,50.17692],[8.64729,50.17676],[8.64768,50.17692],[8.64766,50.1759],[8.64789,50.17502],[8.64875,50.1736],[8.65019,50.17233],[8.65234,50.17127],[8.65603,50.17489],[8.65909,50.17558],[8.66103,50.17656],[8.66067,50.17692],[8.66051,50.17741],[8.66179,50.17769],[8.66143,50.17832],[8.6602,50.17804],[8.66001,50.17837],[8.6584,50.17948],[8.65833,50.17967],[8.65864,50.17986],[8.6563,50.18127],[8.65446,50.18178],[8.65359,50.18223],[8.65609,50.18371],[8.65683,50.18439],[8.65754,50.18542],[8.6579,50.18643],[8.65794,50.18749],[8.6576,50.18868],[8.65717,50.18943],[8.65611,50.19075],[8.6488,50.19829],[8.64539,50.20083],[8.64449,50.20034]]]]}},{"type":"Feature","properties":{"name":"Harheim"},"geometry":{"type":"MultiPolygon","coordinates":[[[[8.70348,50.19291],[8.6986,50.19568],[8.69457,50.19747],[8.69318,50.1987],[8.69031,50.20052],[8.683,50.19517],[8.68167,50.1944],[8.68178,50.19296],[8.68108,50.19287],[8.68098,50.19242],[8.68012,50.19217],[8.67979,50.19224],[8.67832,50.19166],[8.67534,50.18968],[8.67112,50.18657],[8.67273,50.18566],[8.67378,50.1864],[8.67874,50.18317],[8.67552,50.18123],[8.67487,50.1814],[8.67413,50.1804],[8.67332,50.18058],[8.67262,50.17961],[8.67293,50.17943],[8.67298,50.1792],[8.67218,50.17865],[8.6715,50.17782],[8.67385,50.17719],[8.67499,50.17642],[8.67641,50.17586],[8.67766,50.17512],[8.67978,50.1748],[8.68119,50.17486],[8.68218,50.17459],[8.68391,50.17371],[8.68463,50.17295],[8.68546,50.17238],[8.68614,50.17139],[8.68645,50.17119],[8.68765,50.17099],[8.68845,50.17122],[8.6903,50.17256],[8.69119,50.17376],[8.69215,50.17566],[8.69278,50.17596],[8.69436,50.17608],[8.69482,50.17641],[8.69485,50.17695],[8.6942,50.1782],[8.69462,50.17872],[8.6953,50.17908],[8.69657,50.17863],[8.69736,50.1787],[8.69746,50.17888],[8.69688,50.17953],[8.6976,50.18011],[8.69809,50.18084],[8.69851,50.18106],[8.69989,50.18107],[8.70197,50.18046],[8.70449,50.18472],[8.7067,50.18394],[8.70759,50.1838],[8.71103,50.1885],[8.70348,50.19291]]]]}},{"type":"Feature","properties":{"name":"Nieder-Eschbach"},"geometry":{"type":"MultiPolygon","coordinates":[[[[8.67445,50.21616],[8.6725,50.21716],[8.67119,50.21615],[8.66913,50.21695],[8.66605,50.21347],[8.66465,50.21212],[8.66402,50.21166],[8.6638,50.21173],[8.65959,50.2083],[8.65827,50.20956],[8.65703,50.20839],[8.65421,50.20651],[8.65075,50.2069],[8.64572,50.20318],[8.64336,50.20235],[8.64434,50.20198],[8.64559,50.20093],[8.64539,50.20083],[8.648,50.19894],[8.64964,50.19748],[8.65668,50.1901],[8.6576,50.18868],[8.65795,50.18737],[8.65987,50.18738],[8.66013,50.1872],[8.66035,50.18735],[8.66051,50.18797],[8.66172,50.18798],[8.66173,50.18744],[8.66195,50.18735],[8.66319,50.18752],[8.66371,50.18798],[8.66518,50.18721],[8.66601,50.18718],[8.66612,50.18754],[8.66676,50.18788],[8.66823,50.18664],[8.6697,50.18773],[8.67112,50.18657],[8.67534,50.18968],[8.67832,50.19166],[8.67979,50.19224],[8.68012,50.19217],[8.68098,50.19242],[8.68108,50.19287],[8.68178,50.19296],[8.68167,50.1944],[8.683,50.19517],[8.69036,50.20056],[8.69002,50.20065],[8.68834,50.20189],[8.68145,50.20985],[8.68272,50.21049],[8.68197,50.21125],[8.68105,50.21183],[8.6819,50.21245],[8.67445,50.21616]]]]}},{"type":"Feature","properties":{"name":"Bergen-Enkheim"},"geometry":{"type":"MultiPolygon","coordinates":[[[[8.77842,50.17996],[8.77869,50.18038],[8.76879,50.17979],[8.76269,50.17898],[8.76289,50.17681],[8.7627,50.17681],[8.76262,50.17367],[8.76297,50.1728],[8.76008,50.17263],[8.75794,50.17197],[8.75766,50.17165],[8.75426,50.17052],[8.75132,50.16906],[8.74961,50.16841],[8.74988,50.16814],[8.74882,50.16734],[8.74537,50.16588],[8.74256,50.16409],[8.73987,50.16342],[8.73964,50.16319],[8.73807,50.16259],[8.73699,50.16244],[8.73642,50.16305],[8.7359,50.16295],[8.73936,50.16007],[8.74073,50.15725],[8.74168,50.15764],[8.74254,50.15623],[8.74134,50.15578],[8.7429,50.15295],[8.74301,50.153],[8.74329,50.1525],[8.74325,50.15233],[8.74356,50.15237],[8.74416,50.15154],[8.74415,50.15135],[8.74488,50.15072],[8.74522,50.1507],[8.74571,50.15036],[8.74552,50.1503],[8.74645,50.14869],[8.74456,50.14832],[8.74448,50.14825],[8.74491,50.14805],[8.74477,50.14792],[8.74345,50.14754],[8.74437,50.14574],[8.74108,50.14487],[8.74176,50.14389],[8.74605,50.139],[8.74541,50.13867],[8.74798,50.1358],[8.74994,50.13616],[8.75071,50.1374],[8.75249,50.13794],[8.75619,50.1378],[8.75858,50.13801],[8.75817,50.13867],[8.76007,50.1393],[8.7643,50.13996],[8.76592,50.14046],[8.76893,50.14171],[8.76883,50.14196],[8.77743,50.14354],[8.77984,50.14377],[8.78235,50.14379],[8.78225,50.14467],[8.78273,50.15292],[8.78224,50.15554],[8.78408,50.15585],[8.78345,50.15722],[8.78343,50.15846],[8.78608,50.15885],[8.78717,50.15943],[8.78945,50.1589],[8.79063,50.15891],[8.79058,50.15992],[8.79096,50.16112],[8.78953,50.16144],[8.79047,50.16347],[8.79399,50.16306],[8.79465,50.16391],[8.79504,50.16394],[8.79482,50.16445],[8.7944,50.16684],[8.79545,50.16726],[8.79782,50.16741],[8.79818,50.16945],[8.80014,50.16936],[8.8,50.17111],[8.8004,50.17124],[8.79927,50.17279],[8.79965,50.17311],[8.79632,50.17451],[8.79398,50.17257],[8.793,50.17357],[8.79038,50.1756],[8.78997,50.17618],[8.78329,50.17671],[8.78261,50.1771],[8.77913,50.17711],[8.7791,50.17821],[8.77764,50.17827],[8.77766,50.17868],[8.77842,50.17996]]]]}},{"type":"Feature","properties":{"name":"Frankfurter Berg"},"geometry":{"type":"MultiPolygon","coordinates":[[[[8.6744,50.17682],[8.67385,50.17719],[8.67231,50.1777],[8.67002,50.17797],[8.66901,50.17794],[8.66796,50.17769],[8.66545,50.17673],[8.66138,50.17669],[8.65909,50.17558],[8.65603,50.17489],[8.65474,50.17363],[8.65529,50.17326],[8.65672,50.17403],[8.65864,50.17289],[8.65902,50.17321],[8.6598,50.17273],[8.65966,50.17261],[8.66079,50.17214],[8.66036,50.17131],[8.66523,50.1704],[8.66477,50.16932],[8.66581,50.16903],[8.66429,50.16826],[8.6631,50.16743],[8.66839,50.16338],[8.67213,50.16139],[8.67204,50.16155],[8.67348,50.16179],[8.67273,50.16246],[8.67337,50.16266],[8.67285,50.16313],[8.67458,50.16372],[8.67679,50.16408],[8.67812,50.16315],[8.68033,50.16453],[8.68158,50.1649],[8.68297,50.16367],[8.68622,50.16519],[8.6875,50.16561],[8.68741,50.16596],[8.68727,50.16595],[8.68689,50.16731],[8.68702,50.16732],[8.68687,50.16795],[8.68667,50.16819],[8.68642,50.16809],[8.68617,50.16837],[8.68719,50.16837],[8.68724,50.16874],[8.68701,50.1694],[8.68651,50.16988],[8.68613,50.17084],[8.68605,50.17117],[8.68631,50.17128],[8.68546,50.17238],[8.68463,50.17295],[8.6841,50.17356],[8.68164,50.17479],[8.67978,50.1748],[8.67766,50.17512],[8.6744,50.17682]]]]}}]}