{"type":"FeatureCollection","features":[{"type":"Feature","properties":{"kind":"accessible","label":"Westend-Nord: Auf der Körnerwiese 5 / Deutscher Parität. Wohlfahrtsverband","detail":"2 Plätze · Mo - Fr 7 - 19 Uhr"},"geometry":{"type":"Point","coordinates":[8.6733,50.12254]}},{"type":"Feature","properties":{"kind":"accessible","label":"Nordend-Ost: Baumweg 45 / Arztpraxis","detail":"1 Platz · Mo, Di, Do, Fr 8 - 19 Uhr; Mi 8 - 16 Uhr"},"geometry":{"type":"Point","coordinates":[8.69314,50.11971]}},{"type":"Feature","properties":{"kind":"accessible","label":"Höchst: Bolongarostraße 113 / Bolongaropalast - Ersatz-PP für Hsnr. 109","detail":"1 Platz · Mo - Fr 8 - 18 Uhr"},"geometry":{"type":"Point","coordinates":[8.55125,50.10084]}},{"type":"Feature","properties":{"kind":"accessible","label":"Westend-Süd: Feuerbachstraße 48","detail":"1 Platz · Mo - Fr 8 - 18:30 Uhr"},"geometry":{"type":"Point","coordinates":[8.66357,50.11763]}},{"type":"Feature","properties":{"kind":"accessible","label":"Bornheim: Berger Straße 168 - 170","detail":"2 Plätze · durchgehend"},"geometry":{"type":"Point","coordinates":[8.70536,50.12486]}},{"type":"Feature","properties":{"kind":"accessible","label":"Ginnheim: Ginnheimer Wäldchen (Parkplatz Höhe Gaststätte Niddapark)","detail":"2 Plätze · durchgehend"},"geometry":{"type":"Point","coordinates":[8.63478,50.13984]}},{"type":"Feature","properties":{"kind":"accessible","label":"Bornheim: Große Spillingsgasse 24","detail":"1 Platz · durchgehend"},"geometry":{"type":"Point","coordinates":[8.71189,50.13072]}},{"type":"Feature","properties":{"kind":"accessible","label":"Bornheim: Große Spillingsgasse 10","detail":"1 Platz · durchgehend"},"geometry":{"type":"Point","coordinates":[8.71137,50.13049]}},{"type":"Feature","properties":{"kind":"accessible","label":"Sachsenhausen-Nord: Hedderichstraße 132","detail":"1 Platz · durchgehend"},"geometry":{"type":"Point","coordinates":[8.68008,50.09756]}},{"type":"Feature","properties":{"kind":"accessible","label":"Höchst: Höchster Markt (Justinuskirchstraße)","detail":"2 Plätze · durchgehend"},"geometry":{"type":"Point","coordinates":[8.54639,50.09998]}},{"type":"Feature","properties":{"kind":"accessible","label":"Nordend-West: Jahnstraße 15","detail":"1 Platz · Mo - Fr 8 - 20 Uhr"},"geometry":{"type":"Point","coordinates":[8.68457,50.12056]}},{"type":"Feature","properties":{"kind":"accessible","label":"Bahnhofsviertel: Kaiserstraße 56","detail":"2 Plätze · durchgehend"},"geometry":{"type":"Point","coordinates":[8.6684,50.10843]}},{"type":"Feature","properties":{"kind":"accessible","label":"Bahnhofsviertel: Kaiserstraße 62","detail":"2 Plätze · durchgehend"},"geometry":{"type":"Point","coordinates":[8.66729,50.10814]}},{"type":"Feature","properties":{"kind":"accessible","label":"Nordend-Ost: Martin-Luther-Platz","detail":"2 Plätze · durchgehend"},"geometry":{"type":"Point","coordinates":[8.69742,50.12412]}},{"type":"Feature","properties":{"kind":"accessible","label":"Oberrad: Offenbacher Landstraße (Arztpraxen)","detail":"1 Platz · durchgehend"},"geometry":{"type":"Point","coordinates":[8.72469,50.10009]}},{"type":"Feature","properties":{"kind":"accessible","label":"Oberrad: Offenbacher Landstraße 299","detail":"1 Platz · durchgehend"},"geometry":{"type":"Point","coordinates":[8.72122,50.10041]}},{"type":"Feature","properties":{"kind":"accessible","label":"Praunheim: Praunheimer Hohl (Neuapostolische Kirche)","detail":"1 Platz · durchgehend"},"geometry":{"type":"Point","coordinates":[8.61396,50.14039]}},{"type":"Feature","properties":{"kind":"accessible","label":"Altstadt: Töngesgasse 4","detail":"1 Platz · durchgehend"},"geometry":{"type":"Point","coordinates":[8.68592,50.1136]}},{"type":"Feature","properties":{"kind":"accessible","label":"Sachsenhausen-Nord: Walther-von-Cronberg-Platz 15 / zur Ecke Gerbermühlstraße","detail":"1 Platz · Mo - Fr 8 - 16 Uhr"},"geometry":{"type":"Point","coordinates":[8.69625,50.10504]}},{"type":"Feature","properties":{"kind":"accessible","label":"Ostend: Wittelsbacher Allee 86 / Multiple Sklerose Gesellschaft","detail":"2 Plätze · Mo - Fr 8-16 Uhr"},"geometry":{"type":"Point","coordinates":[8.70939,50.12137]}},{"type":"Feature","properties":{"kind":"accessible","label":"Höchst: Melchiorstraße / Höchster Markt","detail":"1 Platz · Di, Fr, Sa 7-13 Uhr"},"geometry":{"type":"Point","coordinates":[8.54588,50.10007]}},{"type":"Feature","properties":{"kind":"accessible","label":"Höchst: Palleskestraße 14 / Sozialrathaus","detail":"1 Platz · Mo - Do 8-15 Uhr; Fr 8-13.30 Uhr"},"geometry":{"type":"Point","coordinates":[8.55205,50.10467]}},{"type":"Feature","properties":{"kind":"accessible","label":"Höchst: Palleskestraße AOK / Billtalstraße","detail":"1 Platz · Mo - Mi, Fr 8-16.30 Uhr; Do 8-18 Uhr"},"geometry":{"type":"Point","coordinates":[8.54974,50.10529]}},{"type":"Feature","properties":{"kind":"accessible","label":"Innenstadt: Porzellanhofstraße 19","detail":"2 Plätze · Mo - Fr 7-16 Uhr"},"geometry":{"type":"Point","coordinates":[8.68878,50.11635]}},{"type":"Feature","properties":{"kind":"accessible","label":"Oberrad: Offenbacher Landstraße 299 / Ergotherapie-Praxis","detail":"1 Platz · Mo - Fr 9-18 Uhr"},"geometry":{"type":"Point","coordinates":[8.72088,50.10034]}},{"type":"Feature","properties":{"kind":"accessible","label":"Oberrad: Offenbacher Landstraße 421","detail":"1 Platz · Mo - Fr 8-13 Uhr"},"geometry":{"type":"Point","coordinates":[8.73049,50.10052]}},{"type":"Feature","properties":{"kind":"accessible","label":"Oberrad: Wiener Straße 23 / Erlöserkirche","detail":"1 Platz · So 9-12 Uhr"},"geometry":{"type":"Point","coordinates":[8.72728,50.09768]}},{"type":"Feature","properties":{"kind":"accessible","label":"Ostend: Hanauer Landstraße 25","detail":"1 Platz · Mo - Fr 9-16 Uhr"},"geometry":{"type":"Point","coordinates":[8.69844,50.11327]}},{"type":"Feature","properties":{"kind":"accessible","label":"Bockenheim: Elisabethenplatz / Elisabethenkirche","detail":"2 Plätze · Sa 17-19 Uhr; So 9-12 Uhr"},"geometry":{"type":"Point","coordinates":[8.64348,50.1202]}},{"type":"Feature","properties":{"kind":"accessible","label":"Bornheim: Pestalozzistraße 5","detail":"1 Platz · werktags 8-18 Uhr"},"geometry":{"type":"Point","coordinates":[8.7135,50.12717]}},{"type":"Feature","properties":{"kind":"accessible","label":"Dornbusch: Eschersheimer Landstraße 393 / integr. Kindergarten","detail":"2 Plätze · Mo - Fr 9-11 und 14-16 Uhr"},"geometry":{"type":"Point","coordinates":[8.66778,50.14491]}},{"type":"Feature","properties":{"kind":"accessible","label":"Gallusviertel: Kostheimer Straße 2 - 4","detail":"1 Platz · Mo - Fr 7-17 Uhr"},"geometry":{"type":"Point","coordinates":[8.64076,50.10304]}},{"type":"Feature","properties":{"kind":"accessible","label":"Ginnheim: Ginnheimer Landstraße 127 / Reichelstraße","detail":"1 Platz · Mo - Fr 8-18 Uhr"},"geometry":{"type":"Point","coordinates":[8.64627,50.13885]}},{"type":"Feature","properties":{"kind":"accessible","label":"Niederrad: Odenwaldstraße / Bruchfeldstraße / Apotheke","detail":"1 Platz · werktags 7-17 Uhr"},"geometry":{"type":"Point","coordinates":[8.64212,50.08682]}},{"type":"Feature","properties":{"kind":"accessible","label":"Nordend-Ost: Gellertstraße 41 / Kindergarten","detail":"1 Platz · Mo - Fr 7:30 - 17 Uhr"},"geometry":{"type":"Point","coordinates":[8.69765,50.1311]}},{"type":"Feature","properties":{"kind":"accessible","label":"Bergen-Enkheim: Marktstraße 20 / Verwaltungsstelle Bergen-Enkheim","detail":"3 Plätze · durchgehend"},"geometry":{"type":"Point","coordinates":[8.75151,50.15503]}},{"type":"Feature","properties":{"kind":"accessible","label":"Westend-Süd: Reuterweg 18 / Physiotherapeuth. Praxis","detail":"1 Platz · Mo-Fr 9-17 Uhr"},"geometry":{"type":"Point","coordinates":[8.67115,50.11822]}},{"type":"Feature","properties":{"kind":"accessible","label":"Zeilsheim: Pfaffenwiese 46a / DRK","detail":"1 Platz · Do 16-20 Uhr"},"geometry":{"type":"Point","coordinates":[8.50021,50.09688]}},{"type":"Feature","properties":{"kind":"accessible","label":"Eschersheim: Im Uhrig 4 / Integrativer Kindergarten","detail":"2 Plätze · Mo-Do 10-18 Uhr; Fr 15-17:30 Uhr"},"geometry":{"type":"Point","coordinates":[8.65585,50.1623]}},{"type":"Feature","properties":{"kind":"accessible","label":"Bornheim: Inheidener Straße 53 / Praxis für Podologie","detail":"2 Plätze · Mo-Fr 9-18 Uhr"},"geometry":{"type":"Point","coordinates":[8.71691,50.13013]}},{"type":"Feature","properties":{"kind":"accessible","label":"Niederrad: Jugenheimer Straße 45","detail":"1 Platz · Mo-Fr 7-20 Uhr"},"geometry":{"type":"Point","coordinates":[8.63877,50.08382]}},{"type":"Feature","properties":{"kind":"accessible","label":"Sachsenhausen: Kleine Brückenstraße 3 - Mainkrokodile","detail":"1 Platz · Mo-Fr 9-18:30 Uhr"},"geometry":{"type":"Point","coordinates":[8.68767,50.10469]}},{"type":"Feature","properties":{"kind":"accessible","label":"Bockenheim: Kurfürstenstraße 8","detail":"8 Plätze · Mo-Fr 8-18 Uhr"},"geometry":{"type":"Point","coordinates":[8.64458,50.12234]}},{"type":"Feature","properties":{"kind":"accessible","label":"Nordend: Lersnerstraße 22 / Arztpraxis","detail":"1 Platz · Mo-Fr 8-18 Uhr"},"geometry":{"type":"Point","coordinates":[8.67985,50.12397]}},{"type":"Feature","properties":{"kind":"accessible","label":"Nied: Luthmerstraße 49 / Praxis für Ergotherapie","detail":"1 Platz · Mo-Fr 9-19 Uhr"},"geometry":{"type":"Point","coordinates":[8.57218,50.10019]}},{"type":"Feature","properties":{"kind":"accessible","label":"Bahnhofsviertel: Marienstraße ggü. Hsnr. 15","detail":"1 Platz · Mo-Fr 8-17 Uhr"},"geometry":{"type":"Point","coordinates":[8.66791,50.11183]}},{"type":"Feature","properties":{"kind":"accessible","label":"Nordend-West: Oeder Weg 43 / Firma ResMed","detail":"1 Platz · Mo-Fr 8-18 Uhr"},"geometry":{"type":"Point","coordinates":[8.68006,50.121]}},{"type":"Feature","properties":{"kind":"accessible","label":"Ostend: Pfingstweidstraße 3 / Orthopädische Praxis","detail":"1 Platz · Mo-Fr 8-18 Uhr"},"geometry":{"type":"Point","coordinates":[8.69602,50.11587]}},{"type":"Feature","properties":{"kind":"accessible","label":"Nordend-Ost: Sandweg 54 / Sanitätshaus","detail":"1 Platz · Mo-Fr 8:30-18 Uhr"},"geometry":{"type":"Point","coordinates":[8.69823,50.11946]}},{"type":"Feature","properties":{"kind":"accessible","label":"Westend-Süd: Zimmerweg 6","detail":"1 Platz · Mo-Fr 7-21 Uhr"},"geometry":{"type":"Point","coordinates":[8.66606,50.11215]}},{"type":"Feature","properties":{"kind":"accessible","label":"Höchst: Emmerich-Josef-Straße 9 / Sanitätshaus Netsch","detail":"1 Platz · Mo-Do 8-18 Uhr; Fr 8-13 Uhr"},"geometry":{"type":"Point","coordinates":[8.54999,50.10228]}},{"type":"Feature","properties":{"kind":"accessible","label":"Niederrad: Frauenhofstraße 25","detail":"1 Platz · Mo-Fr 7-20 Uhr; Sa 8-13 Uhr"},"geometry":{"type":"Point","coordinates":[8.64911,50.08686]}},{"type":"Feature","properties":{"kind":"accessible","label":"Bornheim-Mitte: Gronauer Straße 24 / Physiotherapie","detail":"1 Platz · Mo-Fr 8-20 Uhr"},"geometry":{"type":"Point","coordinates":[8.70922,50.12854]}},{"type":"Feature","properties":{"kind":"accessible","label":"Gallus: Heinrichstraße / Mainzer Ldstr. 158","detail":"1 Platz · Mo-Fr 8-19 Uhr"},"geometry":{"type":"Point","coordinates":[8.65184,50.10625]}},{"type":"Feature","properties":{"kind":"accessible","label":"Höchst: Höchster Bahnstraße 2a / Praxis für Physiotherapie","detail":"1 Platz · Mo-Fr 7:30 - 19 Uhr"},"geometry":{"type":"Point","coordinates":[8.54556,50.10343]}},{"type":"Feature","properties":{"kind":"accessible","label":"Holzhausenviertel: Holzhausenstraße 68, Chir. Praxis","detail":"1 Platz · Mo-Fr 9-18 Uhr"},"geometry":{"type":"Point","coordinates":[8.67592,50.12705]}},{"type":"Feature","properties":{"kind":"accessible","label":"Nordend-West: Eckenheimer Landstraße 16 / Arztpraxis","detail":"1 Platz · Mo - Fr 8-18 Uhr"},"geometry":{"type":"Point","coordinates":[8.68637,50.12069]}},{"type":"Feature","properties":{"kind":"accessible","label":"Nordend-West: Glauburgstraße 64","detail":"1 Platz · Mo - Fr 8-19 Uhr"},"geometry":{"type":"Point","coordinates":[8.68515,50.12653]}},{"type":"Feature","properties":{"kind":"accessible","label":"Ostend: Wittelsbacher Allee 36","detail":"1 Platz · werktags 9-18 Uhr"},"geometry":{"type":"Point","coordinates":[8.70343,50.11939]}},{"type":"Feature","properties":{"kind":"accessible","label":"Altstadt: An der Staufenmauer geg. Haus Nr. 3","detail":"1 Platz · werktags 8-20 Uhr"},"geometry":{"type":"Point","coordinates":[8.68736,50.11359]}},{"type":"Feature","properties":{"kind":"accessible","label":"Bockenheim: Große Seestraße 41-43","detail":"1 Platz · Mo - Fr 7-18 Uhr"},"geometry":{"type":"Point","coordinates":[8.64435,50.12084]}},{"type":"Feature","properties":{"kind":"accessible","label":"Sachsenhausen-Nord: Schifferstraße 13","detail":"1 Platz · Mo-Fr 8-18 Uhr"},"geometry":{"type":"Point","coordinates":[8.68834,50.10377]}},{"type":"Feature","properties":{"kind":"accessible","label":"Sachsenhausen-Nord: Waidmannstraße 47-49","detail":"1 Platz · Mo-Fr 8-19 Uhr"},"geometry":{"type":"Point","coordinates":[8.66668,50.09327]}},{"type":"Feature","properties":{"kind":"accessible","label":"Sachsenhausen-Süd: Großer Hasenpfad 74","detail":"1 Platz · Mo-Fr 8-17 Uhr"},"geometry":{"type":"Point","coordinates":[8.68592,50.09439]}},{"type":"Feature","properties":{"kind":"accessible","label":"Niederrad: Adolf-Miersch-Str. 4e","detail":"1 Platz · Mo - Fr 8 - 20 Uhr; Sa 10 - 14 Uhr"},"geometry":{"type":"Point","coordinates":[8.64397,50.08357]}},{"type":"Feature","properties":{"kind":"accessible","label":"Eschersheim: Alt-Eschersheim 63","detail":"1 Platz · Mo - Fr 8 - 19 Uhr; Sa 8 - 13 Uhr"},"geometry":{"type":"Point","coordinates":[8.65577,50.16132]}},{"type":"Feature","properties":{"kind":"accessible","label":"Griesheim: Alt-Griesheim 18 / Ärztehaus","detail":"2 Plätze · Mo - Fr 7.30 - 19 Uhr"},"geometry":{"type":"Point","coordinates":[8.60735,50.09077]}},{"type":"Feature","properties":{"kind":"accessible","label":"Nied: Alt-Nied 3 / Krankengymnastik- Praxis","detail":"1 Platz · Mo - Fr 8 - 18 Uhr"},"geometry":{"type":"Point","coordinates":[8.56481,50.0998]}},{"type":"Feature","properties":{"kind":"accessible","label":"Zeilsheim: Bechtenwaldstraße 67","detail":"1 Platz · Mo-Sa 8-18 Uhr"},"geometry":{"type":"Point","coordinates":[8.50392,50.09967]}},{"type":"Feature","properties":{"kind":"accessible","label":"Altstadt: An der Kleinmarkthalle / Ziegelgasse","detail":"2 Plätze · werktags 8-18 Uhr"},"geometry":{"type":"Point","coordinates":[8.6832,50.11246]}},{"type":"Feature","properties":{"kind":"accessible","label":"Westend: Bockenheimer Anlage 2-3 / A298","detail":"1 Platz · Mo - Fr 9 - 17 Uhr, Höchstparkdauer 2 Stunden"},"geometry":{"type":"Point","coordinates":[8.67836,50.11777]}},{"type":"Feature","properties":{"kind":"accessible","label":"Höchst: Albanusstraße 18","detail":"1 Platz · durchgehend"},"geometry":{"type":"Point","coordinates":[8.54687,50.10069]}},{"type":"Feature","properties":{"kind":"accessible","label":"Nordend-West: Hermannstraße / Oeder Weg 72","detail":"1 Platz · durchgehend"},"geometry":{"type":"Point","coordinates":[8.6814,50.12291]}},{"type":"Feature","properties":{"kind":"accessible","label":"Nordend-West: Nibelungenallee / Bürgerhospital","detail":"3 Plätze · durchgehend"},"geometry":{"type":"Point","coordinates":[8.68705,50.1307]}},{"type":"Feature","properties":{"kind":"accessible","label":"Nordend-West: Scheffelstraße 33 / Arzt","detail":"2 Plätze · werktags 8 - 19 Uhr"},"geometry":{"type":"Point","coordinates":[8.68933,50.12186]}},{"type":"Feature","properties":{"kind":"accessible","label":"Nordend-West: Stalburgstraße 3","detail":"1 Platz · durchgehend"},"geometry":{"type":"Point","coordinates":[8.68597,50.12434]}},{"type":"Feature","properties":{"kind":"accessible","label":"Nordend-West: Sternstraße 24","detail":"2 Plätze · durchgehend"},"geometry":{"type":"Point","coordinates":[8.68237,50.12067]}},{"type":"Feature","properties":{"kind":"accessible","label":"Nordend-West: Vogtstraße 64 / Krankengymnastik","detail":"1 Platz · durchgehend"},"geometry":{"type":"Point","coordinates":[8.67528,50.12617]}},{"type":"Feature","properties":{"kind":"accessible","label":"Oberrad: Offenbacher Landstraße 369 / Brunnen-Apotheke","detail":"1 Platz · durchgehend"},"geometry":{"type":"Point","coordinates":[8.72591,50.10033]}},{"type":"Feature","properties":{"kind":"accessible","label":"Ostend: Bernhard-Grzmek-Allee 10","detail":"1 Platz · durchgehend"},"geometry":{"type":"Point","coordinates":[8.7004,50.11419]}},{"type":"Feature","properties":{"kind":"accessible","label":"Ostend: Bärenstraße 1 / Hanauer Landstraße / Postamt","detail":"3 Plätze · durchgehend"},"geometry":{"type":"Point","coordinates":[8.70302,50.11318]}},{"type":"Feature","properties":{"kind":"accessible","label":"Ostend: Ostparkstraße 65 / CE BE EF - Frankfurt e.V.","detail":"3 Plätze · durchgehend"},"geometry":{"type":"Point","coordinates":[8.71548,50.11727]}},{"type":"Feature","properties":{"kind":"accessible","label":"Ostend: Röderbergweg 82 / August-Stuntz-Heim","detail":"2 Plätze · durchgehend"},"geometry":{"type":"Point","coordinates":[8.70871,50.11526]}},{"type":"Feature","properties":{"kind":"accessible","label":"Altstadt: Alte Mainzer Gasse 4","detail":"2 Plätze · durchgehend"},"geometry":{"type":"Point","coordinates":[8.68125,50.10958]}},{"type":"Feature","properties":{"kind":"accessible","label":"Altstadt: Bethmannstr. 1-3 / Altes Rathaus vor Seufzerbrücke","detail":"1 Platz · durchgehend"},"geometry":{"type":"Point","coordinates":[8.68047,50.11058]}},{"type":"Feature","properties":{"kind":"accessible","label":"Praunheim: Stephan-Heise-Straße 43 / Wohngebiet","detail":"1 Platz · durchgehend"},"geometry":{"type":"Point","coordinates":[8.6129,50.13409]}},{"type":"Feature","properties":{"kind":"accessible","label":"Preungesheim: Jaspertstraße 1 / Postamt","detail":"1 Platz · durchgehend"},"geometry":{"type":"Point","coordinates":[8.6916,50.1503]}},{"type":"Feature","properties":{"kind":"accessible","label":"Preungesheim: Homburger Landstraße 120 / Delphin-Apotheke","detail":"1 Platz · durchgehend"},"geometry":{"type":"Point","coordinates":[8.6914,50.15069]}},{"type":"Feature","properties":{"kind":"accessible","label":"Praunheim: Am Alten Schloß 21 / Arztpraxis","detail":"1 Platz · Mo - Do 8 - 18 Uhr; Fr 8 - 12 Uhr"},"geometry":{"type":"Point","coordinates":[8.62584,50.15286]}},{"type":"Feature","properties":{"kind":"accessible","label":"Innenstadt: Alte Mainzer Gasse 8 / Am Leonardstor","detail":"1 Platz · 8 - 20 Uhr"},"geometry":{"type":"Point","coordinates":[8.67984,50.10935]}},{"type":"Feature","properties":{"kind":"accessible","label":"Riederwald: Am Erlenbruch 26","detail":"2 Plätze · 8 - 19 Uhr"},"geometry":{"type":"Point","coordinates":[8.72954,50.12966]}},{"type":"Feature","properties":{"kind":"accessible","label":"Westend-Süd: Friedrichstraße 25 / Synagoge","detail":"1 Platz · durchgehend"},"geometry":{"type":"Point","coordinates":[8.66454,50.12133]}},{"type":"Feature","properties":{"kind":"accessible","label":"Zeilsheim: Bartholomäusgasse / Alt-Zeilsheim / Katholische Kirche","detail":"1 Platz · Di - Do 7:30 - 20 Uhr; So 9 - 12 Uhr"},"geometry":{"type":"Point","coordinates":[8.49297,50.09483]}},{"type":"Feature","properties":{"kind":"accessible","label":"Gallus-/Bahnhofsviertel: Poststraße ggü. Hausnr. 2","detail":"3 Plätze · durchgehend"},"geometry":{"type":"Point","coordinates":[8.66281,50.10814]}},{"type":"Feature","properties":{"kind":"accessible","label":"Ostend: Alfred-Brehm-Platz (Zoo)","detail":"1 Platz · durchgehend"},"geometry":{"type":"Point","coordinates":[8.69835,50.11545]}},{"type":"Feature","properties":{"kind":"accessible","label":"Altstadt: Töngesgasse 31 - 39","detail":"3 Plätze · durchgehend"},"geometry":{"type":"Point","coordinates":[8.68245,50.11311]}},{"type":"Feature","properties":{"kind":"accessible","label":"Nordend-Ost: Berger Straße 40-42","detail":"1 Platz · Mo - Fr 8-19 Uhr"},"geometry":{"type":"Point","coordinates":[8.69537,50.12008]}},{"type":"Feature","properties":{"kind":"accessible","label":"Zeilsheim: Blauländchenstraße 6 / Arztpraxis","detail":"1 Platz · Mo, Di, Do 8 - 18:45 Uhr; Mi 8-14:15 Uhr; Fr 8-16:15 Uhr"},"geometry":{"type":"Point","coordinates":[8.49464,50.09352]}},{"type":"Feature","properties":{"kind":"accessible","label":"Altstadt: Bethmannstraße / Paulsplatz - Seitenstreifen vor Seufzerbrücke A 266","detail":"2 Plätze · durchgehend"},"geometry":{"type":"Point","coordinates":[8.68056,50.11069]}},{"type":"Feature","properties":{"kind":"accessible","label":"Altstadt: Bethmannstraße 13-19","detail":"2 Plätze · durchgehend"},"geometry":{"type":"Point","coordinates":[8.67849,50.11021]}},{"type":"Feature","properties":{"kind":"accessible","label":"Altstadt: Bleidenstraße 5","detail":"1 Platz · durchgehend"},"geometry":{"type":"Point","coordinates":[8.68032,50.1126]}},{"type":"Feature","properties":{"kind":"accessible","label":"Altstadt: Fahrgasse 19","detail":"1 Platz · durchgehend"},"geometry":{"type":"Point","coordinates":[8.6866,50.11106]}},{"type":"Feature","properties":{"kind":"accessible","label":"Altstadt: Fahrgasse 89","detail":"2 Plätze · durchgehend"},"geometry":{"type":"Point","coordinates":[8.68592,50.11294]}},{"type":"Feature","properties":{"kind":"accessible","label":"Altstadt: Hasengasse 21-23 /Carl-Theodor-Reiffenstein-Platz","detail":"1 Platz · durchgehend"},"geometry":{"type":"Point","coordinates":[8.68349,50.11391]}},{"type":"Feature","properties":{"kind":"accessible","label":"Altstadt: Kornmarkt 6-8 / Sandgasse","detail":"1 Platz · durchgehend"},"geometry":{"type":"Point","coordinates":[8.67966,50.11169]}},{"type":"Feature","properties":{"kind":"accessible","label":"Altstadt: Kurt-Schumacher-Straße 13 / gegenüber Stadtwerke","detail":"2 Plätze · durchgehend"},"geometry":{"type":"Point","coordinates":[8.68781,50.11132]}},{"type":"Feature","properties":{"kind":"accessible","label":"Altstadt: Limpurgergasse 4-8","detail":"1 Platz · durchgehend"},"geometry":{"type":"Point","coordinates":[8.68006,50.11003]}},{"type":"Feature","properties":{"kind":"accessible","label":"Altstadt: Weckmarkt gegenüber Nr.9","detail":"1 Platz · durchgehend"},"geometry":{"type":"Point","coordinates":[8.68616,50.11028]}},{"type":"Feature","properties":{"kind":"accessible","label":"Altstadt: Weißfrauenstraße 1","detail":"1 Platz · durchgehend"},"geometry":{"type":"Point","coordinates":[8.67738,50.10947]}},{"type":"Feature","properties":{"kind":"accessible","label":"Bockenheim: Am Römerhof 19 / Zulassungsstelle","detail":"3 Plätze · durchgehend"},"geometry":{"type":"Point","coordinates":[8.61452,50.10834]}},{"type":"Feature","properties":{"kind":"accessible","label":"Bockenheim: Am Weingarten 18-20 / Seniorentreff","detail":"1 Platz · durchgehend"},"geometry":{"type":"Point","coordinates":[8.64751,50.12302]}},{"type":"Feature","properties":{"kind":"accessible","label":"Bockenheim: Bockenheimer Warte / Universitätsbibliothek","detail":"1 Platz · durchgehend"},"geometry":{"type":"Point","coordinates":[8.65291,50.12006]}},{"type":"Feature","properties":{"kind":"accessible","label":"Bockenheim: Falkstraße 92 / Basaltstraße / Landesarbeitsgemeinschaft Hessen e.V.","detail":"1 Platz · durchgehend"},"geometry":{"type":"Point","coordinates":[8.64419,50.12561]}},{"type":"Feature","properties":{"kind":"accessible","label":"Innenstadt: Roßmarkt 13 / Taxihalteplatz","detail":"2 Plätze · durchgehend"},"geometry":{"type":"Point","coordinates":[8.67721,50.11209]}},{"type":"Feature","properties":{"kind":"accessible","label":"Niederrad: Heinrich-Hoffmann-Straße 2","detail":"3 Plätze · durchgehend"},"geometry":{"type":"Point","coordinates":[8.64983,50.09207]}},{"type":"Feature","properties":{"kind":"accessible","label":"Niederrad: Marienburgstraße 7 / Friedrichsheim","detail":"2 Plätze · durchgehend"},"geometry":{"type":"Point","coordinates":[8.64933,50.09292]}},{"type":"Feature","properties":{"kind":"accessible","label":"Niederrad: Schwarzwaldstraße 46","detail":"1 Platz · durchgehend"},"geometry":{"type":"Point","coordinates":[8.64708,50.0855]}},{"type":"Feature","properties":{"kind":"accessible","label":"Niederrad: Schwarzwaldstraße / Rennbahnstraße","detail":"2 Plätze · durchgehend"},"geometry":{"type":"Point","coordinates":[8.65127,50.08325]}},{"type":"Feature","properties":{"kind":"accessible","label":"Nordend-Ost: Berger Straße 106","detail":"1 Platz · durchgehend"},"geometry":{"type":"Point","coordinates":[8.69986,50.12223]}},{"type":"Feature","properties":{"kind":"accessible","label":"Nordend-Ost: Berger Straße 116 / Sanitätshaus","detail":"1 Platz · durchgehend"},"geometry":{"type":"Point","coordinates":[8.70034,50.12248]}},{"type":"Feature","properties":{"kind":"accessible","label":"Nordend-Ost: Berger Straße 130 / Ärztehaus","detail":"1 Platz · durchgehend"},"geometry":{"type":"Point","coordinates":[8.70206,50.12328]}},{"type":"Feature","properties":{"kind":"accessible","label":"Nordend-Ost: Berger Straße 146","detail":"1 Platz · durchgehend"},"geometry":{"type":"Point","coordinates":[8.70333,50.1239]}},{"type":"Feature","properties":{"kind":"accessible","label":"Nordend-Ost: Friedberger Anlage / Fichtestraße","detail":"1 Platz · durchgehend"},"geometry":{"type":"Point","coordinates":[8.69227,50.11748]}},{"type":"Feature","properties":{"kind":"accessible","label":"Nordend-Ost: Friedberger Landstraße 142","detail":"1 Platz · Mo-Fr 8-18 Uhr"},"geometry":{"type":"Point","coordinates":[8.69295,50.12861]}},{"type":"Feature","properties":{"kind":"accessible","label":"Nordend-Ost: Martin-Luther-Straße / Rohrbachstraße","detail":"2 Plätze · durchgehend"},"geometry":{"type":"Point","coordinates":[8.69732,50.12862]}},{"type":"Feature","properties":{"kind":"accessible","label":"Nordend-Ost: Sandweg 57 / Franziushaus","detail":"2 Plätze · durchgehend"},"geometry":{"type":"Point","coordinates":[8.69766,50.11906]}},{"type":"Feature","properties":{"kind":"accessible","label":"Nordend-West: Eckenheimer Landstraße gegenüber Hauptfriedhof","detail":"1 Platz · durchgehend"},"geometry":{"type":"Point","coordinates":[8.68422,50.13722]}},{"type":"Feature","properties":{"kind":"accessible","label":"Nordend-West: Falkensteiner Straße / Ecke Adickesallee / Ärztehaus","detail":"2 Plätze · Mo-Fr 8-18 Uhr"},"geometry":{"type":"Point","coordinates":[8.67604,50.13197]}},{"type":"Feature","properties":{"kind":"accessible","label":"Nordend-West: Fürstenberger Straße 25-27 / Evangelischer Regionalverband","detail":"2 Plätze · durchgehend"},"geometry":{"type":"Point","coordinates":[8.67869,50.12528]}},{"type":"Feature","properties":{"kind":"accessible","label":"Rödelheim: Hausener Weg / Ludwig-Landmann-Straße / Geschäftszeile","detail":"1 Platz · durchgehend"},"geometry":{"type":"Point","coordinates":[8.61884,50.13211]}},{"type":"Feature","properties":{"kind":"accessible","label":"Rödelheim: Radilostraße / Kalkentalstraße","detail":"1 Platz · durchgehend"},"geometry":{"type":"Point","coordinates":[8.61023,50.12488]}},{"type":"Feature","properties":{"kind":"accessible","label":"Rödelheim: Röderichstraße / Alexanderstraße (Katharinenkirche)","detail":"1 Platz · durchgehend"},"geometry":{"type":"Point","coordinates":[8.60905,50.12521]}},{"type":"Feature","properties":{"kind":"accessible","label":"Rödelheim: Westerbachstraße / Rödelheimer Friedhof","detail":"1 Platz · durchgehend"},"geometry":{"type":"Point","coordinates":[8.60232,50.12282]}},{"type":"Feature","properties":{"kind":"accessible","label":"Rödelheim: Arnoldshainer Straße 5 / Orthopädie","detail":"1 Platz · durchgehend"},"geometry":{"type":"Point","coordinates":[8.60881,50.12669]}},{"type":"Feature","properties":{"kind":"accessible","label":"Sachsenhausen-Nord: Affentorplatz 10","detail":"1 Platz · durchgehend"},"geometry":{"type":"Point","coordinates":[8.6891,50.10449]}},{"type":"Feature","properties":{"kind":"accessible","label":"Sachsenhausen-Nord: Gartenstraße 112","detail":"1 Platz · durchgehend"},"geometry":{"type":"Point","coordinates":[8.67125,50.10039]}},{"type":"Feature","properties":{"kind":"accessible","label":"Sachsenhausen-Nord: Gutzkowstraße 9","detail":"1 Platz · Mo-Fr 9-17 Uhr"},"geometry":{"type":"Point","coordinates":[8.68768,50.10324]}},{"type":"Feature","properties":{"kind":"accessible","label":"Sachsenhausen-Nord: Metzlerstraße 34","detail":"1 Platz · Mo - Fr 9 - 22 Uhr"},"geometry":{"type":"Point","coordinates":[8.6793,50.10475]}},{"type":"Feature","properties":{"kind":"accessible","label":"Sachsenhausen-Nord: Schaumainkai 59","detail":"2 Plätze · durchgehend"},"geometry":{"type":"Point","coordinates":[8.67491,50.10414]}},{"type":"Feature","properties":{"kind":"accessible","label":"Sachsenhausen-Nord: Schaumainkai 71 (Liebighaus)","detail":"1 Platz · durchgehend"},"geometry":{"type":"Point","coordinates":[8.67171,50.10213]}},{"type":"Feature","properties":{"kind":"accessible","label":"Sachsenhausen-Nord: Schifferstraße 42 / Behindertenhort","detail":"1 Platz · durchgehend"},"geometry":{"type":"Point","coordinates":[8.6864,50.10451]}},{"type":"Feature","properties":{"kind":"accessible","label":"Höchst: Dalbergstraße / Zufahrt Höchster Bahnhof","detail":"1 Platz · durchgehend"},"geometry":{"type":"Point","coordinates":[8.54436,50.10216]}},{"type":"Feature","properties":{"kind":"accessible","label":"Sachsenhausen-Nord: Schifferstraße 44 / Kinderhaus Mainkrokodile","detail":"1 Platz · durchgehend"},"geometry":{"type":"Point","coordinates":[8.68618,50.10455]}},{"type":"Feature","properties":{"kind":"accessible","label":"Sachsenhausen-Nord: Schifferstraße 65-67 / Marthahaus","detail":"2 Plätze · durchgehend"},"geometry":{"type":"Point","coordinates":[8.68302,50.10608]}},{"type":"Feature","properties":{"kind":"accessible","label":"Ostend: Wittelsbacher Allee 65 / Sanitätshaus","detail":"1 Platz · durchgehend"},"geometry":{"type":"Point","coordinates":[8.70599,50.12063]}},{"type":"Feature","properties":{"kind":"accessible","label":"Bockenheim: Galvanistraße 31 / Bahnversicherungsanstalt","detail":"1 Platz · durchgehend"},"geometry":{"type":"Point","coordinates":[8.63591,50.11828]}},{"type":"Feature","properties":{"kind":"accessible","label":"Bockenheim: Ginnheimer Landstraße / Bockenheimer Friedhof","detail":"1 Platz · durchgehend"},"geometry":{"type":"Point","coordinates":[8.64561,50.13617]}},{"type":"Feature","properties":{"kind":"accessible","label":"Preungesheim: Marbachweg 95-103 / Apotheke","detail":"1 Platz · durchgehend"},"geometry":{"type":"Point","coordinates":[8.69598,50.14457]}},{"type":"Feature","properties":{"kind":"accessible","label":"Preungesheim: Obere Kreuzäckerstraße 11-15 / Sozialv.Reichsbund","detail":"1 Platz · Mo - Fr 10 - 16 Uhr"},"geometry":{"type":"Point","coordinates":[8.69281,50.15052]}},{"type":"Feature","properties":{"kind":"accessible","label":"Preungesheim: Weilbrunnstraße 20a/ Arztpraxis","detail":"1 Platz · durchgehend"},"geometry":{"type":"Point","coordinates":[8.69482,50.15473]}},{"type":"Feature","properties":{"kind":"accessible","label":"Rödelheim: Alexanderstraße 94-96 / REHA-Zentrum","detail":"1 Platz · durchgehend"},"geometry":{"type":"Point","coordinates":[8.61404,50.12804]}},{"type":"Feature","properties":{"kind":"accessible","label":"Bockenheim: Friesengasse 7 / Altenpflegeheim","detail":"1 Platz · durchgehend"},"geometry":{"type":"Point","coordinates":[8.64,50.12376]}},{"type":"Feature","properties":{"kind":"accessible","label":"Bockenheim: Leipziger Straße 67","detail":"1 Platz · durchgehend"},"geometry":{"type":"Point","coordinates":[8.64365,50.1231]}},{"type":"Feature","properties":{"kind":"accessible","label":"Bockenheim: Hohensteiner Straße 17","detail":"1 Platz · durchgehend"},"geometry":{"type":"Point","coordinates":[8.62389,50.12608]}},{"type":"Feature","properties":{"kind":"accessible","label":"Bockenheim: Kleine Seestraße 6","detail":"1 Platz · durchgehend"},"geometry":{"type":"Point","coordinates":[8.64025,50.12336]}},{"type":"Feature","properties":{"kind":"accessible","label":"Bockenheim: Kurfürstenplatz 35","detail":"1 Platz · durchgehend"},"geometry":{"type":"Point","coordinates":[8.64273,50.12026]}},{"type":"Feature","properties":{"kind":"accessible","label":"Bockenheim: Leipziger Straße zw. Adalbertstr. und Landgrafenstr.","detail":"1 Platz · durchgehend"},"geometry":{"type":"Point","coordinates":[8.64863,50.12109]}},{"type":"Feature","properties":{"kind":"accessible","label":"Bockenheim: Schloßstraße 35","detail":"2 Plätze · durchgehend"},"geometry":{"type":"Point","coordinates":[8.63934,50.12182]}},{"type":"Feature","properties":{"kind":"accessible","label":"Bockenheim: Wilhelm-Eppstein-Straße / Markus-Krankenhaus","detail":"4 Plätze · durchgehend"},"geometry":{"type":"Point","coordinates":[8.64796,50.13675]}},{"type":"Feature","properties":{"kind":"accessible","label":"Bornheim: Im Prüfling 19 / Bethanien-Krankenhaus","detail":"1 Platz · durchgehend"},"geometry":{"type":"Point","coordinates":[8.70586,50.12876]}},{"type":"Feature","properties":{"kind":"accessible","label":"Bornheim: Inheidener Straße / Hallenbad Bornheim","detail":"3 Plätze · durchgehend"},"geometry":{"type":"Point","coordinates":[8.71733,50.1315]}},{"type":"Feature","properties":{"kind":"accessible","label":"Bornheim: Neebstraße 2","detail":"2 Plätze · durchgehend"},"geometry":{"type":"Point","coordinates":[8.70704,50.12771]}},{"type":"Feature","properties":{"kind":"accessible","label":"Bornheim: Saalburgallee / Postamt","detail":"3 Plätze · durchgehend"},"geometry":{"type":"Point","coordinates":[8.71184,50.12527]}},{"type":"Feature","properties":{"kind":"accessible","label":"Bornheim: Spessartstraße 7","detail":"2 Plätze · durchgehend"},"geometry":{"type":"Point","coordinates":[8.7077,50.12562]}},{"type":"Feature","properties":{"kind":"accessible","label":"Eschersheim: Lindenring zw. Landgraf-Philipp-Straße und Eschersheimer Landstraße","detail":"2 Plätze · durchgehend"},"geometry":{"type":"Point","coordinates":[8.65874,50.15465]}},{"type":"Feature","properties":{"kind":"accessible","label":"Dornbusch: Fritz-Tarnow-Straße / Sonderschule","detail":"3 Plätze · durchgehend"},"geometry":{"type":"Point","coordinates":[8.67102,50.14289]}},{"type":"Feature","properties":{"kind":"accessible","label":"Dornbusch: Gustav-Freytag-Straße 7","detail":"1 Platz · durchgehend"},"geometry":{"type":"Point","coordinates":[8.6655,50.14074]}},{"type":"Feature","properties":{"kind":"accessible","label":"Dornbusch: Heussenstammstraße","detail":"2 Plätze · durchgehend"},"geometry":{"type":"Point","coordinates":[8.67379,50.14858]}},{"type":"Feature","properties":{"kind":"accessible","label":"Dornbusch: Hügelstraße / Fontanestraße /Rothschildstiftung","detail":"2 Plätze · durchgehend"},"geometry":{"type":"Point","coordinates":[8.66404,50.14791]}},{"type":"Feature","properties":{"kind":"accessible","label":"Eckenheim: Engelthaler Straße 9","detail":"1 Platz · durchgehend"},"geometry":{"type":"Point","coordinates":[8.68165,50.14953]}},{"type":"Feature","properties":{"kind":"accessible","label":"Eschersheim: Josephskirchstraße / Ecke Eschersheimer Landstraße","detail":"1 Platz · durchgehend"},"geometry":{"type":"Point","coordinates":[8.65792,50.15622]}},{"type":"Feature","properties":{"kind":"accessible","label":"Eschersheim: Nußzeil 48","detail":"2 Plätze · durchgehend"},"geometry":{"type":"Point","coordinates":[8.65946,50.15812]}},{"type":"Feature","properties":{"kind":"accessible","label":"Fechenheim: Alt-Fechenheim 84","detail":"1 Platz · durchgehend"},"geometry":{"type":"Point","coordinates":[8.76931,50.12431]}},{"type":"Feature","properties":{"kind":"accessible","label":"Fechenheim: Konstanzer Straße / Gartenbad","detail":"2 Plätze · durchgehend"},"geometry":{"type":"Point","coordinates":[8.76527,50.12493]}},{"type":"Feature","properties":{"kind":"accessible","label":"Fechenheim: Konstanzer Straße / Pfortenstraße (nach Zufahrt zur Apotheke)","detail":"1 Platz · durchgehend"},"geometry":{"type":"Point","coordinates":[8.76679,50.12225]}},{"type":"Feature","properties":{"kind":"accessible","label":"Gallus-/Bahnhofsviertel: Am Hauptbahnhof / Busbahnhof","detail":"3 Plätze · durchgehend"},"geometry":{"type":"Point","coordinates":[8.66479,50.10675]}},{"type":"Feature","properties":{"kind":"accessible","label":"Gallusviertel: Ackermannstraße 10","detail":"1 Platz · durchgehend"},"geometry":{"type":"Point","coordinates":[8.62777,50.09754]}},{"type":"Feature","properties":{"kind":"accessible","label":"Gallusviertel: Frankenallee 169 / Schwalbacher Straße","detail":"1 Platz · durchgehend"},"geometry":{"type":"Point","coordinates":[8.63559,50.10381]}},{"type":"Feature","properties":{"kind":"accessible","label":"Gallusviertel: Ottostraße 7","detail":"1 Platz · durchgehend"},"geometry":{"type":"Point","coordinates":[8.6605,50.10784]}},{"type":"Feature","properties":{"kind":"accessible","label":"Gallusviertel: Speyerer Straße 1 / Mainzer Landstraße","detail":"1 Platz · durchgehend"},"geometry":{"type":"Point","coordinates":[8.6501,50.10559]}},{"type":"Feature","properties":{"kind":"accessible","label":"Ginnheim: Hügelstraße 186","detail":"1 Platz · durchgehend"},"geometry":{"type":"Point","coordinates":[8.65938,50.14683]}},{"type":"Feature","properties":{"kind":"accessible","label":"Griesheim: Alte Falterstraße / Hartmannsweilerstraße / REWE-Markt","detail":"1 Platz · durchgehend"},"geometry":{"type":"Point","coordinates":[8.60714,50.09164]}},{"type":"Feature","properties":{"kind":"accessible","label":"Griesheim: Espenstraße 44","detail":"1 Platz · durchgehend"},"geometry":{"type":"Point","coordinates":[8.60931,50.09676]}},{"type":"Feature","properties":{"kind":"accessible","label":"Griesheim: Waldschulstraße /Haupteingang Griesheimer Friedhof","detail":"2 Plätze · durchgehend"},"geometry":{"type":"Point","coordinates":[8.60264,50.10254]}},{"type":"Feature","properties":{"kind":"accessible","label":"Heddernheim: Heddernheimer Landstraße 53","detail":"1 Platz · durchgehend"},"geometry":{"type":"Point","coordinates":[8.64595,50.16032]}},{"type":"Feature","properties":{"kind":"accessible","label":"Heddernheim: In der Römerstadt / Höhe Friedhof","detail":"1 Platz · durchgehend"},"geometry":{"type":"Point","coordinates":[8.6366,50.1538]}},{"type":"Feature","properties":{"kind":"accessible","label":"Heddernheim: Oberschelder Weg / Zeilweg","detail":"1 Platz · durchgehend"},"geometry":{"type":"Point","coordinates":[8.64056,50.16288]}},{"type":"Feature","properties":{"kind":"accessible","label":"Heddernheim: Olof-Palme-Straße 37 / Gotharer Haus","detail":"1 Platz · durchgehend"},"geometry":{"type":"Point","coordinates":[8.64245,50.17434]}},{"type":"Feature","properties":{"kind":"accessible","label":"Höchst: Albanusstraße 35 / Dalbergstraße","detail":"1 Platz · durchgehend"},"geometry":{"type":"Point","coordinates":[8.54552,50.10194]}},{"type":"Feature","properties":{"kind":"accessible","label":"Höchst: Emmerich-Josef-Straße 32 / Sanitätshaus","detail":"1 Platz · durchgehend"},"geometry":{"type":"Point","coordinates":[8.54718,50.10112]}},{"type":"Feature","properties":{"kind":"accessible","label":"Höchst: Emmerich-Josef-Straße / Königsteiner Straße","detail":"1 Platz · durchgehend"},"geometry":{"type":"Point","coordinates":[8.54863,50.10169]}},{"type":"Feature","properties":{"kind":"accessible","label":"Höchst: Gotenstraße 1","detail":"1 Platz · durchgehend"},"geometry":{"type":"Point","coordinates":[8.54633,50.10533]}},{"type":"Feature","properties":{"kind":"accessible","label":"Höchst: Justinuskirchstraße 3 a / Ergotherapie-Praxis","detail":"1 Platz · Mo-Fr 7-19 Uhr"},"geometry":{"type":"Point","coordinates":[8.54522,50.10085]}},{"type":"Feature","properties":{"kind":"accessible","label":"Höchst: Kasinostraße / Königsteiner Straße","detail":"1 Platz · durchgehend"},"geometry":{"type":"Point","coordinates":[8.54794,50.10257]}},{"type":"Feature","properties":{"kind":"accessible","label":"Höchst: Konrad-Glatt-Straße 19","detail":"2 Plätze · durchgehend"},"geometry":{"type":"Point","coordinates":[8.54853,50.10519]}},{"type":"Feature","properties":{"kind":"accessible","label":"Höchst: Mainberg / Bolongarostraße","detail":"1 Platz · durchgehend"},"geometry":{"type":"Point","coordinates":[8.55005,50.10037]}},{"type":"Feature","properties":{"kind":"accessible","label":"Höchst: Melchiorstraße / Höchster Hallenbad","detail":"1 Platz · durchgehend"},"geometry":{"type":"Point","coordinates":[8.54513,50.09943]}},{"type":"Feature","properties":{"kind":"accessible","label":"Höchst: Zuckschwerdtstraße / Paul-Schwerin-Straße","detail":"2 Plätze · durchgehend"},"geometry":{"type":"Point","coordinates":[8.54741,50.10711]}},{"type":"Feature","properties":{"kind":"accessible","label":"Innenstadt: Börsenstraße 7 / Taxihalteplatz","detail":"1 Platz · durchgehend"},"geometry":{"type":"Point","coordinates":[8.67669,50.11505]}},{"type":"Feature","properties":{"kind":"accessible","label":"Westend-Süd: Robert-Mayer-Straße 8-10","detail":"1 Platz · durchgehend"},"geometry":{"type":"Point","coordinates":[8.64974,50.11698]}},{"type":"Feature","properties":{"kind":"accessible","label":"Westend-Süd: Siesmayerstraße / Palmengarten","detail":"2 Plätze · durchgehend"},"geometry":{"type":"Point","coordinates":[8.659,50.12133]}},{"type":"Feature","properties":{"kind":"accessible","label":"Westend-Süd: Unterlindau 73 / Friedrichstraße","detail":"1 Platz · durchgehend"},"geometry":{"type":"Point","coordinates":[8.66712,50.12152]}},{"type":"Feature","properties":{"kind":"accessible","label":"Zeilsheim: Pfaffenwiese / Bechtenwaldstraße","detail":"1 Platz · durchgehend"},"geometry":{"type":"Point","coordinates":[8.50077,50.09738]}},{"type":"Feature","properties":{"kind":"accessible","label":"Nordend: Friedberger Landstraße / Ecke Gießener Straße / Eingang Hauptfriedhof","detail":"1 Platz · durchgehend"},"geometry":{"type":"Point","coordinates":[8.69587,50.13666]}},{"type":"Feature","properties":{"kind":"accessible","label":"Bockenheim: Adalbertstr. 6 / Barmer Ersatzkasse","detail":"2 Plätze · durchgehend"},"geometry":{"type":"Point","coordinates":[8.64912,50.12013]}},{"type":"Feature","properties":{"kind":"accessible","label":"Nordend-West: Adlerflychtstr. 8 -14 / Blindenanstalt","detail":"2 Plätze · durchgehend"},"geometry":{"type":"Point","coordinates":[8.68538,50.12378]}},{"type":"Feature","properties":{"kind":"accessible","label":"Innenstadt/Altstadt: Allerheiligenstr. 52 / Kurt-Schumacher-Str.","detail":"2 Plätze · durchgehend"},"geometry":{"type":"Point","coordinates":[8.68832,50.11377]}},{"type":"Feature","properties":{"kind":"accessible","label":"Schwanheim: Alt Schwanheim 6 / Stadtbücherei","detail":"1 Platz · durchgehend"},"geometry":{"type":"Point","coordinates":[8.5818,50.08631]}},{"type":"Feature","properties":{"kind":"accessible","label":"Bockenheim: Amperestraße Höhe Kleingartenanlage","detail":"1 Platz · durchgehend"},"geometry":{"type":"Point","coordinates":[8.62118,50.11751]}},{"type":"Feature","properties":{"kind":"accessible","label":"Innenstadt: Biebergasse / Ärztehaus","detail":"1 Platz · durchgehend"},"geometry":{"type":"Point","coordinates":[8.67903,50.11408]}},{"type":"Feature","properties":{"kind":"accessible","label":"Innenstadt: Börsenplatz","detail":"2 Plätze · durchgehend"},"geometry":{"type":"Point","coordinates":[8.67821,50.1148]}},{"type":"Feature","properties":{"kind":"accessible","label":"Niederrad: Bruchfeldstr. 110 / Schademarkt","detail":"2 Plätze · durchgehend"},"geometry":{"type":"Point","coordinates":[8.63915,50.08638]}},{"type":"Feature","properties":{"kind":"accessible","label":"Innenstadt: Große Gallusstraße 13 / Commerzbank","detail":"2 Plätze · durchgehend"},"geometry":{"type":"Point","coordinates":[8.67434,50.11158]}},{"type":"Feature","properties":{"kind":"accessible","label":"Innenstadt: Heiligkreuzgasse 15","detail":"2 Plätze · durchgehend"},"geometry":{"type":"Point","coordinates":[8.69082,50.11533]}},{"type":"Feature","properties":{"kind":"accessible","label":"Innenstadt: Hochstraße 51","detail":"1 Platz · durchgehend"},"geometry":{"type":"Point","coordinates":[8.67349,50.11534]}},{"type":"Feature","properties":{"kind":"accessible","label":"Innenstadt: Holzgraben 26-28 / Friedrich-Stoltze-Platz","detail":"1 Platz · durchgehend"},"geometry":{"type":"Point","coordinates":[8.68035,50.11318]}},{"type":"Feature","properties":{"kind":"accessible","label":"Innenstadt: Kaiserhofstraße 15","detail":"1 Platz · durchgehend"},"geometry":{"type":"Point","coordinates":[8.67474,50.11537]}},{"type":"Feature","properties":{"kind":"accessible","label":"Innenstadt: Kaiserstraße 2","detail":"1 Platz · durchgehend"},"geometry":{"type":"Point","coordinates":[8.67655,50.11162]}},{"type":"Feature","properties":{"kind":"accessible","label":"Innenstadt: Klapperfeldstraße / Heiligenkreuzgasse OLG","detail":"3 Plätze · durchgehend"},"geometry":{"type":"Point","coordinates":[8.69004,50.116]}},{"type":"Feature","properties":{"kind":"accessible","label":"Innenstadt: Klingerstraße / AOK","detail":"2 Plätze · durchgehend"},"geometry":{"type":"Point","coordinates":[8.68913,50.11298]}},{"type":"Feature","properties":{"kind":"accessible","label":"Innenstadt: Kurt-Schumacher-Straße / Stadtwerke","detail":"1 Platz · durchgehend"},"geometry":{"type":"Point","coordinates":[8.68829,50.11149]}},{"type":"Feature","properties":{"kind":"accessible","label":"Innenstadt: Lange Straße / Rechneigraben / Hospital zum Hl. Geist","detail":"1 Platz · durchgehend"},"geometry":{"type":"Point","coordinates":[8.693,50.10982]}},{"type":"Feature","properties":{"kind":"accessible","label":"Innenstadt: Lange Straße 25","detail":"2 Plätze · durchgehend"},"geometry":{"type":"Point","coordinates":[8.69258,50.11185]}},{"type":"Feature","properties":{"kind":"accessible","label":"Innenstadt: Rechneigrabenstraße 10","detail":"2 Plätze · durchgehend"},"geometry":{"type":"Point","coordinates":[8.69199,50.11129]}},{"type":"Feature","properties":{"kind":"accessible","label":"Niederrad: Heinrich-Hoffmann-Str. 3 / Dtsch. Parität. Wohlfahrtsverband","detail":"2 Plätze · durchgehend"},"geometry":{"type":"Point","coordinates":[8.65054,50.09232]}},{"type":"Feature","properties":{"kind":"accessible","label":"Höchst: Hostatostr. 27 / Postamt","detail":"1 Platz · durchgehend"},"geometry":{"type":"Point","coordinates":[8.54449,50.10087]}},{"type":"Feature","properties":{"kind":"accessible","label":"Dornbusch: Hügelstraße 134 Höhe REWE-Markt","detail":"1 Platz · durchgehend"},"geometry":{"type":"Point","coordinates":[8.66525,50.14793]}},{"type":"Feature","properties":{"kind":"accessible","label":"Nieder-Erlenbach: Im Sauern 10 / Bürgerhaus","detail":"2 Plätze · durchgehend"},"geometry":{"type":"Point","coordinates":[8.71193,50.20536]}},{"type":"Feature","properties":{"kind":"accessible","label":"Griesheim-Nord: Jägerallee 20 / Postamt","detail":"1 Platz · durchgehend"},"geometry":{"type":"Point","coordinates":[8.59087,50.10192]}},{"type":"Feature","properties":{"kind":"accessible","label":"Niederrad: Jugenheimer Straße 15","detail":"1 Platz · durchgehend"},"geometry":{"type":"Point","coordinates":[8.64103,50.08392]}},{"type":"Feature","properties":{"kind":"accessible","label":"Harheim: Korfstr. / Philipp-Schnell-Str. 52 / Verwaltungsstelle Harheim","detail":"1 Platz · durchgehend"},"geometry":{"type":"Point","coordinates":[8.69234,50.18201]}},{"type":"Feature","properties":{"kind":"accessible","label":"Nordend: Koselstraße 11-13 / St. Bernhard Kirche","detail":"1 Platz · durchgehend"},"geometry":{"type":"Point","coordinates":[8.68999,50.12329]}},{"type":"Feature","properties":{"kind":"accessible","label":"Bockenheim: Kurfürstenplatz 34","detail":"1 Platz · durchgehend"},"geometry":{"type":"Point","coordinates":[8.64206,50.12132]}},{"type":"Feature","properties":{"kind":"accessible","label":"Eckenheim: Kurzröderstraße 17 / Altenheim","detail":"2 Plätze · durchgehend"},"geometry":{"type":"Point","coordinates":[8.6842,50.14602]}},{"type":"Feature","properties":{"kind":"accessible","label":"Gallus: Mainzer Landstraße 90, Arztpraxis","detail":"1 Platz · durchgehend"},"geometry":{"type":"Point","coordinates":[8.65923,50.10907]}},{"type":"Feature","properties":{"kind":"accessible","label":"Nordend-West: Oeder Weg 2 / Volksbildungsheim","detail":"2 Plätze · durchgehend"},"geometry":{"type":"Point","coordinates":[8.67982,50.11836]}},{"type":"Feature","properties":{"kind":"accessible","label":"Nordend: Rat-Beil-Straße ggü. Hsnr. 57 (Hauptfriedhof Gruftengang)","detail":"1 Platz · durchgehend"},"geometry":{"type":"Point","coordinates":[8.68904,50.1319]}},{"type":"Feature","properties":{"kind":"accessible","label":"Altstadt: Weißadlergasse 2","detail":"2 Plätze · durchgehend"},"geometry":{"type":"Point","coordinates":[8.67864,50.11171]}},{"type":"Feature","properties":{"kind":"accessible","label":"Nordend: Richard-Wagner-Straße 14 / St. Marienkrankenhaus","detail":"4 Plätze · durchgehend"},"geometry":{"type":"Point","coordinates":[8.6869,50.12985]}},{"type":"Feature","properties":{"kind":"accessible","label":"Innenstadt: Schäfergasse 11 / Hertie","detail":"3 Plätze · durchgehend"},"geometry":{"type":"Point","coordinates":[8.68474,50.1157]}},{"type":"Feature","properties":{"kind":"accessible","label":"Sachsenhausen-Nord: Schweizer Straße 55","detail":"1 Platz · durchgehend"},"geometry":{"type":"Point","coordinates":[8.6811,50.10146]}},{"type":"Feature","properties":{"kind":"accessible","label":"Sossenheim: Sossenheimer Riedstr. 2 / Post","detail":"1 Platz · durchgehend"},"geometry":{"type":"Point","coordinates":[8.56893,50.12167]}},{"type":"Feature","properties":{"kind":"accessible","label":"Innenstadt: Stiftstr. 30","detail":"1 Platz · durchgehend"},"geometry":{"type":"Point","coordinates":[8.6815,50.11639]}},{"type":"Feature","properties":{"kind":"accessible","label":"Altstadt: Töngesgasse 8 / Parkhaus","detail":"1 Platz · durchgehend"},"geometry":{"type":"Point","coordinates":[8.68503,50.11354]}},{"type":"Feature","properties":{"kind":"accessible","label":"Gallus: Weilburgerstraße 15 / Ärztehaus","detail":"1 Platz · durchgehend"},"geometry":{"type":"Point","coordinates":[8.6442,50.10169]}},{"type":"Feature","properties":{"kind":"accessible","label":"Gutleut-/Bahnhofsviertel: Wilhelm-Leuschner-Str. 69-77 / Gewerkschaftshaus","detail":"2 Plätze · durchgehend"},"geometry":{"type":"Point","coordinates":[8.66661,50.1038]}},{"type":"Feature","properties":{"kind":"accessible","label":"Innenstadt: Zeil 42 / Klingerstraße / Oberlandesgericht","detail":"2 Plätze · durchgehend"},"geometry":{"type":"Point","coordinates":[8.68934,50.11487]}},{"type":"Feature","properties":{"kind":"accessible","label":"Bockenheim: Zeppelinallee 43 / Griechisches Konsulat","detail":"1 Platz · durchgehend"},"geometry":{"type":"Point","coordinates":[8.65258,50.12384]}},{"type":"Feature","properties":{"kind":"accessible","label":"Altenhöferallee 17 - 19 (Riedbergzentrum)","detail":"2 Plätze · durchgehend"},"geometry":{"type":"Point","coordinates":[8.62951,50.17754]}},{"type":"Feature","properties":{"kind":"accessible","label":"Fechenheim: Alt-Fechenheim 104","detail":"1 Platz · durchgehend"},"geometry":{"type":"Point","coordinates":[8.76991,50.12333]}},{"type":"Feature","properties":{"kind":"accessible","label":"Fechenheim: Alt-Fechenheim/Ankergasse","detail":"1 Platz · durchgehend"},"geometry":{"type":"Point","coordinates":[8.77039,50.12225]}},{"type":"Feature","properties":{"kind":"accessible","label":"Griesheim: Alte Falterstraße 24","detail":"1 Platz · durchgehend"},"geometry":{"type":"Point","coordinates":[8.60709,50.09364]}},{"type":"Feature","properties":{"kind":"accessible","label":"Eschersheim: Am Lindenbaum (Nahkauf)","detail":"1 Platz · durchgehend"},"geometry":{"type":"Point","coordinates":[8.66378,50.15428]}},{"type":"Feature","properties":{"kind":"accessible","label":"Ostend: Am Tiergarten 50","detail":"2 Plätze · durchgehend"},"geometry":{"type":"Point","coordinates":[8.70444,50.11521]}},{"type":"Feature","properties":{"kind":"accessible","label":"Nordend-Ost: Böttgerstraße 20","detail":"3 Plätze · Mo - Fr 8 - 20 Uhr"},"geometry":{"type":"Point","coordinates":[8.69702,50.12913]}},{"type":"Feature","properties":{"kind":"accessible","label":"Fechenheim: Baumertstraße 17","detail":"1 Platz · durchgehend"},"geometry":{"type":"Point","coordinates":[8.76828,50.12433]}},{"type":"Feature","properties":{"kind":"accessible","label":"Frankfurter Berg: Berkersheimer Weg 31","detail":"1 Platz · durchgehend"},"geometry":{"type":"Point","coordinates":[8.68046,50.16771]}},{"type":"Feature","properties":{"kind":"accessible","label":"Ostend: Bernhard-Grzmek-Allee / Nähe Zooeingang","detail":"2 Plätze · 9 - 19 Uhr"},"geometry":{"type":"Point","coordinates":[8.70001,50.11525]}},{"type":"Feature","properties":{"kind":"accessible","label":"Höchst: Bolongarostr. 82","detail":"1 Platz · durchgehend"},"geometry":{"type":"Point","coordinates":[8.55572,50.10241]}},{"type":"Feature","properties":{"kind":"accessible","label":"Höchst: Bolongarostr. 109 / Bolongaropalast","detail":"1 Platz · Mo - Fr 8 - 18 Uhr"},"geometry":{"type":"Point","coordinates":[8.5522,50.10116]}},{"type":"Feature","properties":{"kind":"accessible","label":"Bergen-Enkheim: Borsigallee / Vilbeler Landstraße","detail":"1 Platz · durchgehend"},"geometry":{"type":"Point","coordinates":[8.75625,50.14305]}},{"type":"Feature","properties":{"kind":"accessible","label":"Sachsenhausen-Nord: Bruchstraße 25","detail":"1 Platz · durchgehend"},"geometry":{"type":"Point","coordinates":[8.68797,50.10113]}},{"type":"Feature","properties":{"kind":"accessible","label":"Altstadt: Domstraße / Braubachstraße / Museum für Moderne Kunst","detail":"1 Platz · durchgehend"},"geometry":{"type":"Point","coordinates":[8.68437,50.11176]}},{"type":"Feature","properties":{"kind":"accessible","label":"Sachsenhausen-Nord: Brückenstraße 21","detail":"1 Platz · durchgehend"},"geometry":{"type":"Point","coordinates":[8.68751,50.10563]}},{"type":"Feature","properties":{"kind":"accessible","label":"Fechenheim: Bregenzer Straße 17","detail":"1 Platz · durchgehend"},"geometry":{"type":"Point","coordinates":[8.76883,50.11807]}},{"type":"Feature","properties":{"kind":"accessible","label":"Innenstadt: Breite Gasse 28","detail":"2 Plätze · durchgehend"},"geometry":{"type":"Point","coordinates":[8.69199,50.11458]}},{"type":"Feature","properties":{"kind":"accessible","label":"Westend-Süd: Brentanostraße 25 / Senioren Wohnanlage","detail":"1 Platz · durchgehend"},"geometry":{"type":"Point","coordinates":[8.66243,50.11759]}},{"type":"Feature","properties":{"kind":"accessible","label":"Gallus: Osloer Str. 5","detail":"2 Plätze · durchgehend"},"geometry":{"type":"Point","coordinates":[8.65462,50.10956]}},{"type":"Feature","properties":{"kind":"accessible","label":"Innenstadt: Stiftstr. 16 / Sanitätshaus","detail":"2 Plätze · durchgehend"},"geometry":{"type":"Point","coordinates":[8.68243,50.11574]}},{"type":"Feature","properties":{"kind":"accessible","label":"Innenstadt: Brönnerstr. 15","detail":"2 Plätze · durchgehend"},"geometry":{"type":"Point","coordinates":[8.68317,50.11601]}},{"type":"Feature","properties":{"kind":"accessible","label":"Bahnhofsviertel: Gutleutstraße 2","detail":"2 Plätze · durchgehend"},"geometry":{"type":"Point","coordinates":[8.67211,50.10804]}},{"type":"Feature","properties":{"kind":"accessible","label":"Nieder-Eschbach: Deuil-La-Barre-Str. 37-45 / Ladenzeile","detail":"2 Plätze · durchgehend"},"geometry":{"type":"Point","coordinates":[8.66978,50.19837]}},{"type":"Feature","properties":{"kind":"accessible","label":"Sachsenhausen-Nord: Dreieichstraße 24a","detail":"1 Platz · durchgehend"},"geometry":{"type":"Point","coordinates":[8.69205,50.10547]}},{"type":"Feature","properties":{"kind":"accessible","label":"Bockenheim: Am Weingarten","detail":"2 Plätze · durchgehend"},"geometry":{"type":"Point","coordinates":[8.64668,50.12246]}},{"type":"Feature","properties":{"kind":"accessible","label":"Sachsenhausen-Nord: Deutschherrnufer 30","detail":"1 Platz · Mo - Fr 9 - 17:30 Uhr"},"geometry":{"type":"Point","coordinates":[8.69392,50.10672]}},{"type":"Feature","properties":{"kind":"accessible","label":"Sachsenhausen-Nord: Diesterwegplatz","detail":"2 Plätze · durchgehend"},"geometry":{"type":"Point","coordinates":[8.6847,50.09967]}},{"type":"Feature","properties":{"kind":"accessible","label":"Sachsenhausen-Nord: Diesterwegstraße 20","detail":"1 Platz · Mo - Fr 7 - 17 Uhr"},"geometry":{"type":"Point","coordinates":[8.68291,50.10094]}},{"type":"Feature","properties":{"kind":"accessible","label":"Höchst: Dalbergstraße 9, Arztpraxis","detail":"1 Platz · Mo + Di 7:30 - 19 Uhr; Mi - Fr 7:30 - 16 Uhr"},"geometry":{"type":"Point","coordinates":[8.54354,50.10199]}},{"type":"Feature","properties":{"kind":"accessible","label":"Bornheim: Dortweiler Straße / Bornheimer Friedhof","detail":"2 Plätze · durchgehend"},"geometry":{"type":"Point","coordinates":[8.7021,50.13638]}},{"type":"Feature","properties":{"kind":"accessible","label":"Höchst: Dalbergstraße 14 (Bürgeramt)","detail":"2 Plätze · Mo + Do 9:00 - 18 Uhr; Di, Mi, Fr 7:30 - 13 Uhr"},"geometry":{"type":"Point","coordinates":[8.5427,50.10165]}},{"type":"Feature","properties":{"kind":"accessible","label":"Praunheim: Damaschkeanger 158 / Katharinenkirche","detail":"1 Platz · durchgehend"},"geometry":{"type":"Point","coordinates":[8.61427,50.14595]}},{"type":"Feature","properties":{"kind":"accessible","label":"Sachsenhausen-Nord: Dreieich / Klappergasse","detail":"1 Platz · durchgehend"},"geometry":{"type":"Point","coordinates":[8.69197,50.10516]}},{"type":"Feature","properties":{"kind":"accessible","label":"Sachsenhausen-Nord: Dreieichstraße gegenüber Hausnr. 39","detail":"1 Platz · durchgehend"},"geometry":{"type":"Point","coordinates":[8.69187,50.10478]}},{"type":"Feature","properties":{"kind":"accessible","label":"Sachsenhausen-Nord: Dreieichstraße vor Haus Nr. 59","detail":"1 Platz · durchgehend"},"geometry":{"type":"Point","coordinates":[8.69147,50.10359]}},{"type":"Feature","properties":{"kind":"accessible","label":"Sachsenhausen-Nord: Burnitzstraße 42-44","detail":"1 Platz · Mo - Fr 9 - 17 Uhr"},"geometry":{"type":"Point","coordinates":[8.67438,50.09746]}},{"type":"Feature","properties":{"kind":"accessible","label":"Sachsenhausen-Nord: Schulstraße 31 / Krankenhaus Sachsenhausen","detail":"1 Platz · durchgehend"},"geometry":{"type":"Point","coordinates":[8.68386,50.1066]}},{"type":"Feature","properties":{"kind":"accessible","label":"Sachsenhausen-Nord: Schweizer Straße / Filmmuseum","detail":"2 Plätze · durchgehend"},"geometry":{"type":"Point","coordinates":[8.67796,50.1049]}},{"type":"Feature","properties":{"kind":"accessible","label":"Sachsenhausen-Nord: Textorstraße 81","detail":"1 Platz · durchgehend"},"geometry":{"type":"Point","coordinates":[8.68267,50.10009]}},{"type":"Feature","properties":{"kind":"accessible","label":"Sachsenhausen-Süd: Auf dem Mühlberg 73 / Arztpraxis","detail":"1 Platz · Mo-Fr 9:00-20:00 Sa 9:00-14:00"},"geometry":{"type":"Point","coordinates":[8.70103,50.09992]}},{"type":"Feature","properties":{"kind":"accessible","label":"Sachsenhausen-Süd: Südfriedhof","detail":"2 Plätze · durchgehend"},"geometry":{"type":"Point","coordinates":[8.69171,50.09097]}},{"type":"Feature","properties":{"kind":"accessible","label":"Schwanheim: Alt-Schwanheim / Flaischlenstraße","detail":"1 Platz · durchgehend"},"geometry":{"type":"Point","coordinates":[8.58127,50.08343]}},{"type":"Feature","properties":{"kind":"accessible","label":"Seckbach: Heinz-Herbert-Karry-Straße 3","detail":"1 Platz · durchgehend"},"geometry":{"type":"Point","coordinates":[8.71662,50.13871]}},{"type":"Feature","properties":{"kind":"accessible","label":"Sindlingen: Richard-Weidlich-Platz / Bürgerhaus Sindlingen","detail":"1 Platz · durchgehend"},"geometry":{"type":"Point","coordinates":[8.51157,50.08797]}},{"type":"Feature","properties":{"kind":"accessible","label":"Sossenheim: Alt-Sossenheim 46-48","detail":"1 Platz · durchgehend"},"geometry":{"type":"Point","coordinates":[8.56684,50.11999]}},{"type":"Feature","properties":{"kind":"accessible","label":"Sossenheim: Toni-Sender-Straße 73 / Beratungsstelle VDK","detail":"1 Platz · durchgehend"},"geometry":{"type":"Point","coordinates":[8.56867,50.12522]}},{"type":"Feature","properties":{"kind":"accessible","label":"Unterliederbach: Sossenheimer Weg / Haupteingang Friedhof Höchst","detail":"1 Platz · durchgehend"},"geometry":{"type":"Point","coordinates":[8.54829,50.11503]}},{"type":"Feature","properties":{"kind":"accessible","label":"Unterliederbach: Legienstraße / Ludwig-Erhard-Schule","detail":"2 Plätze · Mo - Fr 7:30 bis 17 Uhr"},"geometry":{"type":"Point","coordinates":[8.53494,50.11117]}},{"type":"Feature","properties":{"kind":"accessible","label":"Unterliederbach: Liederbacher Straße 9-11 / Arztpraxis","detail":"1 Platz · Mo - Fr 8 - 18 Uhr"},"geometry":{"type":"Point","coordinates":[8.53798,50.10391]}},{"type":"Feature","properties":{"kind":"accessible","label":"Westend-Nord: Eschersheimer Landstraße 105","detail":"1 Platz · durchgehend"},"geometry":{"type":"Point","coordinates":[8.67449,50.1254]}},{"type":"Feature","properties":{"kind":"accessible","label":"Unterliederbach: Gebeschusstraße 58 / Arztpraxis","detail":"3 Plätze · durchgehend"},"geometry":{"type":"Point","coordinates":[8.53809,50.10302]}},{"type":"Feature","properties":{"kind":"accessible","label":"Westend-Nord: Eschersheimer Landstraße 249 / Jugend- und Sozialamt","detail":"2 Plätze · Mo-Fr 8-17 Uhr"},"geometry":{"type":"Point","coordinates":[8.6703,50.13987]}},{"type":"Feature","properties":{"kind":"accessible","label":"Westend-Nord: Sebastian-Rinz-Straße / Kirche","detail":"1 Platz · durchgehend"},"geometry":{"type":"Point","coordinates":[8.66201,50.13069]}},{"type":"Feature","properties":{"kind":"accessible","label":"Westend-Süd: Mendelssohnstraße 43","detail":"1 Platz · durchgehend"},"geometry":{"type":"Point","coordinates":[8.65707,50.11468]}},{"type":"Feature","properties":{"kind":"accessible","label":"Westend-Süd: Gärtnerweg 62","detail":"1 Platz · durchgehend"},"geometry":{"type":"Point","coordinates":[8.67117,50.11893]}},{"type":"Feature","properties":{"kind":"accessible","label":"Westend-Süd: Oberlindau 3","detail":"3 Plätze · durchgehend"},"geometry":{"type":"Point","coordinates":[8.66824,50.11698]}},{"type":"Feature","properties":{"kind":"accessible","label":"Westend-Süd: Palmengartenstraße / Nähe Haupteingang Palmengarten","detail":"2 Plätze · durchgehend"},"geometry":{"type":"Point","coordinates":[8.65692,50.12073]}},{"type":"Feature","properties":{"kind":"accessible","label":"Nieder-Eschbach: Deuil-La-Barre-Str. 26 / Verwaltungsstelle Nieder Eschbach","detail":"1 Platz · durchgehend"},"geometry":{"type":"Point","coordinates":[8.67145,50.19885]}},{"type":"Feature","properties":{"kind":"accessible","label":"Altstadt: Domplatz / Kannengießergasse","detail":"1 Platz · durchgehend"},"geometry":{"type":"Point","coordinates":[8.68517,50.11114]}},{"type":"Feature","properties":{"kind":"accessible","label":"Nordend-West: Eckenheimer Landstraße 190 / Friedhofsverwaltung","detail":"2 Plätze · durchgehend"},"geometry":{"type":"Point","coordinates":[8.68432,50.13272]}},{"type":"Feature","properties":{"kind":"accessible","label":"Dornbusch: Eschersheimer Landstr. 248 / Haus Dornbusch","detail":"1 Platz · durchgehend"},"geometry":{"type":"Point","coordinates":[8.67047,50.13926]}},{"type":"Feature","properties":{"kind":"accessible","label":"Niederrad: Frauenhofstraße / Ecke Bruchfeldstr. 30","detail":"1 Platz · durchgehend"},"geometry":{"type":"Point","coordinates":[8.64888,50.08728]}},{"type":"Feature","properties":{"kind":"accessible","label":"Innenstadt: Goethestraße 14","detail":"1 Platz · durchgehend"},"geometry":{"type":"Point","coordinates":[8.67492,50.11389]}},{"type":"Feature","properties":{"kind":"accessible","label":"Praunheim: Haingrabenstraße 32 / Parkplatz Friedhof Praunheim","detail":"2 Plätze · durchgehend"},"geometry":{"type":"Point","coordinates":[8.62062,50.15122]}},{"type":"Feature","properties":{"kind":"accessible","label":"Griesheim: Hartmannsweilerstraße 66 / Postamt","detail":"1 Platz · durchgehend"},"geometry":{"type":"Point","coordinates":[8.6049,50.09179]}},{"type":"Feature","properties":{"kind":"accessible","label":"Fechenheim: Ankergasse (Parkplatz)","detail":"1 Platz · durchgehend"},"geometry":{"type":"Point","coordinates":[8.77083,50.12235]}},{"type":"Feature","properties":{"kind":"accessible","label":"Altstadt: Barfüßergasse / Rückseite Paulsplatz, Rathaus Nordbau","detail":"1 Platz · durchgehend"},"geometry":{"type":"Point","coordinates":[8.67973,50.11102]}},{"type":"Feature","properties":{"kind":"accessible","label":"Innenstadt/Altstadt: Allerheiligentor 2-4","detail":"1 Platz · werktags 8-18 Uhr"},"geometry":{"type":"Point","coordinates":[8.69352,50.11317]}},{"type":"Feature","properties":{"kind":"accessible","label":"Bockenheim: Mühlgasse 8-12","detail":"1 Platz · durchgehend"},"geometry":{"type":"Point","coordinates":[8.64124,50.12315]}},{"type":"Feature","properties":{"kind":"accessible","label":"Nordend-West: Oeder Weg 1 / Kino Metropolis","detail":"1 Platz · durchgehend"},"geometry":{"type":"Point","coordinates":[8.67962,50.11848]}},{"type":"Feature","properties":{"kind":"accessible","label":"Ostend: Zobelstraße 5 / Arztpraxis","detail":"1 Platz · Mo, Di, Do, Fr 8-11 Uhr und 15-17 h; Mi 8-11 Uhr"},"geometry":{"type":"Point","coordinates":[8.70017,50.11332]}},{"type":"Feature","properties":{"kind":"accessible","label":"Höchst: Emmerich-Josef-Straße 39 / Höhe Justinuskirchstraße","detail":"1 Platz · Mo - Fr 8-18 Uhr"},"geometry":{"type":"Point","coordinates":[8.54597,50.10048]}},{"type":"Feature","properties":{"kind":"accessible","label":"Höchst: Gerlachstraße / Zuckschwerdtstraße / Amtsgericht","detail":"1 Platz · Mo - Fr 8-12 Uhr"},"geometry":{"type":"Point","coordinates":[8.54839,50.10709]}},{"type":"Feature","properties":{"kind":"accessible","label":"Höchst: Leverkuser Straße 11 / Arztpraxis","detail":"1 Platz · Mo - Fr 8-18 Uhr"},"geometry":{"type":"Point","coordinates":[8.54315,50.09997]}},{"type":"Feature","properties":{"kind":"accessible","label":"Niederrad: Deutsche Bank Park vor Wintersporthalle","detail":"8 Plätze · temporär bei Veranstaltungen"},"geometry":{"type":"Point","coordinates":[8.64071,50.07016]}},{"type":"Feature","properties":{"kind":"accessible","label":"Altstadt: Braubachstraße 13 / MMK","detail":"1 Platz · durchgehend"},"geometry":{"type":"Point","coordinates":[8.68422,50.11149]}},{"type":"Feature","properties":{"kind":"accessible","label":"Altstadt: Braubachstraße 33 (Stadtvermessungsamt / Gesundheitsamt)","detail":"3 Plätze · Mo - Fr 8-17 Uhr"},"geometry":{"type":"Point","coordinates":[8.68289,50.11108]}},{"type":"Feature","properties":{"kind":"accessible","label":"Dornbusch: Eichendorffstraße 50, Orthopädische / unfallchirurgische Praxis","detail":"1 Platz · durchgehend"},"geometry":{"type":"Point","coordinates":[8.66388,50.14156]}},{"type":"Feature","properties":{"kind":"accessible","label":"Griesheim: Eichenstraße 59 (Kinderarztpraxis)","detail":"1 Platz · durchgehend"},"geometry":{"type":"Point","coordinates":[8.59961,50.09515]}},{"type":"Feature","properties":{"kind":"accessible","label":"Altstadt: Alte Mainzer Gasse 47-59 / Archäologisches Museum","detail":"1 Platz · Mi - So 10 - 20 Uhr"},"geometry":{"type":"Point","coordinates":[8.67801,50.1088]}},{"type":"Feature","properties":{"kind":"accessible","label":"Altstadt: Kirchnerstraße 3","detail":"1 Platz · durchgehend"},"geometry":{"type":"Point","coordinates":[8.67507,50.11104]}},{"type":"Feature","properties":{"kind":"accessible","label":"Altstadt: Paulsplatz 7 / Torbogen","detail":"2 Plätze · durchgehend"},"geometry":{"type":"Point","coordinates":[8.68076,50.11056]}},{"type":"Feature","properties":{"kind":"accessible","label":"Bahnhofsviertel: Weserstraße 16","detail":"1 Platz · durchgehend"},"geometry":{"type":"Point","coordinates":[8.66997,50.10833]}},{"type":"Feature","properties":{"kind":"accessible","label":"Bahnhofsviertel: Wilhelm-Leuschner-Straße 27","detail":"1 Platz · durchgehend"},"geometry":{"type":"Point","coordinates":[8.67065,50.10594]}},{"type":"Feature","properties":{"kind":"accessible","label":"Bahnhofsviertel: Wilhelm-Leuschner-Straße 38","detail":"1 Platz · durchgehend"},"geometry":{"type":"Point","coordinates":[8.66893,50.10519]}},{"type":"Feature","properties":{"kind":"accessible","label":"Bergen-Enkheim: Hahnenkammstraße ggü. Hsnr. 3","detail":"1 Platz · durchgehend"},"geometry":{"type":"Point","coordinates":[8.75599,50.14371]}},{"type":"Feature","properties":{"kind":"accessible","label":"Bockenheim: Königsberger Straße 2","detail":"1 Platz · Mo - Fr 8 - 17 Uhr"},"geometry":{"type":"Point","coordinates":[8.62843,50.12896]}},{"type":"Feature","properties":{"kind":"accessible","label":"Bockenheim: Leonardo-da-Vinci-Allee 29","detail":"1 Platz · durchgehend"},"geometry":{"type":"Point","coordinates":[8.61986,50.11364]}},{"type":"Feature","properties":{"kind":"accessible","label":"Bockenheim: Robert-Mayer-Straße 53","detail":"1 Platz · durchgehend"},"geometry":{"type":"Point","coordinates":[8.64453,50.11741]}},{"type":"Feature","properties":{"kind":"accessible","label":"Bockenheim: Rohmerplatz Hsnr. 11","detail":"1 Platz · durchgehend"},"geometry":{"type":"Point","coordinates":[8.64531,50.12168]}},{"type":"Feature","properties":{"kind":"accessible","label":"Bockenheim: Sophienstraße 44","detail":"1 Platz · durchgehend"},"geometry":{"type":"Point","coordinates":[8.6498,50.12346]}},{"type":"Feature","properties":{"kind":"accessible","label":"Bockenheim: Werrastraße 7","detail":"2 Plätze · durchgehend"},"geometry":{"type":"Point","coordinates":[8.64132,50.11946]}},{"type":"Feature","properties":{"kind":"accessible","label":"Bockenheim: Werrastraße 39","detail":"1 Platz · Mo - Fr 8 - 20 Uhr"},"geometry":{"type":"Point","coordinates":[8.6392,50.12077]}},{"type":"Feature","properties":{"kind":"accessible","label":"Bonames: Ginsterweg (Kleingartenanlage Nardholz)","detail":"1 Platz · durchgehend"},"geometry":{"type":"Point","coordinates":[8.6776,50.16087]}},{"type":"Feature","properties":{"kind":"accessible","label":"Heddernheim: Aßlarer Straße 3","detail":"1 Platz · durchgehend"},"geometry":{"type":"Point","coordinates":[8.64302,50.1633]}},{"type":"Feature","properties":{"kind":"accessible","label":"Heddernheim: Oranienstraße 16 b","detail":"1 Platz · Sa 14 - 17 Uhr, So 10 - 13 Uhr"},"geometry":{"type":"Point","coordinates":[8.64781,50.1584]}},{"type":"Feature","properties":{"kind":"accessible","label":"Höchst: Am Stadtpark","detail":"1 Platz · durchgehend"},"geometry":{"type":"Point","coordinates":[8.55669,50.10831]}},{"type":"Feature","properties":{"kind":"accessible","label":"Höchst: Am Stadtpark ggü. Sportplatz","detail":"1 Platz · durchgehend"},"geometry":{"type":"Point","coordinates":[8.55946,50.11056]}},{"type":"Feature","properties":{"kind":"accessible","label":"Höchst: Emmerich-Josef-Str. 19","detail":"1 Platz · durchgehend"},"geometry":{"type":"Point","coordinates":[8.54882,50.10178]}},{"type":"Feature","properties":{"kind":"accessible","label":"Höchst: Hostatostraße 4 (Zufahrt Tiefgarage)","detail":"1 Platz · Mo - Fr 8 - 19 Uhr"},"geometry":{"type":"Point","coordinates":[8.54711,50.10217]}},{"type":"Feature","properties":{"kind":"accessible","label":"Höchst: Hostatostr. 21","detail":"1 Platz · durchgehend"},"geometry":{"type":"Point","coordinates":[8.54522,50.1012]}},{"type":"Feature","properties":{"kind":"accessible","label":"Innenstadt: Friedensstraße 3","detail":"1 Platz · durchgehend"},"geometry":{"type":"Point","coordinates":[8.675,50.10976]}},{"type":"Feature","properties":{"kind":"accessible","label":"Innenstadt: Goethestraße 34","detail":"2 Plätze · durchgehend"},"geometry":{"type":"Point","coordinates":[8.67313,50.1146]}},{"type":"Feature","properties":{"kind":"accessible","label":"Innenstadt: Große Friedberger Straße 13","detail":"1 Platz · durchgehend"},"geometry":{"type":"Point","coordinates":[8.6863,50.11537]}},{"type":"Feature","properties":{"kind":"accessible","label":"Innenstadt: Große Friedberger Straße 23 - 27","detail":"1 Platz · durchgehend"},"geometry":{"type":"Point","coordinates":[8.68618,50.11582]}},{"type":"Feature","properties":{"kind":"accessible","label":"Innenstadt: Hochstraße ggü. Hsnr. 31","detail":"1 Platz · durchgehend"},"geometry":{"type":"Point","coordinates":[8.67586,50.11625]}},{"type":"Feature","properties":{"kind":"accessible","label":"Innenstadt: Kaiserstraße 5a","detail":"1 Platz · Mo - Fr 6 - 22 Uhr"},"geometry":{"type":"Point","coordinates":[8.67648,50.11142]}},{"type":"Feature","properties":{"kind":"accessible","label":"Innenstadt: Klingerstraße 24","detail":"1 Platz · durchgehend"},"geometry":{"type":"Point","coordinates":[8.68923,50.11405]}},{"type":"Feature","properties":{"kind":"accessible","label":"Innenstadt: Porzellanhofstraße ggü.12","detail":"1 Platz · durchgehend"},"geometry":{"type":"Point","coordinates":[8.68849,50.11557]}},{"type":"Feature","properties":{"kind":"accessible","label":"Innenstadt: Schillerstraße 26","detail":"1 Platz · durchgehend"},"geometry":{"type":"Point","coordinates":[8.67881,50.11596]}},{"type":"Feature","properties":{"kind":"accessible","label":"Innenstadt: Seilerstraße 23","detail":"2 Plätze · durchgehend"},"geometry":{"type":"Point","coordinates":[8.69116,50.11621]}},{"type":"Feature","properties":{"kind":"accessible","label":"Nied: Friedhof Nied","detail":"1 Platz · durchgehend"},"geometry":{"type":"Point","coordinates":[8.56976,50.10301]}},{"type":"Feature","properties":{"kind":"accessible","label":"Nied: Neumarkt 4","detail":"1 Platz · durchgehend"},"geometry":{"type":"Point","coordinates":[8.58394,50.10784]}},{"type":"Feature","properties":{"kind":"accessible","label":"Niederrad: Hahnstraße - Parkplatz","detail":"1 Platz · durchgehend"},"geometry":{"type":"Point","coordinates":[8.63464,50.07664]}},{"type":"Feature","properties":{"kind":"accessible","label":"Niederrad: Heinrich-Seliger-Str. 36","detail":"2 Plätze · 7 - 19 Uhr"},"geometry":{"type":"Point","coordinates":[8.64132,50.0804]}},{"type":"Feature","properties":{"kind":"accessible","label":"Niederrad: Heinrich-Seliger-Str. ggü. Hsnr. 1","detail":"2 Plätze · 7 - 19 Uhr"},"geometry":{"type":"Point","coordinates":[8.64527,50.08116]}},{"type":"Feature","properties":{"kind":"accessible","label":"Niederrad: Königslacher Straße 37","detail":"1 Platz · Mo - Fr 8 - 12 Uhr und Mo, Di, Do 16 - 18 Uhr"},"geometry":{"type":"Point","coordinates":[8.64961,50.08041]}},{"type":"Feature","properties":{"kind":"accessible","label":"Niederursel: Praunheimer Weg","detail":"1 Platz · 7 - 20 Uhr"},"geometry":{"type":"Point","coordinates":[8.6216,50.16585]}},{"type":"Feature","properties":{"kind":"accessible","label":"Niederursel: Thomas-Mann-Straße 6-8","detail":"2 Plätze · durchgehend"},"geometry":{"type":"Point","coordinates":[8.61898,50.16333]}},{"type":"Feature","properties":{"kind":"accessible","label":"Nordend: Finkenhofstraße 44","detail":"1 Platz · Mo - Fr 8 - 18 Uhr"},"geometry":{"type":"Point","coordinates":[8.67687,50.12068]}},{"type":"Feature","properties":{"kind":"accessible","label":"Nordend: Heinestraße 14","detail":"1 Platz · Mo - Fr 7:30 - 17 Uhr"},"geometry":{"type":"Point","coordinates":[8.67613,50.123]}},{"type":"Feature","properties":{"kind":"accessible","label":"Nordend: Luisenstraße 5 (Neuapost. Kirche)","detail":"1 Platz · Mi 19:30 - 21:30 Uhr und So 9 - 11 Uhr"},"geometry":{"type":"Point","coordinates":[8.69594,50.12099]}},{"type":"Feature","properties":{"kind":"accessible","label":"Nordend/Bornheim: Hegelstraße vor Berger Straße","detail":"1 Platz · werktags 9 - 19 Uhr"},"geometry":{"type":"Point","coordinates":[8.69588,50.12012]}},{"type":"Feature","properties":{"kind":"accessible","label":"Nordend-Ost: Germaniastraße 89 (Bunker)","detail":"1 Platz · durchgehend"},"geometry":{"type":"Point","coordinates":[8.69947,50.12675]}},{"type":"Feature","properties":{"kind":"accessible","label":"Nordend-Ost: Hermesweg 19","detail":"1 Platz · Mo - Fr 7:30 - 19 Uhr"},"geometry":{"type":"Point","coordinates":[8.6922,50.11836]}},{"type":"Feature","properties":{"kind":"accessible","label":"Nordend-Ost: Sandweg 11","detail":"1 Platz · Mo - Fr 8 - 18 Uhr"},"geometry":{"type":"Point","coordinates":[8.69588,50.11694]}},{"type":"Feature","properties":{"kind":"accessible","label":"Nordend-Ost: Wetteraustraße 1 (für IGS Nordend)","detail":"1 Platz · durchgehend"},"geometry":{"type":"Point","coordinates":[8.70087,50.12939]}},{"type":"Feature","properties":{"kind":"accessible","label":"Nordend-West: Hammanstraße 10, Arztpraxis","detail":"1 Platz · Mo - Fr 8 - 18 Uhr"},"geometry":{"type":"Point","coordinates":[8.67718,50.12469]}},{"type":"Feature","properties":{"kind":"accessible","label":"Nordend-West: Mittelweg 31 für Sternstraße 36","detail":"1 Platz · Mo - Fr 9 - 17 Uhr"},"geometry":{"type":"Point","coordinates":[8.68232,50.1212]}},{"type":"Feature","properties":{"kind":"accessible","label":"Nordend-West: Nordendstraße 55 für MVZ St. Kamillus","detail":"2 Plätze · Mo - Fr 8 - 18 Uhr"},"geometry":{"type":"Point","coordinates":[8.68677,50.12842]}},{"type":"Feature","properties":{"kind":"accessible","label":"Nordend-West: Oeder Weg (Epiphaniaskirche)","detail":"1 Platz · durchgehend"},"geometry":{"type":"Point","coordinates":[8.68342,50.12852]}},{"type":"Feature","properties":{"kind":"accessible","label":"Nordend-West: Scheffelstraße 13 / Orthopäd. Praxis","detail":"2 Plätze · Mo - Fr 7 - 19 Uhr"},"geometry":{"type":"Point","coordinates":[8.68781,50.12071]}},{"type":"Feature","properties":{"kind":"accessible","label":"Nordend-West: Schwarzburgstraße 10 (Psychosoziale Krebsberatungsstelle)","detail":"1 Platz · Mo - Fr 8 - 17 Uhr"},"geometry":{"type":"Point","coordinates":[8.69138,50.12834]}},{"type":"Feature","properties":{"kind":"accessible","label":"Oberrad: Offenbacher Landstraße 70 - Arztpraxis","detail":"1 Platz · Mo - Fr 9 - 20 Uhr, Sa 9 - 14 Uhr"},"geometry":{"type":"Point","coordinates":[8.69924,50.10198]}},{"type":"Feature","properties":{"kind":"accessible","label":"Oberrad: Wiener Straße 13","detail":"1 Platz · Mo - Fr 7 - 18 Uhr"},"geometry":{"type":"Point","coordinates":[8.72602,50.09748]}},{"type":"Feature","properties":{"kind":"accessible","label":"Oberrad: Wiener Straße 45 / Anna-Apotheke, BeWo","detail":"1 Platz · Mo - Fr 8 - 18 Uhr, Sa 8 - 14 Uhr"},"geometry":{"type":"Point","coordinates":[8.73063,50.09808]}},{"type":"Feature","properties":{"kind":"accessible","label":"Ostend: Ferdinand-Happ-Straße 22 (Job-Center)","detail":"2 Plätze · Mo - Fr 8 - 16 Uhr"},"geometry":{"type":"Point","coordinates":[8.71363,50.11305]}},{"type":"Feature","properties":{"kind":"accessible","label":"Ostend: Ferdinand-Happ-Straße 59 (Edeka-Markt)","detail":"1 Platz · werktags 8 - 22 Uhr"},"geometry":{"type":"Point","coordinates":[8.71576,50.11391]}},{"type":"Feature","properties":{"kind":"accessible","label":"Ostend: Hanauer Landstraße 48","detail":"1 Platz · 10 - 15 Uhr"},"geometry":{"type":"Point","coordinates":[8.70111,50.11281]}},{"type":"Feature","properties":{"kind":"accessible","label":"Ostend: Horst-Schulmann-Straße in Höhe Dr. Hoch's Konservatorium","detail":"1 Platz · Mo - Fr 8 - 20 Uhr"},"geometry":{"type":"Point","coordinates":[8.69994,50.10997]}},{"type":"Feature","properties":{"kind":"accessible","label":"Ostend: Theobald-Christ-Straße ggü. Hsnr. 24","detail":"1 Platz · durchgehend"},"geometry":{"type":"Point","coordinates":[8.69794,50.11498]}},{"type":"Feature","properties":{"kind":"accessible","label":"Ostend: Waldschmidtstraße 4 (Mousonturm)","detail":"1 Platz · durchgehend"},"geometry":{"type":"Point","coordinates":[8.69892,50.11935]}},{"type":"Feature","properties":{"kind":"accessible","label":"Ostend: Waldschmidtstraße 40","detail":"1 Platz · Mo - Fr 7 - 17 Uhr"},"geometry":{"type":"Point","coordinates":[8.7024,50.11802]}},{"type":"Feature","properties":{"kind":"accessible","label":"Ostend: Wittelsbacher Allee 41-43","detail":"1 Platz · werktags 10 - 18 Uhr"},"geometry":{"type":"Point","coordinates":[8.7031,50.11985]}},{"type":"Feature","properties":{"kind":"accessible","label":"Praunheim: Heerstraße 54","detail":"1 Platz · Mo - Fr 8:30 - 15 Uhr und Mo + Do bis 19 Uhr"},"geometry":{"type":"Point","coordinates":[8.61585,50.14824]}},{"type":"Feature","properties":{"kind":"accessible","label":"Praunheim: Heinrich-Lübke-Straße 40 (Nähe Begegnungsstätte für Senioren)","detail":"1 Platz · durchgehend"},"geometry":{"type":"Point","coordinates":[8.6113,50.14244]}},{"type":"Feature","properties":{"kind":"accessible","label":"Preungesheim: Weilbrunnstraße gegenüber Nr. 18 KITA","detail":"1 Platz · durchgehend"},"geometry":{"type":"Point","coordinates":[8.6941,50.15486]}},{"type":"Feature","properties":{"kind":"accessible","label":"Riederwald: Schäfflestraße Höhe Am Erlenbruch","detail":"1 Platz · durchgehend"},"geometry":{"type":"Point","coordinates":[8.73288,50.13094]}},{"type":"Feature","properties":{"kind":"accessible","label":"Riederwald: Riederwaldsiedlung / Parkplatz am alten Volkshaus","detail":"1 Platz · Di 14 - 19 Uhr, Do 14 - 17 Uhr"},"geometry":{"type":"Point","coordinates":[8.73119,50.12896]}},{"type":"Feature","properties":{"kind":"accessible","label":"Rödelheim: Marquardstraße (Reformhaus)","detail":"1 Platz · Mo - Fr 8 - 18 Uhr und Sa 9 - 13 Uhr"},"geometry":{"type":"Point","coordinates":[8.60794,50.12381]}},{"type":"Feature","properties":{"kind":"accessible","label":"Rödelheim: Rödelheimer Bahnweg 21","detail":"1 Platz · Mo - Do 7 - 20:30 Uhr, Fr 7 - 19 Uhr"},"geometry":{"type":"Point","coordinates":[8.60729,50.12509]}},{"type":"Feature","properties":{"kind":"accessible","label":"Rödelheim: Rödelheimer Bahnweg 29 (Psychosoziales Zentrum)","detail":"1 Platz · durchgehend"},"geometry":{"type":"Point","coordinates":[8.60712,50.12625]}},{"type":"Feature","properties":{"kind":"accessible","label":"Sachsenhausen-Nord: Gutzkowstraße ggü. Hsnr. 79 (Höhe Textorschule)","detail":"1 Platz · Mo - Fr 7:30 - 17 Uhr"},"geometry":{"type":"Point","coordinates":[8.68172,50.10221]}},{"type":"Feature","properties":{"kind":"accessible","label":"Sachsenhausen-Nord: Mörfelder Landstraße 54","detail":"2 Plätze · Mo - Fr 8 - 19 Uhr"},"geometry":{"type":"Point","coordinates":[8.68708,50.09862]}},{"type":"Feature","properties":{"kind":"accessible","label":"Sachsenhausen-Nord: Mörfelder Landstraße 9 (Blinden- und Seniorenbund Hessen e.V.)","detail":"1 Platz · durchgehend"},"geometry":{"type":"Point","coordinates":[8.69049,50.10014]}},{"type":"Feature","properties":{"kind":"accessible","label":"Sachsenhausen-Nord: Mörfelder Landstraße 212 (Seniorenzentrum)","detail":"2 Plätze · durchgehend"},"geometry":{"type":"Point","coordinates":[8.67357,50.09129]}},{"type":"Feature","properties":{"kind":"accessible","label":"Sachsenhausen-Nord: Morgensternstraße 3 (Schillerschule)","detail":"1 Platz · Mo - Fr 7 - 17 Uhr"},"geometry":{"type":"Point","coordinates":[8.67722,50.10166]}},{"type":"Feature","properties":{"kind":"accessible","label":"Sachsenhausen-Nord: Oskar-Sommer-Straße 6 / Alten- und Pflegeheim","detail":"1 Platz · Mo - Fr 9 - 17 Uhr"},"geometry":{"type":"Point","coordinates":[8.67289,50.09694]}},{"type":"Feature","properties":{"kind":"accessible","label":"Sachsenhausen-Nord: Schaubstraße 16 (Ambulantes Krebszentrum)","detail":"1 Platz · Mo - Fr 8 - 18 Uhr"},"geometry":{"type":"Point","coordinates":[8.66984,50.10009]}},{"type":"Feature","properties":{"kind":"accessible","label":"Sachsenhausen-Nord: Schweizer Straße 72 für Liegenschaft 66 - 68","detail":"1 Platz · durchgehend"},"geometry":{"type":"Point","coordinates":[8.68119,50.10109]}},{"type":"Feature","properties":{"kind":"accessible","label":"Sachsenhausen-Nord: Textorstraße 44 (Textorbad)","detail":"1 Platz · durchgehend"},"geometry":{"type":"Point","coordinates":[8.68524,50.10125]}},{"type":"Feature","properties":{"kind":"accessible","label":"Sachsenhausen-Nord: Thorwaldsenstraße 36","detail":"1 Platz · Mo - Fr 7:30 - 16 Uhr"},"geometry":{"type":"Point","coordinates":[8.67238,50.09814]}},{"type":"Feature","properties":{"kind":"accessible","label":"Sachsenhausen-Nord: Waidmannstraße 22","detail":"1 Platz · durchgehend"},"geometry":{"type":"Point","coordinates":[8.66842,50.09425]}},{"type":"Feature","properties":{"kind":"accessible","label":"Sachsenhausen-Nord: Walter-Kolb-Straße 1 - 7 (Bildungsträger GmbH)","detail":"2 Plätze · Mo - Fr 8 - 17 Uhr"},"geometry":{"type":"Point","coordinates":[8.6865,50.10589]}},{"type":"Feature","properties":{"kind":"accessible","label":"Sachsenhausen-Süd: Mittlerer Hasenpfad 41","detail":"1 Platz · Mo - Fr 7 - 17 Uhr"},"geometry":{"type":"Point","coordinates":[8.68427,50.09409]}},{"type":"Feature","properties":{"kind":"accessible","label":"Sachsenhausen-Süd: Sachsenhäuser Landwehrweg / Parkplatz Goetheturm","detail":"2 Plätze · durchgehend"},"geometry":{"type":"Point","coordinates":[8.70999,50.08935]}},{"type":"Feature","properties":{"kind":"accessible","label":"Sachsenhausen-Süd: Ziegelhüttenweg 1 (Apotheke / Ärztehaus)","detail":"1 Platz · durchgehend"},"geometry":{"type":"Point","coordinates":[8.68188,50.09481]}},{"type":"Feature","properties":{"kind":"accessible","label":"Schwanheim: Alt-Schwanheim 10","detail":"1 Platz · durchgehend"},"geometry":{"type":"Point","coordinates":[8.5817,50.08605]}},{"type":"Feature","properties":{"kind":"accessible","label":"Schwanheim: Schwanheimer Ufer / Höchster Weg (Kleingartenanlage)","detail":"1 Platz · durchgehend"},"geometry":{"type":"Point","coordinates":[8.56866,50.09159]}},{"type":"Feature","properties":{"kind":"accessible","label":"Seckbach: Friedberger Landstraße, ggü. Hsnr. 426 (BGU, Huthpark)","detail":"1 Platz · 7 - 17 Uhr"},"geometry":{"type":"Point","coordinates":[8.70629,50.14525]}},{"type":"Feature","properties":{"kind":"accessible","label":"Sindlingen: Westenbergerstr. 6","detail":"1 Platz · durchgehend"},"geometry":{"type":"Point","coordinates":[8.51656,50.08021]}},{"type":"Feature","properties":{"kind":"accessible","label":"Rödelheim: Westerwaldstraße 35","detail":"1 Platz · durchgehend"},"geometry":{"type":"Point","coordinates":[8.56463,50.1211]}},{"type":"Feature","properties":{"kind":"accessible","label":"Unterliederbach: Hortensienring ggü. Einmündung Magnolienstraße, Arztpraxen","detail":"1 Platz · Mo - Fr 8 - 20 Uhr"},"geometry":{"type":"Point","coordinates":[8.52699,50.10402]}},{"type":"Feature","properties":{"kind":"accessible","label":"Unterliederbach: Wasgaustraße ggü. Hsnr. 23","detail":"1 Platz · Mo - Do 8 - 19 Uhr, Fr 8 - 14 Uhr"},"geometry":{"type":"Point","coordinates":[8.53573,50.10989]}},{"type":"Feature","properties":{"kind":"accessible","label":"Westend-Süd: Feldbergstraße 38","detail":"1 Platz · Mo - Fr 8 - 18 Uhr"},"geometry":{"type":"Point","coordinates":[8.66048,50.12184]}},{"type":"Feature","properties":{"kind":"accessible","label":"Westend-Süd: Friedrichstraße 10 - 12","detail":"1 Platz · durchgehend"},"geometry":{"type":"Point","coordinates":[8.6666,50.12178]}},{"type":"Feature","properties":{"kind":"accessible","label":"Westend-Süd: Grüneburgweg 12","detail":"1 Platz · Mo - Fr 8 - 18 Uhr"},"geometry":{"type":"Point","coordinates":[8.67377,50.12097]}},{"type":"Feature","properties":{"kind":"accessible","label":"Westend-Süd: Reuterweg 50","detail":"1 Platz · Mo - Fr 8 - 18 Uhr"},"geometry":{"type":"Point","coordinates":[8.67099,50.11988]}},{"type":"Feature","properties":{"kind":"accessible","label":"Westend-Süd: Rossertstraße 8 (Praxis)","detail":"1 Platz · Mo - Fr 7:30 - 17:00 Uhr"},"geometry":{"type":"Point","coordinates":[8.65986,50.12253]}},{"type":"Feature","properties":{"kind":"accessible","label":"Westend-Süd: Schumannstraße / Bockenheimer Ldstr.","detail":"1 Platz · Mo - Fr 9 - 18 Uhr"},"geometry":{"type":"Point","coordinates":[8.65544,50.11968]}},{"type":"Feature","properties":{"kind":"accessible","label":"Bornheim: An den Röthen 29 vor dem Zugang zum Kinderzentrum 35","detail":"1 Platz · Mo - Fr 7 - 17 Uhr"},"geometry":{"type":"Point","coordinates":[8.70934,50.13447]}},{"type":"Feature","properties":{"kind":"accessible","label":"Bornheim: Arnsburger Straße 24 (Bürgerhaus Bornheim)","detail":"1 Platz · durchgehend"},"geometry":{"type":"Point","coordinates":[8.70406,50.12326]}},{"type":"Feature","properties":{"kind":"accessible","label":"Bornheim: Enkheimer Straße 10","detail":"1 Platz · Mo - Fr 8 - 18 Uhr"},"geometry":{"type":"Point","coordinates":[8.71607,50.13272]}},{"type":"Feature","properties":{"kind":"accessible","label":"Bornheim: Falltorstraße 20","detail":"1 Platz · durchgehend"},"geometry":{"type":"Point","coordinates":[8.71425,50.12927]}},{"type":"Feature","properties":{"kind":"accessible","label":"Bornheim: Friedberger Warte / Friedberger Landstraße 410","detail":"1 Platz · durchgehend"},"geometry":{"type":"Point","coordinates":[8.69907,50.14004]}},{"type":"Feature","properties":{"kind":"accessible","label":"Bornheim: Im Prüfling 34 - 36","detail":"1 Platz · Mo - Fr 8 - 18:30 Uhr"},"geometry":{"type":"Point","coordinates":[8.70747,50.12907]}},{"type":"Feature","properties":{"kind":"accessible","label":"Bornheim: Löwengasse 14 (Physiotherap. Praxis)","detail":"1 Platz · Mo - Fr 10 - 17 Uhr"},"geometry":{"type":"Point","coordinates":[8.7108,50.12775]}},{"type":"Feature","properties":{"kind":"accessible","label":"Bornheim: Rendeler Straße 13, KITA","detail":"1 Platz · Mo - Fr 7:30 - 17 Uhr"},"geometry":{"type":"Point","coordinates":[8.70936,50.12995]}},{"type":"Feature","properties":{"kind":"accessible","label":"Bornheim: Sandweg 82","detail":"1 Platz · Mo - Fr 8 - 18 Uhr"},"geometry":{"type":"Point","coordinates":[8.69995,50.12086]}},{"type":"Feature","properties":{"kind":"accessible","label":"Bornheim: Valentin-Senger-Straße 61 (KITA)","detail":"1 Platz · durchgehend"},"geometry":{"type":"Point","coordinates":[8.70316,50.14149]}},{"type":"Feature","properties":{"kind":"accessible","label":"Dornbusch: Eschersheimer Landstraße 242 Apotheke","detail":"1 Platz · Mo - Fr 8 - 19 Uhr, Sa 8 - 14 Uhr"},"geometry":{"type":"Point","coordinates":[8.67066,50.13828]}},{"type":"Feature","properties":{"kind":"accessible","label":"Dornbusch: Eschersheimer Landstraße 394","detail":"1 Platz · werktags 9 - 17 Uhr"},"geometry":{"type":"Point","coordinates":[8.66577,50.14866]}},{"type":"Feature","properties":{"kind":"accessible","label":"Dornbusch: Platenstraße 85 (integrative Schule)","detail":"1 Platz · Mo - Fr 7 - 17 Uhr"},"geometry":{"type":"Point","coordinates":[8.66231,50.13824]}},{"type":"Feature","properties":{"kind":"accessible","label":"Dornbusch: Reinhardstraße - Höhe Kirchhainer Straße 2 (Ev. Andreaskirche)","detail":"1 Platz · durchgehend"},"geometry":{"type":"Point","coordinates":[8.67089,50.15073]}},{"type":"Feature","properties":{"kind":"accessible","label":"Fechenheim: Starkenburger Straße / Kleingärten","detail":"2 Plätze · durchgehend"},"geometry":{"type":"Point","coordinates":[8.76832,50.11331]}},{"type":"Feature","properties":{"kind":"accessible","label":"Fechenheim: Steinäckerstraße ggü. Friedhof","detail":"1 Platz · durchgehend"},"geometry":{"type":"Point","coordinates":[8.77327,50.11986]}},{"type":"Feature","properties":{"kind":"accessible","label":"Gallusviertel: Krifteler Straße Ordnungsamt","detail":"1 Platz · Mo - Fr 7 - 18 Uhr"},"geometry":{"type":"Point","coordinates":[8.63389,50.09931]}},{"type":"Feature","properties":{"kind":"accessible","label":"Gallusviertel: Krifteler Straße / Idsteiner Straße (Sozialrathaus)","detail":"1 Platz · durchgehend"},"geometry":{"type":"Point","coordinates":[8.6327,50.10536]}},{"type":"Feature","properties":{"kind":"accessible","label":"Gallus: Mainzer Landstraße 65 - 67","detail":"1 Platz · Mo - Fr 8 - 20 Uhr, Sa 8 - 14 Uhr"},"geometry":{"type":"Point","coordinates":[8.66227,50.11001]}},{"type":"Feature","properties":{"kind":"accessible","label":"Gallus: Rebstöcker Straße 70, Pfarrei Maria Hilf","detail":"1 Platz · durchgehend"},"geometry":{"type":"Point","coordinates":[8.62701,50.10258]}},{"type":"Feature","properties":{"kind":"accessible","label":"Fechenheim: Pfortenstraße 3 / Supermarkt","detail":"1 Platz · werktags 8 - 21 Uhr"},"geometry":{"type":"Point","coordinates":[8.76972,50.12213]}},{"type":"Feature","properties":{"kind":"accessible","label":"Gallusviertel: Rebstöcker Straße Ordnungsamt","detail":"3 Plätze · Mo - Fr 7 - 18 Uhr"},"geometry":{"type":"Point","coordinates":[8.63336,50.09905]}},{"type":"Feature","properties":{"kind":"accessible","label":"Griesheim: Erzbergerstraße ggü. Hsnr. 22","detail":"1 Platz · durchgehend"},"geometry":{"type":"Point","coordinates":[8.61455,50.09415]}},{"type":"Feature","properties":{"kind":"accessible","label":"Gutleutviertel: Mannheimer Straße ggü. Hsnr. 5, Ausgang Hbf.-Südseite","detail":"1 Platz · durchgehend"},"geometry":{"type":"Point","coordinates":[8.66438,50.10595]}},{"type":"Feature","properties":{"kind":"accessible","label":"Gutleutviertel: Rottweiler Platz (Höhe Hsnr. 14)","detail":"2 Plätze · Mo - Fr 7 - 17 Uhr"},"geometry":{"type":"Point","coordinates":[8.66041,50.10141]}},{"type":"Feature","properties":{"kind":"accessible","label":"Gutleutviertel: Rottweiler Straße 30","detail":"1 Platz · Mo - Fr 8 - 20 Uhr"},"geometry":{"type":"Point","coordinates":[8.66152,50.10171]}},{"type":"Feature","properties":{"kind":"accessible","label":"Gutleutviertel: Speicherstraße 39 - 47 (Cronstettenhaus)","detail":"2 Plätze · durchgehend"},"geometry":{"type":"Point","coordinates":[8.65941,50.09995]}},{"type":"Feature","properties":{"kind":"accessible","label":"Gutleutviertel: Stichlingstraße (letzter Parkplatz in Höhe Ufer)","detail":"1 Platz · durchgehend"},"geometry":{"type":"Point","coordinates":[8.65872,50.09917]}},{"type":"Feature","properties":{"kind":"accessible","label":"Bornheim: Inheidener Straße 61 / Praxis für Podologie","detail":"1 Platz · Mo - Fr 9 - 18 Uhr"},"geometry":{"type":"Point","coordinates":[8.717,50.13078]}}]}