{"type":"FeatureCollection","features":[{"type":"Feature","properties":{"zone":"0","district":"Innenstadt","rawHours":"Mo-Sa 9-20; Mo-Fr 9-17; Mo-Fr 8-18 Sa 8-14; Mo-Fr 8-17; Mo-Fr 8-18","rawFee":"4 €/h","note":null,"windows":[{"weekdays":[1,2,3,4,5,6],"fromMinute":540,"toMinute":1200},{"weekdays":[1,2,3,4,5],"fromMinute":540,"toMinute":1020},{"weekdays":[1,2,3,4,5],"fromMinute":480,"toMinute":1080},{"weekdays":[6],"fromMinute":480,"toMinute":840},{"weekdays":[1,2,3,4,5],"fromMinute":480,"toMinute":1020}],"fee":{"kind":"exact","centsPerHour":400},"unmodelledRules":[],"sourceDefect":null,"spaces":null,"maxStayMinutes":null,"maxStay":"1h","maxStayShare":1,"maxStayValues":["1h","2h"],"chargingPoints":0,"carsharing":0},"geometry":{"type":"Polygon","coordinates":[[[8.69425,50.10929],[8.6925,50.1092],[8.69004,50.10941],[8.68618,50.10953],[8.68308,50.10925],[8.68022,50.10871],[8.67573,50.10756],[8.67351,50.10656],[8.66845,50.10346],[8.66526,50.10209],[8.66494,50.10255],[8.66472,50.10349],[8.66469,50.10415],[8.66484,50.10505],[8.66511,50.10569],[8.66523,50.10641],[8.66523,50.10707],[8.66485,50.10762],[8.66447,50.10802],[8.6638,50.10816],[8.66299,50.1084],[8.66049,50.10954],[8.66222,50.11018],[8.66337,50.11058],[8.66642,50.11186],[8.66801,50.11288],[8.66873,50.11201],[8.66846,50.11192],[8.66883,50.1115],[8.66855,50.11139],[8.66923,50.11058],[8.66954,50.11066],[8.66984,50.11023],[8.67075,50.11049],[8.66856,50.11328],[8.66968,50.11403],[8.67073,50.11502],[8.67086,50.11549],[8.671,50.11674],[8.67321,50.11676],[8.67444,50.11689],[8.67534,50.11722],[8.67633,50.11812],[8.67701,50.11802],[8.67796,50.11779],[8.67901,50.11784],[8.67933,50.11792],[8.68009,50.11816],[8.68093,50.11916],[8.68218,50.11888],[8.68304,50.1188],[8.68408,50.11906],[8.68636,50.12008],[8.68684,50.1201],[8.68882,50.11853],[8.68944,50.1183],[8.6917,50.11836],[8.69196,50.11744],[8.69287,50.11685],[8.69334,50.11658],[8.6953,50.11598],[8.69552,50.11577],[8.69484,50.11413],[8.69475,50.11355],[8.69575,50.11235],[8.69438,50.11128],[8.69408,50.11064],[8.69425,50.10929]]]}},{"type":"Feature","properties":{"zone":"4","district":"Gutleutviertel","rawHours":"Mo-Fr 8-17; Mo-Fr 9-17","rawFee":"4 €/h","note":null,"windows":[{"weekdays":[1,2,3,4,5],"fromMinute":480,"toMinute":1020},{"weekdays":[1,2,3,4,5],"fromMinute":540,"toMinute":1020}],"fee":{"kind":"exact","centsPerHour":400},"unmodelledRules":[],"sourceDefect":null,"spaces":null,"maxStayMinutes":null,"maxStay":"1h","maxStayShare":1,"maxStayValues":["1h"],"chargingPoints":0,"carsharing":0},"geometry":{"type":"Polygon","coordinates":[[[8.65372,50.10168],[8.65704,50.10299],[8.65743,50.10327],[8.65818,50.10357],[8.65925,50.10199],[8.66186,50.10323],[8.66193,50.10318],[8.66255,50.10348],[8.66272,50.10333],[8.66494,50.10255],[8.66526,50.10209],[8.66368,50.1016],[8.66407,50.10115],[8.66314,50.10082],[8.66276,50.10124],[8.66069,50.10044],[8.66103,50.10001],[8.6607,50.09988],[8.66053,50.10009],[8.66074,50.10017],[8.66025,50.10073],[8.6601,50.10067],[8.65999,50.10068],[8.65922,50.1004],[8.65889,50.10077],[8.6583,50.10055],[8.65639,50.10022],[8.6563,50.10034],[8.65498,50.09992],[8.6539,50.10146],[8.65201,50.10082],[8.65228,50.10047],[8.65129,50.10014],[8.65087,50.10061],[8.65372,50.10168]]]}},{"type":"Feature","properties":{"zone":"6","district":"Sachsenhausen-Nord","rawHours":"Mo-Fr 9-17","rawFee":"4 €/h","note":null,"windows":[{"weekdays":[1,2,3,4,5],"fromMinute":540,"toMinute":1020}],"fee":{"kind":"exact","centsPerHour":400},"unmodelledRules":[],"sourceDefect":null,"spaces":null,"maxStayMinutes":null,"maxStay":"2h","maxStayShare":1,"maxStayValues":["2h","1h"],"chargingPoints":0,"carsharing":0},"geometry":{"type":"Polygon","coordinates":[[[8.67268,50.1033],[8.67923,50.09753],[8.67966,50.09722],[8.67864,50.09707],[8.67718,50.09694],[8.67397,50.09695],[8.67232,50.09591],[8.672,50.09611],[8.67096,50.09547],[8.67065,50.09782],[8.66783,50.10017],[8.66999,50.10173],[8.67268,50.1033]]]}},{"type":"Feature","properties":{"zone":"7","district":"Sachsenhausen-Nord","rawHours":"Mo-Fr 8-18 Sa 8-14; Mo-Fr 9-17","rawFee":"4 €/h","note":null,"windows":[{"weekdays":[1,2,3,4,5],"fromMinute":480,"toMinute":1080},{"weekdays":[6],"fromMinute":480,"toMinute":840},{"weekdays":[1,2,3,4,5],"fromMinute":540,"toMinute":1020}],"fee":{"kind":"exact","centsPerHour":400},"unmodelledRules":[],"sourceDefect":null,"spaces":null,"maxStayMinutes":null,"maxStay":"2h","maxStayShare":1,"maxStayValues":["2h","1h"],"chargingPoints":0,"carsharing":0},"geometry":{"type":"Polygon","coordinates":[[[8.67268,50.10329],[8.67439,50.10426],[8.67656,50.10515],[8.6777,50.1055],[8.6795,50.10344],[8.68203,50.10012],[8.68337,50.09838],[8.68248,50.09799],[8.68076,50.09735],[8.67984,50.0971],[8.67925,50.09752],[8.67268,50.10329]]]}},{"type":"Feature","properties":{"zone":"8","district":"Sachsenhausen-Nord","rawHours":"Mo-Fr 9-17; Mo-Fr 8-18 Sa 8-14","rawFee":"4 €/h","note":null,"windows":[{"weekdays":[1,2,3,4,5],"fromMinute":540,"toMinute":1020},{"weekdays":[1,2,3,4,5],"fromMinute":480,"toMinute":1080},{"weekdays":[6],"fromMinute":480,"toMinute":840}],"fee":{"kind":"exact","centsPerHour":400},"unmodelledRules":[],"sourceDefect":null,"spaces":null,"maxStayMinutes":null,"maxStay":"2h","maxStayShare":1,"maxStayValues":["2h","1h"],"chargingPoints":0,"carsharing":0},"geometry":{"type":"Polygon","coordinates":[[[8.6777,50.1055],[8.68094,50.10678],[8.68315,50.10729],[8.6853,50.10755],[8.68708,50.10736],[8.68796,50.1073],[8.68786,50.10695],[8.68704,50.10633],[8.68606,50.10571],[8.68578,50.10556],[8.68468,50.10502],[8.68411,50.1048],[8.68213,50.10422],[8.68148,50.10404],[8.67955,50.10336],[8.6777,50.1055]]]}},{"type":"Feature","properties":{"zone":"9","district":"Sachsenhausen-Nord","rawHours":"Mo-Sa 9-20; Mo-Fr 8-18 Sa 8-14","rawFee":"4 €/h","note":null,"windows":[{"weekdays":[1,2,3,4,5,6],"fromMinute":540,"toMinute":1200},{"weekdays":[1,2,3,4,5],"fromMinute":480,"toMinute":1080},{"weekdays":[6],"fromMinute":480,"toMinute":840}],"fee":{"kind":"exact","centsPerHour":400},"unmodelledRules":[],"sourceDefect":null,"spaces":null,"maxStayMinutes":null,"maxStay":"1h","maxStayShare":1,"maxStayValues":["1h","2h"],"chargingPoints":0,"carsharing":0},"geometry":{"type":"Polygon","coordinates":[[[8.67955,50.10335],[8.68147,50.10404],[8.68213,50.10422],[8.68414,50.1048],[8.6847,50.10503],[8.68577,50.10555],[8.68609,50.10572],[8.68704,50.10633],[8.68952,50.10545],[8.69098,50.10184],[8.68552,50.09929],[8.68337,50.09838],[8.67955,50.10335]]]}},{"type":"Feature","properties":{"zone":"10","district":"Sachsenhausen-Nord","rawHours":"Mo-Fr 8-18 Sa 8-14","rawFee":"4 €/h","note":null,"windows":[{"weekdays":[1,2,3,4,5],"fromMinute":480,"toMinute":1080},{"weekdays":[6],"fromMinute":480,"toMinute":840}],"fee":{"kind":"exact","centsPerHour":400},"unmodelledRules":[],"sourceDefect":null,"spaces":null,"maxStayMinutes":null,"maxStay":"1h","maxStayShare":1,"maxStayValues":["1h"],"chargingPoints":0,"carsharing":0},"geometry":{"type":"Polygon","coordinates":[[[8.68952,50.10546],[8.68704,50.10633],[8.68786,50.10695],[8.68796,50.1073],[8.68955,50.1073],[8.69531,50.10683],[8.69523,50.10651],[8.69502,50.10509],[8.69785,50.10311],[8.69098,50.10184],[8.68953,50.10538],[8.68952,50.10546]]]}},{"type":"Feature","properties":{"zone":"12","district":"Bockenheim","rawHours":"Mo-Fr 9-17","rawFee":"2 €/h","note":null,"windows":[{"weekdays":[1,2,3,4,5],"fromMinute":540,"toMinute":1020}],"fee":{"kind":"exact","centsPerHour":200},"unmodelledRules":[],"sourceDefect":null,"spaces":null,"maxStayMinutes":null,"maxStay":"1h","maxStayShare":1,"maxStayValues":["1h"],"chargingPoints":0,"carsharing":0},"geometry":{"type":"Polygon","coordinates":[[[8.64097,50.11866],[8.64569,50.11944],[8.65056,50.12026],[8.65138,50.12018],[8.65402,50.12002],[8.65269,50.11691],[8.65188,50.11462],[8.65089,50.11401],[8.65052,50.11361],[8.64979,50.11361],[8.64352,50.11407],[8.64342,50.11527],[8.64319,50.11622],[8.64265,50.11708],[8.64188,50.11784],[8.64097,50.11866]]]}},{"type":"Feature","properties":{"zone":"13","district":"Westend-Süd","rawHours":"Mo-Sa 8-18; Mo-Fr 7-22","rawFee":"2 €/h","note":null,"windows":[{"weekdays":[1,2,3,4,5,6],"fromMinute":480,"toMinute":1080},{"weekdays":[1,2,3,4,5],"fromMinute":420,"toMinute":1320}],"fee":{"kind":"exact","centsPerHour":200},"unmodelledRules":[],"sourceDefect":null,"spaces":null,"maxStayMinutes":null,"maxStay":"1h","maxStayShare":0.25,"maxStayValues":["1h"],"chargingPoints":0,"carsharing":0},"geometry":{"type":"Polygon","coordinates":[[[8.65402,50.12002],[8.65429,50.12029],[8.6552,50.12026],[8.65506,50.12181],[8.6579,50.12211],[8.65832,50.12094],[8.65778,50.12088],[8.65774,50.12044],[8.65903,50.12019],[8.65919,50.11962],[8.65949,50.11949],[8.65983,50.1191],[8.65775,50.1154],[8.65652,50.11372],[8.65496,50.1126],[8.65317,50.11371],[8.65256,50.1144],[8.65188,50.11462],[8.65269,50.11691],[8.65402,50.12002]]]}},{"type":"Feature","properties":{"zone":"15","district":"Westend-Süd","rawHours":"Mo-Fr 9-17; Mo-Fr 8-18 Sa 8-14; Mo-Fr 7-22","rawFee":"2 €/h; 4 €/h","note":null,"windows":[{"weekdays":[1,2,3,4,5],"fromMinute":540,"toMinute":1020},{"weekdays":[1,2,3,4,5],"fromMinute":480,"toMinute":1080},{"weekdays":[6],"fromMinute":480,"toMinute":840},{"weekdays":[1,2,3,4,5],"fromMinute":420,"toMinute":1320}],"fee":{"kind":"range","minCentsPerHour":200,"maxCentsPerHour":400},"unmodelledRules":[],"sourceDefect":null,"spaces":null,"maxStayMinutes":null,"maxStay":"1h","maxStayShare":0.273,"maxStayValues":["1h","2h"],"chargingPoints":0,"carsharing":0},"geometry":{"type":"Polygon","coordinates":[[[8.66336,50.11057],[8.66283,50.11146],[8.66122,50.1141],[8.66051,50.11474],[8.65921,50.11534],[8.65775,50.1154],[8.65983,50.1191],[8.66057,50.11894],[8.66794,50.11628],[8.66866,50.116],[8.67086,50.11549],[8.67073,50.11502],[8.66968,50.11403],[8.66856,50.11328],[8.67074,50.11049],[8.66984,50.11023],[8.66954,50.11066],[8.66922,50.11058],[8.66856,50.11139],[8.66882,50.1115],[8.66846,50.11192],[8.66872,50.11201],[8.66802,50.11288],[8.66642,50.11186],[8.66336,50.11057]]]}},{"type":"Feature","properties":{"zone":"16","district":"Westend-Süd","rawHours":"Mo-Fr 8-18; Mo-Fr 7-22","rawFee":"2 €/h","note":null,"windows":[{"weekdays":[1,2,3,4,5],"fromMinute":480,"toMinute":1080},{"weekdays":[1,2,3,4,5],"fromMinute":420,"toMinute":1320}],"fee":{"kind":"exact","centsPerHour":200},"unmodelledRules":[],"sourceDefect":null,"spaces":null,"maxStayMinutes":null,"maxStay":"1h","maxStayShare":0.667,"maxStayValues":["1h","3h"],"chargingPoints":0,"carsharing":0},"geometry":{"type":"Polygon","coordinates":[[[8.66795,50.11627],[8.66057,50.11894],[8.65983,50.11911],[8.65949,50.11949],[8.65918,50.11961],[8.65904,50.12018],[8.65775,50.12044],[8.65778,50.12088],[8.65832,50.12094],[8.65769,50.1228],[8.6581,50.12287],[8.65901,50.12355],[8.66171,50.12352],[8.6639,50.12384],[8.66394,50.12374],[8.6645,50.1238],[8.66455,50.12368],[8.66994,50.12445],[8.66985,50.1236],[8.67007,50.1228],[8.67076,50.11977],[8.67085,50.11906],[8.6691,50.11892],[8.66916,50.11866],[8.66895,50.1179],[8.67003,50.11771],[8.66922,50.11637],[8.66816,50.11661],[8.66795,50.11627]]]}},{"type":"Feature","properties":{"zone":"17","district":"Westend-Nord","rawHours":"Mo-Fr 9-17; Mo-Fr 7-19","rawFee":"2 €/h","note":null,"windows":[{"weekdays":[1,2,3,4,5],"fromMinute":540,"toMinute":1020},{"weekdays":[1,2,3,4,5],"fromMinute":420,"toMinute":1140}],"fee":{"kind":"exact","centsPerHour":200},"unmodelledRules":[],"sourceDefect":null,"spaces":null,"maxStayMinutes":null,"maxStay":"1h","maxStayShare":0.031,"maxStayValues":["1h"],"chargingPoints":0,"carsharing":0},"geometry":{"type":"Polygon","coordinates":[[[8.67034,50.12163],[8.66985,50.1236],[8.66994,50.12445],[8.67149,50.12722],[8.67122,50.12758],[8.67189,50.12779],[8.67142,50.12876],[8.67263,50.12895],[8.67282,50.12845],[8.67295,50.1282],[8.67376,50.12671],[8.67446,50.12597],[8.67571,50.12308],[8.67567,50.12196],[8.67566,50.12085],[8.67255,50.12097],[8.67184,50.12113],[8.67034,50.12163]]]}},{"type":"Feature","properties":{"zone":"18","district":"Westend-Süd","rawHours":"Mo-Fr 9-17; Mo-Fr 8-18 Sa 8-14; Mo-Fr 7-22","rawFee":"2 €/h; 4 €/h","note":null,"windows":[{"weekdays":[1,2,3,4,5],"fromMinute":540,"toMinute":1020},{"weekdays":[1,2,3,4,5],"fromMinute":480,"toMinute":1080},{"weekdays":[6],"fromMinute":480,"toMinute":840},{"weekdays":[1,2,3,4,5],"fromMinute":420,"toMinute":1320}],"fee":{"kind":"range","minCentsPerHour":200,"maxCentsPerHour":400},"unmodelledRules":[],"sourceDefect":null,"spaces":null,"maxStayMinutes":null,"maxStay":"1h","maxStayShare":0.214,"maxStayValues":["1h","3h"],"chargingPoints":0,"carsharing":0},"geometry":{"type":"Polygon","coordinates":[[[8.67076,50.11977],[8.67034,50.12163],[8.67184,50.12112],[8.67255,50.12096],[8.67567,50.12085],[8.67634,50.12039],[8.6775,50.1199],[8.67809,50.11939],[8.679,50.11784],[8.67796,50.11779],[8.67701,50.11802],[8.67633,50.11813],[8.67578,50.11765],[8.67534,50.11722],[8.67444,50.11689],[8.6732,50.11677],[8.67101,50.11674],[8.67095,50.11638],[8.66997,50.11662],[8.67095,50.11829],[8.67076,50.11977]]]}},{"type":"Feature","properties":{"zone":"19","district":"Nordend-West","rawHours":"Mo-Fr 7-22; Mo-Fr 9-22; Mo-Fr 7-19","rawFee":"2 €/h","note":null,"windows":[{"weekdays":[1,2,3,4,5],"fromMinute":420,"toMinute":1320},{"weekdays":[1,2,3,4,5],"fromMinute":540,"toMinute":1320},{"weekdays":[1,2,3,4,5],"fromMinute":420,"toMinute":1140}],"fee":{"kind":"exact","centsPerHour":200},"unmodelledRules":[],"sourceDefect":null,"spaces":null,"maxStayMinutes":null,"maxStay":null,"maxStayShare":0,"maxStayValues":[],"chargingPoints":0,"carsharing":0},"geometry":{"type":"Polygon","coordinates":[[[8.67641,50.12119],[8.67566,50.12086],[8.67567,50.12196],[8.67571,50.12308],[8.67446,50.12597],[8.67376,50.12671],[8.68445,50.12821],[8.68557,50.1271],[8.68569,50.12655],[8.68637,50.12449],[8.68632,50.12298],[8.68126,50.12309],[8.68035,50.12276],[8.6787,50.12219],[8.67641,50.12119]]]}},{"type":"Feature","properties":{"zone":"20","district":"Nordend-West","rawHours":"Mo-Fr 9-17 Sa 8-14; Mo-Fr 8-18 Sa 8-14; Mo-Fr 9-17; Mo-Fr 7-22; Mo-Fr 7-19","rawFee":"2 €/h","note":null,"windows":[{"weekdays":[1,2,3,4,5],"fromMinute":540,"toMinute":1020},{"weekdays":[6],"fromMinute":480,"toMinute":840},{"weekdays":[1,2,3,4,5],"fromMinute":480,"toMinute":1080},{"weekdays":[1,2,3,4,5],"fromMinute":420,"toMinute":1320},{"weekdays":[1,2,3,4,5],"fromMinute":420,"toMinute":1140}],"fee":{"kind":"exact","centsPerHour":200},"unmodelledRules":[],"sourceDefect":null,"spaces":null,"maxStayMinutes":null,"maxStay":"1h","maxStayShare":0.116,"maxStayValues":["1h"],"chargingPoints":0,"carsharing":0},"geometry":{"type":"Polygon","coordinates":[[[8.68632,50.12298],[8.68617,50.12161],[8.68622,50.12063],[8.68637,50.12008],[8.68408,50.11906],[8.68305,50.1188],[8.68219,50.11888],[8.68093,50.11917],[8.68008,50.11815],[8.67933,50.11792],[8.67901,50.11785],[8.6781,50.11939],[8.67752,50.11989],[8.67634,50.12039],[8.67568,50.12086],[8.67869,50.12218],[8.67958,50.12249],[8.68125,50.12309],[8.68632,50.12298]]]}},{"type":"Feature","properties":{"zone":"21","district":"Nordend-West","rawHours":"Mo-Fr 8-20; Mo-Fr 7-22; Mo-Fr 7-19","rawFee":"2 €/h","note":null,"windows":[{"weekdays":[1,2,3,4,5],"fromMinute":480,"toMinute":1200},{"weekdays":[1,2,3,4,5],"fromMinute":420,"toMinute":1320},{"weekdays":[1,2,3,4,5],"fromMinute":420,"toMinute":1140}],"fee":{"kind":"exact","centsPerHour":200},"unmodelledRules":[],"sourceDefect":null,"spaces":null,"maxStayMinutes":null,"maxStay":"2h","maxStayShare":0.015,"maxStayValues":["2h"],"chargingPoints":0,"carsharing":0},"geometry":{"type":"Polygon","coordinates":[[[8.68569,50.12655],[8.68557,50.12711],[8.68445,50.12821],[8.68405,50.12975],[8.68406,50.13026],[8.68413,50.13166],[8.68935,50.13196],[8.68934,50.1322],[8.69432,50.13241],[8.69439,50.13221],[8.69491,50.13221],[8.69385,50.12961],[8.69304,50.12908],[8.69522,50.12799],[8.69208,50.12751],[8.68569,50.12655]]]}},{"type":"Feature","properties":{"zone":"22","district":"Nordend-West","rawHours":"Mo-Fr 8-17; Mo-Fr 7-22","rawFee":"2 €/h","note":null,"windows":[{"weekdays":[1,2,3,4,5],"fromMinute":480,"toMinute":1020},{"weekdays":[1,2,3,4,5],"fromMinute":420,"toMinute":1320}],"fee":{"kind":"exact","centsPerHour":200},"unmodelledRules":[],"sourceDefect":null,"spaces":null,"maxStayMinutes":null,"maxStay":"2h","maxStayShare":0.015,"maxStayValues":["2h"],"chargingPoints":0,"carsharing":0},"geometry":{"type":"Polygon","coordinates":[[[8.6857,50.12655],[8.69209,50.12751],[8.69175,50.12529],[8.69172,50.12314],[8.69103,50.12218],[8.69063,50.12081],[8.69006,50.11979],[8.68881,50.11854],[8.68684,50.1201],[8.68637,50.12007],[8.68621,50.12063],[8.68617,50.12162],[8.68632,50.12304],[8.68637,50.12449],[8.6857,50.12655]]]}},{"type":"Feature","properties":{"zone":"25","district":"Ostend","rawHours":"Mo-Fr 8-18 Sa 8-14","rawFee":"2 €/h","note":null,"windows":[{"weekdays":[1,2,3,4,5],"fromMinute":480,"toMinute":1080},{"weekdays":[6],"fromMinute":480,"toMinute":840}],"fee":{"kind":"exact","centsPerHour":200},"unmodelledRules":[],"sourceDefect":null,"spaces":null,"maxStayMinutes":null,"maxStay":"2h","maxStayShare":1,"maxStayValues":["2h","1h"],"chargingPoints":0,"carsharing":0},"geometry":{"type":"Polygon","coordinates":[[[8.69272,50.11893],[8.69348,50.11937],[8.69503,50.11994],[8.6983,50.12149],[8.70154,50.12306],[8.7049,50.12024],[8.7037,50.11984],[8.70296,50.11938],[8.7017,50.11832],[8.70123,50.11769],[8.70031,50.11699],[8.69939,50.117],[8.6987,50.11626],[8.69789,50.11624],[8.69757,50.11584],[8.69552,50.11577],[8.69529,50.11598],[8.69333,50.11658],[8.69287,50.11685],[8.69196,50.11744],[8.6917,50.11835],[8.69272,50.11893]]]}},{"type":"Feature","properties":{"zone":"26","district":"Ostend","rawHours":"Tgl. 9-18","rawFee":"2 €/h","note":null,"windows":[{"weekdays":[0,1,2,3,4,5,6],"fromMinute":540,"toMinute":1080}],"fee":{"kind":"exact","centsPerHour":200},"unmodelledRules":[],"sourceDefect":null,"spaces":null,"maxStayMinutes":null,"maxStay":"5h","maxStayShare":1,"maxStayValues":["5h"],"chargingPoints":0,"carsharing":0},"geometry":{"type":"Polygon","coordinates":[[[8.69757,50.11584],[8.69789,50.11624],[8.6987,50.11626],[8.6994,50.117],[8.70032,50.11698],[8.70123,50.11769],[8.7017,50.11832],[8.70297,50.11937],[8.7037,50.11984],[8.7049,50.12024],[8.70967,50.11625],[8.71,50.11586],[8.70991,50.11544],[8.70938,50.11486],[8.70642,50.11289],[8.70331,50.11303],[8.70195,50.11296],[8.70022,50.11303],[8.70074,50.11392],[8.69986,50.11546],[8.69785,50.11554],[8.69757,50.11584]]]}},{"type":"Feature","properties":{"zone":"29","district":"Bornheim","rawHours":"Mo-Fr 8-18 Sa 8-14","rawFee":"2 €/h","note":null,"windows":[{"weekdays":[1,2,3,4,5],"fromMinute":480,"toMinute":1080},{"weekdays":[6],"fromMinute":480,"toMinute":840}],"fee":{"kind":"exact","centsPerHour":200},"unmodelledRules":[],"sourceDefect":null,"spaces":null,"maxStayMinutes":null,"maxStay":"2h","maxStayShare":1,"maxStayValues":["2h"],"chargingPoints":0,"carsharing":0},"geometry":{"type":"Polygon","coordinates":[[[8.7049,50.12024],[8.70153,50.12307],[8.69929,50.12506],[8.70131,50.12628],[8.70323,50.12734],[8.70389,50.12768],[8.70619,50.12741],[8.70803,50.12638],[8.71,50.12568],[8.71329,50.12473],[8.71097,50.12283],[8.70869,50.12149],[8.70704,50.12075],[8.7049,50.12024]]]}},{"type":"Feature","properties":{"zone":"31","district":"Sachsenhausen-Süd","rawHours":"Mo-Fr 8-18 Sa 8-14","rawFee":"2 €/h","note":null,"windows":[{"weekdays":[1,2,3,4,5],"fromMinute":480,"toMinute":1080},{"weekdays":[6],"fromMinute":480,"toMinute":840}],"fee":{"kind":"exact","centsPerHour":200},"unmodelledRules":[],"sourceDefect":null,"spaces":null,"maxStayMinutes":null,"maxStay":"2h","maxStayShare":1,"maxStayValues":["2h"],"chargingPoints":0,"carsharing":0},"geometry":{"type":"Polygon","coordinates":[[[8.6802,50.09666],[8.6807,50.09598],[8.68306,50.09721],[8.68398,50.09766],[8.68446,50.09711],[8.68465,50.09673],[8.68445,50.09656],[8.68437,50.09646],[8.68439,50.0957],[8.68405,50.09555],[8.68359,50.0958],[8.6834,50.09559],[8.68393,50.0952],[8.68362,50.09453],[8.68336,50.09335],[8.68364,50.09289],[8.6833,50.09278],[8.68309,50.09282],[8.68282,50.09271],[8.68249,50.09303],[8.68281,50.09317],[8.6824,50.09347],[8.68209,50.09333],[8.6814,50.09403],[8.6815,50.09421],[8.6812,50.09453],[8.68096,50.09459],[8.68086,50.09479],[8.68066,50.09495],[8.68017,50.09587],[8.67993,50.09635],[8.67964,50.09649],[8.6802,50.09666]]]}},{"type":"Feature","properties":{"zone":"32","district":"Sachsenhausen-Süd","rawHours":"Mo-Fr 8-18","rawFee":"2 €/h","note":null,"windows":[{"weekdays":[1,2,3,4,5],"fromMinute":480,"toMinute":1080}],"fee":{"kind":"exact","centsPerHour":200},"unmodelledRules":[],"sourceDefect":null,"spaces":null,"maxStayMinutes":null,"maxStay":"1h","maxStayShare":1,"maxStayValues":["1h"],"chargingPoints":0,"carsharing":0},"geometry":{"type":"Polygon","coordinates":[[[8.68337,50.09838],[8.6855,50.09928],[8.69031,50.10154],[8.69097,50.10183],[8.69146,50.10087],[8.69182,50.10099],[8.69182,50.10109],[8.69247,50.10135],[8.69248,50.10139],[8.69239,50.10172],[8.69326,50.10192],[8.69345,50.10164],[8.69313,50.10154],[8.69358,50.10094],[8.69495,50.09986],[8.69477,50.09976],[8.69491,50.09964],[8.69472,50.09954],[8.69482,50.09946],[8.69362,50.09888],[8.69337,50.09908],[8.69308,50.09896],[8.6919,50.09881],[8.69202,50.09838],[8.69111,50.09827],[8.69115,50.09872],[8.69046,50.0985],[8.69063,50.09829],[8.6903,50.09818],[8.69042,50.09802],[8.68987,50.09784],[8.68978,50.09797],[8.68953,50.0979],[8.68932,50.09816],[8.68775,50.09783],[8.68783,50.09763],[8.68707,50.0975],[8.68726,50.09707],[8.6866,50.0971],[8.68654,50.09678],[8.68589,50.09657],[8.68575,50.09677],[8.68555,50.0967],[8.68545,50.09682],[8.68474,50.09657],[8.6846,50.09648],[8.6844,50.09649],[8.68445,50.09656],[8.68465,50.09673],[8.68447,50.09711],[8.68337,50.09838]]]}},{"type":"Feature","properties":{"zone":"35","district":"Nordend-West","rawHours":"Mo-Fr 7-19","rawFee":"2 €/h","note":null,"windows":[{"weekdays":[1,2,3,4,5],"fromMinute":420,"toMinute":1140}],"fee":{"kind":"exact","centsPerHour":200},"unmodelledRules":[],"sourceDefect":null,"spaces":null,"maxStayMinutes":null,"maxStay":null,"maxStayShare":0,"maxStayValues":[],"chargingPoints":0,"carsharing":0},"geometry":{"type":"Polygon","coordinates":[[[8.67376,50.12671],[8.67282,50.12845],[8.6724,50.12956],[8.6722,50.13072],[8.67239,50.13154],[8.67539,50.13199],[8.67688,50.13211],[8.67784,50.13213],[8.67787,50.13263],[8.67815,50.13268],[8.67787,50.13357],[8.68127,50.13401],[8.68252,50.13189],[8.68344,50.13168],[8.6835,50.13025],[8.68401,50.13021],[8.68405,50.12974],[8.68445,50.12821],[8.67376,50.12671]]]}},{"type":"Feature","properties":{"zone":"38","district":"Bornheim","rawHours":"Mo-Fr 8-16; Mo-Fr 7-19","rawFee":"2 €/h","note":null,"windows":[{"weekdays":[1,2,3,4,5],"fromMinute":480,"toMinute":960},{"weekdays":[1,2,3,4,5],"fromMinute":420,"toMinute":1140}],"fee":{"kind":"exact","centsPerHour":200},"unmodelledRules":[],"sourceDefect":null,"spaces":null,"maxStayMinutes":null,"maxStay":"1h","maxStayShare":0.038,"maxStayValues":["1h","2h"],"chargingPoints":0,"carsharing":0},"geometry":{"type":"Polygon","coordinates":[[[8.70515,50.13001],[8.7054,50.13092],[8.70417,50.13104],[8.70435,50.13151],[8.70558,50.1315],[8.70695,50.13133],[8.70841,50.13109],[8.70883,50.13091],[8.70978,50.13094],[8.71007,50.13098],[8.7103,50.13111],[8.71094,50.13137],[8.71186,50.13154],[8.712,50.13094],[8.71247,50.1309],[8.71298,50.13024],[8.71322,50.13002],[8.71356,50.12979],[8.71303,50.12939],[8.71272,50.12912],[8.71239,50.12887],[8.71202,50.12877],[8.71142,50.12864],[8.71104,50.12845],[8.71053,50.12816],[8.70971,50.12766],[8.70929,50.12732],[8.70803,50.12638],[8.70619,50.12741],[8.70389,50.12768],[8.70366,50.12784],[8.70434,50.12921],[8.70462,50.13005],[8.70515,50.13001]]]}},{"type":"Feature","properties":{"zone":"39","district":"Bornheim","rawHours":"Mo-Fr 8-18 Sa 8-14; Mo-Fr 9-17; Mo-Fr 7-19; Tgl. 7-21; Mo-Fr 7-22","rawFee":"2 €/h","note":null,"windows":[{"weekdays":[1,2,3,4,5],"fromMinute":480,"toMinute":1080},{"weekdays":[6],"fromMinute":480,"toMinute":840},{"weekdays":[1,2,3,4,5],"fromMinute":540,"toMinute":1020},{"weekdays":[1,2,3,4,5],"fromMinute":420,"toMinute":1140},{"weekdays":[0,1,2,3,4,5,6],"fromMinute":420,"toMinute":1260},{"weekdays":[1,2,3,4,5],"fromMinute":420,"toMinute":1320}],"fee":{"kind":"exact","centsPerHour":200},"unmodelledRules":[],"sourceDefect":null,"spaces":null,"maxStayMinutes":null,"maxStay":"2h","maxStayShare":0.037,"maxStayValues":["2h","1h"],"chargingPoints":0,"carsharing":0},"geometry":{"type":"Polygon","coordinates":[[[8.71356,50.12979],[8.71399,50.12959],[8.71703,50.13003],[8.71977,50.1299],[8.71978,50.12909],[8.71864,50.12909],[8.71853,50.12456],[8.71796,50.12418],[8.71696,50.12372],[8.7166,50.12367],[8.71493,50.12412],[8.71329,50.12473],[8.71,50.12568],[8.70803,50.12638],[8.70929,50.12732],[8.70971,50.12766],[8.71053,50.12816],[8.71105,50.12845],[8.71142,50.12864],[8.71202,50.12877],[8.71239,50.12887],[8.71303,50.12939],[8.71356,50.12979]]]}},{"type":"Feature","properties":{"zone":"40","district":"Bornheim","rawHours":"Mo-Fr 7-19","rawFee":"2 €/h","note":null,"windows":[{"weekdays":[1,2,3,4,5],"fromMinute":420,"toMinute":1140}],"fee":{"kind":"exact","centsPerHour":200},"unmodelledRules":[],"sourceDefect":null,"spaces":null,"maxStayMinutes":null,"maxStay":null,"maxStayShare":0,"maxStayValues":[],"chargingPoints":0,"carsharing":0},"geometry":{"type":"Polygon","coordinates":[[[8.70403,50.13562],[8.70606,50.1347],[8.70619,50.1348],[8.70729,50.13518],[8.70816,50.13534],[8.70935,50.13536],[8.71067,50.13528],[8.71066,50.13507],[8.7115,50.13498],[8.71152,50.13507],[8.71206,50.13505],[8.71162,50.13372],[8.71137,50.13305],[8.71101,50.13256],[8.7105,50.132],[8.70928,50.13109],[8.70883,50.13091],[8.70877,50.13095],[8.70841,50.13109],[8.70762,50.13122],[8.70691,50.13134],[8.70558,50.1315],[8.70493,50.13155],[8.70494,50.13364],[8.70392,50.13371],[8.70385,50.13413],[8.70284,50.13488],[8.70345,50.13533],[8.70403,50.13562]]]}},{"type":"Feature","properties":{"zone":"41","district":"Bornheim","rawHours":"Mo-Fr 7-19","rawFee":"2 €/h","note":null,"windows":[{"weekdays":[1,2,3,4,5],"fromMinute":420,"toMinute":1140}],"fee":{"kind":"exact","centsPerHour":200},"unmodelledRules":[],"sourceDefect":null,"spaces":null,"maxStayMinutes":null,"maxStay":null,"maxStayShare":0,"maxStayValues":[],"chargingPoints":0,"carsharing":0},"geometry":{"type":"Polygon","coordinates":[[[8.71227,50.13618],[8.7124,50.13653],[8.71489,50.13662],[8.7165,50.13655],[8.71671,50.13469],[8.7169,50.13418],[8.71759,50.13349],[8.7178,50.13325],[8.71809,50.13262],[8.71869,50.13196],[8.7189,50.13093],[8.71913,50.13042],[8.7191,50.12993],[8.71703,50.13003],[8.71399,50.12958],[8.71356,50.12979],[8.71322,50.13002],[8.71298,50.13024],[8.71247,50.1309],[8.71199,50.13094],[8.71187,50.13155],[8.71094,50.13137],[8.7103,50.13111],[8.71008,50.13098],[8.70978,50.13094],[8.70883,50.13091],[8.70928,50.13109],[8.7105,50.132],[8.71101,50.13256],[8.71137,50.13305],[8.71162,50.13372],[8.71206,50.13505],[8.71227,50.13618]]]}}]}