{"type":"FeatureCollection","features":[{"type":"Feature","properties":{"name":"Oostduinen","bezirk":"Den Haag"},"geometry":{"type":"MultiPolygon","coordinates":[[[[4.30298,52.12827],[4.32884,52.10929],[4.32481,52.10819],[4.31868,52.10691],[4.31604,52.10683],[4.31418,52.10714],[4.30716,52.10964],[4.3073,52.10978],[4.3042,52.11088],[4.30416,52.11078],[4.2997,52.11231],[4.29505,52.11336],[4.29402,52.11376],[4.29418,52.11412],[4.29331,52.11426],[4.29084,52.11656],[4.28666,52.11924],[4.29125,52.12139],[4.29646,52.12491],[4.29877,52.12602],[4.30264,52.12852],[4.30298,52.12827]]]]}},{"type":"Feature","properties":{"name":"Belgisch Park","bezirk":"Den Haag"},"geometry":{"type":"MultiPolygon","coordinates":[[[[4.28693,52.11907],[4.29084,52.11656],[4.29331,52.11426],[4.29418,52.11412],[4.29402,52.11376],[4.29505,52.11336],[4.2997,52.11231],[4.30398,52.11084],[4.30208,52.10615],[4.29934,52.10799],[4.29741,52.10762],[4.29482,52.10781],[4.29195,52.1076],[4.29171,52.10745],[4.28262,52.11254],[4.28326,52.11297],[4.28327,52.11327],[4.28163,52.11432],[4.28182,52.11445],[4.28015,52.11539],[4.28166,52.11623],[4.27991,52.1172],[4.27976,52.11718],[4.27986,52.11692],[4.27964,52.11674],[4.27925,52.11676],[4.27909,52.11693],[4.27914,52.11723],[4.27986,52.11733],[4.27969,52.11781],[4.28002,52.11792],[4.28018,52.11778],[4.27992,52.11761],[4.28003,52.11733],[4.28044,52.11711],[4.2809,52.11717],[4.2808,52.11747],[4.28105,52.11751],[4.28119,52.11718],[4.28053,52.11706],[4.28184,52.11632],[4.28295,52.1173],[4.28354,52.11762],[4.28666,52.11924],[4.28693,52.11907]]]]}},{"type":"Feature","properties":{"name":"Westbroekpark en Duttendel","bezirk":"Den Haag"},"geometry":{"type":"MultiPolygon","coordinates":[[[[4.3042,52.11088],[4.31288,52.10754],[4.31472,52.10703],[4.31654,52.10681],[4.31868,52.10691],[4.32254,52.10772],[4.32217,52.10687],[4.32162,52.10642],[4.31912,52.10541],[4.31744,52.10436],[4.31709,52.10443],[4.31672,52.10428],[4.31135,52.1017],[4.311,52.10132],[4.31134,52.10092],[4.31115,52.10036],[4.31011,52.09998],[4.3091,52.099],[4.30961,52.09874],[4.30872,52.09823],[4.30745,52.09714],[4.30678,52.09677],[4.30611,52.09661],[4.30449,52.09684],[4.30129,52.09827],[4.29985,52.09866],[4.30006,52.09897],[4.29737,52.10017],[4.28653,52.10417],[4.28611,52.10404],[4.28567,52.10422],[4.28622,52.10444],[4.28709,52.10547],[4.28701,52.10578],[4.28716,52.10605],[4.2879,52.10633],[4.28947,52.10797],[4.29008,52.10836],[4.29171,52.10745],[4.29195,52.1076],[4.29482,52.10781],[4.29741,52.10762],[4.29934,52.10799],[4.30208,52.10615],[4.30398,52.11084],[4.3042,52.11088]]]]}},{"type":"Feature","properties":{"name":"Benoordenhout","bezirk":"Den Haag"},"geometry":{"type":"MultiPolygon","coordinates":[[[[4.33169,52.10694],[4.33306,52.10573],[4.33032,52.10434],[4.33226,52.10304],[4.32328,52.09922],[4.32748,52.09557],[4.33329,52.09729],[4.33571,52.09818],[4.336,52.09808],[4.33725,52.09877],[4.33857,52.09744],[4.34136,52.09834],[4.34238,52.09743],[4.32652,52.09096],[4.31842,52.08702],[4.31518,52.08606],[4.30941,52.09311],[4.30695,52.09602],[4.30625,52.09663],[4.30745,52.09714],[4.30872,52.09823],[4.30961,52.09874],[4.3091,52.099],[4.31011,52.09998],[4.31115,52.10036],[4.31134,52.10092],[4.311,52.10132],[4.31135,52.1017],[4.31672,52.10428],[4.31709,52.10443],[4.31744,52.10436],[4.31912,52.10541],[4.32162,52.10642],[4.32217,52.10687],[4.32252,52.10768],[4.32884,52.10929],[4.33169,52.10694]]]]}},{"type":"Feature","properties":{"name":"Archipelbuurt","bezirk":"Den Haag"},"geometry":{"type":"MultiPolygon","coordinates":[[[[4.30039,52.09855],[4.30466,52.09677],[4.30625,52.09663],[4.30649,52.09647],[4.31209,52.08985],[4.30913,52.08901],[4.30411,52.08823],[4.30042,52.08688],[4.29737,52.08718],[4.29627,52.08761],[4.29374,52.0897],[4.29465,52.09031],[4.2954,52.09197],[4.29587,52.09251],[4.29767,52.09336],[4.29796,52.09335],[4.30037,52.0943],[4.30045,52.09488],[4.30022,52.09625],[4.29983,52.09711],[4.29972,52.09781],[4.29996,52.09864],[4.30039,52.09855]]]]}},{"type":"Feature","properties":{"name":"Van Stolkpark en Scheveningse Bosjes","bezirk":"Den Haag"},"geometry":{"type":"MultiPolygon","coordinates":[[[[4.28649,52.10417],[4.29714,52.10026],[4.30006,52.09897],[4.29985,52.09866],[4.29996,52.09864],[4.29972,52.09773],[4.30022,52.09625],[4.30045,52.09488],[4.30038,52.09431],[4.29796,52.09335],[4.29767,52.09336],[4.29587,52.09251],[4.2954,52.09197],[4.29465,52.09031],[4.29374,52.0897],[4.28106,52.09996],[4.28175,52.1003],[4.28226,52.10111],[4.28413,52.10238],[4.28515,52.1029],[4.28636,52.10321],[4.28611,52.10403],[4.28649,52.10417]]]]}},{"type":"Feature","properties":{"name":"Scheveningen","bezirk":"Den Haag"},"geometry":{"type":"MultiPolygon","coordinates":[[[[4.28299,52.11343],[4.28328,52.11326],[4.28326,52.11297],[4.28262,52.11254],[4.29008,52.10836],[4.28947,52.10797],[4.2879,52.10633],[4.28716,52.10605],[4.28701,52.10578],[4.28709,52.10547],[4.28622,52.10444],[4.28567,52.10422],[4.28614,52.10402],[4.28637,52.10321],[4.28515,52.1029],[4.28413,52.10238],[4.28226,52.10111],[4.28175,52.1003],[4.28106,52.09996],[4.27823,52.10228],[4.2781,52.10213],[4.27642,52.10172],[4.27449,52.1017],[4.27293,52.10054],[4.27238,52.09906],[4.26861,52.09504],[4.26777,52.09349],[4.26433,52.09142],[4.25999,52.09502],[4.25967,52.09504],[4.25801,52.09652],[4.25811,52.09659],[4.25705,52.09687],[4.25728,52.09707],[4.25522,52.09807],[4.25606,52.09974],[4.25383,52.10121],[4.25244,52.10387],[4.25266,52.10406],[4.25303,52.10389],[4.25313,52.1034],[4.2539,52.1018],[4.25472,52.1009],[4.25609,52.10008],[4.25649,52.10048],[4.25673,52.10049],[4.25656,52.10011],[4.25665,52.09986],[4.25794,52.09891],[4.2599,52.099],[4.26054,52.09868],[4.26067,52.09821],[4.25902,52.09785],[4.25938,52.09701],[4.26107,52.0973],[4.26141,52.09712],[4.26397,52.09693],[4.26466,52.09749],[4.26358,52.09825],[4.26417,52.09863],[4.26501,52.09837],[4.26674,52.09742],[4.26672,52.0972],[4.2644,52.09558],[4.26406,52.09569],[4.26419,52.09563],[4.26315,52.09479],[4.26378,52.09427],[4.26419,52.09425],[4.27173,52.09957],[4.27078,52.10005],[4.26726,52.09757],[4.2667,52.09773],[4.26545,52.09841],[4.26541,52.09874],[4.26873,52.10111],[4.26721,52.1019],[4.26328,52.09914],[4.26367,52.09893],[4.26357,52.09887],[4.26307,52.09911],[4.26126,52.0992],[4.26066,52.09957],[4.26109,52.09993],[4.2612,52.10053],[4.25881,52.10146],[4.2578,52.10132],[4.25774,52.10145],[4.25792,52.10156],[4.25864,52.10175],[4.25792,52.10325],[4.25744,52.10358],[4.25592,52.10386],[4.25587,52.1041],[4.25626,52.10419],[4.25802,52.10375],[4.25839,52.10344],[4.25894,52.10228],[4.26073,52.10262],[4.2619,52.1032],[4.26538,52.1056],[4.26782,52.107],[4.2698,52.10854],[4.27297,52.11046],[4.27691,52.11336],[4.27905,52.11454],[4.28015,52.11539],[4.28182,52.11445],[4.28163,52.11432],[4.28299,52.11343]]]]}},{"type":"Feature","properties":{"name":"Duindorp","bezirk":"Den Haag"},"geometry":{"type":"MultiPolygon","coordinates":[[[[4.25523,52.09807],[4.25728,52.09707],[4.25705,52.09687],[4.25811,52.09659],[4.25801,52.09652],[4.25967,52.09504],[4.25999,52.09502],[4.26433,52.09142],[4.25673,52.08686],[4.25589,52.08606],[4.25268,52.08764],[4.25182,52.08751],[4.25078,52.08784],[4.24671,52.08788],[4.24373,52.08824],[4.25211,52.09538],[4.25363,52.09646],[4.25523,52.09807]]]]}},{"type":"Feature","properties":{"name":"Geuzen- en Statenkwartier","bezirk":"Den Haag"},"geometry":{"type":"MultiPolygon","coordinates":[[[[4.2788,52.10179],[4.28598,52.0959],[4.28497,52.09548],[4.28439,52.09557],[4.28409,52.09544],[4.284,52.09503],[4.28105,52.09358],[4.2789,52.09097],[4.27827,52.09072],[4.27947,52.0885],[4.2732,52.08578],[4.27351,52.08539],[4.27303,52.0852],[4.27104,52.08697],[4.26768,52.08923],[4.26698,52.08996],[4.26635,52.09031],[4.26475,52.09163],[4.26777,52.09349],[4.26861,52.09504],[4.27238,52.09906],[4.27273,52.10022],[4.27348,52.10106],[4.27451,52.1017],[4.27642,52.10172],[4.2781,52.10213],[4.27823,52.10228],[4.2788,52.10179]]]]}},{"type":"Feature","properties":{"name":"Zorgvliet","bezirk":"Den Haag"},"geometry":{"type":"MultiPolygon","coordinates":[[[[4.2865,52.09554],[4.29552,52.08828],[4.29448,52.08824],[4.29247,52.08693],[4.29219,52.08628],[4.2923,52.08595],[4.29298,52.08546],[4.29288,52.08518],[4.2903,52.0851],[4.28651,52.08543],[4.28263,52.08504],[4.28093,52.08645],[4.28,52.0876],[4.27827,52.09072],[4.2789,52.09097],[4.28068,52.09329],[4.284,52.09503],[4.28409,52.09544],[4.28439,52.09557],[4.28507,52.0955],[4.286,52.09595],[4.2865,52.09554]]]]}},{"type":"Feature","properties":{"name":"Duinoord","bezirk":"Den Haag"},"geometry":{"type":"MultiPolygon","coordinates":[[[[4.27963,52.08824],[4.28093,52.08645],[4.28263,52.08504],[4.28661,52.08543],[4.2903,52.0851],[4.29263,52.0851],[4.29266,52.08481],[4.2932,52.08482],[4.29336,52.08465],[4.28647,52.08128],[4.28509,52.08103],[4.28507,52.08123],[4.28474,52.08124],[4.28463,52.08116],[4.28479,52.08099],[4.28416,52.08099],[4.2819,52.08049],[4.2769,52.07876],[4.27625,52.07951],[4.27608,52.08031],[4.2761,52.08155],[4.27656,52.08212],[4.27503,52.08261],[4.27458,52.08317],[4.27504,52.08323],[4.27459,52.08377],[4.2747,52.08354],[4.27449,52.0835],[4.27303,52.0852],[4.27351,52.08539],[4.2732,52.08578],[4.27948,52.08852],[4.27963,52.08824]]]]}},{"type":"Feature","properties":{"name":"Bomen- en Bloemenbuurt","bezirk":"Den Haag"},"geometry":{"type":"MultiPolygon","coordinates":[[[[4.27338,52.0847],[4.27449,52.0835],[4.2747,52.08354],[4.27459,52.08377],[4.27503,52.08325],[4.27458,52.08317],[4.27503,52.08261],[4.27656,52.08212],[4.2761,52.08155],[4.27608,52.08031],[4.27625,52.07951],[4.27693,52.07872],[4.265,52.07448],[4.26486,52.07463],[4.26412,52.07436],[4.26426,52.07421],[4.25978,52.07275],[4.25053,52.0692],[4.24905,52.07071],[4.24821,52.07092],[4.25072,52.07198],[4.25219,52.07277],[4.25246,52.07314],[4.25264,52.07382],[4.25242,52.07473],[4.25059,52.07645],[4.26195,52.0811],[4.26193,52.08123],[4.26217,52.08134],[4.26259,52.08136],[4.27267,52.08552],[4.27338,52.0847]]]]}},{"type":"Feature","properties":{"name":"Vogelwijk","bezirk":"Den Haag"},"geometry":{"type":"MultiPolygon","coordinates":[[[[4.26489,52.09151],[4.26635,52.09031],[4.26698,52.08996],[4.26768,52.08923],[4.27082,52.08714],[4.27267,52.08552],[4.26259,52.08136],[4.26217,52.08134],[4.26193,52.08123],[4.26195,52.0811],[4.24055,52.07231],[4.23733,52.07617],[4.23531,52.07672],[4.23464,52.0773],[4.2324,52.07787],[4.23108,52.07855],[4.2382,52.08361],[4.24373,52.08824],[4.24671,52.08788],[4.25078,52.08784],[4.25182,52.08751],[4.25268,52.08764],[4.25589,52.08606],[4.25648,52.08669],[4.25739,52.08728],[4.26433,52.09142],[4.26475,52.09163],[4.26489,52.09151]]]]}},{"type":"Feature","properties":{"name":"Bohemen en Meer en Bos","bezirk":"Den Haag"},"geometry":{"type":"MultiPolygon","coordinates":[[[[4.25059,52.07645],[4.25242,52.07473],[4.25264,52.07382],[4.25246,52.07314],[4.25219,52.07277],[4.25072,52.07198],[4.24821,52.07092],[4.24908,52.07069],[4.25053,52.06918],[4.24668,52.06769],[4.23446,52.06404],[4.22729,52.06158],[4.2262,52.06169],[4.22628,52.06245],[4.2257,52.0637],[4.22328,52.06641],[4.22635,52.06752],[4.2279,52.06828],[4.22936,52.06852],[4.23083,52.06902],[4.23149,52.0687],[4.23273,52.06903],[4.25059,52.07645]]]]}},{"type":"Feature","properties":{"name":"Kijkduin en Ockenburgh","bezirk":"Den Haag"},"geometry":{"type":"MultiPolygon","coordinates":[[[[4.20119,52.06119],[4.20115,52.0606],[4.20065,52.06014],[4.19849,52.05948],[4.19599,52.05845],[4.19329,52.05802],[4.19236,52.0577],[4.19128,52.05825],[4.19299,52.05882],[4.19388,52.05888],[4.19565,52.05935],[4.2008,52.06135],[4.20119,52.06119]]],[[[4.2324,52.07787],[4.23464,52.0773],[4.23531,52.07672],[4.23733,52.07617],[4.24057,52.07227],[4.23243,52.06893],[4.23149,52.0687],[4.23083,52.06902],[4.22936,52.06852],[4.2279,52.06828],[4.22635,52.06752],[4.22328,52.06641],[4.22565,52.06378],[4.22624,52.06258],[4.22631,52.06206],[4.2257,52.0602],[4.2257,52.05942],[4.2267,52.05579],[4.22819,52.05336],[4.22888,52.05206],[4.22884,52.05191],[4.22431,52.05026],[4.21884,52.0478],[4.20859,52.04596],[4.20412,52.04473],[4.20176,52.04756],[4.20026,52.04846],[4.19954,52.04912],[4.19885,52.05],[4.19929,52.05059],[4.19974,52.05082],[4.19634,52.05566],[4.19839,52.05724],[4.20202,52.05889],[4.20466,52.0603],[4.20575,52.06113],[4.20608,52.06162],[4.20556,52.06176],[4.20362,52.06106],[4.20306,52.06135],[4.20314,52.06185],[4.21007,52.06536],[4.21265,52.0665],[4.21625,52.06859],[4.21891,52.07023],[4.22298,52.07304],[4.22571,52.0745],[4.23108,52.07855],[4.2324,52.07787]]]]}},{"type":"Feature","properties":{"name":"Kraayenstein en Vroondaal","bezirk":"Den Haag"},"geometry":{"type":"MultiPolygon","coordinates":[[[[4.23233,52.05207],[4.23269,52.05201],[4.2336,52.05068],[4.23385,52.05065],[4.23436,52.04997],[4.23636,52.05074],[4.23886,52.04767],[4.2402,52.04562],[4.2417,52.04385],[4.23932,52.04215],[4.23689,52.04091],[4.2351,52.03963],[4.23505,52.03926],[4.22833,52.03464],[4.22323,52.0344],[4.21923,52.03374],[4.21716,52.03311],[4.21551,52.0323],[4.21378,52.03178],[4.21229,52.03071],[4.20958,52.03365],[4.21243,52.03403],[4.20545,52.04282],[4.20412,52.04473],[4.2079,52.04581],[4.21182,52.04663],[4.21834,52.04766],[4.22022,52.04835],[4.22431,52.05026],[4.22886,52.05193],[4.22917,52.05156],[4.22988,52.05175],[4.22996,52.05158],[4.2304,52.05154],[4.23212,52.05214],[4.23233,52.05207]]]]}},{"type":"Feature","properties":{"name":"Loosduinen","bezirk":"Den Haag"},"geometry":{"type":"MultiPolygon","coordinates":[[[[4.25924,52.06264],[4.26008,52.06207],[4.26122,52.06165],[4.26412,52.0586],[4.26161,52.05714],[4.26059,52.05698],[4.26089,52.05668],[4.25641,52.054],[4.25818,52.05336],[4.2616,52.05135],[4.25467,52.04684],[4.2554,52.04636],[4.24596,52.0404],[4.24568,52.04001],[4.23942,52.04223],[4.2417,52.04387],[4.2402,52.04562],[4.23886,52.04767],[4.23636,52.05074],[4.23436,52.04997],[4.23385,52.05065],[4.2336,52.05068],[4.23269,52.05201],[4.23212,52.05214],[4.23041,52.05154],[4.22996,52.05158],[4.22988,52.05175],[4.22917,52.05156],[4.22902,52.05169],[4.22819,52.05336],[4.2267,52.05579],[4.22617,52.05777],[4.22734,52.05803],[4.22777,52.05703],[4.22841,52.05639],[4.23308,52.05439],[4.23454,52.05472],[4.23467,52.0546],[4.23652,52.05492],[4.23879,52.05544],[4.24019,52.0556],[4.24113,52.05549],[4.24126,52.05535],[4.24873,52.05759],[4.25874,52.06262],[4.25912,52.06275],[4.25924,52.06264]]]]}},{"type":"Feature","properties":{"name":"Waldeck","bezirk":"Den Haag"},"geometry":{"type":"MultiPolygon","coordinates":[[[[4.24606,52.06751],[4.24672,52.06681],[4.25049,52.06501],[4.25243,52.06445],[4.25825,52.06321],[4.25912,52.06275],[4.24873,52.05759],[4.24126,52.05535],[4.24113,52.05549],[4.24019,52.0556],[4.23879,52.05544],[4.23652,52.05492],[4.23467,52.0546],[4.23454,52.05472],[4.23308,52.05439],[4.22841,52.05639],[4.22777,52.05703],[4.22734,52.05803],[4.22617,52.05777],[4.22566,52.05993],[4.2262,52.06169],[4.22759,52.06163],[4.23446,52.06404],[4.24606,52.06751]]]]}},{"type":"Feature","properties":{"name":"Vruchtenbuurt","bezirk":"Den Haag"},"geometry":{"type":"MultiPolygon","coordinates":[[[[4.2621,52.07295],[4.26305,52.0714],[4.26292,52.07126],[4.26327,52.07102],[4.26407,52.06969],[4.26395,52.0695],[4.26766,52.07071],[4.26922,52.06887],[4.26944,52.06752],[4.27019,52.06685],[4.26679,52.06572],[4.25924,52.06264],[4.25825,52.06321],[4.25243,52.06445],[4.25037,52.06506],[4.24672,52.06681],[4.24606,52.06751],[4.26183,52.07348],[4.2621,52.07295]]]]}},{"type":"Feature","properties":{"name":"Valkenboskwartier","bezirk":"Den Haag"},"geometry":{"type":"MultiPolygon","coordinates":[[[[4.27768,52.07785],[4.28417,52.07065],[4.28187,52.0702],[4.27606,52.06855],[4.27589,52.0687],[4.27019,52.06685],[4.26944,52.06752],[4.26922,52.06887],[4.26766,52.07071],[4.26395,52.0695],[4.26407,52.06969],[4.26327,52.07102],[4.26292,52.07126],[4.26305,52.0714],[4.26183,52.07348],[4.26259,52.07361],[4.26426,52.07421],[4.26412,52.07436],[4.26486,52.07463],[4.265,52.07448],[4.27693,52.07872],[4.27768,52.07785]]]]}},{"type":"Feature","properties":{"name":"Regentessekwartier","bezirk":"Den Haag"},"geometry":{"type":"MultiPolygon","coordinates":[[[[4.28844,52.08121],[4.29423,52.07698],[4.29449,52.07653],[4.29477,52.07655],[4.29696,52.07397],[4.29015,52.07247],[4.28755,52.07154],[4.28417,52.07065],[4.2769,52.07876],[4.2819,52.08049],[4.28416,52.08099],[4.28479,52.08099],[4.28463,52.08116],[4.28483,52.08126],[4.28507,52.08123],[4.28509,52.08103],[4.28626,52.08122],[4.28762,52.08181],[4.28844,52.08121]]]]}},{"type":"Feature","properties":{"name":"Zeeheldenkwartier","bezirk":"Den Haag"},"geometry":{"type":"MultiPolygon","coordinates":[[[[4.29625,52.08765],[4.29737,52.08718],[4.29953,52.08704],[4.3008,52.0867],[4.30377,52.08405],[4.30389,52.08391],[4.30094,52.0827],[4.30353,52.08014],[4.29479,52.07649],[4.29449,52.07653],[4.29423,52.07698],[4.28762,52.08181],[4.29335,52.08462],[4.2932,52.08482],[4.29266,52.08481],[4.29263,52.0851],[4.29292,52.08521],[4.29299,52.08543],[4.2923,52.08595],[4.29219,52.08628],[4.29232,52.08672],[4.29281,52.08722],[4.29448,52.08824],[4.29552,52.08828],[4.29625,52.08765]]]]}},{"type":"Feature","properties":{"name":"Willemspark","bezirk":"Den Haag"},"geometry":{"type":"MultiPolygon","coordinates":[[[[4.31223,52.0897],[4.31557,52.08558],[4.31395,52.08488],[4.3137,52.08496],[4.31207,52.08673],[4.30518,52.08406],[4.30389,52.08391],[4.3008,52.0867],[4.30042,52.08688],[4.3045,52.08832],[4.30913,52.08901],[4.31209,52.08985],[4.31223,52.0897]]]]}},{"type":"Feature","properties":{"name":"Haagse Bos","bezirk":"Den Haag"},"geometry":{"type":"MultiPolygon","coordinates":[[[[4.34381,52.09806],[4.34633,52.09592],[4.34075,52.09408],[4.34304,52.09137],[4.34082,52.09077],[4.33735,52.08942],[4.33432,52.08783],[4.33349,52.08714],[4.33203,52.08637],[4.32486,52.08326],[4.32078,52.08177],[4.32018,52.08136],[4.31801,52.0831],[4.31518,52.08606],[4.31842,52.08702],[4.32652,52.09096],[4.34381,52.09806]]]]}},{"type":"Feature","properties":{"name":"Mariahoeve en Marlot","bezirk":"Den Haag"},"geometry":{"type":"MultiPolygon","coordinates":[[[[4.35883,52.10553],[4.36021,52.1047],[4.36148,52.10365],[4.36316,52.10215],[4.3632,52.10189],[4.36368,52.10169],[4.36508,52.10004],[4.36608,52.09944],[4.37007,52.09606],[4.37046,52.09623],[4.37271,52.09477],[4.37147,52.09384],[4.37351,52.0923],[4.35249,52.08269],[4.34235,52.09126],[4.34304,52.09137],[4.34075,52.09408],[4.34633,52.09592],[4.34374,52.09811],[4.3455,52.09881],[4.35005,52.10105],[4.3568,52.10459],[4.35849,52.10576],[4.35883,52.10553]]]]}},{"type":"Feature","properties":{"name":"Bezuidenhout","bezirk":"Den Haag"},"geometry":{"type":"MultiPolygon","coordinates":[[[[4.34277,52.0909],[4.35249,52.08269],[4.34712,52.08028],[4.34713,52.08],[4.34681,52.08017],[4.3451,52.07948],[4.34548,52.07915],[4.33938,52.07657],[4.33907,52.07671],[4.33521,52.075],[4.33448,52.07529],[4.33384,52.07499],[4.33064,52.07626],[4.33043,52.07615],[4.32708,52.07812],[4.32549,52.07937],[4.32675,52.07983],[4.32447,52.08178],[4.32545,52.0823],[4.32529,52.08242],[4.32547,52.08262],[4.32481,52.08324],[4.33203,52.08637],[4.33349,52.08714],[4.33432,52.08783],[4.33835,52.08986],[4.34235,52.09126],[4.34277,52.0909]]]]}},{"type":"Feature","properties":{"name":"Stationsbuurt","bezirk":"Den Haag"},"geometry":{"type":"MultiPolygon","coordinates":[[[[4.32542,52.08225],[4.32447,52.08178],[4.32675,52.07983],[4.32549,52.07937],[4.32708,52.07812],[4.33043,52.07615],[4.33064,52.07626],[4.33384,52.07499],[4.33114,52.07378],[4.33077,52.07387],[4.32822,52.07256],[4.32797,52.07277],[4.32646,52.07212],[4.32649,52.07179],[4.32512,52.07133],[4.32546,52.07095],[4.32511,52.07078],[4.3257,52.07009],[4.31618,52.06591],[4.31485,52.06641],[4.31768,52.06817],[4.31907,52.06878],[4.31758,52.07026],[4.31591,52.06956],[4.31419,52.07107],[4.31319,52.07072],[4.31291,52.07085],[4.31251,52.07072],[4.31142,52.07194],[4.31684,52.0738],[4.3194,52.07495],[4.32059,52.07507],[4.3248,52.0775],[4.32019,52.08136],[4.32078,52.08177],[4.32481,52.08324],[4.32547,52.08262],[4.32529,52.08242],[4.32542,52.08225]]]]}},{"type":"Feature","properties":{"name":"Centrum","bezirk":"Den Haag"},"geometry":{"type":"MultiPolygon","coordinates":[[[[4.31285,52.08588],[4.3137,52.08496],[4.31395,52.08488],[4.31557,52.08558],[4.31819,52.08293],[4.32482,52.07751],[4.32059,52.07507],[4.3194,52.07495],[4.31684,52.0738],[4.30788,52.07076],[4.30607,52.07273],[4.30117,52.07102],[4.30061,52.071],[4.29852,52.07333],[4.29706,52.07382],[4.29485,52.07633],[4.29479,52.07649],[4.29525,52.07673],[4.30353,52.08014],[4.30094,52.0827],[4.30407,52.08399],[4.30426,52.0839],[4.30518,52.08406],[4.31207,52.08673],[4.31285,52.08588]]]]}},{"type":"Feature","properties":{"name":"Schildersbuurt","bezirk":"Den Haag"},"geometry":{"type":"MultiPolygon","coordinates":[[[[4.29696,52.07397],[4.29751,52.0736],[4.29852,52.07333],[4.30065,52.07098],[4.30117,52.07102],[4.30607,52.07273],[4.30788,52.07076],[4.31142,52.07194],[4.31251,52.07072],[4.31291,52.07085],[4.31319,52.07072],[4.31419,52.07107],[4.31591,52.06956],[4.31758,52.07026],[4.31907,52.06878],[4.31768,52.06817],[4.31485,52.06641],[4.31576,52.06597],[4.31412,52.06473],[4.31145,52.06217],[4.31099,52.06235],[4.30863,52.06111],[4.30626,52.06111],[4.3046,52.06135],[4.30272,52.06198],[4.30147,52.06259],[4.29776,52.06649],[4.29577,52.06804],[4.29373,52.07009],[4.29359,52.0702],[4.29288,52.06991],[4.2904,52.07231],[4.29114,52.07246],[4.29105,52.07267],[4.29696,52.07397]]]]}},{"type":"Feature","properties":{"name":"Transvaalkwartier","bezirk":"Den Haag"},"geometry":{"type":"MultiPolygon","coordinates":[[[[4.29114,52.07246],[4.2904,52.07231],[4.29288,52.06991],[4.29359,52.0702],[4.29373,52.07009],[4.29577,52.06804],[4.29776,52.06649],[4.30126,52.06284],[4.30044,52.0626],[4.30053,52.06247],[4.29731,52.06099],[4.29215,52.0598],[4.28724,52.0664],[4.28631,52.06736],[4.28404,52.0704],[4.28414,52.07064],[4.28755,52.07154],[4.28992,52.07241],[4.29105,52.07267],[4.29114,52.07246]]]]}},{"type":"Feature","properties":{"name":"Rustenburg en Oostbroek","bezirk":"Den Haag"},"geometry":{"type":"MultiPolygon","coordinates":[[[[4.28528,52.0687],[4.28917,52.06381],[4.29214,52.05982],[4.29213,52.05956],[4.28448,52.06143],[4.28141,52.06159],[4.27443,52.06239],[4.2733,52.06304],[4.27018,52.06684],[4.27589,52.0687],[4.27606,52.06855],[4.28187,52.0702],[4.28414,52.07064],[4.28404,52.0704],[4.28528,52.0687]]]]}},{"type":"Feature","properties":{"name":"Leyenburg","bezirk":"Den Haag"},"geometry":{"type":"MultiPolygon","coordinates":[[[[4.27018,52.06684],[4.2733,52.06304],[4.27411,52.06252],[4.2753,52.06221],[4.28266,52.06154],[4.28272,52.06137],[4.28152,52.06135],[4.28154,52.06086],[4.27511,52.05738],[4.26957,52.05413],[4.26917,52.05446],[4.26743,52.05341],[4.26243,52.05136],[4.26209,52.05158],[4.26167,52.05131],[4.25818,52.05336],[4.25641,52.054],[4.26089,52.05668],[4.26059,52.05698],[4.26161,52.05714],[4.26412,52.0586],[4.26122,52.06165],[4.26008,52.06207],[4.25924,52.06264],[4.26679,52.06572],[4.27018,52.06684]]]]}},{"type":"Feature","properties":{"name":"Bouwlust","bezirk":"Den Haag"},"geometry":{"type":"MultiPolygon","coordinates":[[[[4.26275,52.05054],[4.26315,52.05026],[4.26364,52.0504],[4.27334,52.0436],[4.28002,52.04023],[4.27967,52.04006],[4.27963,52.03971],[4.27742,52.03857],[4.27725,52.03835],[4.27455,52.03691],[4.27439,52.037],[4.27342,52.03666],[4.2736,52.03641],[4.27266,52.03592],[4.27297,52.03552],[4.27266,52.03592],[4.26774,52.03325],[4.26743,52.03312],[4.26715,52.03324],[4.2562,52.02827],[4.25517,52.02826],[4.25507,52.02837],[4.24822,52.02523],[4.24502,52.02857],[4.24426,52.02887],[4.24369,52.02937],[4.23505,52.03926],[4.2351,52.03963],[4.23689,52.04091],[4.23942,52.04223],[4.24568,52.04001],[4.24596,52.0404],[4.2554,52.04636],[4.25467,52.04684],[4.26127,52.05116],[4.2616,52.05135],[4.26275,52.05054]]]]}},{"type":"Feature","properties":{"name":"Morgenstond","bezirk":"Den Haag"},"geometry":{"type":"MultiPolygon","coordinates":[[[[4.27533,52.05679],[4.27673,52.05525],[4.27731,52.05541],[4.28096,52.05285],[4.28063,52.05249],[4.28148,52.05168],[4.28229,52.05193],[4.28563,52.04961],[4.28365,52.04874],[4.28399,52.04838],[4.2848,52.04798],[4.28883,52.04523],[4.28809,52.04479],[4.2886,52.04437],[4.28442,52.04212],[4.28416,52.04236],[4.28394,52.04221],[4.28411,52.04203],[4.28051,52.04027],[4.28032,52.04039],[4.28002,52.04023],[4.27334,52.0436],[4.26364,52.0504],[4.26315,52.05026],[4.26167,52.05131],[4.26209,52.05158],[4.26243,52.05136],[4.26743,52.05341],[4.26917,52.05446],[4.26957,52.05413],[4.27484,52.05721],[4.27533,52.05679]]]]}},{"type":"Feature","properties":{"name":"Zuiderpark","bezirk":"Den Haag"},"geometry":{"type":"MultiPolygon","coordinates":[[[[4.28341,52.06152],[4.28469,52.0614],[4.29213,52.05956],[4.29163,52.05853],[4.29204,52.05844],[4.29254,52.05858],[4.29593,52.05451],[4.29274,52.05344],[4.28563,52.04961],[4.28229,52.05193],[4.28148,52.05168],[4.28063,52.05249],[4.28096,52.05285],[4.27731,52.05541],[4.27673,52.05525],[4.27484,52.05721],[4.28154,52.06086],[4.28152,52.06135],[4.28264,52.06132],[4.28266,52.06154],[4.28341,52.06152]]]]}},{"type":"Feature","properties":{"name":"Moerwijk","bezirk":"Den Haag"},"geometry":{"type":"MultiPolygon","coordinates":[[[[4.29218,52.05949],[4.29261,52.05939],[4.2926,52.0592],[4.29346,52.05897],[4.30407,52.05642],[4.30577,52.05665],[4.30714,52.05762],[4.30833,52.05819],[4.30889,52.05821],[4.30818,52.05563],[4.30828,52.05522],[4.30827,52.05412],[4.30811,52.05426],[4.30818,52.05322],[4.30873,52.05075],[4.30981,52.04857],[4.30915,52.0483],[4.30893,52.04853],[4.30697,52.04783],[4.30715,52.04762],[4.30384,52.04649],[4.30339,52.04701],[4.29837,52.04556],[4.29874,52.04501],[4.29725,52.04457],[4.29759,52.04407],[4.29671,52.04371],[4.29519,52.04352],[4.29345,52.04306],[4.29387,52.04254],[4.29095,52.04157],[4.28897,52.04453],[4.2886,52.04437],[4.28809,52.04479],[4.28883,52.04523],[4.2848,52.04798],[4.28399,52.04838],[4.28365,52.04874],[4.28626,52.04989],[4.29292,52.05352],[4.29593,52.05451],[4.29254,52.05858],[4.29204,52.05844],[4.29163,52.05853],[4.29218,52.05949]]]]}},{"type":"Feature","properties":{"name":"Groente- en Fruitmarkt","bezirk":"Den Haag"},"geometry":{"type":"MultiPolygon","coordinates":[[[[4.30113,52.06282],[4.30219,52.06219],[4.30382,52.06158],[4.30626,52.06111],[4.30863,52.06111],[4.31099,52.06235],[4.31145,52.06217],[4.31005,52.05994],[4.30972,52.05914],[4.30991,52.05912],[4.30973,52.05845],[4.30901,52.0585],[4.30889,52.05821],[4.30833,52.05819],[4.30714,52.05762],[4.30607,52.05678],[4.30501,52.05645],[4.30346,52.05651],[4.2926,52.0592],[4.29261,52.05939],[4.29213,52.05956],[4.29215,52.0598],[4.29347,52.0602],[4.29392,52.06016],[4.29731,52.06099],[4.30113,52.06282]]]]}},{"type":"Feature","properties":{"name":"Laakkwartier en Spoorwijk","bezirk":"Den Haag"},"geometry":{"type":"MultiPolygon","coordinates":[[[[4.32617,52.07165],[4.3311,52.06924],[4.33462,52.06658],[4.34031,52.06195],[4.32871,52.05656],[4.32776,52.05698],[4.32743,52.05675],[4.32763,52.05645],[4.32538,52.05539],[4.32468,52.05532],[4.32426,52.0557],[4.32136,52.05462],[4.32215,52.05371],[4.32168,52.05331],[4.32191,52.05305],[4.3204,52.0524],[4.31988,52.05199],[4.3158,52.05066],[4.31304,52.05012],[4.31215,52.04971],[4.31227,52.04957],[4.30974,52.04861],[4.30877,52.05065],[4.30837,52.05199],[4.30811,52.05426],[4.30827,52.05412],[4.30818,52.05563],[4.30901,52.0585],[4.30973,52.05845],[4.30991,52.05912],[4.30972,52.05914],[4.30991,52.05963],[4.3112,52.06186],[4.31216,52.06296],[4.31281,52.06334],[4.313,52.0637],[4.31412,52.06473],[4.3159,52.06606],[4.31623,52.06593],[4.32571,52.0701],[4.32511,52.07078],[4.32546,52.07095],[4.32512,52.07133],[4.32617,52.07165]]]]}},{"type":"Feature","properties":{"name":"Binckhorst","bezirk":"Den Haag"},"geometry":{"type":"MultiPolygon","coordinates":[[[[4.33521,52.075],[4.34007,52.07334],[4.34058,52.07349],[4.34094,52.07305],[4.35552,52.06804],[4.35299,52.06691],[4.35236,52.06644],[4.34849,52.06447],[4.34799,52.06416],[4.34798,52.06397],[4.34651,52.06318],[4.34188,52.06098],[4.34015,52.06206],[4.33462,52.06658],[4.3311,52.06924],[4.32617,52.07165],[4.32649,52.07179],[4.32646,52.07212],[4.32797,52.07277],[4.32822,52.07256],[4.33077,52.07387],[4.33114,52.07378],[4.33448,52.07529],[4.33521,52.075]]]]}},{"type":"Feature","properties":{"name":"Wateringse Veld","bezirk":"Den Haag"},"geometry":{"type":"MultiPolygon","coordinates":[[[[4.2905,52.04225],[4.29862,52.02982],[4.29863,52.0297],[4.29791,52.02953],[4.29793,52.02941],[4.30764,52.01815],[4.306,52.01757],[4.30582,52.01773],[4.30266,52.01649],[4.30108,52.01787],[4.29861,52.01688],[4.29551,52.01485],[4.28998,52.01752],[4.28974,52.01765],[4.29434,52.01936],[4.28673,52.02298],[4.28825,52.02376],[4.28514,52.02562],[4.28565,52.02591],[4.28505,52.02627],[4.28588,52.02648],[4.28525,52.02742],[4.28347,52.0267],[4.2828,52.02763],[4.28171,52.02743],[4.27787,52.0325],[4.2759,52.03156],[4.27266,52.03592],[4.2736,52.03641],[4.27342,52.03666],[4.27439,52.037],[4.27455,52.03691],[4.27963,52.03971],[4.27967,52.04006],[4.28032,52.04039],[4.28051,52.04027],[4.28411,52.04203],[4.28394,52.04221],[4.28416,52.04236],[4.28442,52.04212],[4.28897,52.04453],[4.2905,52.04225]]]]}},{"type":"Feature","properties":{"name":"Hoornwijk","bezirk":"Den Haag"},"geometry":{"type":"MultiPolygon","coordinates":[[[[4.36382,52.06517],[4.38937,52.05639],[4.38812,52.055],[4.38406,52.05276],[4.38327,52.05267],[4.38022,52.05284],[4.37976,52.05273],[4.37938,52.05358],[4.37489,52.05657],[4.37371,52.05609],[4.3709,52.05809],[4.36181,52.05056],[4.35933,52.04875],[4.35637,52.04689],[4.3639,52.04273],[4.36058,52.04043],[4.35537,52.03724],[4.35489,52.03665],[4.35447,52.03558],[4.35438,52.03483],[4.35454,52.03426],[4.35621,52.03219],[4.36176,52.02922],[4.36171,52.02875],[4.36143,52.02863],[4.36243,52.02769],[4.35977,52.02655],[4.35885,52.02733],[4.35779,52.02686],[4.35759,52.02697],[4.35748,52.0273],[4.35783,52.02766],[4.35777,52.02788],[4.35483,52.03044],[4.35378,52.03068],[4.35222,52.0344],[4.35149,52.03713],[4.35049,52.03873],[4.35041,52.03947],[4.3501,52.03987],[4.34994,52.03981],[4.34639,52.04289],[4.34692,52.04324],[4.34684,52.04357],[4.34606,52.04402],[4.34638,52.04483],[4.34688,52.04552],[4.34847,52.04668],[4.34942,52.04691],[4.34951,52.04723],[4.35231,52.04816],[4.35216,52.04878],[4.35264,52.0491],[4.34452,52.05405],[4.34682,52.0558],[4.34708,52.05623],[4.34704,52.05671],[4.34438,52.05926],[4.34188,52.06098],[4.3422,52.06113],[4.34402,52.05979],[4.34467,52.0595],[4.348,52.0565],[4.35228,52.05939],[4.35332,52.05867],[4.35393,52.05902],[4.35757,52.05655],[4.35723,52.05633],[4.35735,52.05626],[4.35838,52.05709],[4.35858,52.05695],[4.35923,52.05735],[4.35947,52.05718],[4.35982,52.05737],[4.35944,52.05763],[4.35997,52.05793],[4.35958,52.0582],[4.36012,52.0585],[4.36045,52.05827],[4.36083,52.05847],[4.36041,52.05876],[4.36024,52.05867],[4.35601,52.06157],[4.36231,52.06422],[4.36382,52.06517]]]]}},{"type":"Feature","properties":{"name":"Ypenburg","bezirk":"Den Haag"},"geometry":{"type":"MultiPolygon","coordinates":[[[[4.3709,52.05809],[4.37371,52.05609],[4.37489,52.05657],[4.37938,52.05358],[4.37976,52.05273],[4.38022,52.05284],[4.38327,52.05267],[4.38406,52.05276],[4.38812,52.055],[4.38937,52.05639],[4.39577,52.05441],[4.40136,52.05334],[4.39855,52.05122],[4.39516,52.05341],[4.39515,52.05364],[4.39444,52.05405],[4.39357,52.05348],[4.39376,52.05333],[4.39312,52.05284],[4.39259,52.05315],[4.39113,52.05195],[4.39144,52.05176],[4.38968,52.04996],[4.3879,52.05117],[4.37264,52.04101],[4.37867,52.03691],[4.37986,52.03595],[4.38613,52.03851],[4.38688,52.0384],[4.38744,52.03865],[4.38791,52.03839],[4.39203,52.03482],[4.39386,52.03315],[4.39389,52.03292],[4.38862,52.0305],[4.38496,52.02903],[4.38437,52.02862],[4.37974,52.02673],[4.3735,52.0326],[4.36243,52.02769],[4.36143,52.02863],[4.36171,52.02875],[4.36176,52.02922],[4.35915,52.0307],[4.35685,52.03175],[4.35621,52.03219],[4.35542,52.03303],[4.35462,52.03411],[4.35438,52.03483],[4.35453,52.03577],[4.35517,52.03704],[4.35576,52.03754],[4.36058,52.04043],[4.3639,52.04273],[4.35637,52.04689],[4.35933,52.04875],[4.36181,52.05056],[4.3709,52.05809]]]]}},{"type":"Feature","properties":{"name":"Forepark","bezirk":"Den Haag"},"geometry":{"type":"MultiPolygon","coordinates":[[[[4.40435,52.0775],[4.40508,52.07697],[4.4053,52.07708],[4.40593,52.07659],[4.39861,52.07041],[4.39585,52.06788],[4.3936,52.06621],[4.38782,52.06131],[4.39155,52.05869],[4.39525,52.05659],[4.39665,52.05613],[4.39603,52.05538],[4.39565,52.05445],[4.39059,52.05598],[4.36382,52.06517],[4.36492,52.06596],[4.36632,52.06655],[4.38,52.07475],[4.38458,52.07623],[4.38722,52.07394],[4.38865,52.07297],[4.39077,52.07385],[4.3906,52.07413],[4.39399,52.07546],[4.39462,52.07591],[4.39571,52.07516],[4.39709,52.07476],[4.40104,52.07633],[4.40092,52.07641],[4.40139,52.07671],[4.40157,52.07658],[4.40392,52.07785],[4.40435,52.0775]]]]}},{"type":"Feature","properties":{"name":"Leidschenveen","bezirk":"Den Haag"},"geometry":{"type":"MultiPolygon","coordinates":[[[[4.42234,52.05755],[4.42249,52.05719],[4.41539,52.05744],[4.41538,52.05707],[4.41523,52.05701],[4.42207,52.05167],[4.40492,52.05299],[4.40188,52.05334],[4.40162,52.05354],[4.40136,52.05334],[4.39565,52.05445],[4.39603,52.05538],[4.39665,52.05613],[4.39525,52.05659],[4.39155,52.05869],[4.38782,52.06131],[4.3936,52.06621],[4.39585,52.06788],[4.39861,52.07041],[4.40593,52.07659],[4.41195,52.07208],[4.41604,52.0677],[4.41715,52.06631],[4.42069,52.06346],[4.42083,52.06258],[4.4203,52.06219],[4.42052,52.06196],[4.42234,52.05755]]]]}}]}