{"type":"FeatureCollection","features":[{"type":"Feature","properties":{"name":"Bischmisheim","bezirk":"Stadtbezirk Halberg"},"geometry":{"type":"MultiPolygon","coordinates":[[[[7.08006,49.24866],[7.07941,49.24979],[7.08569,49.24849],[7.0853,49.24768],[7.08734,49.24665],[7.08705,49.24611],[7.08712,49.24564],[7.08989,49.24592],[7.09345,49.24748],[7.10066,49.24685],[7.10613,49.24678],[7.10681,49.2432],[7.10551,49.23973],[7.10566,49.2354],[7.10107,49.23158],[7.09989,49.22992],[7.10159,49.22848],[7.10215,49.22786],[7.10226,49.22753],[7.10201,49.22724],[7.09918,49.2255],[7.09889,49.22518],[7.09801,49.22348],[7.09761,49.22309],[7.0975,49.2228],[7.09762,49.22187],[7.09697,49.22089],[7.09523,49.21947],[7.09202,49.21759],[7.08825,49.21742],[7.08826,49.21562],[7.08718,49.21458],[7.08203,49.21449],[7.08098,49.21397],[7.0802,49.21319],[7.07611,49.21435],[7.07389,49.21416],[7.07152,49.21427],[7.06829,49.21361],[7.06636,49.21219],[7.06582,49.21232],[7.06581,49.21155],[7.06473,49.21148],[7.06476,49.20785],[7.06312,49.20743],[7.0611,49.20664],[7.05957,49.20681],[7.05853,49.20721],[7.0565,49.20911],[7.05583,49.20953],[7.05558,49.20951],[7.05468,49.21027],[7.05424,49.21076],[7.05408,49.21128],[7.05254,49.21195],[7.05284,49.21219],[7.05261,49.21234],[7.05222,49.21208],[7.04946,49.21312],[7.04873,49.21359],[7.04724,49.21492],[7.04561,49.21743],[7.04392,49.21902],[7.04236,49.22015],[7.04385,49.21972],[7.04543,49.22027],[7.04746,49.22217],[7.04847,49.22276],[7.05116,49.22211],[7.05145,49.22237],[7.05179,49.2222],[7.05295,49.22333],[7.05257,49.22449],[7.05273,49.22454],[7.05266,49.22511],[7.05184,49.22521],[7.05226,49.22574],[7.05249,49.22582],[7.05569,49.22535],[7.05563,49.22521],[7.05727,49.22527],[7.05729,49.22498],[7.05884,49.22466],[7.05883,49.22479],[7.06088,49.22478],[7.06076,49.22511],[7.06147,49.22529],[7.06139,49.22541],[7.06176,49.22571],[7.06225,49.22523],[7.06247,49.22477],[7.06291,49.22478],[7.06285,49.22537],[7.0638,49.22532],[7.06391,49.22545],[7.06397,49.22653],[7.0647,49.22668],[7.06466,49.22694],[7.0664,49.22722],[7.06757,49.22777],[7.06833,49.22855],[7.06879,49.2296],[7.06942,49.23017],[7.07082,49.23103],[7.07288,49.23164],[7.07406,49.23242],[7.0745,49.23306],[7.07472,49.23416],[7.07507,49.23481],[7.077,49.23573],[7.07793,49.23535],[7.07851,49.23567],[7.07799,49.23625],[7.07878,49.23697],[7.07988,49.23831],[7.08006,49.23876],[7.07979,49.2393],[7.07919,49.23968],[7.0789,49.23951],[7.0772,49.24011],[7.07635,49.24102],[7.07589,49.24277],[7.08047,49.24504],[7.08003,49.24686],[7.08006,49.24866]]]]}},{"type":"Feature","properties":{"name":"Scheidt","bezirk":"Stadtbezirk Dudweiler"},"geometry":{"type":"MultiPolygon","coordinates":[[[[7.04391,49.24839],[7.04422,49.24916],[7.04538,49.25041],[7.04623,49.25097],[7.04817,49.25161],[7.04824,49.25198],[7.04805,49.25218],[7.04754,49.2523],[7.04767,49.25291],[7.04921,49.25411],[7.04929,49.25459],[7.0519,49.25506],[7.05241,49.25507],[7.05351,49.25475],[7.05368,49.2559],[7.05313,49.25828],[7.05131,49.26121],[7.05133,49.2626],[7.05116,49.26315],[7.0524,49.26247],[7.05328,49.26265],[7.05811,49.26137],[7.05895,49.26133],[7.06039,49.26167],[7.06315,49.26139],[7.06399,49.26085],[7.06508,49.25958],[7.06711,49.25811],[7.06785,49.25713],[7.06818,49.25616],[7.06893,49.25533],[7.07164,49.25628],[7.07389,49.25747],[7.07408,49.25771],[7.0746,49.25774],[7.07462,49.25748],[7.07644,49.25836],[7.07683,49.25815],[7.07776,49.25825],[7.07991,49.25724],[7.08053,49.25657],[7.08044,49.25598],[7.08204,49.25484],[7.08277,49.25566],[7.08322,49.25594],[7.08223,49.25386],[7.07941,49.24979],[7.08006,49.24866],[7.08003,49.24686],[7.08047,49.24504],[7.07589,49.24277],[7.07439,49.24154],[7.07325,49.23919],[7.07436,49.23816],[7.06937,49.23362],[7.06565,49.23202],[7.06292,49.2311],[7.06329,49.23006],[7.06115,49.22965],[7.05804,49.22926],[7.05573,49.22921],[7.05314,49.22849],[7.05237,49.22845],[7.05075,49.2291],[7.05304,49.23089],[7.05426,49.23289],[7.05454,49.23465],[7.05413,49.23667],[7.05426,49.23777],[7.04954,49.23982],[7.04992,49.24031],[7.04804,49.2402],[7.0471,49.23999],[7.04623,49.24019],[7.04554,49.24084],[7.04482,49.24111],[7.04486,49.24309],[7.04466,49.24399],[7.04512,49.24469],[7.04524,49.24542],[7.04482,49.24631],[7.04412,49.24725],[7.04391,49.24839]]]]}},{"type":"Feature","properties":{"name":"Gersweiler","bezirk":"Stadtbezirk West"},"geometry":{"type":"MultiPolygon","coordinates":[[[[6.87052,49.21814],[6.87999,49.21964],[6.88368,49.22096],[6.88596,49.22123],[6.88896,49.22122],[6.88999,49.22146],[6.89306,49.2231],[6.89281,49.22281],[6.89286,49.21964],[6.89266,49.21891],[6.89267,49.21818],[6.90312,49.22022],[6.90908,49.22208],[6.91034,49.22281],[6.91139,49.22428],[6.91155,49.22641],[6.90937,49.22602],[6.90798,49.22609],[6.90701,49.22575],[6.9065,49.22643],[6.90768,49.22674],[6.90682,49.22798],[6.90607,49.22785],[6.9057,49.22821],[6.90499,49.22943],[6.90548,49.23059],[6.90725,49.23178],[6.9063,49.23273],[6.90751,49.23333],[6.90689,49.23375],[6.90347,49.23295],[6.90237,49.23583],[6.90169,49.23903],[6.89913,49.23933],[6.89779,49.23964],[6.89791,49.23992],[6.8978,49.24006],[6.89829,49.24072],[6.89891,49.24213],[6.89914,49.2434],[6.90013,49.24511],[6.90005,49.24553],[6.90066,49.24623],[6.90031,49.24692],[6.90349,49.2466],[6.90709,49.24645],[6.90883,49.24616],[6.91258,49.24519],[6.9153,49.24489],[6.91694,49.24436],[6.91887,49.24322],[6.92948,49.24004],[6.93152,49.23962],[6.93583,49.23952],[6.93831,49.23924],[6.94303,49.23801],[6.94756,49.23631],[6.94708,49.23573],[6.94185,49.23648],[6.93849,49.23327],[6.93764,49.23283],[6.93689,49.23267],[6.9349,49.23168],[6.93484,49.2315],[6.93399,49.23102],[6.93358,49.231],[6.93286,49.23051],[6.93349,49.22228],[6.92866,49.22203],[6.92861,49.22231],[6.92784,49.22225],[6.92521,49.22336],[6.9229,49.22266],[6.91879,49.22262],[6.91893,49.22191],[6.91841,49.22175],[6.91886,49.22051],[6.91847,49.22015],[6.91889,49.21997],[6.91762,49.21876],[6.91558,49.2174],[6.91133,49.21493],[6.90916,49.21452],[6.90529,49.21437],[6.90042,49.21356],[6.8957,49.21103],[6.89267,49.20879],[6.87256,49.21483],[6.87155,49.21544],[6.87061,49.21714],[6.87052,49.21814]]]]}},{"type":"Feature","properties":{"name":"St. Johann","bezirk":"Stadtbezirk Mitte"},"geometry":{"type":"MultiPolygon","coordinates":[[[[6.98218,49.24274],[6.98246,49.24285],[6.98232,49.24316],[6.98285,49.24332],[6.99056,49.24412],[6.99238,49.24458],[6.99281,49.24403],[6.99236,49.24343],[6.99456,49.2429],[6.99657,49.24292],[6.99885,49.24369],[6.99987,49.2446],[7.00019,49.24544],[7.00013,49.24699],[7.0003,49.24718],[7.00013,49.24758],[7.00014,49.24908],[7.00035,49.25001],[7.00014,49.24999],[7.00044,49.25249],[7.00059,49.25279],[7.00348,49.25413],[7.00494,49.25416],[7.0086,49.25335],[7.01735,49.25653],[7.01957,49.25516],[7.02135,49.25502],[7.02251,49.25515],[7.02506,49.25706],[7.02743,49.25812],[7.03084,49.25847],[7.03667,49.26004],[7.03913,49.26],[7.05052,49.2633],[7.05116,49.26315],[7.05133,49.2626],[7.05131,49.26121],[7.05313,49.25828],[7.05363,49.25631],[7.05351,49.25475],[7.05241,49.25507],[7.0519,49.25506],[7.04929,49.25459],[7.04921,49.25411],[7.04767,49.25291],[7.04754,49.2523],[7.04805,49.25218],[7.04824,49.25198],[7.04817,49.25161],[7.04583,49.25075],[7.04422,49.24916],[7.04391,49.24839],[7.04397,49.24762],[7.04517,49.24571],[7.04139,49.24425],[7.03923,49.24221],[7.03549,49.23981],[7.03242,49.23732],[7.03199,49.23651],[7.032,49.23556],[7.03051,49.23532],[7.03,49.23507],[7.03189,49.23542],[7.0337,49.23527],[7.0376,49.23314],[7.03718,49.23259],[7.03641,49.23215],[7.0348,49.23163],[7.03231,49.23056],[7.03232,49.23002],[7.03253,49.22977],[7.03332,49.22971],[7.0343,49.23019],[7.03516,49.23035],[7.03499,49.22987],[7.03667,49.22917],[7.03716,49.22879],[7.03924,49.22857],[7.03952,49.22836],[7.03897,49.22813],[7.03848,49.2277],[7.03812,49.22641],[7.03746,49.22566],[7.03294,49.22596],[7.03297,49.2258],[7.03085,49.22563],[7.02944,49.22512],[7.02943,49.22485],[7.02925,49.22476],[7.02882,49.22483],[7.02728,49.2237],[7.02708,49.22252],[7.02739,49.22211],[7.02706,49.22202],[7.02811,49.22048],[7.02739,49.22027],[7.02791,49.21945],[7.02882,49.21705],[7.0273,49.21534],[7.02455,49.21122],[7.02337,49.21247],[7.02087,49.2177],[7.02039,49.21839],[7.01895,49.22009],[7.01664,49.22199],[7.01291,49.22356],[7.00569,49.22551],[7.00474,49.226],[7.00401,49.22664],[7.00374,49.22696],[7.00319,49.22838],[7.00288,49.22874],[7.00236,49.22896],[7.00114,49.22921],[6.99676,49.22944],[6.99483,49.23013],[6.99356,49.23114],[6.99239,49.23346],[6.99173,49.23561],[6.99145,49.23598],[6.99058,49.23646],[6.98901,49.23676],[6.9843,49.2369],[6.98279,49.23662],[6.98286,49.23994],[6.98269,49.24034],[6.98283,49.24191],[6.98218,49.24274]]]]}},{"type":"Feature","properties":{"name":"Ensheim","bezirk":"Stadtbezirk Halberg"},"geometry":{"type":"MultiPolygon","coordinates":[[[[7.09486,49.24735],[7.09395,49.24775],[7.09366,49.24804],[7.09367,49.24907],[7.09511,49.25061],[7.09584,49.25058],[7.09978,49.25304],[7.10085,49.25332],[7.10254,49.2543],[7.10281,49.25419],[7.10344,49.25427],[7.10405,49.25469],[7.10338,49.25606],[7.10402,49.25598],[7.10642,49.25636],[7.10725,49.25636],[7.10736,49.25647],[7.10843,49.25571],[7.11119,49.2555],[7.11172,49.25523],[7.11169,49.25499],[7.11018,49.25356],[7.11017,49.25321],[7.11064,49.25302],[7.11168,49.25308],[7.11215,49.25288],[7.11229,49.25253],[7.11206,49.25175],[7.11246,49.25133],[7.11638,49.2509],[7.11669,49.25056],[7.11713,49.24901],[7.11738,49.24866],[7.11807,49.24836],[7.12082,49.24801],[7.12177,49.24706],[7.12204,49.24591],[7.12241,49.24653],[7.12208,49.24733],[7.12319,49.24717],[7.1234,49.2465],[7.12397,49.24567],[7.12493,49.24517],[7.12739,49.24478],[7.12814,49.24507],[7.12867,49.24485],[7.12889,49.24435],[7.12941,49.24402],[7.13022,49.24401],[7.12973,49.24471],[7.12974,49.24512],[7.12995,49.24536],[7.13036,49.24525],[7.1307,49.24387],[7.12889,49.24307],[7.12864,49.24267],[7.12925,49.24061],[7.12904,49.23951],[7.12909,49.23839],[7.12724,49.23263],[7.12619,49.2286],[7.12535,49.22678],[7.1241,49.22547],[7.12329,49.22401],[7.12261,49.22316],[7.12269,49.22308],[7.12241,49.22244],[7.12254,49.22212],[7.12342,49.22144],[7.12395,49.2208],[7.12402,49.21985],[7.12388,49.21948],[7.12409,49.219],[7.126,49.21771],[7.12664,49.2163],[7.12792,49.21651],[7.12934,49.21708],[7.13044,49.21799],[7.13063,49.21836],[7.13323,49.21755],[7.13623,49.217],[7.1362,49.21605],[7.13672,49.21456],[7.13804,49.21284],[7.1377,49.21294],[7.13746,49.21255],[7.13634,49.21165],[7.13578,49.2104],[7.13459,49.21113],[7.13301,49.21177],[7.13161,49.21265],[7.13086,49.21286],[7.13057,49.21322],[7.12889,49.21205],[7.12879,49.21096],[7.12841,49.21092],[7.12792,49.20694],[7.12091,49.20276],[7.11905,49.20132],[7.11822,49.19949],[7.11729,49.1984],[7.11703,49.19505],[7.11819,49.19286],[7.1158,49.1927],[7.11449,49.19225],[7.11411,49.1919],[7.11408,49.19168],[7.11375,49.19174],[7.11324,49.1915],[7.11311,49.19178],[7.11229,49.19167],[7.11198,49.19223],[7.11129,49.19198],[7.1108,49.19279],[7.10853,49.19273],[7.10875,49.19435],[7.10344,49.19518],[7.10352,49.19614],[7.1012,49.19618],[7.10137,49.19709],[7.09974,49.19717],[7.09983,49.19748],[7.09824,49.19779],[7.0984,49.19852],[7.0979,49.19855],[7.09794,49.19883],[7.09608,49.19881],[7.09613,49.19917],[7.0919,49.19995],[7.09198,49.20016],[7.08949,49.20151],[7.08965,49.20285],[7.08851,49.20599],[7.09013,49.2098],[7.09076,49.21177],[7.08826,49.21562],[7.08825,49.21742],[7.09202,49.21759],[7.09523,49.21947],[7.09697,49.22089],[7.09762,49.22187],[7.0975,49.2228],[7.09761,49.22309],[7.09801,49.22348],[7.09889,49.22518],[7.09918,49.2255],[7.10213,49.22733],[7.10226,49.22753],[7.10215,49.22786],[7.09989,49.22992],[7.10107,49.23158],[7.10566,49.2354],[7.10551,49.23973],[7.10681,49.2432],[7.10613,49.24678],[7.10066,49.24685],[7.09486,49.24735]]]]}},{"type":"Feature","properties":{"name":"Güdingen","bezirk":"Stadtbezirk Halberg"},"geometry":{"type":"MultiPolygon","coordinates":[[[[6.99066,49.20177],[7.0129,49.2072],[7.01637,49.20706],[7.01674,49.20726],[7.01912,49.20672],[7.02258,49.21026],[7.02336,49.21179],[7.02337,49.21247],[7.02511,49.21081],[7.02676,49.21153],[7.02715,49.21132],[7.02841,49.21171],[7.029,49.21148],[7.02986,49.21152],[7.02994,49.20922],[7.03088,49.20935],[7.03158,49.20964],[7.0316,49.21005],[7.03237,49.21014],[7.03283,49.20837],[7.03317,49.20842],[7.03325,49.20815],[7.03279,49.20808],[7.03314,49.20732],[7.03351,49.20721],[7.03449,49.20738],[7.03447,49.20755],[7.03987,49.20782],[7.0403,49.2063],[7.04057,49.20617],[7.04129,49.20624],[7.04189,49.20516],[7.04336,49.2049],[7.04271,49.20465],[7.04648,49.20417],[7.04971,49.20423],[7.04969,49.20389],[7.05103,49.20201],[7.05019,49.19924],[7.05243,49.19745],[7.05394,49.19657],[7.05476,49.1955],[7.0512,49.19411],[7.05065,49.19433],[7.04973,49.1958],[7.04801,49.19557],[7.044,49.19463],[7.04473,49.19386],[7.0444,49.19356],[7.04456,49.19343],[7.0422,49.19221],[7.04141,49.19197],[7.04074,49.19122],[7.03957,49.19089],[7.03852,49.1913],[7.03805,49.1918],[7.03605,49.1916],[7.0352,49.19226],[7.03486,49.19212],[7.03504,49.19176],[7.03499,49.19139],[7.0285,49.1909],[7.02806,49.19123],[7.02668,49.19048],[7.02597,49.1899],[7.02342,49.18921],[7.02195,49.1903],[7.02216,49.19238],[7.02161,49.1932],[7.01923,49.1927],[7.01563,49.19115],[7.01353,49.18859],[7.01094,49.18793],[7.00993,49.19139],[7.00895,49.19399],[6.999,49.19442],[6.99838,49.19559],[6.99719,49.19729],[6.99528,49.19862],[6.99421,49.19968],[6.99253,49.20082],[6.99066,49.20177]]]]}},{"type":"Feature","properties":{"name":"Eschberg","bezirk":"Stadtbezirk Mitte"},"geometry":{"type":"MultiPolygon","coordinates":[[[[7.04517,49.24571],[7.04512,49.24469],[7.04466,49.24399],[7.04486,49.24309],[7.04482,49.24111],[7.04554,49.24084],[7.04623,49.24019],[7.0471,49.23999],[7.04804,49.2402],[7.04992,49.24031],[7.04954,49.23982],[7.0482,49.23934],[7.0486,49.23836],[7.05033,49.23675],[7.05082,49.23574],[7.05069,49.23506],[7.05088,49.2335],[7.05029,49.23218],[7.04956,49.23147],[7.04745,49.23015],[7.04698,49.22965],[7.04701,49.22944],[7.04606,49.22875],[7.0458,49.22888],[7.04474,49.22807],[7.04446,49.2283],[7.04319,49.22781],[7.0432,49.22749],[7.04171,49.22758],[7.04152,49.22789],[7.04164,49.22804],[7.04064,49.2284],[7.03952,49.22836],[7.03924,49.22857],[7.03716,49.22879],[7.03667,49.22917],[7.03499,49.22987],[7.03516,49.23035],[7.0343,49.23019],[7.03332,49.22971],[7.03253,49.22977],[7.03232,49.23002],[7.03231,49.23056],[7.0348,49.23163],[7.03641,49.23215],[7.03718,49.23259],[7.0376,49.23314],[7.0337,49.23527],[7.03189,49.23542],[7.03,49.23507],[7.03051,49.23532],[7.032,49.23556],[7.03199,49.23651],[7.03242,49.23732],[7.03549,49.23981],[7.03923,49.24221],[7.04139,49.24425],[7.04517,49.24571]]]]}},{"type":"Feature","properties":{"name":"St. Arnual","bezirk":"Stadtbezirk Mitte"},"geometry":{"type":"MultiPolygon","coordinates":[[[[6.97131,49.20962],[6.97151,49.21012],[6.97144,49.21056],[6.97383,49.21103],[6.97572,49.2112],[6.97587,49.21163],[6.97923,49.21157],[6.98218,49.21106],[6.98305,49.21131],[6.98342,49.21165],[6.98353,49.21224],[6.98267,49.21683],[6.97987,49.21724],[6.98331,49.2209],[6.98448,49.22035],[6.98679,49.2221],[6.99115,49.22356],[6.99626,49.22392],[6.99999,49.22444],[7.00086,49.22517],[7.00093,49.22646],[7.00063,49.22739],[7.00142,49.22835],[7.00178,49.2291],[7.00288,49.22874],[7.00401,49.22664],[7.00474,49.226],[7.00569,49.22551],[7.01291,49.22356],[7.01664,49.22199],[7.01785,49.22111],[7.01974,49.2192],[7.02087,49.2177],[7.02337,49.21247],[7.02336,49.21179],[7.02258,49.21026],[7.01912,49.20672],[7.01674,49.20726],[7.01637,49.20706],[7.0129,49.2072],[6.99066,49.20177],[6.97516,49.2094],[6.9726,49.20949],[6.97153,49.20907],[6.97131,49.20962]]]]}},{"type":"Feature","properties":{"name":"Klarenthal","bezirk":"Stadtbezirk West"},"geometry":{"type":"MultiPolygon","coordinates":[[[[6.82701,49.22066],[6.82714,49.22116],[6.82889,49.22412],[6.8298,49.22464],[6.83127,49.22511],[6.83124,49.22524],[6.83556,49.22518],[6.83551,49.22599],[6.83528,49.22598],[6.83518,49.22644],[6.83564,49.22672],[6.83569,49.22707],[6.83596,49.22726],[6.83742,49.22747],[6.83826,49.2278],[6.83913,49.22774],[6.83931,49.22842],[6.84118,49.22914],[6.84119,49.22986],[6.84532,49.23163],[6.84859,49.23278],[6.84919,49.23218],[6.85264,49.23061],[6.85218,49.22929],[6.85457,49.22889],[6.85527,49.23014],[6.8559,49.23008],[6.85765,49.23104],[6.85962,49.23175],[6.86122,49.23174],[6.86316,49.23119],[6.86301,49.23042],[6.8646,49.23063],[6.86759,49.23046],[6.86956,49.23058],[6.86965,49.23074],[6.87114,49.23052],[6.87368,49.22958],[6.87747,49.22919],[6.87726,49.2286],[6.87902,49.22845],[6.87861,49.22928],[6.88096,49.23019],[6.88213,49.23113],[6.88249,49.23115],[6.88541,49.23377],[6.88606,49.23373],[6.8861,49.23572],[6.88863,49.23686],[6.88869,49.2399],[6.88749,49.24154],[6.8901,49.24163],[6.88623,49.24297],[6.88981,49.24445],[6.89241,49.24489],[6.89621,49.24521],[6.89624,49.24537],[6.90013,49.24511],[6.89914,49.2434],[6.89891,49.24213],[6.89829,49.24072],[6.8978,49.24006],[6.89791,49.23992],[6.89779,49.23964],[6.89913,49.23933],[6.90169,49.23903],[6.90237,49.23583],[6.90347,49.23295],[6.90689,49.23375],[6.90751,49.23333],[6.9063,49.23273],[6.90725,49.23178],[6.90548,49.23059],[6.90499,49.22943],[6.9057,49.22821],[6.90607,49.22785],[6.90682,49.22798],[6.90768,49.22674],[6.9065,49.22643],[6.90673,49.22598],[6.90701,49.22575],[6.90798,49.22609],[6.90937,49.22602],[6.91155,49.22641],[6.91139,49.22428],[6.91034,49.22281],[6.90908,49.22208],[6.90312,49.22022],[6.89267,49.21818],[6.89266,49.21891],[6.89286,49.21964],[6.89281,49.22281],[6.89306,49.2231],[6.88999,49.22146],[6.88896,49.22122],[6.88596,49.22123],[6.88368,49.22096],[6.87999,49.21964],[6.87052,49.21814],[6.87049,49.21855],[6.86745,49.21945],[6.86462,49.22082],[6.86356,49.22191],[6.8629,49.2222],[6.8602,49.22238],[6.8594,49.22271],[6.85864,49.22265],[6.85746,49.22224],[6.85682,49.22177],[6.85607,49.22158],[6.856,49.2214],[6.85543,49.22127],[6.85549,49.22116],[6.85526,49.22115],[6.85482,49.22086],[6.85485,49.22074],[6.85457,49.22072],[6.85451,49.2205],[6.85329,49.22014],[6.85242,49.21951],[6.85168,49.21939],[6.85154,49.21918],[6.85111,49.21904],[6.85104,49.21884],[6.85021,49.21857],[6.84997,49.21822],[6.84875,49.21787],[6.84874,49.21765],[6.84841,49.21761],[6.84835,49.21747],[6.84788,49.21738],[6.84772,49.21755],[6.84159,49.21511],[6.83923,49.21454],[6.83915,49.21436],[6.83785,49.21366],[6.83699,49.2128],[6.83551,49.21365],[6.83466,49.21326],[6.83322,49.21425],[6.83262,49.21404],[6.82876,49.21783],[6.82858,49.21829],[6.82923,49.21863],[6.82926,49.21894],[6.82968,49.21939],[6.82949,49.21979],[6.82815,49.21945],[6.82757,49.21998],[6.82711,49.22017],[6.82701,49.22066]]]]}},{"type":"Feature","properties":{"name":"Dudweiler","bezirk":"Stadtbezirk Dudweiler"},"geometry":{"type":"MultiPolygon","coordinates":[[[[7.00917,49.26859],[7.01258,49.27063],[7.02109,49.27456],[7.02087,49.27477],[7.02468,49.27724],[7.02532,49.27784],[7.01924,49.28069],[7.01888,49.28054],[7.0181,49.28087],[7.01975,49.28186],[7.0178,49.28215],[7.01522,49.2831],[7.01546,49.28317],[7.01695,49.28462],[7.01776,49.28591],[7.02023,49.28811],[7.02116,49.28872],[7.02546,49.29075],[7.02639,49.29136],[7.03232,49.29631],[7.03265,49.29609],[7.03957,49.29464],[7.04586,49.29208],[7.05043,49.28965],[7.05428,49.28693],[7.05503,49.2839],[7.05792,49.27812],[7.06087,49.27502],[7.06262,49.27025],[7.06215,49.2673],[7.06422,49.26352],[7.06263,49.26148],[7.06039,49.26167],[7.05895,49.26133],[7.05811,49.26137],[7.05328,49.26265],[7.0524,49.26247],[7.05116,49.26315],[7.05052,49.2633],[7.03913,49.26],[7.03667,49.26004],[7.03084,49.25847],[7.02743,49.25812],[7.02506,49.25706],[7.02251,49.25515],[7.02135,49.25502],[7.01957,49.25516],[7.0177,49.25641],[7.01618,49.25692],[7.01388,49.25815],[7.0136,49.25868],[7.0135,49.25929],[7.01396,49.26039],[7.01358,49.26161],[7.01292,49.26281],[7.01296,49.26315],[7.01263,49.2641],[7.0119,49.26437],[7.01151,49.26471],[7.01022,49.26497],[7.00957,49.26549],[7.01102,49.26668],[7.01158,49.26763],[7.00966,49.26823],[7.00996,49.26861],[7.00964,49.26872],[7.00934,49.26846],[7.00917,49.26859]]]]}},{"type":"Feature","properties":{"name":"Brebach-Fechingen","bezirk":"Stadtbezirk Halberg"},"geometry":{"type":"MultiPolygon","coordinates":[[[[7.02455,49.21122],[7.0273,49.21534],[7.02882,49.21705],[7.02791,49.21945],[7.02739,49.22027],[7.02811,49.22048],[7.02706,49.22202],[7.02739,49.22211],[7.02708,49.22252],[7.02728,49.2237],[7.02882,49.22483],[7.02943,49.22485],[7.02944,49.22512],[7.03085,49.22563],[7.03297,49.2258],[7.03294,49.22596],[7.04533,49.22515],[7.0441,49.22391],[7.0438,49.22383],[7.04325,49.22228],[7.04388,49.2223],[7.04326,49.22162],[7.04236,49.22015],[7.04392,49.21902],[7.04561,49.21743],[7.04724,49.21492],[7.04873,49.21359],[7.04946,49.21312],[7.05222,49.21208],[7.05261,49.21234],[7.05284,49.21219],[7.05254,49.21195],[7.05408,49.21128],[7.05424,49.21076],[7.05558,49.20951],[7.05583,49.20953],[7.0565,49.20911],[7.05853,49.20721],[7.05957,49.20681],[7.06137,49.20664],[7.06312,49.20743],[7.06476,49.20785],[7.06473,49.21148],[7.06581,49.21155],[7.06582,49.21232],[7.06636,49.21219],[7.06829,49.21361],[7.07152,49.21427],[7.07389,49.21416],[7.07611,49.21435],[7.0802,49.21319],[7.08163,49.2144],[7.08279,49.21454],[7.08718,49.21458],[7.08826,49.21562],[7.09076,49.21177],[7.09013,49.2098],[7.08851,49.20599],[7.08965,49.20285],[7.08949,49.20151],[7.08787,49.19889],[7.08764,49.19752],[7.08451,49.19569],[7.08293,49.1942],[7.08255,49.19079],[7.08617,49.18733],[7.08565,49.187],[7.08501,49.18711],[7.0843,49.18699],[7.08406,49.18663],[7.08404,49.18525],[7.08459,49.18504],[7.08667,49.18497],[7.08897,49.18414],[7.08966,49.18292],[7.09017,49.18081],[7.08995,49.17939],[7.07732,49.17446],[7.07636,49.17377],[7.07599,49.17262],[7.07557,49.17219],[7.0733,49.17294],[7.07297,49.17444],[7.07417,49.1743],[7.07428,49.17444],[7.07393,49.17461],[7.07406,49.17472],[7.0731,49.17554],[7.07201,49.17599],[7.07213,49.17623],[7.06952,49.17697],[7.06957,49.17628],[7.06836,49.17585],[7.06777,49.17539],[7.06564,49.17495],[7.06537,49.1747],[7.06542,49.17431],[7.06594,49.17433],[7.06606,49.17412],[7.06402,49.17363],[7.06348,49.17434],[7.06088,49.17557],[7.06071,49.17546],[7.0586,49.17673],[7.05798,49.17662],[7.0575,49.17687],[7.05746,49.17713],[7.05602,49.17722],[7.05489,49.1767],[7.05421,49.17666],[7.05516,49.17711],[7.05687,49.17894],[7.0596,49.17973],[7.05614,49.18247],[7.05515,49.18366],[7.05428,49.18556],[7.0542,49.18899],[7.05256,49.1907],[7.04929,49.19183],[7.05069,49.19324],[7.0512,49.19411],[7.05476,49.1955],[7.05394,49.19657],[7.05243,49.19745],[7.05019,49.19924],[7.05103,49.20201],[7.04969,49.20389],[7.04971,49.20423],[7.04648,49.20417],[7.04271,49.20465],[7.04336,49.2049],[7.04189,49.20516],[7.04129,49.20624],[7.04057,49.20617],[7.0403,49.2063],[7.03987,49.20782],[7.03447,49.20755],[7.03449,49.20738],[7.03351,49.20721],[7.03314,49.20732],[7.03279,49.20808],[7.03325,49.20815],[7.03317,49.20842],[7.03283,49.20837],[7.03237,49.21014],[7.0316,49.21005],[7.03158,49.20964],[7.03088,49.20935],[7.02994,49.20922],[7.02986,49.21152],[7.029,49.21148],[7.02841,49.21171],[7.02715,49.21132],[7.02676,49.21153],[7.02511,49.21081],[7.02455,49.21122]]]]}},{"type":"Feature","properties":{"name":"Malstatt","bezirk":"Stadtbezirk Mitte"},"geometry":{"type":"MultiPolygon","coordinates":[[[[6.95402,49.29107],[6.95437,49.29113],[6.95598,49.28996],[6.95649,49.29098],[6.95768,49.29257],[6.95848,49.29468],[6.95912,49.29583],[6.95927,49.29643],[6.95837,49.29653],[6.95849,49.29658],[6.95861,49.29743],[6.95921,49.29806],[6.96079,49.29861],[6.96414,49.30147],[6.96615,49.30276],[6.96718,49.3039],[6.96749,49.30464],[6.9674,49.30488],[6.96765,49.30497],[6.96798,49.30598],[6.96825,49.30957],[6.96823,49.31004],[6.96803,49.31041],[6.96882,49.31336],[6.96942,49.3142],[6.97065,49.31534],[6.97218,49.31631],[6.97334,49.31683],[6.98106,49.31889],[6.98343,49.32001],[6.98597,49.31811],[6.98726,49.31863],[6.98838,49.3188],[6.98939,49.31855],[6.99004,49.31877],[6.99096,49.32067],[6.9912,49.32219],[6.9918,49.32201],[6.99483,49.31961],[6.99721,49.31844],[6.99792,49.31753],[7.00546,49.31276],[7.00681,49.31153],[7.00705,49.30234],[7.01668,49.29529],[7.01602,49.29433],[7.01431,49.29289],[7.01331,49.2909],[7.01221,49.2899],[7.01154,49.28965],[7.01154,49.28942],[7.00942,49.28923],[7.00842,49.28877],[7.00779,49.28894],[7.00719,49.28883],[7.00497,49.2878],[7.00376,49.28692],[7.00376,49.28607],[7.0029,49.28499],[7.00236,49.28478],[7.00207,49.28397],[7.00119,49.28354],[7.00121,49.28329],[7.00096,49.28294],[6.99791,49.28276],[6.99733,49.28184],[6.99786,49.28128],[6.99874,49.28085],[6.99863,49.28021],[6.99804,49.27983],[6.99585,49.27922],[6.9957,49.27851],[6.996,49.27805],[6.99573,49.27783],[6.99414,49.27734],[6.99595,49.27629],[6.99628,49.27634],[6.99733,49.27577],[6.99967,49.27509],[7.00299,49.27361],[7.00216,49.27211],[7.00153,49.27151],[6.99484,49.26635],[6.99418,49.26561],[6.99379,49.26437],[6.99446,49.26107],[6.99286,49.2578],[6.99264,49.25695],[6.99329,49.25611],[6.99455,49.25518],[6.99662,49.25316],[6.99732,49.25271],[6.99825,49.25244],[6.99918,49.25241],[7.00059,49.25279],[7.00035,49.2522],[7.00014,49.24999],[7.00035,49.25001],[7.00014,49.24908],[7.00026,49.24592],[7.00008,49.24499],[6.99957,49.24424],[6.99831,49.24344],[6.99716,49.24303],[6.99584,49.24283],[6.99394,49.243],[6.99236,49.24343],[6.99281,49.24403],[6.99238,49.24458],[6.99056,49.24412],[6.98285,49.24332],[6.98232,49.24316],[6.98246,49.24285],[6.98218,49.24274],[6.98283,49.24191],[6.98269,49.24034],[6.98286,49.23994],[6.98283,49.23717],[6.97923,49.23733],[6.97759,49.23694],[6.9741,49.23705],[6.97026,49.23638],[6.96618,49.23471],[6.96294,49.23408],[6.96182,49.23401],[6.96179,49.23567],[6.96241,49.23777],[6.96243,49.23914],[6.96195,49.24],[6.96019,49.24122],[6.96095,49.2412],[6.96105,49.24166],[6.95988,49.24198],[6.96009,49.24288],[6.96002,49.24343],[6.96038,49.24464],[6.96164,49.24547],[6.96247,49.24672],[6.95875,49.24775],[6.95459,49.24912],[6.95348,49.2493],[6.95402,49.25111],[6.95427,49.25369],[6.95779,49.25896],[6.9579,49.25977],[6.95757,49.26076],[6.95779,49.26194],[6.9583,49.26262],[6.95907,49.26324],[6.96083,49.26438],[6.96151,49.26507],[6.96186,49.26576],[6.9619,49.26681],[6.961,49.26846],[6.96075,49.26936],[6.96092,49.27027],[6.96157,49.27159],[6.96158,49.2736],[6.96267,49.27654],[6.9626,49.27866],[6.9622,49.28117],[6.96195,49.28174],[6.96109,49.28266],[6.9591,49.28384],[6.95832,49.28453],[6.95497,49.28868],[6.95427,49.29],[6.95402,49.29107]]]]}},{"type":"Feature","properties":{"name":"Bübingen","bezirk":"Stadtbezirk Halberg"},"geometry":{"type":"MultiPolygon","coordinates":[[[[7.05142,49.19105],[7.05256,49.1907],[7.0542,49.18899],[7.05428,49.18556],[7.05515,49.18366],[7.05614,49.18247],[7.0596,49.17973],[7.05687,49.17894],[7.05516,49.17711],[7.05398,49.17655],[7.05353,49.1752],[7.05081,49.17458],[7.04773,49.17348],[7.04683,49.17309],[7.04654,49.17281],[7.04391,49.17277],[7.04069,49.17425],[7.04063,49.1741],[7.04033,49.17421],[7.04033,49.17441],[7.03999,49.17456],[7.03986,49.17444],[7.03883,49.17469],[7.03828,49.17464],[7.03823,49.1745],[7.03657,49.17489],[7.03648,49.17469],[7.03232,49.17543],[7.03215,49.17556],[7.03253,49.17618],[7.02945,49.17668],[7.03154,49.17869],[7.0331,49.18045],[7.03386,49.18237],[7.03394,49.18318],[7.03362,49.1846],[7.03333,49.18764],[7.03364,49.18879],[7.03494,49.19091],[7.03504,49.19176],[7.03486,49.19212],[7.0352,49.19226],[7.03605,49.1916],[7.03805,49.1918],[7.03852,49.1913],[7.03957,49.19089],[7.04074,49.19122],[7.04141,49.19197],[7.0422,49.19221],[7.04456,49.19343],[7.0444,49.19356],[7.04473,49.19386],[7.044,49.19463],[7.04801,49.19557],[7.04973,49.1958],[7.05065,49.19433],[7.0512,49.19411],[7.05069,49.19324],[7.04929,49.19183],[7.05142,49.19105]]]]}},{"type":"Feature","properties":{"name":"Alt-Saarbrücken","bezirk":"Stadtbezirk Mitte"},"geometry":{"type":"MultiPolygon","coordinates":[[[[6.93286,49.23051],[6.93358,49.231],[6.93399,49.23102],[6.93484,49.2315],[6.9349,49.23168],[6.93689,49.23267],[6.93764,49.23283],[6.93849,49.23327],[6.94185,49.23648],[6.94708,49.23573],[6.94756,49.23631],[6.95012,49.23517],[6.9521,49.23401],[6.95303,49.23375],[6.95424,49.23373],[6.95792,49.23408],[6.96294,49.23408],[6.96618,49.23471],[6.97026,49.23638],[6.9741,49.23705],[6.97759,49.23694],[6.97923,49.23733],[6.98095,49.23731],[6.98283,49.23717],[6.98279,49.23662],[6.9843,49.2369],[6.98901,49.23676],[6.99058,49.23646],[6.99145,49.23598],[6.99173,49.23561],[6.99265,49.23288],[6.99356,49.23114],[6.99409,49.23059],[6.99579,49.22972],[6.99676,49.22944],[7.00178,49.2291],[7.00142,49.22835],[7.00063,49.22739],[7.00093,49.22646],[7.00086,49.22517],[6.99999,49.22444],[6.99626,49.22392],[6.99115,49.22356],[6.98679,49.2221],[6.98448,49.22035],[6.98331,49.2209],[6.97987,49.21724],[6.98267,49.21683],[6.98353,49.21224],[6.98342,49.21165],[6.98305,49.21131],[6.98218,49.21106],[6.97923,49.21157],[6.97587,49.21163],[6.97572,49.2112],[6.97383,49.21103],[6.97144,49.21056],[6.97151,49.21012],[6.97131,49.20962],[6.97153,49.20907],[6.95965,49.2031],[6.95644,49.20434],[6.95113,49.20772],[6.94448,49.21387],[6.93991,49.21669],[6.93821,49.22242],[6.93349,49.22228],[6.93286,49.23051]]]]}},{"type":"Feature","properties":{"name":"Burbach","bezirk":"Stadtbezirk West"},"geometry":{"type":"MultiPolygon","coordinates":[[[[6.91801,49.24372],[6.91869,49.24423],[6.91902,49.24428],[6.91895,49.24497],[6.91981,49.24681],[6.9196,49.24729],[6.9202,49.24787],[6.9197,49.24804],[6.91962,49.24846],[6.9198,49.24856],[6.91965,49.2489],[6.92012,49.24896],[6.92057,49.24976],[6.92024,49.24997],[6.92023,49.25122],[6.91997,49.25172],[6.92013,49.25309],[6.92087,49.2533],[6.92092,49.25344],[6.9212,49.25338],[6.92126,49.2536],[6.92159,49.25354],[6.92179,49.25364],[6.92172,49.25386],[6.92202,49.25404],[6.92248,49.25399],[6.92338,49.25449],[6.92353,49.25444],[6.92387,49.25494],[6.92424,49.25507],[6.9244,49.25542],[6.92466,49.25551],[6.9252,49.25654],[6.92601,49.25634],[6.92605,49.25658],[6.92632,49.25631],[6.9268,49.25623],[6.92785,49.25626],[6.92867,49.25665],[6.92975,49.25745],[6.93002,49.25784],[6.93233,49.25963],[6.9348,49.26311],[6.93723,49.26749],[6.93731,49.26915],[6.93714,49.27019],[6.93676,49.27078],[6.93631,49.27122],[6.9345,49.2723],[6.93148,49.27376],[6.93092,49.27463],[6.93075,49.27542],[6.93055,49.27544],[6.93089,49.27647],[6.93016,49.27888],[6.92864,49.27972],[6.92643,49.2803],[6.92531,49.28184],[6.92426,49.28254],[6.92626,49.28296],[6.92817,49.28304],[6.93194,49.28263],[6.93235,49.2855],[6.93206,49.28622],[6.93283,49.28671],[6.93531,49.28668],[6.94002,49.28607],[6.94233,49.28609],[6.94354,49.2863],[6.94618,49.28624],[6.94878,49.28679],[6.94971,49.28705],[6.9526,49.2889],[6.95395,49.28955],[6.95372,49.29103],[6.95402,49.29107],[6.95427,49.29],[6.95497,49.28868],[6.95832,49.28453],[6.9591,49.28384],[6.96109,49.28266],[6.96195,49.28174],[6.9622,49.28117],[6.9626,49.27866],[6.96267,49.27654],[6.96158,49.2736],[6.96157,49.27159],[6.96092,49.27027],[6.96075,49.26936],[6.961,49.26846],[6.9619,49.26681],[6.96186,49.26576],[6.96151,49.26507],[6.96083,49.26438],[6.95907,49.26324],[6.9583,49.26262],[6.95779,49.26194],[6.95757,49.26076],[6.9579,49.25977],[6.95779,49.25896],[6.95427,49.25369],[6.95402,49.25111],[6.95348,49.2493],[6.95459,49.24912],[6.95875,49.24775],[6.96247,49.24672],[6.96164,49.24547],[6.96038,49.24464],[6.96002,49.24343],[6.96009,49.24288],[6.95988,49.24198],[6.96105,49.24166],[6.96095,49.2412],[6.96019,49.24122],[6.96195,49.24],[6.96243,49.23914],[6.96241,49.23777],[6.96179,49.23567],[6.96182,49.23401],[6.95792,49.23408],[6.95424,49.23373],[6.95303,49.23375],[6.9521,49.23401],[6.95012,49.23517],[6.94756,49.23631],[6.94303,49.23801],[6.93831,49.23924],[6.93583,49.23952],[6.93068,49.23974],[6.91948,49.24301],[6.91801,49.24372]]]]}},{"type":"Feature","properties":{"name":"Jägersfreude","bezirk":"Stadtbezirk Dudweiler"},"geometry":{"type":"MultiPolygon","coordinates":[[[[7.00076,49.27088],[7.00126,49.2705],[7.00188,49.26962],[7.0028,49.26955],[7.00337,49.27009],[7.00565,49.27037],[7.00725,49.27029],[7.00755,49.2701],[7.00995,49.26965],[7.00902,49.2687],[7.00934,49.26846],[7.00964,49.26872],[7.00996,49.26861],[7.00966,49.26823],[7.01158,49.26763],[7.01102,49.26668],[7.00957,49.26549],[7.01022,49.26497],[7.01151,49.26471],[7.0119,49.26437],[7.01263,49.2641],[7.01296,49.26315],[7.01292,49.26281],[7.01358,49.26161],[7.01396,49.26039],[7.0135,49.25929],[7.0136,49.25868],[7.01388,49.25815],[7.01618,49.25692],[7.01735,49.25653],[7.0086,49.25335],[7.00494,49.25416],[7.004,49.25421],[7.00312,49.25401],[6.99967,49.25247],[6.99868,49.2524],[6.99779,49.25254],[6.99662,49.25316],[6.99455,49.25518],[6.99329,49.25611],[6.99264,49.25695],[6.99286,49.2578],[6.99446,49.26107],[6.99386,49.26369],[6.99387,49.26489],[6.99418,49.26561],[6.99484,49.26635],[7.00076,49.27088]]]]}},{"type":"Feature","properties":{"name":"Altenkessel","bezirk":"Stadtbezirk West"},"geometry":{"type":"MultiPolygon","coordinates":[[[[6.90387,49.26388],[6.90414,49.26487],[6.90613,49.26696],[6.90931,49.2685],[6.9104,49.27016],[6.91094,49.27071],[6.91399,49.27263],[6.91416,49.27301],[6.91466,49.27333],[6.91463,49.27398],[6.91499,49.27451],[6.91613,49.27565],[6.91678,49.27583],[6.91838,49.27699],[6.91983,49.27756],[6.9211,49.27763],[6.92219,49.27746],[6.92243,49.27759],[6.92272,49.27751],[6.9228,49.27773],[6.92316,49.27793],[6.92345,49.27778],[6.92368,49.27817],[6.92396,49.27824],[6.92436,49.27869],[6.92605,49.27949],[6.92636,49.27986],[6.92643,49.2803],[6.92864,49.27972],[6.93016,49.27888],[6.93089,49.27647],[6.93055,49.27544],[6.93075,49.27542],[6.93092,49.27463],[6.93148,49.27376],[6.9345,49.2723],[6.93631,49.27122],[6.93714,49.27019],[6.93731,49.26915],[6.93723,49.26749],[6.9348,49.26311],[6.93233,49.25963],[6.92867,49.25665],[6.92804,49.25632],[6.92736,49.25621],[6.92632,49.25631],[6.92605,49.25658],[6.92601,49.25634],[6.9252,49.25654],[6.92466,49.25551],[6.9244,49.25542],[6.92424,49.25507],[6.92387,49.25494],[6.92353,49.25444],[6.92338,49.25449],[6.92248,49.25399],[6.92202,49.25404],[6.92172,49.25386],[6.92179,49.25364],[6.92159,49.25354],[6.92126,49.2536],[6.9212,49.25338],[6.92092,49.25344],[6.92087,49.2533],[6.92013,49.25309],[6.91997,49.25172],[6.92023,49.25122],[6.92024,49.24997],[6.92057,49.24976],[6.92012,49.24896],[6.91965,49.2489],[6.9198,49.24856],[6.91962,49.24846],[6.9197,49.24804],[6.9202,49.24787],[6.9196,49.24729],[6.91981,49.24681],[6.91895,49.24497],[6.91902,49.24428],[6.91869,49.24423],[6.91801,49.24372],[6.91694,49.24436],[6.9153,49.24489],[6.91258,49.24519],[6.9083,49.24628],[6.90877,49.24771],[6.90935,49.24836],[6.90928,49.24858],[6.90951,49.24868],[6.90937,49.24881],[6.91076,49.25055],[6.91075,49.25079],[6.91033,49.251],[6.91042,49.25143],[6.91067,49.25156],[6.91038,49.25179],[6.91094,49.25188],[6.91091,49.2527],[6.91062,49.25276],[6.91055,49.25314],[6.90995,49.25314],[6.90972,49.25329],[6.90963,49.25345],[6.90978,49.25362],[6.9094,49.25409],[6.90885,49.25411],[6.90857,49.25437],[6.90868,49.2546],[6.9085,49.25468],[6.90891,49.25537],[6.90852,49.25564],[6.90866,49.25583],[6.90846,49.25595],[6.90836,49.25639],[6.9082,49.25644],[6.90835,49.25666],[6.90825,49.25692],[6.90803,49.25689],[6.9084,49.25732],[6.90805,49.25749],[6.90815,49.25773],[6.90773,49.25781],[6.90747,49.2582],[6.90709,49.25825],[6.90712,49.25843],[6.90678,49.2587],[6.90677,49.25906],[6.90621,49.2594],[6.90616,49.25971],[6.90542,49.25998],[6.90523,49.26037],[6.90542,49.26067],[6.90529,49.26089],[6.90535,49.26117],[6.90464,49.26225],[6.90451,49.26214],[6.90438,49.26274],[6.90423,49.2627],[6.90392,49.26343],[6.90387,49.26388]]]]}},{"type":"Feature","properties":{"name":"Schafbrücke","bezirk":"Stadtbezirk Halberg"},"geometry":{"type":"MultiPolygon","coordinates":[[[[7.04954,49.23982],[7.05426,49.23777],[7.05413,49.23667],[7.05454,49.23465],[7.05426,49.23289],[7.05304,49.23089],[7.05075,49.2291],[7.05237,49.22845],[7.05353,49.22856],[7.05573,49.22921],[7.05804,49.22926],[7.06329,49.23006],[7.06292,49.2311],[7.06565,49.23202],[7.06937,49.23362],[7.07431,49.23808],[7.07325,49.23919],[7.07439,49.24154],[7.07589,49.24277],[7.07635,49.24102],[7.0772,49.24011],[7.0789,49.23951],[7.07919,49.23968],[7.07979,49.2393],[7.08006,49.23876],[7.07988,49.23831],[7.07878,49.23697],[7.07799,49.23625],[7.07851,49.23567],[7.07793,49.23535],[7.077,49.23573],[7.07507,49.23481],[7.07472,49.23416],[7.0745,49.23306],[7.07406,49.23242],[7.07288,49.23164],[7.07082,49.23103],[7.06942,49.23017],[7.06879,49.2296],[7.06833,49.22855],[7.06757,49.22777],[7.0664,49.22722],[7.06466,49.22694],[7.0647,49.22668],[7.06397,49.22653],[7.06391,49.22545],[7.0638,49.22532],[7.06285,49.22537],[7.06291,49.22478],[7.06247,49.22477],[7.06225,49.22523],[7.06176,49.22571],[7.06139,49.22541],[7.06147,49.22529],[7.06076,49.22511],[7.06088,49.22478],[7.05883,49.22479],[7.05884,49.22466],[7.05729,49.22498],[7.05727,49.22527],[7.05563,49.22521],[7.05569,49.22535],[7.05249,49.22582],[7.05226,49.22574],[7.05184,49.22521],[7.05266,49.22511],[7.05273,49.22454],[7.05257,49.22449],[7.05295,49.22333],[7.05179,49.2222],[7.05145,49.22237],[7.05116,49.22211],[7.04847,49.22276],[7.04746,49.22217],[7.04543,49.22027],[7.04385,49.21972],[7.04273,49.22001],[7.04236,49.22015],[7.04326,49.22162],[7.04388,49.2223],[7.04325,49.22228],[7.0438,49.22383],[7.0441,49.22391],[7.04533,49.22515],[7.03746,49.22566],[7.03812,49.22641],[7.03848,49.2277],[7.03897,49.22813],[7.03952,49.22836],[7.04064,49.2284],[7.04164,49.22804],[7.04152,49.22789],[7.04171,49.22758],[7.0432,49.22749],[7.04319,49.22781],[7.04446,49.2283],[7.04474,49.22807],[7.0458,49.22888],[7.04606,49.22875],[7.04701,49.22944],[7.04698,49.22965],[7.04745,49.23015],[7.04956,49.23147],[7.05029,49.23218],[7.05088,49.2335],[7.05069,49.23506],[7.05082,49.23574],[7.05033,49.23675],[7.0486,49.23836],[7.0482,49.23934],[7.04954,49.23982]]]]}},{"type":"Feature","properties":{"name":"Eschringen","bezirk":"Stadtbezirk Halberg"},"geometry":{"type":"MultiPolygon","coordinates":[[[[7.11311,49.19178],[7.11337,49.19131],[7.11299,49.19031],[7.10899,49.18935],[7.10911,49.18912],[7.10827,49.18869],[7.10851,49.18841],[7.10812,49.18823],[7.10817,49.18814],[7.10706,49.18857],[7.1059,49.18572],[7.10698,49.18484],[7.10718,49.18436],[7.10709,49.18405],[7.10851,49.18317],[7.11197,49.17618],[7.11043,49.17669],[7.10775,49.17814],[7.10664,49.179],[7.10349,49.1803],[7.09753,49.18151],[7.09418,49.18129],[7.08995,49.17939],[7.09017,49.18081],[7.08966,49.18292],[7.08897,49.18414],[7.08667,49.18497],[7.08459,49.18504],[7.08404,49.18525],[7.08406,49.18663],[7.0843,49.18699],[7.08501,49.18711],[7.08565,49.187],[7.08617,49.18733],[7.08255,49.19079],[7.08293,49.1942],[7.08451,49.19569],[7.08764,49.19752],[7.08787,49.19889],[7.08949,49.20151],[7.09198,49.20016],[7.0919,49.19995],[7.09613,49.19917],[7.09608,49.19881],[7.09794,49.19883],[7.0979,49.19855],[7.0984,49.19852],[7.09824,49.19779],[7.09983,49.19748],[7.09974,49.19717],[7.10137,49.19709],[7.1012,49.19618],[7.10352,49.19614],[7.10344,49.19518],[7.10875,49.19435],[7.10853,49.19273],[7.1108,49.19279],[7.11129,49.19198],[7.11198,49.19223],[7.11229,49.19167],[7.11311,49.19178]]]]}},{"type":"Feature","properties":{"name":"Herrensohr","bezirk":"Stadtbezirk Dudweiler"},"geometry":{"type":"MultiPolygon","coordinates":[[[[7.00995,49.26965],[7.00755,49.2701],[7.00725,49.27029],[7.00565,49.27037],[7.00337,49.27009],[7.0028,49.26955],[7.00188,49.26962],[7.00126,49.2705],[7.00076,49.27088],[7.00216,49.27211],[7.00299,49.27361],[6.99967,49.27509],[6.99733,49.27577],[6.99628,49.27634],[6.99595,49.27629],[6.99414,49.27734],[6.99573,49.27783],[6.996,49.27805],[6.9957,49.27851],[6.99585,49.27922],[6.99804,49.27983],[6.99863,49.28021],[6.99874,49.28085],[6.99786,49.28128],[6.99733,49.28184],[6.99791,49.28276],[7.00096,49.28294],[7.00121,49.28329],[7.00119,49.28354],[7.00207,49.28397],[7.00236,49.28478],[7.0029,49.28499],[7.00306,49.28533],[7.00328,49.28542],[7.00376,49.28607],[7.00385,49.28657],[7.00452,49.28624],[7.00551,49.28613],[7.00861,49.28625],[7.00897,49.2859],[7.00998,49.28555],[7.0122,49.28428],[7.01628,49.28266],[7.0178,49.28215],[7.01975,49.28186],[7.0181,49.28087],[7.01888,49.28054],[7.01924,49.28069],[7.02532,49.27784],[7.02468,49.27724],[7.02087,49.27477],[7.02109,49.27456],[7.01258,49.27063],[7.00917,49.26859],[7.00902,49.2687],[7.00995,49.26965]]]]}}]}