{"type":"FeatureCollection","features":[{"type":"Feature","properties":{"zone":"L3","district":"St. Johann","rawHours":"","rawFee":"","note":"Bewohnerparkzone L der Landeshauptstadt Saarbrücken; ob und wann hier Parkgebühren gelten, nennt der Datensatz nicht","windows":[],"fee":{"kind":"unknown"},"unmodelledRules":[],"sourceDefect":null,"scheduleUnknown":true,"spaces":null,"maxStayMinutes":null,"maxStay":null,"maxStayShare":0,"maxStayValues":[],"chargingPoints":0,"carsharing":0},"geometry":{"type":"MultiPolygon","coordinates":[[[[7.00279,49.23076],[7.0039,49.23043],[7.0052,49.23007],[7.00623,49.22991],[7.00856,49.2296],[7.00734,49.2282],[7.00717,49.22808],[7.00702,49.22795],[7.00678,49.22778],[7.00567,49.22709],[7.00579,49.22701],[7.00524,49.22668],[7.00453,49.22754],[7.00414,49.22795],[7.00346,49.22892],[7.00285,49.22911],[7.00185,49.22924],[7.00225,49.23002],[7.00279,49.23076]]]]}},{"type":"Feature","properties":{"zone":"B2","district":"St. Johann","rawHours":"","rawFee":"","note":"Bewohnerparkzone B der Landeshauptstadt Saarbrücken; ob und wann hier Parkgebühren gelten, nennt der Datensatz nicht","windows":[],"fee":{"kind":"unknown"},"unmodelledRules":[],"sourceDefect":null,"scheduleUnknown":true,"spaces":null,"maxStayMinutes":null,"maxStay":null,"maxStayShare":0,"maxStayValues":[],"chargingPoints":0,"carsharing":0},"geometry":{"type":"MultiPolygon","coordinates":[[[[6.99099,49.24105],[6.99275,49.24089],[6.99365,49.24085],[6.9938,49.24053],[6.99362,49.24033],[6.99255,49.23939],[6.99395,49.238],[6.995,49.23702],[6.99596,49.2365],[6.99642,49.23628],[6.99623,49.23617],[6.99451,49.23471],[6.99119,49.23813],[6.99031,49.23898],[6.99068,49.23907],[6.99071,49.23996],[6.99099,49.24105]]]]}},{"type":"Feature","properties":{"zone":"F2","district":"Alt-Saarbrücken","rawHours":"","rawFee":"","note":"Bewohnerparkzone F der Landeshauptstadt Saarbrücken; ob und wann hier Parkgebühren gelten, nennt der Datensatz nicht","windows":[],"fee":{"kind":"unknown"},"unmodelledRules":[],"sourceDefect":null,"scheduleUnknown":true,"spaces":null,"maxStayMinutes":null,"maxStay":null,"maxStayShare":0,"maxStayValues":[],"chargingPoints":0,"carsharing":0},"geometry":{"type":"MultiPolygon","coordinates":[[[[6.98986,49.23612],[6.99052,49.23584],[6.9909,49.23549],[6.99092,49.23516],[6.99084,49.23468],[6.99066,49.23389],[6.98942,49.23359],[6.98843,49.2336],[6.98874,49.23435],[6.98986,49.23612]]]]}},{"type":"Feature","properties":{"zone":"I1","district":"St. Johann","rawHours":"","rawFee":"","note":"Bewohnerparkzone I der Landeshauptstadt Saarbrücken; ob und wann hier Parkgebühren gelten, nennt der Datensatz nicht","windows":[],"fee":{"kind":"unknown"},"unmodelledRules":[],"sourceDefect":null,"scheduleUnknown":true,"spaces":null,"maxStayMinutes":null,"maxStay":null,"maxStayShare":0,"maxStayValues":[],"chargingPoints":0,"carsharing":0},"geometry":{"type":"MultiPolygon","coordinates":[[[[7.00958,49.22947],[7.00969,49.22964],[7.00979,49.22972],[7.00988,49.23005],[7.01022,49.23052],[7.01036,49.23049],[7.01047,49.23064],[7.01051,49.23074],[7.01037,49.23077],[7.01028,49.2309],[7.01038,49.23109],[7.01036,49.23125],[7.01043,49.23141],[7.01122,49.23126],[7.01119,49.2312],[7.0128,49.2309],[7.01288,49.23095],[7.0129,49.23101],[7.01342,49.23092],[7.01258,49.22906],[7.00958,49.22947]]]]}},{"type":"Feature","properties":{"zone":"C1","district":"St. Johann","rawHours":"","rawFee":"","note":"Bewohnerparkzone C der Landeshauptstadt Saarbrücken; ob und wann hier Parkgebühren gelten, nennt der Datensatz nicht","windows":[],"fee":{"kind":"unknown"},"unmodelledRules":[],"sourceDefect":null,"scheduleUnknown":true,"spaces":null,"maxStayMinutes":null,"maxStay":null,"maxStayShare":0,"maxStayValues":[],"chargingPoints":0,"carsharing":0},"geometry":{"type":"MultiPolygon","coordinates":[[[[6.99526,49.23942],[6.99652,49.23869],[6.99766,49.23816],[6.99667,49.23673],[6.99648,49.23651],[6.99642,49.23628],[6.99596,49.2365],[6.995,49.23702],[6.99395,49.238],[6.99255,49.23939],[6.99362,49.24033],[6.9938,49.24053],[6.99451,49.23985],[6.9947,49.23981],[6.99526,49.23942]]]]}},{"type":"Feature","properties":{"zone":"N1","district":"Alt-Saarbrücken","rawHours":"","rawFee":"","note":"Bewohnerparkzone N der Landeshauptstadt Saarbrücken; ob und wann hier Parkgebühren gelten, nennt der Datensatz nicht","windows":[],"fee":{"kind":"unknown"},"unmodelledRules":[],"sourceDefect":null,"scheduleUnknown":true,"spaces":null,"maxStayMinutes":null,"maxStay":null,"maxStayShare":0,"maxStayValues":[],"chargingPoints":0,"carsharing":0},"geometry":{"type":"MultiPolygon","coordinates":[[[[6.98251,49.23399],[6.98247,49.23258],[6.98223,49.23211],[6.98262,49.23153],[6.98065,49.23136],[6.97895,49.23151],[6.97763,49.23156],[6.97561,49.23174],[6.97379,49.23207],[6.9725,49.23235],[6.97247,49.2336],[6.97998,49.23391],[6.98251,49.23399]]]]}},{"type":"Feature","properties":{"zone":"I2","district":"St. Johann","rawHours":"","rawFee":"","note":"Bewohnerparkzone I der Landeshauptstadt Saarbrücken; ob und wann hier Parkgebühren gelten, nennt der Datensatz nicht","windows":[],"fee":{"kind":"unknown"},"unmodelledRules":[],"sourceDefect":null,"scheduleUnknown":true,"spaces":null,"maxStayMinutes":null,"maxStay":null,"maxStayShare":0,"maxStayValues":[],"chargingPoints":0,"carsharing":0},"geometry":{"type":"MultiPolygon","coordinates":[[[[7.01036,49.23125],[7.01038,49.23109],[7.01028,49.2309],[7.01037,49.23077],[7.01051,49.23074],[7.01047,49.23064],[7.01036,49.23049],[7.01022,49.23052],[7.00988,49.23005],[7.00979,49.22972],[7.00969,49.22964],[7.00958,49.22947],[7.00623,49.22991],[7.0052,49.23007],[7.00313,49.23066],[7.00421,49.23165],[7.00391,49.23178],[7.00458,49.23249],[7.00521,49.23228],[7.00591,49.23211],[7.00605,49.23206],[7.01036,49.23125]]]]}},{"type":"Feature","properties":{"zone":"D1","district":"St. Johann","rawHours":"","rawFee":"","note":"Bewohnerparkzone D der Landeshauptstadt Saarbrücken; ob und wann hier Parkgebühren gelten, nennt der Datensatz nicht","windows":[],"fee":{"kind":"unknown"},"unmodelledRules":[],"sourceDefect":null,"scheduleUnknown":true,"spaces":null,"maxStayMinutes":null,"maxStay":null,"maxStayShare":0,"maxStayValues":[],"chargingPoints":0,"carsharing":0},"geometry":{"type":"MultiPolygon","coordinates":[[[[7.00237,49.23687],[7.00197,49.23704],[7.00204,49.23714],[7.00185,49.2372],[7.00166,49.23734],[7.0005,49.23744],[6.99989,49.23752],[6.9989,49.23772],[6.99844,49.23786],[6.99766,49.23816],[6.99782,49.2382],[6.99809,49.2381],[6.99828,49.23834],[6.99831,49.23844],[6.9981,49.23852],[6.99823,49.23864],[6.99839,49.23878],[6.99857,49.23868],[6.99873,49.23879],[6.99879,49.23877],[6.99912,49.23893],[6.99926,49.23916],[6.99944,49.23933],[7.00007,49.2397],[7.00039,49.24012],[7.00344,49.23886],[7.00396,49.2382],[7.00409,49.23806],[7.0039,49.23799],[7.00383,49.23794],[7.00427,49.23755],[7.00436,49.23746],[7.00487,49.23706],[7.00468,49.23682],[7.00408,49.23662],[7.00417,49.23651],[7.00399,49.23645],[7.00373,49.23676],[7.00267,49.23687],[7.00237,49.23687]]]]}},{"type":"Feature","properties":{"zone":"B1","district":"St. Johann","rawHours":"","rawFee":"","note":"Bewohnerparkzone B der Landeshauptstadt Saarbrücken; ob und wann hier Parkgebühren gelten, nennt der Datensatz nicht","windows":[],"fee":{"kind":"unknown"},"unmodelledRules":[],"sourceDefect":null,"scheduleUnknown":true,"spaces":null,"maxStayMinutes":null,"maxStay":null,"maxStayShare":0,"maxStayValues":[],"chargingPoints":0,"carsharing":0},"geometry":{"type":"MultiPolygon","coordinates":[[[[6.99119,49.23813],[6.99451,49.23471],[6.99333,49.2337],[6.99261,49.23361],[6.99226,49.23476],[6.99219,49.23532],[6.99201,49.23566],[6.99179,49.23595],[6.99153,49.23621],[6.9913,49.23635],[6.9909,49.23655],[6.99059,49.23668],[6.99009,49.23682],[6.98968,49.23688],[6.98848,49.23699],[6.98857,49.23717],[6.98884,49.23786],[6.98934,49.23801],[6.99031,49.23898],[6.99119,49.23813]]]]}},{"type":"Feature","properties":{"zone":"D2","district":"St. Johann","rawHours":"","rawFee":"","note":"Bewohnerparkzone D der Landeshauptstadt Saarbrücken; ob und wann hier Parkgebühren gelten, nennt der Datensatz nicht","windows":[],"fee":{"kind":"unknown"},"unmodelledRules":[],"sourceDefect":null,"scheduleUnknown":true,"spaces":null,"maxStayMinutes":null,"maxStay":null,"maxStayShare":0,"maxStayValues":[],"chargingPoints":0,"carsharing":0},"geometry":{"type":"MultiPolygon","coordinates":[[[[7.00101,49.24073],[7.00168,49.2406],[7.00209,49.24058],[7.00222,49.24055],[7.00257,49.24057],[7.00298,49.24063],[7.00461,49.24061],[7.00499,49.24054],[7.00566,49.24002],[7.00828,49.23821],[7.00836,49.238],[7.00853,49.23764],[7.00541,49.23704],[7.00512,49.23713],[7.00487,49.23706],[7.00436,49.23746],[7.00427,49.23755],[7.00383,49.23794],[7.0039,49.23799],[7.00409,49.23806],[7.00396,49.2382],[7.00344,49.23886],[7.00053,49.24007],[7.00007,49.24024],[7.00053,49.24045],[7.00101,49.24073]]]]}},{"type":"Feature","properties":{"zone":"J","district":"Alt-Saarbrücken","rawHours":"","rawFee":"","note":"Bewohnerparkzone J der Landeshauptstadt Saarbrücken; ob und wann hier Parkgebühren gelten, nennt der Datensatz nicht","windows":[],"fee":{"kind":"unknown"},"unmodelledRules":[],"sourceDefect":null,"scheduleUnknown":true,"spaces":null,"maxStayMinutes":null,"maxStay":null,"maxStayShare":0,"maxStayValues":[],"chargingPoints":0,"carsharing":0},"geometry":{"type":"MultiPolygon","coordinates":[[[[6.99148,49.23226],[6.99205,49.2318],[6.99251,49.23136],[6.99305,49.2309],[6.99395,49.23025],[6.99351,49.22995],[6.99306,49.22938],[6.99284,49.22917],[6.99283,49.22908],[6.9929,49.22904],[6.99274,49.22892],[6.99241,49.22914],[6.99229,49.22918],[6.99214,49.2293],[6.99193,49.22942],[6.99129,49.22967],[6.99103,49.22982],[6.99079,49.23004],[6.98997,49.23039],[6.9893,49.23067],[6.98864,49.23082],[6.98794,49.2311],[6.98796,49.23116],[6.98767,49.23125],[6.98736,49.23123],[6.98721,49.23128],[6.98731,49.23142],[6.98746,49.23138],[6.98786,49.23175],[6.98806,49.2325],[6.98831,49.23247],[6.98834,49.23263],[6.99029,49.23246],[6.99025,49.23234],[6.99101,49.23226],[6.99148,49.23226]]]]}},{"type":"Feature","properties":{"zone":"N2","district":"Alt-Saarbrücken","rawHours":"","rawFee":"","note":"Bewohnerparkzone N der Landeshauptstadt Saarbrücken; ob und wann hier Parkgebühren gelten, nennt der Datensatz nicht","windows":[],"fee":{"kind":"unknown"},"unmodelledRules":[],"sourceDefect":null,"scheduleUnknown":true,"spaces":null,"maxStayMinutes":null,"maxStay":null,"maxStayShare":0,"maxStayValues":[],"chargingPoints":0,"carsharing":0},"geometry":{"type":"MultiPolygon","coordinates":[[[[6.98269,49.23503],[6.98268,49.234],[6.97998,49.23391],[6.97247,49.2336],[6.97234,49.23462],[6.98269,49.23503]]]]}},{"type":"Feature","properties":{"zone":"E2","district":"St. Johann","rawHours":"","rawFee":"","note":"Bewohnerparkzone E der Landeshauptstadt Saarbrücken; ob und wann hier Parkgebühren gelten, nennt der Datensatz nicht","windows":[],"fee":{"kind":"unknown"},"unmodelledRules":[],"sourceDefect":null,"scheduleUnknown":true,"spaces":null,"maxStayMinutes":null,"maxStay":null,"maxStayShare":0,"maxStayValues":[],"chargingPoints":0,"carsharing":0},"geometry":{"type":"MultiPolygon","coordinates":[[[[6.99623,49.23617],[6.99642,49.23628],[6.99648,49.23651],[6.99667,49.23673],[6.99766,49.23816],[6.99844,49.23786],[6.9989,49.23772],[6.99989,49.23752],[7.0005,49.23744],[7.00166,49.23734],[7.00185,49.2372],[7.00204,49.23714],[7.00197,49.23704],[7.00243,49.23683],[7.00191,49.23664],[7.00186,49.23659],[7.00194,49.23651],[7.00177,49.23643],[7.00139,49.23624],[6.99997,49.23598],[6.99951,49.23601],[6.99946,49.23581],[6.99924,49.23561],[6.99926,49.23555],[6.99926,49.23542],[6.99924,49.23539],[6.99919,49.23539],[6.99917,49.23532],[6.99918,49.23531],[6.99918,49.23526],[6.9991,49.23527],[6.99916,49.23506],[6.9991,49.23476],[6.99912,49.23454],[6.99919,49.23432],[6.99927,49.23429],[6.99934,49.23398],[6.99739,49.23476],[6.99722,49.23489],[6.99661,49.23563],[6.99623,49.23617]]]]}},{"type":"Feature","properties":{"zone":"H2","district":"St. Johann","rawHours":"","rawFee":"","note":"Bewohnerparkzone H der Landeshauptstadt Saarbrücken; ob und wann hier Parkgebühren gelten, nennt der Datensatz nicht","windows":[],"fee":{"kind":"unknown"},"unmodelledRules":[],"sourceDefect":null,"scheduleUnknown":true,"spaces":null,"maxStayMinutes":null,"maxStay":null,"maxStayShare":0,"maxStayValues":[],"chargingPoints":0,"carsharing":0},"geometry":{"type":"MultiPolygon","coordinates":[[[[7.00153,49.23305],[7.00224,49.23273],[7.00334,49.23227],[7.00403,49.23193],[7.00391,49.23178],[7.00421,49.23165],[7.00313,49.23066],[6.99766,49.23222],[6.99722,49.23231],[6.99625,49.23269],[6.99576,49.2331],[6.99587,49.23316],[6.99567,49.23355],[6.99449,49.2347],[6.99623,49.23617],[6.99661,49.23563],[6.99722,49.23489],[6.99739,49.23476],[6.99934,49.23398],[7.00153,49.23305]]]]}},{"type":"Feature","properties":{"zone":"A3","district":"St. Johann","rawHours":"","rawFee":"","note":"Bewohnerparkzone A der Landeshauptstadt Saarbrücken; ob und wann hier Parkgebühren gelten, nennt der Datensatz nicht","windows":[],"fee":{"kind":"unknown"},"unmodelledRules":[],"sourceDefect":null,"scheduleUnknown":true,"spaces":null,"maxStayMinutes":null,"maxStay":null,"maxStayShare":0,"maxStayValues":[],"chargingPoints":0,"carsharing":0},"geometry":{"type":"MultiPolygon","coordinates":[[[[6.98308,49.23984],[6.9831,49.23994],[6.98317,49.24099],[6.98305,49.24178],[6.98443,49.24175],[6.99099,49.24105],[6.99071,49.23993],[6.98618,49.24053],[6.98308,49.23984]]]]}},{"type":"Feature","properties":{"zone":"A1","district":"Malstatt","rawHours":"","rawFee":"","note":"Bewohnerparkzone A der Landeshauptstadt Saarbrücken; ob und wann hier Parkgebühren gelten, nennt der Datensatz nicht","windows":[],"fee":{"kind":"unknown"},"unmodelledRules":[],"sourceDefect":null,"scheduleUnknown":true,"spaces":null,"maxStayMinutes":null,"maxStay":null,"maxStayShare":0,"maxStayValues":[],"chargingPoints":0,"carsharing":0},"geometry":{"type":"MultiPolygon","coordinates":[[[[6.98305,49.24178],[6.98317,49.24099],[6.9831,49.23994],[6.98306,49.23976],[6.97816,49.2387],[6.97766,49.23897],[6.9792,49.24086],[6.98193,49.24183],[6.98305,49.24178]]]]}},{"type":"Feature","properties":{"zone":"C2","district":"St. Johann","rawHours":"","rawFee":"","note":"Bewohnerparkzone C der Landeshauptstadt Saarbrücken; ob und wann hier Parkgebühren gelten, nennt der Datensatz nicht","windows":[],"fee":{"kind":"unknown"},"unmodelledRules":[],"sourceDefect":null,"scheduleUnknown":true,"spaces":null,"maxStayMinutes":null,"maxStay":null,"maxStayShare":0,"maxStayValues":[],"chargingPoints":0,"carsharing":0},"geometry":{"type":"MultiPolygon","coordinates":[[[[7.00039,49.24012],[7.00007,49.2397],[6.99944,49.23933],[6.99926,49.23916],[6.99912,49.23893],[6.99879,49.23877],[6.99873,49.23879],[6.99857,49.23868],[6.99839,49.23878],[6.99823,49.23864],[6.9981,49.23852],[6.99831,49.23844],[6.99828,49.23834],[6.99809,49.2381],[6.99782,49.2382],[6.99766,49.23816],[6.99652,49.23869],[6.99526,49.23942],[6.9947,49.23981],[6.99451,49.23985],[6.9938,49.24053],[6.99371,49.24071],[6.99536,49.24089],[6.99708,49.2414],[6.99814,49.24168],[6.99977,49.2418],[7.00101,49.24073],[7.00053,49.24045],[7.00007,49.24024],[7.00039,49.24012]]]]}},{"type":"Feature","properties":{"zone":"A2","district":"St. Johann","rawHours":"","rawFee":"","note":"Bewohnerparkzone A der Landeshauptstadt Saarbrücken; ob und wann hier Parkgebühren gelten, nennt der Datensatz nicht","windows":[],"fee":{"kind":"unknown"},"unmodelledRules":[],"sourceDefect":null,"scheduleUnknown":true,"spaces":null,"maxStayMinutes":null,"maxStay":null,"maxStayShare":0,"maxStayValues":[],"chargingPoints":0,"carsharing":0},"geometry":{"type":"MultiPolygon","coordinates":[[[[6.99071,49.23993],[6.99068,49.23907],[6.99031,49.23898],[6.98934,49.23801],[6.98884,49.23786],[6.98857,49.23717],[6.98848,49.23699],[6.98641,49.23698],[6.98645,49.23776],[6.98444,49.23828],[6.98292,49.23847],[6.98296,49.23871],[6.98308,49.23984],[6.98618,49.24053],[6.99071,49.23993]]]]}},{"type":"Feature","properties":{"zone":"E1","district":"St. Johann","rawHours":"","rawFee":"","note":"Bewohnerparkzone E der Landeshauptstadt Saarbrücken; ob und wann hier Parkgebühren gelten, nennt der Datensatz nicht","windows":[],"fee":{"kind":"unknown"},"unmodelledRules":[],"sourceDefect":null,"scheduleUnknown":true,"spaces":null,"maxStayMinutes":null,"maxStay":null,"maxStayShare":0,"maxStayValues":[],"chargingPoints":0,"carsharing":0},"geometry":{"type":"MultiPolygon","coordinates":[[[[7.00552,49.23604],[7.00572,49.23548],[7.00575,49.23518],[7.00572,49.23468],[7.00557,49.23414],[7.00538,49.23364],[7.00491,49.23283],[7.00403,49.23193],[7.00334,49.23227],[7.00224,49.23273],[7.00153,49.23305],[6.99934,49.23398],[6.99927,49.23429],[6.99919,49.23432],[6.99912,49.23454],[6.9991,49.23476],[6.99916,49.23506],[6.9991,49.23527],[6.99918,49.23526],[6.99918,49.23531],[6.99917,49.23532],[6.99919,49.23539],[6.99924,49.23539],[6.99926,49.23542],[6.99926,49.23555],[6.99924,49.23561],[6.99946,49.23581],[6.99951,49.23601],[6.99997,49.23598],[7.00139,49.23624],[7.00177,49.23643],[7.00194,49.23651],[7.00186,49.23659],[7.00191,49.23664],[7.00243,49.23683],[7.00237,49.23687],[7.00267,49.23687],[7.00373,49.23676],[7.00399,49.23645],[7.00417,49.23651],[7.00408,49.23662],[7.00468,49.23682],[7.00552,49.23604]]]]}},{"type":"Feature","properties":{"zone":"H1","district":"St. Johann","rawHours":"","rawFee":"","note":"Bewohnerparkzone H der Landeshauptstadt Saarbrücken; ob und wann hier Parkgebühren gelten, nennt der Datensatz nicht","windows":[],"fee":{"kind":"unknown"},"unmodelledRules":[],"sourceDefect":null,"scheduleUnknown":true,"spaces":null,"maxStayMinutes":null,"maxStay":null,"maxStayShare":0,"maxStayValues":[],"chargingPoints":0,"carsharing":0},"geometry":{"type":"MultiPolygon","coordinates":[[[[6.99449,49.2347],[6.99567,49.23355],[6.99587,49.23316],[6.99576,49.2331],[6.99625,49.23269],[6.99722,49.23231],[6.99766,49.23222],[7.00279,49.23076],[7.00225,49.23002],[7.00185,49.22924],[7.00126,49.22932],[7.00002,49.22942],[6.99894,49.22947],[6.99753,49.2295],[6.99711,49.22955],[6.99691,49.22955],[6.99615,49.22975],[6.99506,49.23013],[6.99431,49.23066],[6.99375,49.23132],[6.99333,49.23207],[6.9927,49.23331],[6.99261,49.23361],[6.99333,49.2337],[6.99449,49.2347]]]]}},{"type":"Feature","properties":{"zone":"F3","district":"Alt-Saarbrücken","rawHours":"","rawFee":"","note":"Bewohnerparkzone F der Landeshauptstadt Saarbrücken; ob und wann hier Parkgebühren gelten, nennt der Datensatz nicht","windows":[],"fee":{"kind":"unknown"},"unmodelledRules":[],"sourceDefect":null,"scheduleUnknown":true,"spaces":null,"maxStayMinutes":null,"maxStay":null,"maxStayShare":0,"maxStayValues":[],"chargingPoints":0,"carsharing":0},"geometry":{"type":"MultiPolygon","coordinates":[[[[6.98986,49.23612],[6.98874,49.23435],[6.98843,49.2336],[6.98567,49.23383],[6.9838,49.23397],[6.98268,49.234],[6.98269,49.23503],[6.98289,49.23644],[6.98603,49.23634],[6.98868,49.23631],[6.98937,49.23624],[6.98986,49.23612]]]]}},{"type":"Feature","properties":{"zone":"L2","district":"St. Johann","rawHours":"","rawFee":"","note":"Bewohnerparkzone L der Landeshauptstadt Saarbrücken; ob und wann hier Parkgebühren gelten, nennt der Datensatz nicht","windows":[],"fee":{"kind":"unknown"},"unmodelledRules":[],"sourceDefect":null,"scheduleUnknown":true,"spaces":null,"maxStayMinutes":null,"maxStay":null,"maxStayShare":0,"maxStayValues":[],"chargingPoints":0,"carsharing":0},"geometry":{"type":"MultiPolygon","coordinates":[[[[7.00856,49.2296],[7.00958,49.22947],[7.01258,49.22906],[7.01123,49.22618],[7.00931,49.22714],[7.00837,49.22763],[7.00734,49.2282],[7.00856,49.2296]]]]}},{"type":"Feature","properties":{"zone":"U","district":"Dudweiler","rawHours":"","rawFee":"","note":"Bewohnerparkzone U der Landeshauptstadt Saarbrücken; ob und wann hier Parkgebühren gelten, nennt der Datensatz nicht","windows":[],"fee":{"kind":"unknown"},"unmodelledRules":[],"sourceDefect":null,"scheduleUnknown":true,"spaces":null,"maxStayMinutes":null,"maxStay":null,"maxStayShare":0,"maxStayValues":[],"chargingPoints":0,"carsharing":0},"geometry":{"type":"MultiPolygon","coordinates":[[[[7.03944,49.27568],[7.04037,49.27551],[7.04031,49.27531],[7.04074,49.27528],[7.04085,49.27525],[7.04072,49.27467],[7.04056,49.2746],[7.0407,49.27409],[7.0406,49.27381],[7.04035,49.27383],[7.04029,49.27368],[7.04018,49.2735],[7.03904,49.27379],[7.03908,49.27402],[7.03898,49.27407],[7.03897,49.2741],[7.03893,49.27413],[7.03858,49.27424],[7.03759,49.27468],[7.03723,49.27462],[7.0371,49.27472],[7.03681,49.27475],[7.03681,49.27479],[7.03671,49.27479],[7.03673,49.27487],[7.03635,49.27493],[7.03621,49.27497],[7.03616,49.27489],[7.03614,49.27469],[7.03668,49.27465],[7.0367,49.27453],[7.03687,49.27452],[7.03682,49.27433],[7.0369,49.27432],[7.03679,49.27382],[7.03676,49.27356],[7.03667,49.27357],[7.03664,49.27334],[7.03625,49.27337],[7.03613,49.27337],[7.03613,49.27362],[7.03599,49.27362],[7.03599,49.27371],[7.03606,49.27371],[7.03606,49.27382],[7.0361,49.27382],[7.03611,49.27388],[7.03608,49.27389],[7.03611,49.27438],[7.0355,49.27436],[7.0355,49.27433],[7.03524,49.27431],[7.03528,49.27417],[7.03509,49.27416],[7.03511,49.27409],[7.03483,49.27408],[7.03483,49.27405],[7.03449,49.27401],[7.03438,49.2744],[7.03443,49.2744],[7.03442,49.27444],[7.03452,49.27444],[7.03452,49.27461],[7.03441,49.27461],[7.03441,49.27467],[7.0336,49.27465],[7.03366,49.27447],[7.03339,49.27444],[7.03335,49.27456],[7.03299,49.27447],[7.03295,49.27452],[7.03222,49.27459],[7.03204,49.27455],[7.03199,49.27469],[7.03194,49.27472],[7.03189,49.27489],[7.03186,49.27514],[7.03192,49.27514],[7.03186,49.27535],[7.03146,49.27521],[7.03108,49.27518],[7.03106,49.27512],[7.03091,49.27531],[7.03069,49.2757],[7.0309,49.27596],[7.03197,49.27631],[7.03198,49.27616],[7.03203,49.27616],[7.03214,49.27621],[7.03282,49.27624],[7.03296,49.27547],[7.03338,49.27549],[7.03338,49.27547],[7.0337,49.27554],[7.03366,49.27569],[7.03392,49.27567],[7.03397,49.27578],[7.03412,49.27575],[7.03431,49.27576],[7.0345,49.27603],[7.03474,49.2759],[7.03489,49.27599],[7.035,49.27594],[7.03527,49.27588],[7.03519,49.276],[7.03526,49.27614],[7.03528,49.2762],[7.0347,49.27631],[7.03461,49.27624],[7.03441,49.27632],[7.03466,49.27662],[7.03463,49.27663],[7.03449,49.27648],[7.03437,49.2765],[7.03437,49.27654],[7.03381,49.27672],[7.03402,49.27697],[7.03363,49.27712],[7.03364,49.27713],[7.03361,49.27715],[7.0337,49.27725],[7.03369,49.27726],[7.03375,49.27732],[7.034,49.27718],[7.0341,49.27725],[7.03421,49.27718],[7.0349,49.27695],[7.0347,49.2767],[7.03477,49.27667],[7.03489,49.27688],[7.03525,49.2772],[7.03553,49.27713],[7.03558,49.27719],[7.03556,49.27721],[7.03557,49.27723],[7.03536,49.27729],[7.03542,49.27736],[7.03526,49.27741],[7.03534,49.27754],[7.03559,49.27746],[7.03573,49.27764],[7.03564,49.27767],[7.03574,49.27781],[7.03574,49.27787],[7.03589,49.27803],[7.03557,49.27838],[7.03573,49.27845],[7.03578,49.27849],[7.03603,49.27818],[7.03609,49.27825],[7.03619,49.2783],[7.03629,49.27819],[7.03633,49.27815],[7.03635,49.27816],[7.03621,49.27832],[7.03633,49.27838],[7.03653,49.27859],[7.03679,49.27841],[7.03693,49.27848],[7.03694,49.27853],[7.03709,49.27859],[7.03706,49.27864],[7.0372,49.27867],[7.03718,49.27872],[7.03736,49.2788],[7.03743,49.27875],[7.03782,49.27897],[7.03795,49.27912],[7.03779,49.27937],[7.03786,49.27939],[7.03776,49.27963],[7.03768,49.27964],[7.0375,49.27991],[7.03768,49.27998],[7.03823,49.28008],[7.03815,49.27992],[7.03828,49.27989],[7.03825,49.27982],[7.03829,49.27982],[7.03825,49.27972],[7.03862,49.27966],[7.0387,49.27961],[7.03888,49.27956],[7.03915,49.27954],[7.03891,49.27946],[7.03907,49.2794],[7.03881,49.27905],[7.03885,49.27896],[7.03896,49.27883],[7.03863,49.27861],[7.03842,49.27837],[7.03778,49.27799],[7.03783,49.27797],[7.03752,49.27779],[7.03748,49.2778],[7.03707,49.27747],[7.03685,49.27723],[7.03665,49.27698],[7.03653,49.27674],[7.03779,49.27655],[7.03782,49.27659],[7.03919,49.27635],[7.03917,49.27631],[7.0393,49.27629],[7.03918,49.27601],[7.03941,49.27597],[7.03931,49.27577],[7.03947,49.27574],[7.03944,49.27568]]]]}},{"type":"Feature","properties":{"zone":"F1","district":"Alt-Saarbrücken","rawHours":"","rawFee":"","note":"Bewohnerparkzone F der Landeshauptstadt Saarbrücken; ob und wann hier Parkgebühren gelten, nennt der Datensatz nicht","windows":[],"fee":{"kind":"unknown"},"unmodelledRules":[],"sourceDefect":null,"scheduleUnknown":true,"spaces":null,"maxStayMinutes":null,"maxStay":null,"maxStayShare":0,"maxStayValues":[],"chargingPoints":0,"carsharing":0},"geometry":{"type":"MultiPolygon","coordinates":[[[[6.98843,49.2336],[6.98942,49.23359],[6.99066,49.23389],[6.99076,49.23325],[6.99137,49.23226],[6.99101,49.23226],[6.99025,49.23234],[6.99029,49.23246],[6.98834,49.23263],[6.98831,49.23247],[6.98806,49.2325],[6.98786,49.23175],[6.98746,49.23138],[6.98656,49.23171],[6.98529,49.23183],[6.98437,49.23185],[6.98259,49.23159],[6.98223,49.23211],[6.98247,49.23258],[6.98251,49.23399],[6.9838,49.23397],[6.98567,49.23383],[6.98843,49.2336]]]]}},{"type":"Feature","properties":{"zone":"R","district":"Alt-Saarbrücken","rawHours":"","rawFee":"","note":"Bewohnerparkzone R der Landeshauptstadt Saarbrücken; ob und wann hier Parkgebühren gelten, nennt der Datensatz nicht","windows":[],"fee":{"kind":"unknown"},"unmodelledRules":[],"sourceDefect":null,"scheduleUnknown":true,"spaces":null,"maxStayMinutes":null,"maxStay":null,"maxStayShare":0,"maxStayValues":[],"chargingPoints":0,"carsharing":0},"geometry":{"type":"MultiPolygon","coordinates":[[[[6.99274,49.22892],[6.9929,49.22904],[6.99283,49.22908],[6.99284,49.22917],[6.99306,49.22938],[6.99351,49.22995],[6.99395,49.23025],[6.99402,49.23019],[6.99538,49.22952],[6.99633,49.22915],[6.99754,49.22874],[6.99909,49.2281],[7.00177,49.22713],[7.0017,49.22627],[7.00145,49.22528],[7.00165,49.22505],[7.00193,49.2248],[7.00144,49.22466],[7.00119,49.22456],[7.00078,49.22426],[7.00034,49.22452],[6.99983,49.22464],[6.9997,49.22459],[6.99891,49.22573],[6.99718,49.22644],[6.99586,49.22703],[6.99495,49.22753],[6.99421,49.2279],[6.99332,49.22848],[6.99274,49.22892]]]]}},{"type":"Feature","properties":{"zone":"L1","district":"St. Johann","rawHours":"","rawFee":"","note":"Bewohnerparkzone L der Landeshauptstadt Saarbrücken; ob und wann hier Parkgebühren gelten, nennt der Datensatz nicht","windows":[],"fee":{"kind":"unknown"},"unmodelledRules":[],"sourceDefect":null,"scheduleUnknown":true,"spaces":null,"maxStayMinutes":null,"maxStay":null,"maxStayShare":0,"maxStayValues":[],"chargingPoints":0,"carsharing":0},"geometry":{"type":"MultiPolygon","coordinates":[[[[7.00734,49.2282],[7.00837,49.22763],[7.00931,49.22714],[7.01123,49.22618],[7.01102,49.22585],[7.01097,49.22574],[7.01091,49.22569],[7.01093,49.22568],[7.00885,49.22582],[7.00718,49.22587],[7.0063,49.22603],[7.00586,49.22619],[7.00529,49.2266],[7.00524,49.22668],[7.00579,49.22701],[7.00567,49.22709],[7.00678,49.22778],[7.00702,49.22795],[7.00717,49.22808],[7.00734,49.2282]]]]}},{"type":"Feature","properties":{"zone":"N3","district":"Alt-Saarbrücken","rawHours":"","rawFee":"","note":"Bewohnerparkzone N der Landeshauptstadt Saarbrücken; ob und wann hier Parkgebühren gelten, nennt der Datensatz nicht","windows":[],"fee":{"kind":"unknown"},"unmodelledRules":[],"sourceDefect":null,"scheduleUnknown":true,"spaces":null,"maxStayMinutes":null,"maxStay":null,"maxStayShare":0,"maxStayValues":[],"chargingPoints":0,"carsharing":0},"geometry":{"type":"MultiPolygon","coordinates":[[[[6.97234,49.23462],[6.97193,49.2356],[6.97313,49.23586],[6.9744,49.23606],[6.97577,49.23612],[6.97739,49.23616],[6.97994,49.23614],[6.98132,49.2363],[6.98289,49.23644],[6.98269,49.23503],[6.97234,49.23462]]]]}}]}