{"type":"FeatureCollection","features":[{"type":"Feature","properties":{"name":"Achslen-Wilen","bezirk":"Neudorf, Kreis Osten"},"geometry":{"type":"Polygon","coordinates":[[[9.42092,47.45108],[9.42172,47.45216],[9.42357,47.45217],[9.42424,47.45238],[9.42502,47.45286],[9.42523,47.45271],[9.42552,47.45195],[9.42793,47.4515],[9.42955,47.45043],[9.42958,47.44721],[9.43005,47.4468],[9.43061,47.4457],[9.4312,47.44523],[9.43149,47.44458],[9.43104,47.4441],[9.43012,47.44368],[9.42951,47.44238],[9.42848,47.44174],[9.4298,47.44045],[9.42972,47.44005],[9.42991,47.43944],[9.42892,47.43923],[9.42642,47.43717],[9.42631,47.43686],[9.42557,47.43607],[9.42519,47.43589],[9.42353,47.43578],[9.42332,47.43456],[9.42361,47.43404],[9.42366,47.43341],[9.42248,47.4337],[9.41972,47.43382],[9.41869,47.43406],[9.41664,47.43386],[9.41423,47.4341],[9.41343,47.43387],[9.41276,47.43337],[9.41199,47.43307],[9.40935,47.43339],[9.40648,47.43265],[9.40561,47.43272],[9.40256,47.43515],[9.41022,47.44003],[9.41635,47.44474],[9.42092,47.45108]]]}},{"type":"Feature","properties":{"name":"St.Georgen-Bernegg","bezirk":"St.Georgen, Kreis Centrum"},"geometry":{"type":"Polygon","coordinates":[[[9.37515,47.40768],[9.37559,47.40834],[9.37452,47.41139],[9.3754,47.41189],[9.37584,47.41187],[9.3765,47.41258],[9.37726,47.41311],[9.37762,47.41317],[9.37784,47.4137],[9.37751,47.41451],[9.37689,47.4148],[9.3764,47.41547],[9.37482,47.41486],[9.37673,47.41644],[9.37652,47.41711],[9.37657,47.41762],[9.37564,47.4168],[9.37455,47.41657],[9.37267,47.41581],[9.37113,47.41497],[9.36918,47.4151],[9.36926,47.41545],[9.36966,47.41585],[9.36773,47.41666],[9.3681,47.4171],[9.36748,47.41757],[9.36939,47.41896],[9.37041,47.41929],[9.37187,47.4202],[9.37338,47.42088],[9.37416,47.42147],[9.37515,47.42173],[9.37539,47.42157],[9.37646,47.42173],[9.37715,47.42219],[9.37744,47.42215],[9.37796,47.42176],[9.37823,47.42118],[9.37821,47.42101],[9.37781,47.4207],[9.37786,47.42044],[9.37873,47.4194],[9.38009,47.41938],[9.38076,47.41893],[9.38197,47.41667],[9.38198,47.41621],[9.38225,47.41565],[9.38302,47.41452],[9.38375,47.41415],[9.38475,47.41398],[9.38486,47.41367],[9.3844,47.41158],[9.383,47.41032],[9.38207,47.40907],[9.38173,47.40829],[9.38155,47.40839],[9.37977,47.4079],[9.37834,47.40732],[9.37772,47.40732],[9.37722,47.40752],[9.37598,47.40726],[9.37554,47.4076],[9.37515,47.40768]]]}},{"type":"Feature","properties":{"name":"Kurzegg-Rank","bezirk":"Notkersegg, Kreis Osten"},"geometry":{"type":"Polygon","coordinates":[[[9.42537,47.42718],[9.42601,47.42699],[9.42659,47.4264],[9.42706,47.42617],[9.42944,47.42573],[9.43127,47.42616],[9.4317,47.42548],[9.43512,47.42484],[9.43512,47.4246],[9.43463,47.42409],[9.43486,47.42358],[9.43458,47.42336],[9.43445,47.42246],[9.4347,47.42219],[9.43457,47.42193],[9.43504,47.42083],[9.43378,47.42069],[9.43394,47.42004],[9.43286,47.4194],[9.4333,47.41871],[9.43026,47.41819],[9.42998,47.41783],[9.43024,47.41761],[9.43037,47.4171],[9.43083,47.41716],[9.43094,47.41698],[9.43103,47.41637],[9.43155,47.4156],[9.43137,47.41523],[9.43198,47.41522],[9.43202,47.41422],[9.43297,47.41397],[9.43264,47.41327],[9.43202,47.41257],[9.43054,47.41149],[9.42864,47.41271],[9.42853,47.4126],[9.42918,47.41214],[9.42792,47.41148],[9.42802,47.41112],[9.42788,47.41045],[9.42837,47.41049],[9.42859,47.40994],[9.42907,47.41022],[9.42995,47.4104],[9.42972,47.4101],[9.42989,47.40961],[9.42794,47.40892],[9.42686,47.40809],[9.42649,47.40752],[9.42273,47.40628],[9.42024,47.40744],[9.41975,47.40831],[9.41927,47.40867],[9.41592,47.40993],[9.4149,47.41097],[9.41428,47.41197],[9.41549,47.41236],[9.41485,47.41328],[9.41407,47.41307],[9.41381,47.41355],[9.41346,47.4134],[9.41271,47.4148],[9.41108,47.41448],[9.40875,47.41462],[9.40841,47.41533],[9.40914,47.4155],[9.40904,47.41652],[9.41088,47.41666],[9.41031,47.41699],[9.41091,47.41729],[9.41072,47.4175],[9.41138,47.41774],[9.41111,47.41813],[9.41127,47.41837],[9.41085,47.41879],[9.41001,47.41846],[9.40929,47.41841],[9.40919,47.41862],[9.40902,47.41859],[9.40839,47.41819],[9.40808,47.42009],[9.40939,47.4204],[9.41105,47.42153],[9.40964,47.42299],[9.41006,47.42314],[9.41038,47.42406],[9.4096,47.42464],[9.40927,47.4252],[9.41497,47.42629],[9.41557,47.42629],[9.41605,47.42601],[9.41633,47.42563],[9.41693,47.42615],[9.41698,47.42627],[9.41681,47.42639],[9.41696,47.42657],[9.41766,47.42695],[9.41936,47.42653],[9.42065,47.42665],[9.42099,47.42649],[9.42214,47.42708],[9.42352,47.42711],[9.4238,47.42743],[9.42537,47.42718]]]}},{"type":"Feature","properties":{"name":"Langgass-Heiligkreuz","bezirk":"Langgass-Heiligkreuz, Kreis Osten"},"geometry":{"type":"Polygon","coordinates":[[[9.38878,47.44501],[9.38913,47.44439],[9.39028,47.44377],[9.39072,47.44321],[9.39175,47.44279],[9.39406,47.44225],[9.39473,47.44384],[9.39446,47.4439],[9.39481,47.44465],[9.39441,47.44473],[9.39514,47.44602],[9.39433,47.44628],[9.39523,47.44782],[9.39613,47.44771],[9.3965,47.44945],[9.39751,47.45163],[9.40134,47.45121],[9.40145,47.45151],[9.40185,47.45173],[9.40198,47.45229],[9.40391,47.45218],[9.40151,47.44987],[9.40124,47.44937],[9.4009,47.44735],[9.40065,47.44679],[9.39867,47.44491],[9.39803,47.44384],[9.39794,47.44321],[9.39816,47.44229],[9.39977,47.4403],[9.40045,47.43874],[9.40044,47.43817],[9.39977,47.43717],[9.3982,47.43622],[9.39304,47.43422],[9.39036,47.43372],[9.38662,47.43333],[9.38559,47.43311],[9.38482,47.43267],[9.38467,47.43325],[9.38406,47.43358],[9.38417,47.4337],[9.38193,47.43451],[9.38166,47.43416],[9.3814,47.43424],[9.38155,47.43443],[9.3812,47.43454],[9.38243,47.43646],[9.38375,47.43753],[9.38349,47.43797],[9.38385,47.43955],[9.38431,47.44074],[9.38414,47.4416],[9.38878,47.44501]]]}},{"type":"Feature","properties":{"name":"Notkersegg","bezirk":"Notkersegg, Kreis Osten"},"geometry":{"type":"Polygon","coordinates":[[[9.39329,47.42306],[9.39325,47.42318],[9.39226,47.42315],[9.39197,47.42295],[9.39193,47.42328],[9.3914,47.42374],[9.39102,47.42355],[9.39081,47.42367],[9.39072,47.42399],[9.39258,47.42496],[9.39188,47.42541],[9.39199,47.42544],[9.39356,47.42589],[9.3958,47.42618],[9.39691,47.42676],[9.39829,47.42711],[9.3989,47.42705],[9.39917,47.42682],[9.39909,47.42755],[9.39951,47.42838],[9.39972,47.42817],[9.3997,47.42786],[9.39985,47.42807],[9.40012,47.42803],[9.40063,47.42858],[9.40076,47.42911],[9.40259,47.42937],[9.40276,47.42973],[9.40403,47.43048],[9.40435,47.43055],[9.40505,47.43035],[9.40545,47.43049],[9.40631,47.43044],[9.40618,47.43022],[9.40671,47.42949],[9.40748,47.42897],[9.40775,47.42832],[9.40846,47.42774],[9.40903,47.42528],[9.40927,47.4252],[9.4096,47.42464],[9.41038,47.42406],[9.41006,47.42314],[9.40964,47.42299],[9.41105,47.42153],[9.40939,47.4204],[9.40808,47.42009],[9.40808,47.41983],[9.40596,47.41957],[9.40595,47.41928],[9.40182,47.4185],[9.39928,47.41859],[9.39746,47.41798],[9.39698,47.4188],[9.39379,47.41834],[9.39291,47.41898],[9.39262,47.41935],[9.39281,47.41941],[9.39264,47.41974],[9.39305,47.42087],[9.39368,47.42177],[9.3937,47.42211],[9.39329,47.42306]]]}},{"type":"Feature","properties":{"name":"Linsenbühl-Dreilinden","bezirk":"Linsenbühl-Dreilinden, Kreis Centrum"},"geometry":{"type":"Polygon","coordinates":[[[9.37799,47.42642],[9.37838,47.42629],[9.38184,47.42631],[9.3823,47.42642],[9.38484,47.42777],[9.39012,47.42998],[9.39019,47.42984],[9.39,47.42976],[9.39064,47.42874],[9.39105,47.42824],[9.3913,47.42832],[9.39157,47.42794],[9.39038,47.42758],[9.3906,47.42731],[9.39084,47.42736],[9.39098,47.4269],[9.39134,47.4265],[9.39111,47.42625],[9.39325,47.42603],[9.393,47.42581],[9.39309,47.42572],[9.39188,47.42541],[9.39258,47.42496],[9.39072,47.42399],[9.39081,47.42367],[9.39102,47.42355],[9.3914,47.42374],[9.39193,47.42328],[9.39197,47.42295],[9.39226,47.42315],[9.39325,47.42318],[9.39329,47.42306],[9.39315,47.42266],[9.38974,47.42142],[9.38926,47.42145],[9.38765,47.42105],[9.38481,47.41992],[9.38076,47.41893],[9.38009,47.41938],[9.37873,47.4194],[9.37786,47.42044],[9.37781,47.4207],[9.37821,47.42101],[9.37823,47.42118],[9.37796,47.42176],[9.37741,47.42209],[9.37767,47.42244],[9.37849,47.42287],[9.37937,47.42364],[9.37962,47.42461],[9.3794,47.42512],[9.37799,47.42642]]]}},{"type":"Feature","properties":{"name":"Rosenberg-Kreubleiche","bezirk":"Rosenberg, Kreis Centrum"},"geometry":{"type":"Polygon","coordinates":[[[9.35968,47.41643],[9.35951,47.41662],[9.3605,47.41707],[9.3595,47.41795],[9.35963,47.41803],[9.35949,47.41811],[9.3587,47.41766],[9.35619,47.41945],[9.3571,47.42004],[9.35661,47.42046],[9.35872,47.42102],[9.35854,47.42127],[9.35742,47.42163],[9.35722,47.42188],[9.35741,47.42211],[9.35875,47.42262],[9.35865,47.42281],[9.36027,47.42298],[9.36128,47.42331],[9.36189,47.42381],[9.36379,47.42457],[9.36533,47.42541],[9.3669,47.42579],[9.36745,47.42613],[9.36771,47.42668],[9.36802,47.42693],[9.37004,47.42783],[9.37236,47.42827],[9.3717,47.42762],[9.37265,47.4267],[9.37354,47.42663],[9.37076,47.42452],[9.36731,47.42151],[9.36328,47.41836],[9.36181,47.4174],[9.35968,47.41643]]]}},{"type":"Feature","properties":{"name":"Chräzeren","bezirk":"Winkeln, Kreis Westen"},"geometry":{"type":"Polygon","coordinates":[[[9.30709,47.40741],[9.30953,47.40725],[9.31249,47.40748],[9.32195,47.40763],[9.32217,47.40715],[9.32219,47.4066],[9.3217,47.40491],[9.32177,47.40407],[9.32201,47.4036],[9.31669,47.40281],[9.31537,47.40275],[9.30727,47.40272],[9.30469,47.40311],[9.30709,47.40741]]]}},{"type":"Feature","properties":{"name":"Altstadt","bezirk":"Innenstadt, Kreis Centrum"},"geometry":{"type":"Polygon","coordinates":[[[9.37354,47.42663],[9.37594,47.42822],[9.37636,47.42833],[9.37706,47.42823],[9.37787,47.4275],[9.37799,47.42642],[9.3794,47.42512],[9.37962,47.42461],[9.37956,47.42404],[9.37902,47.42326],[9.37767,47.42244],[9.37744,47.42215],[9.37715,47.42219],[9.37646,47.42173],[9.37524,47.42161],[9.37471,47.42219],[9.37415,47.42335],[9.37399,47.42441],[9.37438,47.42538],[9.37354,47.42663]]]}},{"type":"Feature","properties":{"name":"Breitfeld-Gründenmoos","bezirk":"Winkeln, Kreis Westen"},"geometry":{"type":"Polygon","coordinates":[[[9.30971,47.4126],[9.30925,47.4119],[9.30931,47.41014],[9.30919,47.40967],[9.3074,47.40789],[9.30709,47.40741],[9.29934,47.40779],[9.29592,47.40756],[9.29372,47.40768],[9.29399,47.40767],[9.29416,47.40824],[9.29451,47.40857],[9.29767,47.4082],[9.29733,47.41137],[9.29934,47.41129],[9.30103,47.41157],[9.30334,47.41235],[9.30535,47.41262],[9.30681,47.4126],[9.30883,47.41405],[9.30895,47.41368],[9.30979,47.41293],[9.30971,47.4126]]]}},{"type":"Feature","properties":{"name":"Riethüsli","bezirk":"Riethüsli, Kreis Centrum"},"geometry":{"type":"Polygon","coordinates":[[[9.35473,47.40341],[9.35461,47.40517],[9.35354,47.40639],[9.35421,47.40751],[9.35404,47.41005],[9.35492,47.41027],[9.35591,47.41023],[9.35621,47.40998],[9.35664,47.41],[9.35694,47.41015],[9.35713,47.41057],[9.35671,47.4112],[9.35702,47.41131],[9.35698,47.41164],[9.35864,47.4123],[9.35971,47.41253],[9.36205,47.41356],[9.36283,47.41365],[9.3636,47.41337],[9.36304,47.41423],[9.36267,47.41449],[9.36236,47.41442],[9.36243,47.41476],[9.36169,47.41491],[9.36119,47.41577],[9.36135,47.41587],[9.36113,47.41607],[9.36081,47.41628],[9.36026,47.41581],[9.35968,47.41643],[9.36274,47.41798],[9.36585,47.4204],[9.36641,47.42001],[9.36641,47.41883],[9.36703,47.41824],[9.36726,47.41823],[9.3676,47.4177],[9.36748,47.41757],[9.3681,47.4171],[9.36773,47.41666],[9.36966,47.41585],[9.36926,47.41545],[9.36918,47.4151],[9.37113,47.41497],[9.37267,47.41581],[9.37455,47.41657],[9.37564,47.4168],[9.37657,47.41762],[9.37652,47.41711],[9.37673,47.41644],[9.37482,47.41486],[9.3764,47.41547],[9.37689,47.4148],[9.37751,47.41451],[9.37784,47.4137],[9.37762,47.41317],[9.37726,47.41311],[9.3765,47.41258],[9.37584,47.41187],[9.3754,47.41189],[9.37452,47.41139],[9.37559,47.40834],[9.37515,47.40768],[9.3727,47.40711],[9.37227,47.40754],[9.37168,47.40771],[9.37023,47.4073],[9.36911,47.4068],[9.36875,47.40641],[9.36875,47.40619],[9.3679,47.40591],[9.36729,47.40523],[9.36648,47.40477],[9.36594,47.4046],[9.3646,47.40468],[9.36409,47.40439],[9.36352,47.40457],[9.36279,47.40424],[9.36113,47.40387],[9.35983,47.4034],[9.35956,47.40303],[9.35957,47.40268],[9.35857,47.40204],[9.35788,47.4022],[9.35736,47.40214],[9.35715,47.40234],[9.35631,47.40232],[9.35605,47.40262],[9.35535,47.40279],[9.35514,47.40315],[9.3549,47.40318],[9.35473,47.40341]]]}},{"type":"Feature","properties":{"name":"Vonwil-Lachen-Schoren","bezirk":"Lachen, Kreis Westen"},"geometry":{"type":"Polygon","coordinates":[[[9.33879,47.42384],[9.33855,47.42444],[9.33861,47.42502],[9.33885,47.42523],[9.33942,47.42533],[9.34174,47.42445],[9.34245,47.42433],[9.34306,47.42464],[9.34369,47.4255],[9.34453,47.42604],[9.34859,47.42674],[9.34896,47.42686],[9.34965,47.42776],[9.35026,47.42806],[9.35378,47.4289],[9.35589,47.43053],[9.35701,47.43276],[9.35865,47.43362],[9.36034,47.43339],[9.36026,47.43291],[9.36111,47.43227],[9.36228,47.43068],[9.36273,47.43043],[9.36282,47.43011],[9.36436,47.42898],[9.36322,47.42875],[9.36273,47.42836],[9.36266,47.42802],[9.36173,47.42741],[9.36108,47.42734],[9.36188,47.4255],[9.36201,47.42546],[9.36149,47.42514],[9.36172,47.42496],[9.3615,47.42477],[9.36255,47.42406],[9.36055,47.42304],[9.35865,47.42281],[9.35875,47.42262],[9.35741,47.42211],[9.35722,47.42188],[9.35759,47.42153],[9.35854,47.42127],[9.35872,47.42102],[9.35661,47.42046],[9.3571,47.42004],[9.35619,47.41945],[9.3587,47.41766],[9.35949,47.41811],[9.3605,47.41707],[9.35951,47.41662],[9.35968,47.41643],[9.35658,47.41522],[9.35508,47.41624],[9.35469,47.41605],[9.35306,47.41663],[9.3515,47.41797],[9.34822,47.41649],[9.34794,47.41688],[9.34791,47.41719],[9.34737,47.41736],[9.34792,47.41784],[9.34748,47.41812],[9.34727,47.41807],[9.34685,47.41854],[9.34565,47.41873],[9.34233,47.41983],[9.34248,47.42082],[9.34214,47.42162],[9.34137,47.42226],[9.33879,47.42384]]]}},{"type":"Feature","properties":{"name":"Stephanshorn-Zil-Kesselhalden","bezirk":"Neudorf, Kreis Osten"},"geometry":{"type":"Polygon","coordinates":[[[9.40391,47.45218],[9.40417,47.45216],[9.40458,47.45269],[9.40537,47.45222],[9.40576,47.45235],[9.40563,47.45283],[9.40658,47.45234],[9.40721,47.45159],[9.40791,47.45131],[9.40865,47.45192],[9.40958,47.45165],[9.41349,47.45193],[9.41313,47.45142],[9.41369,47.45128],[9.41369,47.45092],[9.41437,47.45163],[9.41498,47.45128],[9.41449,47.45097],[9.41688,47.44941],[9.41794,47.45001],[9.41855,47.45118],[9.41843,47.45127],[9.41956,47.4524],[9.42016,47.45204],[9.42092,47.45108],[9.41635,47.44474],[9.41182,47.44116],[9.40525,47.43685],[9.4033,47.43775],[9.40299,47.43771],[9.40196,47.43832],[9.40045,47.43874],[9.39977,47.4403],[9.39816,47.44229],[9.39794,47.44321],[9.39826,47.44437],[9.40065,47.44679],[9.4009,47.44735],[9.40124,47.44937],[9.40151,47.44987],[9.40391,47.45218]]]}},{"type":"Feature","properties":{"name":"Hölzli-Joosrüti","bezirk":"Rosenberg, Kreis Centrum"},"geometry":{"type":"Polygon","coordinates":[[[9.36034,47.43339],[9.36087,47.43366],[9.36126,47.43424],[9.36129,47.43547],[9.36102,47.43615],[9.36014,47.43742],[9.35781,47.43948],[9.35811,47.44059],[9.35909,47.44192],[9.35862,47.44273],[9.35854,47.44324],[9.3591,47.4437],[9.35946,47.44374],[9.36098,47.44326],[9.36183,47.44353],[9.36234,47.4441],[9.36242,47.44442],[9.362,47.44511],[9.36255,47.4452],[9.36362,47.4449],[9.36423,47.44454],[9.36766,47.44405],[9.36754,47.44421],[9.36781,47.44457],[9.36779,47.44531],[9.36692,47.44577],[9.36649,47.44657],[9.36587,47.44681],[9.36537,47.4473],[9.36621,47.44766],[9.36709,47.44774],[9.36768,47.44816],[9.36789,47.44801],[9.36889,47.44792],[9.36998,47.44835],[9.36996,47.44856],[9.37097,47.44867],[9.37096,47.4482],[9.36963,47.44614],[9.36936,47.44532],[9.36835,47.44454],[9.36856,47.44376],[9.36797,47.44319],[9.36787,47.44289],[9.36796,47.44259],[9.36878,47.44224],[9.36826,47.44125],[9.3687,47.44072],[9.36866,47.44037],[9.3689,47.43986],[9.36841,47.43894],[9.36954,47.43841],[9.36944,47.43762],[9.36969,47.43612],[9.37045,47.4355],[9.37065,47.43487],[9.37161,47.4345],[9.37213,47.43386],[9.37229,47.43287],[9.37268,47.43222],[9.3734,47.43169],[9.37384,47.43051],[9.37095,47.42868],[9.36991,47.42772],[9.36802,47.42693],[9.36714,47.42591],[9.36533,47.42541],[9.36255,47.42406],[9.3615,47.42477],[9.36172,47.42496],[9.36149,47.42514],[9.36201,47.42546],[9.36188,47.4255],[9.36108,47.42734],[9.36173,47.42741],[9.36266,47.42802],[9.36273,47.42836],[9.36322,47.42875],[9.36436,47.42898],[9.36282,47.43011],[9.36273,47.43043],[9.36228,47.43068],[9.36111,47.43227],[9.36026,47.43291],[9.36034,47.43339]]]}},{"type":"Feature","properties":{"name":"St.Georgen-Bach","bezirk":"St.Georgen, Kreis Centrum"},"geometry":{"type":"Polygon","coordinates":[[[9.38476,47.41338],[9.38475,47.41398],[9.38375,47.41415],[9.38302,47.41452],[9.38225,47.41565],[9.38198,47.41621],[9.38197,47.41667],[9.38076,47.41893],[9.38481,47.41992],[9.38765,47.42105],[9.38926,47.42145],[9.38974,47.42142],[9.39315,47.42266],[9.39329,47.42306],[9.3937,47.42211],[9.39368,47.42177],[9.39287,47.42047],[9.39264,47.41974],[9.39281,47.41941],[9.39262,47.41935],[9.39379,47.41834],[9.39698,47.4188],[9.39746,47.41798],[9.39928,47.41859],[9.40182,47.4185],[9.40595,47.41928],[9.40596,47.41957],[9.40808,47.41983],[9.40839,47.41819],[9.40902,47.41859],[9.40919,47.41862],[9.40929,47.41841],[9.41001,47.41846],[9.41085,47.41879],[9.41127,47.41837],[9.41111,47.41813],[9.41138,47.41774],[9.41072,47.4175],[9.41091,47.41729],[9.41031,47.41699],[9.41088,47.41666],[9.40904,47.41652],[9.40914,47.4155],[9.40607,47.41515],[9.40505,47.4148],[9.4043,47.41426],[9.4043,47.41451],[9.4028,47.41399],[9.40267,47.41417],[9.40235,47.41419],[9.40111,47.41404],[9.40106,47.4137],[9.40022,47.41361],[9.4002,47.41342],[9.39942,47.41357],[9.39924,47.41378],[9.39837,47.41406],[9.3979,47.41405],[9.3978,47.41386],[9.3963,47.414],[9.39589,47.41395],[9.39547,47.41356],[9.39518,47.41356],[9.39448,47.41312],[9.39405,47.41338],[9.39317,47.4134],[9.39312,47.41376],[9.39259,47.41377],[9.39104,47.41341],[9.39015,47.4126],[9.39028,47.41226],[9.38814,47.41327],[9.38599,47.41375],[9.38539,47.41369],[9.38476,47.41338]]]}},{"type":"Feature","properties":{"name":"Moos-Waldacker-Lerchenfeld","bezirk":"Bruggen, Kreis Westen"},"geometry":{"type":"Polygon","coordinates":[[[9.33431,47.41601],[9.33465,47.4161],[9.33482,47.41645],[9.33449,47.41741],[9.3345,47.41847],[9.33508,47.41914],[9.33588,47.41929],[9.33682,47.41921],[9.33916,47.41792],[9.34014,47.41783],[9.34105,47.41825],[9.34233,47.41983],[9.34565,47.41873],[9.34685,47.41854],[9.34727,47.41807],[9.34748,47.41812],[9.34792,47.41784],[9.34737,47.41736],[9.34791,47.41719],[9.34794,47.41688],[9.34822,47.41649],[9.3515,47.41797],[9.35306,47.41663],[9.35469,47.41605],[9.35508,47.41624],[9.35658,47.41522],[9.3531,47.41415],[9.34798,47.41311],[9.3382,47.40909],[9.33814,47.40931],[9.33728,47.40995],[9.33711,47.41067],[9.33613,47.412],[9.33572,47.41189],[9.33553,47.41207],[9.33505,47.41193],[9.33383,47.41294],[9.33497,47.41383],[9.33506,47.41421],[9.33431,47.41601]]]}},{"type":"Feature","properties":{"name":"Bruggen-Zürcherstrasse","bezirk":"Bruggen, Kreis Westen"},"geometry":{"type":"Polygon","coordinates":[[[9.32195,47.40763],[9.32089,47.4088],[9.32047,47.40968],[9.32059,47.41024],[9.32138,47.41088],[9.32314,47.4113],[9.32448,47.41116],[9.32523,47.41072],[9.3257,47.40954],[9.32624,47.40922],[9.32719,47.40946],[9.32779,47.40997],[9.32828,47.4108],[9.32855,47.41225],[9.32836,47.4133],[9.32782,47.41469],[9.32772,47.4156],[9.32864,47.41631],[9.3298,47.41668],[9.33105,47.41664],[9.33431,47.41601],[9.33506,47.41421],[9.33497,47.41383],[9.33383,47.41294],[9.33505,47.41193],[9.33553,47.41207],[9.33572,47.41189],[9.33613,47.412],[9.33711,47.41067],[9.33728,47.40995],[9.33814,47.40931],[9.3382,47.40909],[9.33555,47.40815],[9.33179,47.40763],[9.32978,47.40718],[9.32746,47.4061],[9.3248,47.40428],[9.32201,47.4036],[9.32177,47.40407],[9.3217,47.40491],[9.32219,47.4066],[9.32217,47.40715],[9.32195,47.40763]]]}},{"type":"Feature","properties":{"name":"Boppartshof-Hinterberg","bezirk":"Bruggen, Kreis Westen"},"geometry":{"type":"Polygon","coordinates":[[[9.33949,47.40121],[9.33934,47.39983],[9.33848,47.40019],[9.33782,47.40015],[9.33665,47.39933],[9.33584,47.3991],[9.33536,47.39918],[9.33472,47.39978],[9.33431,47.39993],[9.33264,47.39949],[9.3322,47.40003],[9.33236,47.40023],[9.33224,47.40049],[9.33035,47.40081],[9.32934,47.4013],[9.32737,47.4012],[9.32574,47.40074],[9.32516,47.40038],[9.32473,47.40065],[9.32463,47.40105],[9.324,47.40188],[9.32201,47.4036],[9.3248,47.40428],[9.32746,47.4061],[9.32978,47.40718],[9.33179,47.40763],[9.33411,47.40793],[9.33509,47.40711],[9.33781,47.40624],[9.33829,47.40589],[9.33855,47.40536],[9.33856,47.4044],[9.33943,47.40326],[9.33886,47.40219],[9.33949,47.40121]]]}},{"type":"Feature","properties":{"name":"Haggen-Oberstrasse-Langweid","bezirk":"Bruggen, Kreis Westen"},"geometry":{"type":"Polygon","coordinates":[[[9.33411,47.40793],[9.33555,47.40815],[9.33701,47.40859],[9.34798,47.41311],[9.35506,47.4147],[9.35968,47.41643],[9.36026,47.41581],[9.36081,47.41628],[9.36113,47.41607],[9.36135,47.41587],[9.36119,47.41577],[9.36169,47.41491],[9.36243,47.41476],[9.36236,47.41442],[9.36267,47.41449],[9.36304,47.41423],[9.3636,47.41337],[9.36283,47.41365],[9.36205,47.41356],[9.35971,47.41253],[9.35864,47.4123],[9.35698,47.41164],[9.35702,47.41131],[9.35671,47.4112],[9.35713,47.41057],[9.35694,47.41015],[9.35664,47.41],[9.35621,47.40998],[9.35591,47.41023],[9.35492,47.41027],[9.35404,47.41005],[9.35421,47.40751],[9.35354,47.40639],[9.35461,47.40517],[9.35473,47.40341],[9.35415,47.40337],[9.35396,47.40315],[9.35203,47.4024],[9.34854,47.40134],[9.34774,47.40134],[9.3467,47.40086],[9.34341,47.40015],[9.3421,47.39998],[9.34046,47.40007],[9.33968,47.3996],[9.33937,47.39981],[9.33949,47.40124],[9.33886,47.40219],[9.33944,47.40324],[9.33856,47.4044],[9.33856,47.40531],[9.33839,47.40574],[9.33781,47.40624],[9.33509,47.40711],[9.33411,47.40793]]]}},{"type":"Feature","properties":{"name":"St.Fiden-Krontal","bezirk":"St.Fiden, Kreis Osten"},"geometry":{"type":"Polygon","coordinates":[[[9.40045,47.43874],[9.40196,47.43832],[9.40299,47.43771],[9.4033,47.43775],[9.40525,47.43685],[9.40256,47.43515],[9.40561,47.43272],[9.40587,47.43228],[9.40559,47.432],[9.40602,47.43148],[9.40637,47.43058],[9.40628,47.43041],[9.40545,47.43049],[9.40519,47.43035],[9.40435,47.43055],[9.40403,47.43048],[9.40276,47.42973],[9.40259,47.42937],[9.40076,47.42911],[9.40063,47.42858],[9.40012,47.42803],[9.39985,47.42807],[9.3997,47.42786],[9.39972,47.42817],[9.39951,47.42838],[9.39909,47.42755],[9.39917,47.42682],[9.3989,47.42705],[9.39829,47.42711],[9.39691,47.42676],[9.3958,47.42618],[9.39305,47.42576],[9.3932,47.42609],[9.39111,47.42625],[9.39134,47.4265],[9.39098,47.4269],[9.39084,47.42736],[9.3906,47.42731],[9.39038,47.42758],[9.39157,47.42794],[9.3913,47.42832],[9.39105,47.42824],[9.39,47.42976],[9.39018,47.42992],[9.39002,47.43012],[9.38985,47.43005],[9.38916,47.43088],[9.38956,47.43095],[9.38877,47.43212],[9.38767,47.43164],[9.38559,47.43311],[9.38762,47.43351],[9.39036,47.43372],[9.39288,47.43418],[9.39389,47.4345],[9.39915,47.43669],[9.40016,47.43761],[9.40044,47.43817],[9.40045,47.43874]]]}},{"type":"Feature","properties":{"name":"St.Jakob","bezirk":"St.Jakob, Kreis Centrum"},"geometry":{"type":"Polygon","coordinates":[[[9.37165,47.43444],[9.37205,47.43458],[9.3726,47.4339],[9.37335,47.43421],[9.37423,47.43342],[9.37733,47.43696],[9.3783,47.43584],[9.37848,47.43591],[9.38002,47.43531],[9.38108,47.43509],[9.38179,47.43543],[9.3812,47.43454],[9.38155,47.43443],[9.3814,47.43424],[9.38166,47.43416],[9.38193,47.43451],[9.38417,47.4337],[9.38406,47.43358],[9.38467,47.43325],[9.38482,47.43267],[9.38559,47.43311],[9.38767,47.43164],[9.38877,47.43212],[9.38956,47.43095],[9.38916,47.43088],[9.38985,47.43005],[9.39002,47.43012],[9.39012,47.42998],[9.38484,47.42777],[9.38184,47.42631],[9.37838,47.42629],[9.37799,47.42642],[9.37787,47.4275],[9.37706,47.42823],[9.37636,47.42833],[9.37511,47.42774],[9.37354,47.42663],[9.37265,47.4267],[9.3717,47.42762],[9.37227,47.42809],[9.37236,47.42827],[9.37225,47.42834],[9.37004,47.42783],[9.37095,47.42868],[9.37385,47.43052],[9.3734,47.43169],[9.37268,47.43222],[9.37229,47.43287],[9.37213,47.43386],[9.37165,47.43444]]]}},{"type":"Feature","properties":{"name":"Altenwegen","bezirk":"Winkeln, Kreis Westen"},"geometry":{"type":"Polygon","coordinates":[[[9.31973,47.41652],[9.32016,47.41578],[9.32072,47.41553],[9.32163,47.41547],[9.32181,47.41529],[9.32158,47.4148],[9.32154,47.4142],[9.32175,47.41341],[9.32209,47.41283],[9.32204,47.41263],[9.32114,47.41114],[9.32138,47.41088],[9.32046,47.40998],[9.32058,47.40928],[9.32195,47.40763],[9.31249,47.40748],[9.30953,47.40725],[9.30709,47.40741],[9.3074,47.40789],[9.30895,47.40932],[9.30928,47.40994],[9.30925,47.4119],[9.30981,47.41277],[9.30966,47.41309],[9.30886,47.4138],[9.30883,47.41405],[9.30947,47.41458],[9.31068,47.41505],[9.31256,47.41542],[9.31397,47.41623],[9.31515,47.41665],[9.3173,47.4164],[9.31955,47.41688],[9.31973,47.41652]]]}},{"type":"Feature","properties":{"name":"Hafnersberg","bezirk":"Winkeln, Kreis Westen"},"geometry":{"type":"Polygon","coordinates":[[[9.3062,47.42161],[9.30663,47.42132],[9.30757,47.42108],[9.30826,47.42109],[9.30804,47.42042],[9.30745,47.42014],[9.30723,47.41973],[9.30729,47.41926],[9.30685,47.41902],[9.30647,47.41855],[9.30639,47.41817],[9.30413,47.41685],[9.30359,47.41646],[9.30349,47.41617],[9.30382,47.4157],[9.30443,47.41586],[9.30631,47.41448],[9.3075,47.41485],[9.30872,47.41395],[9.30681,47.4126],[9.30535,47.41262],[9.30334,47.41235],[9.30103,47.41157],[9.29934,47.41129],[9.29733,47.41137],[9.2971,47.41245],[9.29727,47.41278],[9.29606,47.41858],[9.29681,47.41887],[9.29733,47.41945],[9.2986,47.41985],[9.3002,47.4208],[9.30091,47.42061],[9.30104,47.42097],[9.30177,47.42185],[9.30231,47.4216],[9.3031,47.42224],[9.30503,47.42219],[9.3062,47.42161]]]}},{"type":"Feature","properties":{"name":"Winkeln Süd","bezirk":"Winkeln, Kreis Westen"},"geometry":{"type":"Polygon","coordinates":[[[9.29445,47.40423],[9.29615,47.4039],[9.29847,47.40415],[9.30228,47.40339],[9.30259,47.40307],[9.30389,47.40239],[9.30438,47.40173],[9.30449,47.40132],[9.304,47.39982],[9.30422,47.39946],[9.306,47.39817],[9.30627,47.39772],[9.30617,47.39718],[9.30651,47.39699],[9.30646,47.39675],[9.30591,47.39605],[9.30564,47.39594],[9.30295,47.39522],[9.30216,47.39549],[9.30199,47.39515],[9.30065,47.3953],[9.29842,47.39619],[9.29629,47.39643],[9.29476,47.39623],[9.29465,47.3964],[9.2953,47.39681],[9.29415,47.3964],[9.29421,47.39698],[9.29504,47.39764],[9.29544,47.39755],[9.29578,47.39806],[9.29678,47.39895],[9.2968,47.39936],[9.29559,47.40011],[9.29532,47.40086],[9.29393,47.40172],[9.29222,47.40251],[9.29153,47.4038],[9.29382,47.40439],[9.29445,47.40423]]]}},{"type":"Feature","properties":{"name":"Stuelegg-Rüti","bezirk":"St.Georgen, Kreis Centrum"},"geometry":{"type":"Polygon","coordinates":[[[9.37834,47.40732],[9.37977,47.4079],[9.38155,47.40839],[9.38173,47.40829],[9.38207,47.40907],[9.383,47.41032],[9.3844,47.41158],[9.38476,47.41338],[9.38539,47.41369],[9.38599,47.41375],[9.38814,47.41327],[9.39028,47.41226],[9.39012,47.4125],[9.39026,47.41274],[9.39117,47.41349],[9.3919,47.41368],[9.39312,47.41376],[9.39317,47.4134],[9.39405,47.41338],[9.39448,47.41312],[9.39518,47.41356],[9.39547,47.41356],[9.39589,47.41395],[9.39706,47.41386],[9.3971,47.41401],[9.3978,47.41386],[9.3979,47.41405],[9.39837,47.41406],[9.39924,47.41378],[9.39942,47.41357],[9.4002,47.41342],[9.40022,47.41361],[9.40106,47.4137],[9.40111,47.41404],[9.40235,47.41419],[9.40267,47.41417],[9.4028,47.41399],[9.4043,47.41451],[9.4043,47.41426],[9.40505,47.4148],[9.40607,47.41515],[9.40841,47.41533],[9.40875,47.41462],[9.41108,47.41448],[9.41271,47.4148],[9.41346,47.4134],[9.41381,47.41355],[9.41407,47.41307],[9.41485,47.41328],[9.41549,47.41236],[9.41428,47.41197],[9.4149,47.41097],[9.41592,47.40993],[9.41927,47.40867],[9.41975,47.40831],[9.42024,47.40744],[9.42273,47.40628],[9.42126,47.40596],[9.41972,47.40595],[9.41664,47.40507],[9.41411,47.40494],[9.41405,47.40515],[9.4132,47.40555],[9.41282,47.40544],[9.41293,47.40459],[9.41116,47.40409],[9.41106,47.4036],[9.41066,47.40313],[9.40923,47.4032],[9.40924,47.40255],[9.40714,47.40215],[9.40591,47.4023],[9.40536,47.40222],[9.40485,47.40204],[9.404,47.40126],[9.40187,47.40084],[9.40062,47.40097],[9.3998,47.40077],[9.39904,47.4014],[9.39785,47.40143],[9.39797,47.40068],[9.39745,47.40058],[9.39664,47.40092],[9.39506,47.40124],[9.39277,47.40101],[9.39193,47.40127],[9.39156,47.40166],[9.39077,47.40201],[9.39046,47.4024],[9.3905,47.40264],[9.3903,47.40286],[9.39037,47.40329],[9.38969,47.40454],[9.38933,47.40445],[9.38779,47.40534],[9.3861,47.40572],[9.38509,47.40567],[9.38459,47.40595],[9.38315,47.40632],[9.38153,47.40622],[9.38098,47.40652],[9.38003,47.40662],[9.37994,47.40678],[9.37915,47.40666],[9.37834,47.40732]]]}},{"type":"Feature","properties":{"name":"Rotmonten","bezirk":"Rotmonten, Kreis Osten"},"geometry":{"type":"Polygon","coordinates":[[[9.37097,47.44867],[9.37094,47.44927],[9.37269,47.44928],[9.37313,47.44845],[9.37352,47.44854],[9.37516,47.44811],[9.37494,47.44775],[9.3757,47.44755],[9.37612,47.44726],[9.37693,47.44789],[9.37657,47.44908],[9.37592,47.44945],[9.37546,47.44938],[9.37499,47.44967],[9.3742,47.45068],[9.37419,47.45107],[9.37452,47.45134],[9.37431,47.452],[9.37504,47.45176],[9.37543,47.45138],[9.37589,47.45123],[9.37611,47.4516],[9.37658,47.45191],[9.37704,47.45183],[9.37725,47.45158],[9.37812,47.4526],[9.37824,47.45252],[9.37946,47.45289],[9.38026,47.45287],[9.38075,47.45307],[9.38106,47.45288],[9.38121,47.45207],[9.38167,47.45176],[9.38179,47.45135],[9.38184,47.45083],[9.38146,47.4504],[9.38138,47.44967],[9.38095,47.44889],[9.38128,47.44838],[9.38426,47.44937],[9.38896,47.45048],[9.39027,47.44951],[9.39107,47.446],[9.38877,47.445],[9.38414,47.4416],[9.38431,47.44074],[9.38385,47.43955],[9.38349,47.43797],[9.38375,47.43753],[9.38243,47.43646],[9.38179,47.43543],[9.38108,47.43509],[9.38002,47.43531],[9.37848,47.43591],[9.3783,47.43584],[9.37733,47.43696],[9.37423,47.43342],[9.37335,47.43421],[9.3726,47.4339],[9.37205,47.43458],[9.37165,47.43444],[9.37065,47.43487],[9.37045,47.4355],[9.36968,47.43615],[9.36944,47.43762],[9.36955,47.43839],[9.36841,47.43894],[9.3689,47.43986],[9.36866,47.44037],[9.3687,47.44072],[9.36826,47.44125],[9.36878,47.44224],[9.36796,47.44259],[9.36787,47.44289],[9.36797,47.44319],[9.36856,47.44376],[9.36835,47.44454],[9.36936,47.44532],[9.36963,47.44614],[9.37096,47.4482],[9.37097,47.44867]]]}},{"type":"Feature","properties":{"name":"Gübsensee","bezirk":"Winkeln, Kreis Westen"},"geometry":{"type":"Polygon","coordinates":[[[9.30404,47.4021],[9.30469,47.40311],[9.30727,47.40272],[9.31537,47.40275],[9.31669,47.40281],[9.32201,47.4036],[9.324,47.40188],[9.32463,47.40105],[9.32473,47.40065],[9.32297,47.39956],[9.32119,47.39899],[9.32028,47.39819],[9.31836,47.39792],[9.31837,47.39773],[9.3181,47.39777],[9.31836,47.39734],[9.31813,47.39729],[9.31767,47.39775],[9.31675,47.39783],[9.31484,47.39764],[9.31239,47.39699],[9.31051,47.39682],[9.3103,47.39651],[9.30862,47.39658],[9.3068,47.39609],[9.30665,47.39585],[9.3059,47.39587],[9.30532,47.39566],[9.30532,47.39584],[9.30591,47.39605],[9.30651,47.39699],[9.30617,47.39718],[9.30627,47.39772],[9.306,47.39817],[9.30422,47.39946],[9.304,47.39982],[9.30449,47.40132],[9.30438,47.40173],[9.30404,47.4021]]]}},{"type":"Feature","properties":{"name":"St.Leonhard-Ost","bezirk":"Innenstadt, Kreis Centrum"},"geometry":{"type":"Polygon","coordinates":[[[9.36585,47.4204],[9.37076,47.42452],[9.37354,47.42663],[9.37438,47.42538],[9.37399,47.42441],[9.37415,47.42335],[9.37471,47.42219],[9.37515,47.42173],[9.37416,47.42147],[9.37338,47.42088],[9.37187,47.4202],[9.37041,47.41929],[9.36939,47.41896],[9.3676,47.4177],[9.36726,47.41823],[9.36703,47.41824],[9.36641,47.41883],[9.36641,47.42001],[9.36585,47.4204]]]}},{"type":"Feature","properties":{"name":"Winkeln Nord-Industrie","bezirk":"Winkeln, Kreis Westen"},"geometry":{"type":"Polygon","coordinates":[[[9.30709,47.40741],[9.30404,47.4021],[9.30389,47.40239],[9.30259,47.40307],[9.30228,47.40339],[9.29847,47.40415],[9.29615,47.4039],[9.29407,47.40441],[9.29197,47.40401],[9.29153,47.4038],[9.29159,47.40432],[9.29171,47.40452],[9.29202,47.40446],[9.29256,47.40577],[9.29212,47.40588],[9.29218,47.40599],[9.29336,47.40755],[9.29371,47.40768],[9.29592,47.40756],[9.29934,47.40779],[9.30709,47.40741]]]}},{"type":"Feature","properties":{"name":"Hub-Schaugentobel","bezirk":"Notkersegg, Kreis Osten"},"geometry":{"type":"Polygon","coordinates":[[[9.42991,47.43944],[9.43079,47.43847],[9.43082,47.43818],[9.43039,47.43782],[9.43037,47.43762],[9.4312,47.43666],[9.43095,47.43646],[9.43099,47.43626],[9.43186,47.43594],[9.43388,47.43561],[9.43429,47.43513],[9.43465,47.435],[9.43471,47.43452],[9.43501,47.43429],[9.43473,47.43377],[9.43525,47.43354],[9.43494,47.43299],[9.43497,47.43262],[9.43475,47.43207],[9.43398,47.4318],[9.43401,47.43164],[9.43358,47.43131],[9.43361,47.43114],[9.43326,47.43096],[9.43278,47.43038],[9.43273,47.4297],[9.43252,47.42951],[9.43308,47.42925],[9.43285,47.4289],[9.43311,47.42874],[9.43317,47.42841],[9.434,47.42736],[9.43422,47.42732],[9.43444,47.42662],[9.43472,47.42642],[9.43445,47.42621],[9.43482,47.42598],[9.43466,47.42572],[9.43496,47.42542],[9.43512,47.42484],[9.4317,47.42548],[9.43127,47.42616],[9.42944,47.42573],[9.42823,47.4259],[9.4267,47.42633],[9.42601,47.42699],[9.4238,47.42743],[9.42352,47.42711],[9.42214,47.42708],[9.42099,47.42649],[9.42065,47.42665],[9.41936,47.42653],[9.41824,47.4269],[9.41733,47.42688],[9.41681,47.42639],[9.41698,47.42627],[9.41693,47.42615],[9.41633,47.42563],[9.41605,47.42601],[9.41557,47.42629],[9.41497,47.42629],[9.40927,47.4252],[9.40903,47.42528],[9.40846,47.42774],[9.40775,47.42832],[9.40748,47.42897],[9.40688,47.42932],[9.40618,47.43022],[9.40637,47.43058],[9.40602,47.43148],[9.40559,47.432],[9.40587,47.43228],[9.40561,47.43272],[9.40697,47.43273],[9.40935,47.43339],[9.41199,47.43307],[9.41276,47.43337],[9.41343,47.43387],[9.41423,47.4341],[9.41664,47.43386],[9.41869,47.43406],[9.41972,47.43382],[9.42248,47.4337],[9.42366,47.43341],[9.42361,47.43404],[9.42332,47.43456],[9.42353,47.43578],[9.42519,47.43589],[9.42557,47.43607],[9.42631,47.43686],[9.42642,47.43717],[9.42892,47.43923],[9.42991,47.43944]]]}},{"type":"Feature","properties":{"name":"Sittertobel","bezirk":"Bruggen, Kreis Westen"},"geometry":{"type":"Polygon","coordinates":[[[9.33827,47.42384],[9.33879,47.42384],[9.34128,47.42232],[9.34196,47.42181],[9.34237,47.42127],[9.34248,47.42051],[9.34227,47.4197],[9.34095,47.41816],[9.34026,47.41785],[9.33938,47.41785],[9.33695,47.41917],[9.33543,47.41925],[9.33485,47.419],[9.3345,47.41847],[9.3345,47.41736],[9.33482,47.41653],[9.33457,47.41605],[9.3335,47.41609],[9.33152,47.41656],[9.33022,47.4167],[9.32919,47.41655],[9.32818,47.41605],[9.32779,47.41574],[9.32769,47.41538],[9.32846,47.41291],[9.32848,47.41153],[9.32795,47.41017],[9.32741,47.40959],[9.32682,47.4093],[9.32629,47.40921],[9.32585,47.40938],[9.32541,47.41006],[9.32526,47.41069],[9.32448,47.41116],[9.32314,47.4113],[9.32138,47.41088],[9.32114,47.41114],[9.32209,47.41283],[9.32175,47.41341],[9.32154,47.4142],[9.32158,47.4148],[9.32181,47.41529],[9.32163,47.41547],[9.32072,47.41553],[9.32016,47.41578],[9.31955,47.41688],[9.31998,47.41707],[9.32055,47.41696],[9.32082,47.41719],[9.32363,47.41772],[9.3239,47.41807],[9.3252,47.41818],[9.32557,47.418],[9.3264,47.41866],[9.32726,47.41869],[9.3278,47.4195],[9.32848,47.41937],[9.32909,47.41953],[9.32912,47.41943],[9.33116,47.42028],[9.33193,47.42083],[9.33228,47.42147],[9.333,47.42193],[9.33297,47.42217],[9.33463,47.423],[9.33443,47.42312],[9.33672,47.42382],[9.33827,47.42384]]]}}]}