{"type":"FeatureCollection","features":[{"type":"Feature","properties":{"kind":"accessible","label":"Behindertenparkplatz","detail":"1 Platz"},"geometry":{"type":"Point","coordinates":[9.37281,47.4247]}},{"type":"Feature","properties":{"kind":"accessible","label":"Behindertenparkplatz","detail":"2 Plätze"},"geometry":{"type":"Point","coordinates":[9.34115,47.41509]}},{"type":"Feature","properties":{"kind":"accessible","label":"Behindertenparkplatz","detail":"1 Platz"},"geometry":{"type":"Point","coordinates":[9.33837,47.40786]}},{"type":"Feature","properties":{"kind":"accessible","label":"Behindertenparkplatz","detail":"1 Platz"},"geometry":{"type":"Point","coordinates":[9.30465,47.40602]}},{"type":"Feature","properties":{"kind":"accessible","label":"Behindertenparkplatz","detail":"1 Platz"},"geometry":{"type":"Point","coordinates":[9.37414,47.4225]}},{"type":"Feature","properties":{"kind":"accessible","label":"Behindertenparkplatz","detail":"2 Plätze"},"geometry":{"type":"Point","coordinates":[9.34427,47.4156]}},{"type":"Feature","properties":{"kind":"accessible","label":"Behindertenparkplatz","detail":"1 Platz"},"geometry":{"type":"Point","coordinates":[9.38231,47.43098]}},{"type":"Feature","properties":{"kind":"accessible","label":"Behindertenparkplatz","detail":"4 Plätze"},"geometry":{"type":"Point","coordinates":[9.36161,47.41997]}},{"type":"Feature","properties":{"kind":"accessible","label":"Behindertenparkplatz","detail":"2 Plätze"},"geometry":{"type":"Point","coordinates":[9.37075,47.42418]}},{"type":"Feature","properties":{"kind":"accessible","label":"Behindertenparkplatz","detail":"1 Platz"},"geometry":{"type":"Point","coordinates":[9.3747,47.43612]}},{"type":"Feature","properties":{"kind":"accessible","label":"Behindertenparkplatz","detail":"2 Plätze"},"geometry":{"type":"Point","coordinates":[9.39265,47.43517]}},{"type":"Feature","properties":{"kind":"accessible","label":"Behindertenparkplatz","detail":"2 Plätze"},"geometry":{"type":"Point","coordinates":[9.41644,47.44314]}},{"type":"Feature","properties":{"kind":"accessible","label":"Behindertenparkplatz","detail":"1 Platz"},"geometry":{"type":"Point","coordinates":[9.3067,47.41443]}},{"type":"Feature","properties":{"kind":"accessible","label":"Behindertenparkplatz","detail":"1 Platz"},"geometry":{"type":"Point","coordinates":[9.38718,47.43044]}},{"type":"Feature","properties":{"kind":"accessible","label":"Behindertenparkplatz","detail":"1 Platz"},"geometry":{"type":"Point","coordinates":[9.38252,47.426]}},{"type":"Feature","properties":{"kind":"accessible","label":"Behindertenparkplatz","detail":"2 Plätze"},"geometry":{"type":"Point","coordinates":[9.3382,47.41053]}},{"type":"Feature","properties":{"kind":"accessible","label":"Behindertenparkplatz","detail":"2 Plätze"},"geometry":{"type":"Point","coordinates":[9.3746,47.42631]}},{"type":"Feature","properties":{"kind":"accessible","label":"Behindertenparkplatz","detail":"2 Plätze"},"geometry":{"type":"Point","coordinates":[9.3805,47.42889]}},{"type":"Feature","properties":{"kind":"accessible","label":"Behindertenparkplatz","detail":"1 Platz"},"geometry":{"type":"Point","coordinates":[9.38397,47.41977]}},{"type":"Feature","properties":{"kind":"accessible","label":"Behindertenparkplatz","detail":"1 Platz"},"geometry":{"type":"Point","coordinates":[9.31075,47.41448]}},{"type":"Feature","properties":{"kind":"accessible","label":"Behindertenparkplatz","detail":"1 Platz"},"geometry":{"type":"Point","coordinates":[9.37018,47.42133]}},{"type":"Feature","properties":{"kind":"accessible","label":"Behindertenparkplatz","detail":"2 Plätze"},"geometry":{"type":"Point","coordinates":[9.38334,47.43132]}},{"type":"Feature","properties":{"kind":"accessible","label":"Behindertenparkplatz","detail":"1 Platz"},"geometry":{"type":"Point","coordinates":[9.39218,47.43529]}},{"type":"Feature","properties":{"kind":"accessible","label":"Behindertenparkplatz","detail":"8 Plätze"},"geometry":{"type":"Point","coordinates":[9.30543,47.40662]}},{"type":"Feature","properties":{"kind":"accessible","label":"Behindertenparkplatz","detail":"2 Plätze"},"geometry":{"type":"Point","coordinates":[9.36877,47.41279]}},{"type":"Feature","properties":{"kind":"accessible","label":"Behindertenparkplatz","detail":"1 Platz"},"geometry":{"type":"Point","coordinates":[9.37653,47.43804]}},{"type":"Feature","properties":{"kind":"accessible","label":"Behindertenparkplatz","detail":"1 Platz"},"geometry":{"type":"Point","coordinates":[9.3151,47.41577]}},{"type":"Feature","properties":{"kind":"accessible","label":"Behindertenparkplatz","detail":"24 Plätze"},"geometry":{"type":"Point","coordinates":[9.30622,47.40842]}},{"type":"Feature","properties":{"kind":"accessible","label":"Behindertenparkplatz","detail":"1 Platz"},"geometry":{"type":"Point","coordinates":[9.30501,47.41195]}},{"type":"Feature","properties":{"kind":"accessible","label":"Behindertenparkplatz","detail":"5 Plätze"},"geometry":{"type":"Point","coordinates":[9.38456,47.43254]}},{"type":"Feature","properties":{"kind":"accessible","label":"Behindertenparkplatz","detail":"1 Platz"},"geometry":{"type":"Point","coordinates":[9.31486,47.41573]}},{"type":"Feature","properties":{"kind":"accessible","label":"Behindertenparkplatz","detail":"1 Platz"},"geometry":{"type":"Point","coordinates":[9.3791,47.42408]}},{"type":"Feature","properties":{"kind":"accessible","label":"Behindertenparkplatz","detail":"1 Platz"},"geometry":{"type":"Point","coordinates":[9.37727,47.42417]}},{"type":"Feature","properties":{"kind":"accessible","label":"Behindertenparkplatz","detail":"1 Platz"},"geometry":{"type":"Point","coordinates":[9.37188,47.42471]}},{"type":"Feature","properties":{"kind":"accessible","label":"Behindertenparkplatz","detail":"2 Plätze"},"geometry":{"type":"Point","coordinates":[9.31354,47.41455]}},{"type":"Feature","properties":{"kind":"accessible","label":"Behindertenparkplatz","detail":"2 Plätze"},"geometry":{"type":"Point","coordinates":[9.38793,47.43152]}},{"type":"Feature","properties":{"kind":"accessible","label":"Behindertenparkplatz","detail":"8 Plätze"},"geometry":{"type":"Point","coordinates":[9.31673,47.41768]}},{"type":"Feature","properties":{"kind":"accessible","label":"Behindertenparkplatz","detail":"6 Plätze"},"geometry":{"type":"Point","coordinates":[9.41506,47.44318]}},{"type":"Feature","properties":{"kind":"accessible","label":"Behindertenparkplatz","detail":"2 Plätze"},"geometry":{"type":"Point","coordinates":[9.3112,47.41476]}},{"type":"Feature","properties":{"kind":"accessible","label":"Behindertenparkplatz","detail":"1 Platz"},"geometry":{"type":"Point","coordinates":[9.35327,47.42262]}},{"type":"Feature","properties":{"kind":"accessible","label":"Behindertenparkplatz","detail":"1 Platz"},"geometry":{"type":"Point","coordinates":[9.38136,47.42481]}},{"type":"Feature","properties":{"kind":"accessible","label":"Behindertenparkplatz","detail":"1 Platz"},"geometry":{"type":"Point","coordinates":[9.37497,47.4256]}},{"type":"Feature","properties":{"kind":"accessible","label":"Behindertenparkplatz","detail":"3 Plätze"},"geometry":{"type":"Point","coordinates":[9.36811,47.42021]}},{"type":"Feature","properties":{"kind":"accessible","label":"Behindertenparkplatz","detail":"1 Platz"},"geometry":{"type":"Point","coordinates":[9.30467,47.40618]}},{"type":"Feature","properties":{"kind":"accessible","label":"Behindertenparkplatz","detail":"1 Platz"},"geometry":{"type":"Point","coordinates":[9.37346,47.42269]}},{"type":"Feature","properties":{"kind":"accessible","label":"Behindertenparkplatz","detail":"1 Platz"},"geometry":{"type":"Point","coordinates":[9.33924,47.41147]}},{"type":"Feature","properties":{"kind":"accessible","label":"Behindertenparkplatz","detail":"1 Platz"},"geometry":{"type":"Point","coordinates":[9.40314,47.44146]}},{"type":"Feature","properties":{"kind":"accessible","label":"Behindertenparkplatz","detail":"2 Plätze"},"geometry":{"type":"Point","coordinates":[9.40694,47.43848]}},{"type":"Feature","properties":{"kind":"accessible","label":"Behindertenparkplatz","detail":"1 Platz"},"geometry":{"type":"Point","coordinates":[9.38838,47.43171]}},{"type":"Feature","properties":{"kind":"accessible","label":"Behindertenparkplatz","detail":"1 Platz"},"geometry":{"type":"Point","coordinates":[9.33854,47.40346]}},{"type":"Feature","properties":{"kind":"accessible","label":"Behindertenparkplatz","detail":"1 Platz"},"geometry":{"type":"Point","coordinates":[9.39128,47.42315]}},{"type":"Feature","properties":{"kind":"accessible","label":"Behindertenparkplatz","detail":"1 Platz"},"geometry":{"type":"Point","coordinates":[9.37622,47.42263]}},{"type":"Feature","properties":{"kind":"accessible","label":"Behindertenparkplatz","detail":"4 Plätze"},"geometry":{"type":"Point","coordinates":[9.3728,47.4243]}},{"type":"Feature","properties":{"kind":"accessible","label":"Behindertenparkplatz","detail":"1 Platz"},"geometry":{"type":"Point","coordinates":[9.30166,47.40368]}},{"type":"Feature","properties":{"kind":"accessible","label":"Behindertenparkplatz","detail":"2 Plätze"},"geometry":{"type":"Point","coordinates":[9.33621,47.41276]}},{"type":"Feature","properties":{"kind":"accessible","label":"Behindertenparkplatz","detail":"2 Plätze"},"geometry":{"type":"Point","coordinates":[9.39424,47.4299]}},{"type":"Feature","properties":{"kind":"accessible","label":"Behindertenparkplatz","detail":"1 Platz"},"geometry":{"type":"Point","coordinates":[9.37022,47.42711]}},{"type":"Feature","properties":{"kind":"accessible","label":"Behindertenparkplatz","detail":"1 Platz"},"geometry":{"type":"Point","coordinates":[9.36782,47.41242]}},{"type":"Feature","properties":{"kind":"accessible","label":"Behindertenparkplatz","detail":"3 Plätze"},"geometry":{"type":"Point","coordinates":[9.37586,47.43774]}},{"type":"Feature","properties":{"kind":"accessible","label":"Behindertenparkplatz","detail":"1 Platz"},"geometry":{"type":"Point","coordinates":[9.39229,47.43391]}},{"type":"Feature","properties":{"kind":"accessible","label":"Behindertenparkplatz","detail":"2 Plätze"},"geometry":{"type":"Point","coordinates":[9.31264,47.41401]}},{"type":"Feature","properties":{"kind":"accessible","label":"Behindertenparkplatz","detail":"1 Platz"},"geometry":{"type":"Point","coordinates":[9.37345,47.42278]}},{"type":"Feature","properties":{"kind":"accessible","label":"Behindertenparkplatz","detail":"1 Platz"},"geometry":{"type":"Point","coordinates":[9.40509,47.43783]}},{"type":"Feature","properties":{"kind":"accessible","label":"Behindertenparkplatz","detail":"5 Plätze"},"geometry":{"type":"Point","coordinates":[9.39172,47.43558]}},{"type":"Feature","properties":{"kind":"accessible","label":"Behindertenparkplatz","detail":"1 Platz"},"geometry":{"type":"Point","coordinates":[9.4056,47.43741]}},{"type":"Feature","properties":{"kind":"accessible","label":"Behindertenparkplatz","detail":"3 Plätze"},"geometry":{"type":"Point","coordinates":[9.3115,47.41568]}},{"type":"Feature","properties":{"kind":"accessible","label":"Behindertenparkplatz","detail":"1 Platz"},"geometry":{"type":"Point","coordinates":[9.37984,47.4238]}},{"type":"Feature","properties":{"kind":"accessible","label":"Behindertenparkplatz","detail":"2 Plätze"},"geometry":{"type":"Point","coordinates":[9.40524,47.4333]}},{"type":"Feature","properties":{"kind":"accessible","label":"Behindertenparkplatz","detail":"2 Plätze"},"geometry":{"type":"Point","coordinates":[9.40901,47.44443]}},{"type":"Feature","properties":{"kind":"accessible","label":"Behindertenparkplatz","detail":"1 Platz"},"geometry":{"type":"Point","coordinates":[9.35965,47.42171]}},{"type":"Feature","properties":{"kind":"accessible","label":"Behindertenparkplatz","detail":"1 Platz"},"geometry":{"type":"Point","coordinates":[9.36088,47.41903]}},{"type":"Feature","properties":{"kind":"accessible","label":"Behindertenparkplatz","detail":"1 Platz"},"geometry":{"type":"Point","coordinates":[9.35522,47.42113]}},{"type":"Feature","properties":{"kind":"accessible","label":"Behindertenparkplatz","detail":"1 Platz"},"geometry":{"type":"Point","coordinates":[9.35393,47.42056]}},{"type":"Feature","properties":{"kind":"accessible","label":"Behindertenparkplatz","detail":"1 Platz"},"geometry":{"type":"Point","coordinates":[9.3112,47.408]}},{"type":"Feature","properties":{"kind":"accessible","label":"Behindertenparkplatz","detail":"1 Platz"},"geometry":{"type":"Point","coordinates":[9.37213,47.42445]}},{"type":"Feature","properties":{"kind":"accessible","label":"Behindertenparkplatz","detail":"6 Plätze"},"geometry":{"type":"Point","coordinates":[9.36758,47.42313]}},{"type":"Feature","properties":{"kind":"accessible","label":"Behindertenparkplatz","detail":"2 Plätze"},"geometry":{"type":"Point","coordinates":[9.37374,47.4222]}},{"type":"Feature","properties":{"kind":"accessible","label":"Behindertenparkplatz","detail":"8 Plätze"},"geometry":{"type":"Point","coordinates":[9.39621,47.43141]}},{"type":"Feature","properties":{"kind":"accessible","label":"Behindertenparkplatz","detail":"1 Platz"},"geometry":{"type":"Point","coordinates":[9.36702,47.42015]}},{"type":"Feature","properties":{"kind":"accessible","label":"Behindertenparkplatz","detail":"1 Platz"},"geometry":{"type":"Point","coordinates":[9.39312,47.43412]}},{"type":"Feature","properties":{"kind":"accessible","label":"Behindertenparkplatz","detail":"2 Plätze"},"geometry":{"type":"Point","coordinates":[9.36874,47.42228]}},{"type":"Feature","properties":{"kind":"accessible","label":"Behindertenparkplatz","detail":"1 Platz"},"geometry":{"type":"Point","coordinates":[9.30606,47.41356]}},{"type":"Feature","properties":{"kind":"accessible","label":"Behindertenparkplatz","detail":"2 Plätze"},"geometry":{"type":"Point","coordinates":[9.38862,47.42907]}},{"type":"Feature","properties":{"kind":"accessible","label":"Behindertenparkplatz","detail":"1 Platz"},"geometry":{"type":"Point","coordinates":[9.36952,47.42264]}},{"type":"Feature","properties":{"kind":"accessible","label":"Behindertenparkplatz","detail":"6 Plätze"},"geometry":{"type":"Point","coordinates":[9.3138,47.41542]}},{"type":"Feature","properties":{"kind":"accessible","label":"Behindertenparkplatz","detail":"1 Platz"},"geometry":{"type":"Point","coordinates":[9.38831,47.43168]}},{"type":"Feature","properties":{"kind":"accessible","label":"Behindertenparkplatz","detail":"1 Platz"},"geometry":{"type":"Point","coordinates":[9.40899,47.43954]}},{"type":"Feature","properties":{"kind":"accessible","label":"Behindertenparkplatz","detail":"1 Platz"},"geometry":{"type":"Point","coordinates":[9.37358,47.42184]}},{"type":"Feature","properties":{"kind":"accessible","label":"Behindertenparkplatz","detail":"1 Platz"},"geometry":{"type":"Point","coordinates":[9.37371,47.42691]}},{"type":"Feature","properties":{"kind":"accessible","label":"Behindertenparkplatz","detail":"3 Plätze"},"geometry":{"type":"Point","coordinates":[9.40937,47.43714]}},{"type":"Feature","properties":{"kind":"accessible","label":"Behindertenparkplatz","detail":"1 Platz"},"geometry":{"type":"Point","coordinates":[9.38845,47.42883]}},{"type":"Feature","properties":{"kind":"accessible","label":"Behindertenparkplatz","detail":"2 Plätze"},"geometry":{"type":"Point","coordinates":[9.33986,47.41354]}},{"type":"Feature","properties":{"kind":"accessible","label":"Behindertenparkplatz","detail":"3 Plätze"},"geometry":{"type":"Point","coordinates":[9.41307,47.43759]}},{"type":"Feature","properties":{"kind":"accessible","label":"Behindertenparkplatz","detail":"3 Plätze"},"geometry":{"type":"Point","coordinates":[9.38731,47.43179]}},{"type":"Feature","properties":{"kind":"accessible","label":"Behindertenparkplatz","detail":"3 Plätze"},"geometry":{"type":"Point","coordinates":[9.31435,47.41494]}},{"type":"Feature","properties":{"kind":"accessible","label":"Behindertenparkplatz","detail":"1 Platz"},"geometry":{"type":"Point","coordinates":[9.37025,47.42018]}},{"type":"Feature","properties":{"kind":"accessible","label":"Behindertenparkplatz","detail":"4 Plätze"},"geometry":{"type":"Point","coordinates":[9.37843,47.42744]}},{"type":"Feature","properties":{"kind":"accessible","label":"Behindertenparkplatz","detail":"1 Platz"},"geometry":{"type":"Point","coordinates":[9.37264,47.42095]}},{"type":"Feature","properties":{"kind":"accessible","label":"Behindertenparkplatz","detail":"3 Plätze"},"geometry":{"type":"Point","coordinates":[9.37386,47.43126]}},{"type":"Feature","properties":{"kind":"accessible","label":"Behindertenparkplatz","detail":"1 Platz"},"geometry":{"type":"Point","coordinates":[9.36242,47.41911]}},{"type":"Feature","properties":{"kind":"accessible","label":"Behindertenparkplatz","detail":"1 Platz"},"geometry":{"type":"Point","coordinates":[9.35507,47.42253]}},{"type":"Feature","properties":{"kind":"accessible","label":"Behindertenparkplatz","detail":"3 Plätze"},"geometry":{"type":"Point","coordinates":[9.38388,47.42967]}},{"type":"Feature","properties":{"kind":"accessible","label":"Behindertenparkplatz","detail":"4 Plätze"},"geometry":{"type":"Point","coordinates":[9.37091,47.42206]}},{"type":"Feature","properties":{"kind":"accessible","label":"Behindertenparkplatz","detail":"2 Plätze"},"geometry":{"type":"Point","coordinates":[9.33579,47.41023]}},{"type":"Feature","properties":{"kind":"accessible","label":"Behindertenparkplatz","detail":"5 Plätze"},"geometry":{"type":"Point","coordinates":[9.37859,47.42554]}},{"type":"Feature","properties":{"kind":"accessible","label":"Behindertenparkplatz","detail":"1 Platz"},"geometry":{"type":"Point","coordinates":[9.37228,47.42964]}},{"type":"Feature","properties":{"kind":"accessible","label":"Behindertenparkplatz","detail":"1 Platz"},"geometry":{"type":"Point","coordinates":[9.41435,47.43723]}},{"type":"Feature","properties":{"kind":"accessible","label":"Behindertenparkplatz","detail":"1 Platz"},"geometry":{"type":"Point","coordinates":[9.38186,47.43069]}},{"type":"Feature","properties":{"kind":"accessible","label":"Behindertenparkplatz","detail":"1 Platz"},"geometry":{"type":"Point","coordinates":[9.36669,47.42185]}},{"type":"Feature","properties":{"kind":"accessible","label":"Behindertenparkplatz","detail":"4 Plätze"},"geometry":{"type":"Point","coordinates":[9.37466,47.42141]}},{"type":"Feature","properties":{"kind":"accessible","label":"Behindertenparkplatz","detail":"1 Platz"},"geometry":{"type":"Point","coordinates":[9.39428,47.42991]}},{"type":"Feature","properties":{"kind":"accessible","label":"Behindertenparkplatz","detail":"1 Platz"},"geometry":{"type":"Point","coordinates":[9.38589,47.43099]}},{"type":"Feature","properties":{"kind":"accessible","label":"Behindertenparkplatz","detail":"1 Platz"},"geometry":{"type":"Point","coordinates":[9.30571,47.4059]}},{"type":"Feature","properties":{"kind":"accessible","label":"Behindertenparkplatz","detail":"1 Platz"},"geometry":{"type":"Point","coordinates":[9.37568,47.43149]}}]}