{"type":"FeatureCollection","features":[{"type":"Feature","properties":{"name":"Alt-Wiedikon (Kreis 3)"},"geometry":{"type":"Polygon","coordinates":[[[8.50583,47.36922],[8.51192,47.36999],[8.51161,47.3702],[8.5134,47.37033],[8.5141,47.37067],[8.5144,47.37022],[8.51713,47.37058],[8.52037,47.36955],[8.52304,47.36749],[8.52314,47.36738],[8.5228,47.36697],[8.52314,47.36688],[8.52262,47.3661],[8.52248,47.3656],[8.52237,47.36322],[8.52248,47.36322],[8.52269,47.36438],[8.52312,47.36526],[8.52397,47.36625],[8.52422,47.36613],[8.52318,47.36476],[8.52289,47.36389],[8.5228,47.363],[8.52329,47.36035],[8.5244,47.35697],[8.52479,47.35382],[8.52449,47.3531],[8.52278,47.35221],[8.52005,47.35142],[8.51991,47.35167],[8.52154,47.3521],[8.52134,47.35236],[8.52294,47.35518],[8.52163,47.35727],[8.52084,47.35746],[8.5214,47.35637],[8.51963,47.35587],[8.51895,47.357],[8.51806,47.35669],[8.51719,47.35594],[8.51713,47.35543],[8.51472,47.35335],[8.51436,47.35321],[8.51443,47.35389],[8.51425,47.35502],[8.51384,47.35618],[8.51481,47.35786],[8.51469,47.35804],[8.5142,47.35786],[8.51256,47.35982],[8.51176,47.35952],[8.5127,47.35999],[8.51233,47.36029],[8.51033,47.35926],[8.51054,47.35902],[8.51027,47.35924],[8.50984,47.35909],[8.50732,47.36195],[8.50887,47.36306],[8.51167,47.36419],[8.50826,47.36479],[8.5086,47.36508],[8.50684,47.36703],[8.50711,47.36713],[8.50705,47.36725],[8.50673,47.36711],[8.5068,47.36723],[8.50583,47.36922]]]}},{"type":"Feature","properties":{"name":"Witikon (Kreis 7)"},"geometry":{"type":"Polygon","coordinates":[[[8.57525,47.36378],[8.57548,47.36414],[8.57612,47.36455],[8.57724,47.36463],[8.57906,47.36421],[8.57924,47.36393],[8.57893,47.36378],[8.57903,47.36353],[8.5788,47.3633],[8.5789,47.36289],[8.57914,47.36254],[8.5799,47.36221],[8.58124,47.36217],[8.58211,47.36251],[8.58265,47.36233],[8.58306,47.36258],[8.5838,47.36243],[8.58548,47.36253],[8.58669,47.36469],[8.58738,47.36521],[8.58912,47.36574],[8.58965,47.3662],[8.5903,47.36791],[8.59087,47.3685],[8.59099,47.36885],[8.59282,47.36851],[8.59393,47.3685],[8.59602,47.36888],[8.59623,47.36806],[8.59797,47.36835],[8.59843,47.36769],[8.59914,47.36817],[8.59954,47.36825],[8.60025,47.3678],[8.60069,47.36792],[8.60093,47.36736],[8.60118,47.36743],[8.60277,47.36859],[8.60308,47.36936],[8.60296,47.36982],[8.60223,47.37042],[8.60185,47.37115],[8.60164,47.37175],[8.60185,47.37192],[8.60197,47.37168],[8.60326,47.3713],[8.60445,47.37013],[8.60583,47.36908],[8.60601,47.36875],[8.60746,47.36816],[8.60817,47.3676],[8.61064,47.36731],[8.61201,47.36684],[8.61309,47.36776],[8.61347,47.3678],[8.61367,47.36802],[8.61551,47.36769],[8.61646,47.36841],[8.61666,47.36828],[8.61765,47.36681],[8.6171,47.36626],[8.61684,47.36534],[8.61566,47.36465],[8.61496,47.36458],[8.61559,47.36342],[8.61567,47.36273],[8.61483,47.36263],[8.61472,47.36151],[8.6193,47.36121],[8.62258,47.35983],[8.62188,47.35946],[8.62173,47.3585],[8.62131,47.35772],[8.62135,47.35743],[8.62352,47.35592],[8.6234,47.35578],[8.62354,47.35561],[8.62545,47.35466],[8.62425,47.354],[8.62246,47.35364],[8.62209,47.35334],[8.6199,47.35367],[8.61977,47.35385],[8.61846,47.35382],[8.6184,47.35425],[8.61712,47.35413],[8.61572,47.35442],[8.61521,47.3541],[8.61388,47.35402],[8.61256,47.35436],[8.61157,47.35394],[8.61108,47.35352],[8.61043,47.35337],[8.60947,47.35351],[8.60778,47.35333],[8.60608,47.35363],[8.60507,47.35359],[8.60382,47.353],[8.60306,47.35219],[8.60321,47.35207],[8.60295,47.35174],[8.60308,47.3514],[8.60301,47.35076],[8.60263,47.35073],[8.60161,47.35073],[8.60105,47.35105],[8.60027,47.35111],[8.59961,47.35145],[8.5986,47.35145],[8.59825,47.35165],[8.5969,47.3514],[8.59667,47.35161],[8.59597,47.35169],[8.59565,47.3519],[8.59495,47.35161],[8.59455,47.35175],[8.59397,47.3516],[8.59351,47.35211],[8.59213,47.35238],[8.59191,47.35278],[8.59119,47.35321],[8.59048,47.35271],[8.59015,47.35286],[8.58904,47.3528],[8.58794,47.35307],[8.58749,47.35267],[8.58695,47.35285],[8.58603,47.35286],[8.58564,47.35248],[8.58451,47.35294],[8.58358,47.3526],[8.58285,47.35283],[8.58258,47.35328],[8.5831,47.35342],[8.58366,47.35383],[8.58324,47.35411],[8.58286,47.35379],[8.5809,47.35486],[8.58075,47.35515],[8.58022,47.35508],[8.57992,47.35485],[8.57931,47.35538],[8.57864,47.35634],[8.57847,47.35626],[8.57693,47.35725],[8.57705,47.35734],[8.57668,47.35781],[8.57747,47.35815],[8.57745,47.35838],[8.57682,47.35848],[8.57632,47.35885],[8.57603,47.35878],[8.57651,47.35906],[8.57637,47.35953],[8.5759,47.36016],[8.57534,47.36057],[8.57543,47.36075],[8.57593,47.36065],[8.5764,47.36083],[8.57649,47.36128],[8.57606,47.36189],[8.57622,47.36193],[8.57569,47.36294],[8.57552,47.36365],[8.57525,47.36378]]]}},{"type":"Feature","properties":{"name":"Langstrasse (Kreis 4)"},"geometry":{"type":"Polygon","coordinates":[[[8.51547,47.38334],[8.51745,47.38537],[8.52533,47.38323],[8.52569,47.383],[8.52836,47.38224],[8.52888,47.38175],[8.52874,47.38152],[8.5312,47.38123],[8.53757,47.37938],[8.53769,47.37958],[8.53842,47.37922],[8.53748,47.3777],[8.53473,47.37563],[8.5331,47.37405],[8.53266,47.37446],[8.53189,47.37322],[8.53023,47.37352],[8.52816,47.37313],[8.5251,47.37416],[8.52394,47.37249],[8.52343,47.3725],[8.52388,47.37273],[8.52485,47.37416],[8.52195,47.37429],[8.51895,47.37497],[8.51852,47.37576],[8.51844,47.37667],[8.51871,47.37753],[8.52097,47.38005],[8.52108,47.38089],[8.52092,47.38135],[8.51742,47.38364],[8.51618,47.38396],[8.51572,47.38349],[8.51586,47.38339],[8.51566,47.38319],[8.51547,47.38334]]]}},{"type":"Feature","properties":{"name":"Escher Wyss (Kreis 5)"},"geometry":{"type":"Polygon","coordinates":[[[8.49837,47.39205],[8.50198,47.39207],[8.50293,47.39267],[8.50213,47.39325],[8.5021,47.39356],[8.50468,47.39384],[8.5052,47.39404],[8.50543,47.39495],[8.51288,47.3945],[8.51428,47.39416],[8.51701,47.3931],[8.52484,47.39113],[8.52834,47.38939],[8.53288,47.38639],[8.53249,47.38608],[8.53224,47.38618],[8.5277,47.38945],[8.52721,47.3892],[8.52725,47.38907],[8.52689,47.38902],[8.52648,47.3883],[8.52613,47.38825],[8.52647,47.38806],[8.52565,47.38757],[8.52163,47.38953],[8.52146,47.38935],[8.52529,47.38747],[8.52191,47.38613],[8.52096,47.3854],[8.52057,47.3845],[8.5133,47.38645],[8.51237,47.38685],[8.51192,47.38717],[8.51144,47.38803],[8.51075,47.38872],[8.51059,47.38877],[8.51068,47.38846],[8.51005,47.3883],[8.50777,47.38877],[8.50647,47.38922],[8.50632,47.3891],[8.50557,47.38929],[8.50484,47.38958],[8.5031,47.39068],[8.49837,47.39205]]]}},{"type":"Feature","properties":{"name":"Enge (Kreis 2)"},"geometry":{"type":"Polygon","coordinates":[[[8.52281,47.36317],[8.52318,47.36476],[8.52404,47.36594],[8.52508,47.3668],[8.52901,47.36938],[8.53038,47.36826],[8.53365,47.36949],[8.53379,47.36936],[8.53479,47.36952],[8.53525,47.36892],[8.53723,47.36865],[8.54214,47.36321],[8.54206,47.35268],[8.53323,47.35189],[8.53096,47.35233],[8.53109,47.35254],[8.52993,47.35282],[8.52932,47.35337],[8.52838,47.35337],[8.52819,47.35197],[8.5272,47.35195],[8.5263,47.35172],[8.52628,47.35215],[8.52602,47.35259],[8.52515,47.35325],[8.52507,47.3536],[8.52478,47.35368],[8.5244,47.35697],[8.52329,47.36035],[8.52284,47.36236],[8.52281,47.36317]]]}},{"type":"Feature","properties":{"name":"Weinegg (Kreis 8)"},"geometry":{"type":"Polygon","coordinates":[[[8.55421,47.36458],[8.55486,47.36477],[8.55544,47.36443],[8.55662,47.36416],[8.55666,47.36398],[8.55857,47.36272],[8.55962,47.36218],[8.56039,47.36202],[8.56014,47.36177],[8.56049,47.36163],[8.56106,47.36057],[8.56164,47.36005],[8.56219,47.35994],[8.56293,47.35949],[8.56587,47.3596],[8.56713,47.35874],[8.56813,47.35899],[8.56942,47.35871],[8.56972,47.35846],[8.56968,47.35795],[8.56992,47.35784],[8.57272,47.35804],[8.57314,47.35764],[8.57444,47.35699],[8.57456,47.35664],[8.57512,47.35625],[8.57505,47.35586],[8.57518,47.35555],[8.576,47.35541],[8.5763,47.35493],[8.5769,47.35505],[8.57743,47.35482],[8.57802,47.35489],[8.57818,47.35445],[8.57939,47.3541],[8.57956,47.35361],[8.58023,47.35366],[8.58084,47.35339],[8.58163,47.35377],[8.58182,47.35345],[8.58255,47.35334],[8.58285,47.35283],[8.58365,47.35258],[8.58451,47.35294],[8.58564,47.35248],[8.58593,47.35283],[8.58629,47.35285],[8.58592,47.35231],[8.58531,47.35201],[8.58463,47.35141],[8.58418,47.35129],[8.58439,47.35116],[8.584,47.35084],[8.58349,47.35104],[8.58336,47.35087],[8.58222,47.35101],[8.58247,47.35062],[8.57852,47.34873],[8.57828,47.34888],[8.57787,47.34865],[8.57687,47.34878],[8.5769,47.34859],[8.57626,47.34838],[8.5731,47.34751],[8.57301,47.34765],[8.57215,47.34744],[8.57164,47.34727],[8.57171,47.34711],[8.5703,47.34672],[8.56969,47.3476],[8.56736,47.34673],[8.56705,47.34688],[8.56408,47.35008],[8.56298,47.35188],[8.5618,47.35335],[8.56148,47.35405],[8.56135,47.35524],[8.5611,47.35574],[8.55802,47.35911],[8.55767,47.35913],[8.55787,47.35924],[8.5574,47.35967],[8.55687,47.36084],[8.55549,47.36225],[8.55464,47.36358],[8.55421,47.36458]]]}},{"type":"Feature","properties":{"name":"Seefeld (Kreis 8)"},"geometry":{"type":"Polygon","coordinates":[[[8.54214,47.36321],[8.54696,47.36442],[8.54795,47.36501],[8.55425,47.35777],[8.5546,47.35787],[8.55468,47.35776],[8.55436,47.35765],[8.55928,47.35261],[8.55997,47.35115],[8.56026,47.35116],[8.55996,47.35188],[8.56005,47.35196],[8.5609,47.35132],[8.56443,47.34744],[8.5651,47.34644],[8.55388,47.34086],[8.54206,47.35268],[8.54214,47.36321]]]}},{"type":"Feature","properties":{"name":"Leimbach (Kreis 2)"},"geometry":{"type":"Polygon","coordinates":[[[8.50065,47.3311],[8.50113,47.33183],[8.50077,47.33202],[8.50079,47.33224],[8.50107,47.3326],[8.50192,47.33303],[8.50222,47.33364],[8.50179,47.33411],[8.50153,47.33504],[8.50184,47.33612],[8.50251,47.33663],[8.50225,47.33792],[8.50267,47.33823],[8.50306,47.33931],[8.50307,47.33975],[8.50331,47.33975],[8.50356,47.33997],[8.50396,47.34073],[8.5045,47.34132],[8.50698,47.3429],[8.50944,47.344],[8.51359,47.34379],[8.5144,47.34359],[8.51473,47.34335],[8.51552,47.34352],[8.51666,47.34349],[8.51807,47.34433],[8.51827,47.34342],[8.51821,47.34279],[8.51751,47.34141],[8.51635,47.33967],[8.5163,47.3387],[8.51693,47.33782],[8.51988,47.33599],[8.52022,47.33557],[8.52049,47.33478],[8.52027,47.33433],[8.51719,47.33163],[8.51689,47.33115],[8.5168,47.33064],[8.51711,47.32989],[8.51898,47.32763],[8.51911,47.32689],[8.51866,47.32534],[8.5189,47.32468],[8.51993,47.32401],[8.51869,47.32386],[8.51773,47.32321],[8.51561,47.32315],[8.51473,47.32272],[8.51296,47.32289],[8.51163,47.32221],[8.50958,47.32202],[8.50952,47.32165],[8.50789,47.32203],[8.50736,47.32172],[8.5053,47.32143],[8.50477,47.32121],[8.50431,47.32074],[8.50318,47.32022],[8.50242,47.32053],[8.50228,47.32081],[8.50153,47.32129],[8.50104,47.32198],[8.50096,47.32259],[8.50061,47.32278],[8.50079,47.3237],[8.50068,47.32451],[8.50085,47.32482],[8.501,47.32595],[8.50151,47.3265],[8.5016,47.32732],[8.50189,47.32764],[8.50133,47.32883],[8.50142,47.32903],[8.50084,47.3295],[8.5007,47.32979],[8.50088,47.33053],[8.50065,47.3311]]]}},{"type":"Feature","properties":{"name":"Wollishofen (Kreis 2)"},"geometry":{"type":"Polygon","coordinates":[[[8.51615,47.34897],[8.51646,47.34979],[8.5174,47.35064],[8.52347,47.35248],[8.52434,47.35297],[8.52478,47.35368],[8.52507,47.3536],[8.52515,47.35325],[8.52602,47.35259],[8.52628,47.35215],[8.5263,47.35172],[8.5272,47.35195],[8.52819,47.35197],[8.52838,47.35337],[8.52932,47.35337],[8.52993,47.35282],[8.53109,47.35254],[8.53096,47.35233],[8.53323,47.35189],[8.54206,47.35268],[8.55388,47.34086],[8.54208,47.33502],[8.54074,47.33376],[8.54031,47.33396],[8.5402,47.33372],[8.54043,47.33358],[8.53957,47.33272],[8.53931,47.33269],[8.53871,47.33201],[8.53643,47.33076],[8.53643,47.33044],[8.53623,47.33018],[8.53347,47.32992],[8.53177,47.32948],[8.53146,47.32846],[8.53103,47.32789],[8.52975,47.32777],[8.5297,47.32686],[8.529,47.32698],[8.52814,47.32685],[8.52803,47.32635],[8.52756,47.32639],[8.52763,47.32616],[8.5258,47.32619],[8.52564,47.32575],[8.52427,47.32608],[8.52421,47.32486],[8.52373,47.32416],[8.52195,47.32435],[8.52195,47.32394],[8.51993,47.32401],[8.5189,47.32468],[8.51866,47.32534],[8.51909,47.32678],[8.51905,47.32746],[8.51695,47.33013],[8.5168,47.3309],[8.5174,47.33184],[8.52031,47.33437],[8.52048,47.33491],[8.51988,47.33599],[8.51693,47.33782],[8.5163,47.3387],[8.51635,47.33967],[8.5181,47.34247],[8.51827,47.34342],[8.51802,47.34423],[8.51805,47.34437],[8.51836,47.34444],[8.51638,47.34813],[8.51615,47.34897]]]}},{"type":"Feature","properties":{"name":"Mühlebach (Kreis 8)"},"geometry":{"type":"Polygon","coordinates":[[[8.54781,47.36501],[8.54885,47.36602],[8.54901,47.36601],[8.55222,47.36545],[8.55417,47.36463],[8.55549,47.36225],[8.55687,47.36084],[8.5574,47.35967],[8.55787,47.35924],[8.55767,47.35913],[8.55802,47.35911],[8.5611,47.35574],[8.56135,47.35524],[8.56148,47.35405],[8.5618,47.35335],[8.56298,47.35188],[8.56408,47.35008],[8.56682,47.34713],[8.56564,47.34684],[8.56576,47.34666],[8.5651,47.34644],[8.56443,47.34744],[8.5609,47.35132],[8.56005,47.35196],[8.55996,47.35188],[8.56026,47.35116],[8.55997,47.35115],[8.55928,47.35261],[8.55436,47.35765],[8.55468,47.35776],[8.5546,47.35787],[8.55425,47.35777],[8.54968,47.36314],[8.54781,47.36501]]]}},{"type":"Feature","properties":{"name":"Oberstrass (Kreis 6)"},"geometry":{"type":"Polygon","coordinates":[[[8.54372,47.38578],[8.54416,47.38588],[8.54383,47.38671],[8.54466,47.38704],[8.54425,47.38752],[8.54444,47.38766],[8.54427,47.38809],[8.5458,47.38904],[8.54507,47.38983],[8.54514,47.39],[8.54437,47.39027],[8.54527,47.39081],[8.54478,47.39407],[8.54494,47.39464],[8.5452,47.39461],[8.54538,47.3952],[8.54601,47.39533],[8.54571,47.39553],[8.54604,47.39604],[8.54564,47.39626],[8.54596,47.39687],[8.54794,47.39917],[8.55116,47.40121],[8.55255,47.4019],[8.55333,47.40108],[8.55454,47.40048],[8.55543,47.40137],[8.55562,47.40129],[8.55524,47.40054],[8.55428,47.40003],[8.55353,47.39929],[8.5543,47.39855],[8.55461,47.39846],[8.55716,47.39873],[8.55742,47.39905],[8.55791,47.39873],[8.5594,47.39861],[8.56308,47.39574],[8.56547,47.39459],[8.56897,47.3917],[8.56742,47.39102],[8.5668,47.39031],[8.56539,47.38969],[8.56411,47.38874],[8.56372,47.38806],[8.56299,47.3874],[8.56093,47.38882],[8.55851,47.38703],[8.55762,47.38711],[8.5566,47.38673],[8.55623,47.38633],[8.55629,47.38617],[8.55595,47.38584],[8.5557,47.38515],[8.55392,47.38392],[8.55389,47.38356],[8.55152,47.38224],[8.55055,47.38187],[8.55058,47.38165],[8.55311,47.37968],[8.55129,47.37814],[8.55109,47.37815],[8.55098,47.37787],[8.5488,47.37704],[8.5485,47.37744],[8.54662,47.37709],[8.54533,47.37903],[8.54501,47.37924],[8.54581,47.37952],[8.54482,47.38098],[8.5444,47.38202],[8.54487,47.38211],[8.54475,47.38226],[8.54496,47.38231],[8.54452,47.38262],[8.54473,47.38274],[8.54451,47.38327],[8.54522,47.3835],[8.54477,47.38513],[8.54403,47.38533],[8.54372,47.38578]]]}},{"type":"Feature","properties":{"name":"Schwamendingen-Mitte (Kreis 12)"},"geometry":{"type":"Polygon","coordinates":[[[8.55353,47.39929],[8.55428,47.40003],[8.55524,47.40054],[8.55583,47.40163],[8.55647,47.40234],[8.55735,47.40281],[8.55723,47.4037],[8.55633,47.40347],[8.55586,47.40355],[8.55646,47.40405],[8.55721,47.40511],[8.55813,47.40539],[8.56098,47.4052],[8.56322,47.40578],[8.56358,47.40595],[8.56327,47.40628],[8.56363,47.40598],[8.56589,47.40731],[8.56549,47.40786],[8.56556,47.40795],[8.56606,47.40743],[8.56836,47.40937],[8.56856,47.40918],[8.57029,47.41021],[8.57208,47.41049],[8.57242,47.41077],[8.57259,47.41118],[8.57103,47.41116],[8.57107,47.41143],[8.57296,47.41148],[8.58773,47.40804],[8.58819,47.40762],[8.58692,47.40735],[8.58719,47.40701],[8.58694,47.4067],[8.58583,47.40674],[8.5854,47.40698],[8.57685,47.40504],[8.5767,47.40482],[8.57682,47.40396],[8.57658,47.40322],[8.57675,47.40316],[8.57626,47.40264],[8.57685,47.40217],[8.57495,47.39995],[8.57487,47.39966],[8.57223,47.40116],[8.5718,47.40079],[8.57342,47.39899],[8.57368,47.39825],[8.5739,47.39835],[8.57483,47.39756],[8.57518,47.39704],[8.57695,47.39589],[8.57856,47.39539],[8.5795,47.39489],[8.58149,47.39478],[8.58191,47.39493],[8.58303,47.39421],[8.58292,47.39363],[8.58179,47.3929],[8.58177,47.39259],[8.58141,47.39227],[8.58141,47.39152],[8.58172,47.3905],[8.58125,47.39013],[8.58086,47.39008],[8.57986,47.39084],[8.57953,47.39141],[8.5786,47.3917],[8.57827,47.39091],[8.57774,47.39101],[8.57726,47.39061],[8.5761,47.39066],[8.57514,47.39024],[8.57365,47.39072],[8.57321,47.3906],[8.5688,47.39174],[8.56828,47.39236],[8.56547,47.39459],[8.56308,47.39574],[8.5594,47.39861],[8.55791,47.39873],[8.55742,47.39905],[8.55716,47.39873],[8.55461,47.39846],[8.5543,47.39855],[8.55353,47.39929]]]}},{"type":"Feature","properties":{"name":"Fluntern (Kreis 7)"},"geometry":{"type":"Polygon","coordinates":[[[8.54866,47.37709],[8.55098,47.37787],[8.55109,47.37815],[8.55129,47.37814],[8.55311,47.37968],[8.55058,47.38165],[8.55055,47.38187],[8.55152,47.38224],[8.55389,47.38356],[8.55392,47.38392],[8.5557,47.38515],[8.55595,47.38584],[8.55629,47.38617],[8.55623,47.38633],[8.5566,47.38673],[8.55762,47.38711],[8.55851,47.38703],[8.56093,47.38882],[8.56299,47.3874],[8.56372,47.38806],[8.56411,47.38874],[8.56539,47.38969],[8.5668,47.39031],[8.56742,47.39102],[8.56902,47.39172],[8.57321,47.3906],[8.57365,47.39072],[8.57514,47.39024],[8.5761,47.39066],[8.57726,47.39061],[8.57774,47.39101],[8.57827,47.39091],[8.5786,47.3917],[8.57953,47.39141],[8.57986,47.39084],[8.58248,47.38866],[8.58202,47.38804],[8.58219,47.38794],[8.582,47.38776],[8.5798,47.38708],[8.5788,47.38569],[8.57802,47.38528],[8.57744,47.38475],[8.57618,47.38418],[8.57446,47.38393],[8.5732,47.38344],[8.57267,47.38307],[8.5718,47.38135],[8.57161,47.38128],[8.57403,47.3792],[8.57085,47.37818],[8.5715,47.37754],[8.56694,47.37611],[8.56557,47.37603],[8.56363,47.37544],[8.56063,47.37527],[8.56024,47.37497],[8.56022,47.37423],[8.55985,47.37364],[8.55916,47.37329],[8.55897,47.373],[8.55836,47.3729],[8.55786,47.37306],[8.55763,47.3729],[8.55773,47.37278],[8.55425,47.37134],[8.55277,47.37297],[8.55264,47.37328],[8.55077,47.37272],[8.55066,47.37252],[8.54945,47.37525],[8.54946,47.37556],[8.54866,47.37709]]]}},{"type":"Feature","properties":{"name":"Rathaus (Kreis 1)"},"geometry":{"type":"Polygon","coordinates":[[[8.54181,47.37426],[8.54203,47.37538],[8.54229,47.37568],[8.54239,47.37648],[8.54407,47.37638],[8.54408,47.37663],[8.54444,47.37663],[8.54708,47.37295],[8.5473,47.37159],[8.5464,47.37078],[8.54676,47.37047],[8.54692,47.37051],[8.54784,47.36917],[8.54707,47.36843],[8.54393,47.36719],[8.54399,47.36688],[8.54243,47.36661],[8.54232,47.36689],[8.542,47.367],[8.54186,47.36736],[8.5421,47.36985],[8.54191,47.36993],[8.54181,47.37281],[8.54199,47.37383],[8.54181,47.37426]]]}},{"type":"Feature","properties":{"name":"Hottingen (Kreis 7)"},"geometry":{"type":"Polygon","coordinates":[[[8.54884,47.3663],[8.54924,47.36669],[8.54953,47.36658],[8.55047,47.36718],[8.54979,47.36774],[8.55085,47.36846],[8.54894,47.37],[8.55073,47.37195],[8.55073,47.3727],[8.55264,47.37328],[8.55277,47.37297],[8.55424,47.37134],[8.55773,47.37278],[8.55763,47.3729],[8.55786,47.37306],[8.55836,47.3729],[8.55897,47.373],[8.55916,47.37329],[8.55985,47.37364],[8.56022,47.37423],[8.56024,47.37497],[8.56063,47.37527],[8.56363,47.37544],[8.56557,47.37603],[8.56694,47.37611],[8.5715,47.37754],[8.57085,47.37818],[8.57403,47.3792],[8.57161,47.38128],[8.5718,47.38135],[8.57272,47.38313],[8.57451,47.38395],[8.57613,47.38417],[8.57733,47.38469],[8.57802,47.38528],[8.5788,47.38569],[8.5798,47.38708],[8.58023,47.38727],[8.58166,47.38763],[8.58317,47.38831],[8.58438,47.38833],[8.58433,47.38894],[8.58494,47.39011],[8.58529,47.3904],[8.58697,47.39017],[8.58692,47.38977],[8.58766,47.38905],[8.58699,47.38793],[8.59213,47.38625],[8.59309,47.38565],[8.593,47.38523],[8.59356,47.38522],[8.59275,47.38417],[8.59083,47.38476],[8.59014,47.38381],[8.58968,47.384],[8.58956,47.38376],[8.59219,47.38311],[8.59152,47.38244],[8.59385,47.3808],[8.59408,47.3806],[8.59407,47.38029],[8.59557,47.3796],[8.59576,47.37927],[8.59723,47.37849],[8.59675,47.37782],[8.59703,47.37716],[8.59761,47.3766],[8.59706,47.37589],[8.59779,47.37557],[8.59829,47.3751],[8.59857,47.37473],[8.59814,47.37447],[8.60021,47.3733],[8.60054,47.3734],[8.60097,47.37312],[8.60195,47.37198],[8.60164,47.37175],[8.60185,47.37115],[8.6022,47.37046],[8.6029,47.3699],[8.60309,47.36946],[8.60277,47.36859],[8.60099,47.36733],[8.60069,47.36792],[8.60025,47.3678],[8.59954,47.36825],[8.59914,47.36817],[8.59843,47.36769],[8.59797,47.36835],[8.59623,47.36806],[8.59602,47.36888],[8.59422,47.36852],[8.59282,47.36851],[8.58935,47.36911],[8.58855,47.36884],[8.58707,47.36895],[8.58638,47.36935],[8.58501,47.37116],[8.58462,47.37225],[8.58481,47.37325],[8.58466,47.37358],[8.58327,47.37371],[8.58165,47.37447],[8.5806,47.37462],[8.57667,47.37397],[8.57694,47.37323],[8.57783,47.37217],[8.57832,47.3705],[8.57803,47.3703],[8.57268,47.36816],[8.57134,47.3679],[8.56891,47.3671],[8.56854,47.36685],[8.56883,47.36661],[8.56776,47.36597],[8.56724,47.36652],[8.56167,47.36425],[8.56041,47.36512],[8.5567,47.36407],[8.55544,47.36443],[8.55486,47.36477],[8.55421,47.36458],[8.55222,47.36545],[8.54885,47.36602],[8.54884,47.3663]]]}},{"type":"Feature","properties":{"name":"City (Kreis 1)"},"geometry":{"type":"Polygon","coordinates":[[[8.52922,47.36921],[8.53016,47.36987],[8.53099,47.37072],[8.5329,47.37383],[8.53344,47.37444],[8.53473,47.37563],[8.53669,47.377],[8.53756,47.37779],[8.53873,47.37964],[8.539,47.38047],[8.53894,47.3816],[8.53848,47.38266],[8.53886,47.38297],[8.53926,47.38274],[8.54001,47.38195],[8.54167,47.37965],[8.54139,47.37944],[8.54235,47.37677],[8.54198,47.37678],[8.54207,47.37625],[8.54162,47.3762],[8.54142,47.37684],[8.54079,47.37687],[8.54067,47.37666],[8.5397,47.37691],[8.5381,47.37375],[8.5382,47.37223],[8.5403,47.36628],[8.53968,47.36595],[8.53728,47.36862],[8.53525,47.36892],[8.53479,47.36952],[8.53379,47.36936],[8.53365,47.36949],[8.53038,47.36826],[8.52922,47.36921]]]}},{"type":"Feature","properties":{"name":"Albisrieden (Kreis 9)"},"geometry":{"type":"Polygon","coordinates":[[[8.46419,47.36838],[8.46449,47.36875],[8.46491,47.36897],[8.46484,47.36911],[8.46939,47.37136],[8.47043,47.3726],[8.47049,47.37308],[8.47024,47.37395],[8.47188,47.37512],[8.4718,47.37524],[8.47403,47.37617],[8.47469,47.3771],[8.47494,47.37707],[8.47495,47.37689],[8.47539,47.37687],[8.47543,47.37727],[8.47706,47.3778],[8.47919,47.37903],[8.47943,47.37934],[8.48103,47.38009],[8.48176,47.37953],[8.48219,47.37974],[8.48268,47.37974],[8.48301,47.38026],[8.4841,47.38021],[8.48453,47.38053],[8.48524,47.38016],[8.48613,47.38168],[8.48639,47.38168],[8.48662,47.38194],[8.4863,47.38208],[8.48673,47.3823],[8.48694,47.38266],[8.49151,47.38132],[8.49341,47.38286],[8.49527,47.38211],[8.49592,47.38278],[8.4984,47.38172],[8.4979,47.38133],[8.50013,47.37993],[8.50091,47.38048],[8.50167,47.38015],[8.50178,47.37996],[8.49972,47.37851],[8.49856,47.37738],[8.49896,47.37721],[8.50187,47.37463],[8.50269,47.37361],[8.5004,47.37113],[8.4996,47.37047],[8.49856,47.36986],[8.49606,47.36891],[8.49467,47.36816],[8.49461,47.36785],[8.49427,47.36763],[8.4944,47.3675],[8.49521,47.36756],[8.49452,47.36645],[8.49405,47.36519],[8.49382,47.36521],[8.49427,47.36479],[8.49414,47.36412],[8.49135,47.36335],[8.4896,47.36262],[8.4877,47.36215],[8.48343,47.35802],[8.48322,47.35814],[8.4831,47.35859],[8.48273,47.35907],[8.48206,47.35954],[8.4788,47.36078],[8.47699,47.36029],[8.47366,47.36081],[8.47277,47.36079],[8.4717,47.36132],[8.47055,47.36166],[8.46952,47.36438],[8.46641,47.36574],[8.46584,47.3661],[8.46546,47.36664],[8.46486,47.36681],[8.46428,47.36727],[8.46419,47.36838]]]}},{"type":"Feature","properties":{"name":"Sihlfeld (Kreis 3)"},"geometry":{"type":"Polygon","coordinates":[[[8.49427,47.36763],[8.49461,47.36785],[8.49467,47.36816],[8.4949,47.36817],[8.4957,47.36874],[8.49856,47.36986],[8.4996,47.37047],[8.5004,47.37113],[8.50269,47.37361],[8.50187,47.37463],[8.49896,47.37721],[8.49856,47.37738],[8.49992,47.37866],[8.50325,47.38101],[8.50427,47.38085],[8.50927,47.37862],[8.51013,47.37794],[8.51071,47.37799],[8.5165,47.37545],[8.51931,47.37489],[8.52018,47.37391],[8.52362,47.37161],[8.52597,47.36964],[8.52625,47.36979],[8.52657,47.36952],[8.52797,47.36929],[8.52796,47.36902],[8.5282,47.36885],[8.52422,47.36613],[8.52397,47.36625],[8.52378,47.36606],[8.52287,47.36482],[8.52248,47.36322],[8.52237,47.36322],[8.52248,47.3656],[8.52262,47.3661],[8.52314,47.36688],[8.5228,47.36697],[8.52314,47.36738],[8.52179,47.36857],[8.52037,47.36955],[8.51713,47.37058],[8.5144,47.37022],[8.5141,47.37067],[8.5134,47.37033],[8.51161,47.3702],[8.51192,47.36999],[8.51094,47.36984],[8.49687,47.36813],[8.49644,47.368],[8.49654,47.36781],[8.49548,47.36746],[8.49497,47.3671],[8.49515,47.36762],[8.4944,47.3675],[8.49427,47.36763]]]}},{"type":"Feature","properties":{"name":"Affoltern (Kreis 11)"},"geometry":{"type":"Polygon","coordinates":[[[8.48438,47.42904],[8.48446,47.42979],[8.4858,47.43103],[8.49563,47.43281],[8.50028,47.43442],[8.50208,47.43467],[8.50366,47.43402],[8.50998,47.43213],[8.51153,47.43118],[8.51275,47.43085],[8.51625,47.43179],[8.51678,47.43126],[8.5188,47.43188],[8.52464,47.43126],[8.5255,47.43316],[8.52768,47.43266],[8.52631,47.43115],[8.52601,47.43058],[8.52577,47.42907],[8.52586,47.4273],[8.52548,47.42686],[8.52538,47.42567],[8.52449,47.42569],[8.52439,47.4251],[8.52482,47.42508],[8.52474,47.42472],[8.52432,47.42471],[8.52426,47.42393],[8.51958,47.42377],[8.5199,47.42309],[8.52176,47.42161],[8.52207,47.42059],[8.52408,47.41697],[8.52872,47.41673],[8.53197,47.41705],[8.53217,47.41629],[8.53244,47.4163],[8.53183,47.41616],[8.53262,47.41625],[8.53176,47.41327],[8.53026,47.41347],[8.52803,47.41125],[8.52633,47.4099],[8.52734,47.40907],[8.52602,47.40844],[8.52688,47.40709],[8.52507,47.40657],[8.52501,47.40678],[8.52528,47.40683],[8.5246,47.40793],[8.52265,47.40916],[8.51774,47.41093],[8.51553,47.41094],[8.51484,47.41075],[8.51386,47.41117],[8.51324,47.41112],[8.51218,47.41159],[8.51096,47.41159],[8.51097,47.41174],[8.50692,47.41179],[8.50631,47.41218],[8.50607,47.4121],[8.50605,47.41259],[8.50511,47.41242],[8.50311,47.41367],[8.50288,47.41339],[8.50295,47.41326],[8.50171,47.41277],[8.50119,47.41392],[8.50114,47.41423],[8.50131,47.41457],[8.50092,47.41527],[8.4999,47.416],[8.49644,47.41735],[8.49414,47.41911],[8.49434,47.41962],[8.49143,47.42021],[8.49141,47.42067],[8.48791,47.42164],[8.48799,47.42211],[8.48853,47.42271],[8.4902,47.42234],[8.49102,47.4239],[8.49007,47.42435],[8.49009,47.42524],[8.49043,47.42553],[8.48916,47.42595],[8.48922,47.42607],[8.48526,47.42726],[8.48472,47.4281],[8.48467,47.42873],[8.48438,47.42904]]]}},{"type":"Feature","properties":{"name":"Oerlikon (Kreis 11)"},"geometry":{"type":"Polygon","coordinates":[[[8.52633,47.4099],[8.52803,47.41125],[8.53026,47.41347],[8.53176,47.41327],[8.53262,47.41625],[8.53827,47.41693],[8.54188,47.41709],[8.54152,47.41408],[8.54546,47.41385],[8.54738,47.41392],[8.5477,47.4128],[8.55086,47.41299],[8.55843,47.41305],[8.55876,47.40605],[8.55852,47.40536],[8.55784,47.40536],[8.55721,47.40511],[8.55646,47.40405],[8.55586,47.40355],[8.55633,47.40347],[8.55723,47.4037],[8.55735,47.40281],[8.55647,47.40234],[8.55562,47.40129],[8.55543,47.40137],[8.55454,47.40048],[8.55333,47.40108],[8.55255,47.4019],[8.55107,47.40115],[8.54797,47.39915],[8.54746,47.39938],[8.54723,47.39984],[8.54658,47.39999],[8.54651,47.40036],[8.54414,47.39996],[8.54384,47.40032],[8.54479,47.401],[8.54451,47.40102],[8.5443,47.40117],[8.54442,47.40126],[8.544,47.40154],[8.54197,47.40267],[8.5412,47.40322],[8.54145,47.40337],[8.54107,47.40364],[8.54084,47.40348],[8.54047,47.40364],[8.54018,47.40395],[8.54101,47.40431],[8.53791,47.40668],[8.53776,47.40643],[8.53618,47.40675],[8.53601,47.40683],[8.53609,47.40697],[8.53157,47.40846],[8.53132,47.40811],[8.53084,47.40886],[8.52913,47.40944],[8.52899,47.40919],[8.52813,47.40971],[8.52734,47.40907],[8.52633,47.4099]]]}},{"type":"Feature","properties":{"name":"Höngg (Kreis 10)"},"geometry":{"type":"Polygon","coordinates":[[[8.46802,47.41334],[8.46864,47.41363],[8.46858,47.41408],[8.46956,47.41484],[8.47008,47.41557],[8.46957,47.41593],[8.46915,47.41649],[8.46914,47.41693],[8.46964,47.41752],[8.4716,47.41763],[8.47721,47.41974],[8.47689,47.42016],[8.47784,47.42211],[8.47896,47.42172],[8.47938,47.42113],[8.47973,47.42141],[8.48132,47.42134],[8.48178,47.423],[8.48296,47.42266],[8.48293,47.42222],[8.48567,47.42161],[8.48641,47.42157],[8.48684,47.42186],[8.48798,47.42201],[8.48791,47.42164],[8.48817,47.42153],[8.49141,47.42067],[8.49143,47.42021],[8.49434,47.41962],[8.49414,47.41911],[8.49644,47.41735],[8.4999,47.416],[8.50092,47.41527],[8.50131,47.41457],[8.50114,47.41423],[8.50119,47.41392],[8.50171,47.41277],[8.50295,47.41326],[8.50288,47.41339],[8.50311,47.41367],[8.50511,47.41242],[8.50605,47.41259],[8.50607,47.4121],[8.50631,47.41218],[8.50692,47.41179],[8.51097,47.41174],[8.51096,47.41159],[8.51218,47.41159],[8.51324,47.41112],[8.51386,47.41117],[8.51484,47.41075],[8.51553,47.41094],[8.51774,47.41093],[8.52265,47.40916],[8.5246,47.40793],[8.52528,47.40683],[8.52501,47.40678],[8.52507,47.40657],[8.52539,47.40665],[8.52548,47.4059],[8.52457,47.4055],[8.52304,47.40685],[8.51761,47.40151],[8.51738,47.40104],[8.51662,47.40024],[8.51552,47.39958],[8.51403,47.39915],[8.51456,47.39885],[8.51501,47.39796],[8.51443,47.39786],[8.515,47.39672],[8.51524,47.39658],[8.51496,47.3961],[8.51527,47.39601],[8.51482,47.39396],[8.51243,47.39456],[8.50561,47.39493],[8.5044,47.39517],[8.50321,47.39561],[8.50226,47.39618],[8.50018,47.39784],[8.49787,47.39871],[8.49413,47.39917],[8.48884,47.39868],[8.48749,47.39889],[8.48633,47.39931],[8.48541,47.39991],[8.48334,47.40204],[8.4822,47.40286],[8.4804,47.40356],[8.47816,47.40387],[8.4782,47.40508],[8.47739,47.40516],[8.47734,47.40575],[8.47707,47.40619],[8.47706,47.40764],[8.47727,47.40817],[8.4773,47.40914],[8.47704,47.40935],[8.47544,47.4097],[8.47584,47.41077],[8.47606,47.41072],[8.47629,47.41102],[8.47666,47.41097],[8.47684,47.41146],[8.47726,47.41194],[8.47486,47.41242],[8.47395,47.41222],[8.47359,47.41206],[8.47304,47.41146],[8.47269,47.41058],[8.47102,47.41094],[8.47114,47.41137],[8.47086,47.41167],[8.47045,47.41159],[8.47032,47.41253],[8.46877,47.41225],[8.46802,47.41334]]]}},{"type":"Feature","properties":{"name":"Wipkingen (Kreis 10)"},"geometry":{"type":"Polygon","coordinates":[[[8.51403,47.39915],[8.51552,47.39958],[8.51662,47.40024],[8.51738,47.40104],[8.51761,47.40151],[8.52304,47.40685],[8.52457,47.4055],[8.52548,47.4059],[8.52539,47.40665],[8.52688,47.40709],[8.52798,47.40565],[8.52991,47.40468],[8.53064,47.4036],[8.53064,47.40256],[8.5316,47.40149],[8.53203,47.40056],[8.53209,47.40009],[8.53194,47.40009],[8.53176,47.39924],[8.53231,47.39833],[8.53219,47.39811],[8.53236,47.39794],[8.53231,47.3974],[8.53275,47.39752],[8.53228,47.39558],[8.53394,47.39341],[8.53622,47.39143],[8.53604,47.39127],[8.53625,47.38846],[8.536,47.38834],[8.53604,47.38807],[8.53581,47.38776],[8.53453,47.38687],[8.53416,47.38706],[8.53401,47.38687],[8.53337,47.38685],[8.53288,47.38639],[8.52834,47.38939],[8.52557,47.39084],[8.52424,47.39136],[8.51701,47.3931],[8.51481,47.39392],[8.51527,47.39601],[8.51496,47.3961],[8.51524,47.39658],[8.515,47.39672],[8.51443,47.39786],[8.51501,47.39796],[8.51456,47.39885],[8.51403,47.39915]]]}},{"type":"Feature","properties":{"name":"Hirzenbach (Kreis 12)"},"geometry":{"type":"Polygon","coordinates":[[[8.5718,47.40079],[8.57223,47.40116],[8.57487,47.39966],[8.57495,47.39995],[8.57685,47.40217],[8.57626,47.40264],[8.57675,47.40316],[8.57658,47.40322],[8.57682,47.40396],[8.5767,47.40482],[8.57685,47.40504],[8.5854,47.40698],[8.58583,47.40674],[8.58694,47.4067],[8.58719,47.40701],[8.58692,47.40735],[8.58819,47.40762],[8.58773,47.40804],[8.58968,47.40742],[8.59245,47.40713],[8.59729,47.40631],[8.59723,47.406],[8.59609,47.40612],[8.59379,47.40222],[8.59623,47.40154],[8.59481,47.39918],[8.5973,47.39845],[8.59654,47.39733],[8.59638,47.39663],[8.59624,47.39646],[8.59454,47.39712],[8.59393,47.39647],[8.59336,47.39614],[8.59209,47.39691],[8.59174,47.39681],[8.59149,47.397],[8.58829,47.3958],[8.58906,47.39501],[8.58996,47.39478],[8.58819,47.3935],[8.58754,47.39321],[8.58749,47.39297],[8.5862,47.3928],[8.58443,47.39195],[8.58414,47.39155],[8.58371,47.39008],[8.58306,47.38905],[8.58317,47.38831],[8.58228,47.38789],[8.58202,47.38804],[8.58248,47.38866],[8.58086,47.39008],[8.58125,47.39013],[8.58172,47.3905],[8.58141,47.39152],[8.58141,47.39227],[8.58177,47.39259],[8.58179,47.3929],[8.58292,47.39363],[8.58303,47.39421],[8.58191,47.39493],[8.58149,47.39478],[8.5795,47.39489],[8.57856,47.39539],[8.57695,47.39589],[8.57518,47.39704],[8.57483,47.39756],[8.5739,47.39835],[8.57368,47.39825],[8.57342,47.39899],[8.5718,47.40079]]]}},{"type":"Feature","properties":{"name":"Unterstrass (Kreis 6)"},"geometry":{"type":"Polygon","coordinates":[[[8.52602,47.40844],[8.52734,47.40907],[8.52813,47.40971],[8.52899,47.40919],[8.52913,47.40944],[8.53084,47.40886],[8.53132,47.40811],[8.53157,47.40846],[8.53609,47.40697],[8.53601,47.40683],[8.53618,47.40675],[8.53776,47.40643],[8.53791,47.40668],[8.54101,47.40431],[8.54018,47.40395],[8.54047,47.40364],[8.54084,47.40348],[8.54107,47.40364],[8.54145,47.40337],[8.5412,47.40322],[8.54197,47.40267],[8.544,47.40154],[8.54442,47.40126],[8.5443,47.40117],[8.54451,47.40102],[8.54479,47.401],[8.54384,47.40032],[8.54414,47.39996],[8.54651,47.40036],[8.54658,47.39999],[8.54723,47.39984],[8.54746,47.39938],[8.54794,47.39917],[8.54639,47.39746],[8.54568,47.39635],[8.54604,47.39604],[8.54571,47.39553],[8.54601,47.39533],[8.54538,47.3952],[8.5452,47.39461],[8.54494,47.39464],[8.54482,47.39352],[8.54527,47.39081],[8.54437,47.39027],[8.54514,47.39],[8.54507,47.38983],[8.5458,47.38904],[8.54427,47.38809],[8.54444,47.38766],[8.54425,47.38752],[8.54466,47.38704],[8.54383,47.38671],[8.54416,47.38588],[8.54372,47.38578],[8.54403,47.38533],[8.54477,47.38513],[8.54522,47.38349],[8.54451,47.38327],[8.54473,47.38274],[8.54452,47.38262],[8.54496,47.38231],[8.54475,47.38226],[8.54487,47.38211],[8.5444,47.38202],[8.54482,47.38098],[8.54581,47.37952],[8.54344,47.37875],[8.54297,47.37993],[8.54167,47.37965],[8.54001,47.38195],[8.53926,47.38274],[8.53288,47.38639],[8.53337,47.38685],[8.53401,47.38687],[8.53416,47.38706],[8.53453,47.38687],[8.53599,47.38796],[8.536,47.38834],[8.53625,47.38848],[8.53604,47.39127],[8.53622,47.39143],[8.53394,47.39341],[8.53229,47.39555],[8.53275,47.39752],[8.53231,47.3974],[8.53236,47.39794],[8.53219,47.39811],[8.53231,47.39833],[8.53176,47.39924],[8.53194,47.40009],[8.53209,47.40009],[8.53203,47.40056],[8.5316,47.40149],[8.53064,47.40256],[8.53064,47.4036],[8.52991,47.40468],[8.5286,47.40523],[8.52786,47.40577],[8.52602,47.40844]]]}},{"type":"Feature","properties":{"name":"Lindenhof (Kreis 1)"},"geometry":{"type":"Polygon","coordinates":[[[8.5381,47.37375],[8.5397,47.37691],[8.54067,47.37666],[8.54079,47.37687],[8.54142,47.37684],[8.54162,47.3762],[8.54207,47.37625],[8.54198,47.37678],[8.54235,47.37677],[8.54235,47.37594],[8.54203,47.37538],[8.54181,47.37426],[8.54199,47.37383],[8.54181,47.37281],[8.54191,47.36993],[8.5421,47.36985],[8.54186,47.36736],[8.542,47.367],[8.54232,47.36689],[8.54243,47.36665],[8.54224,47.36635],[8.54124,47.366],[8.54042,47.36602],[8.53986,47.36575],[8.53968,47.36595],[8.54032,47.36634],[8.5382,47.37223],[8.5381,47.37375]]]}},{"type":"Feature","properties":{"name":"Hirslanden (Kreis 7)"},"geometry":{"type":"Polygon","coordinates":[[[8.55666,47.36398],[8.56041,47.36512],[8.56167,47.36425],[8.56724,47.36652],[8.56768,47.36594],[8.5688,47.36658],[8.56854,47.36685],[8.56891,47.3671],[8.57134,47.3679],[8.57268,47.36816],[8.57705,47.36983],[8.57832,47.3705],[8.57777,47.37234],[8.57694,47.37323],[8.57667,47.37397],[8.57815,47.37428],[8.5806,47.37462],[8.58165,47.37447],[8.58327,47.37371],[8.58466,47.37358],[8.58481,47.37325],[8.58462,47.37225],[8.58501,47.37116],[8.5867,47.36905],[8.58819,47.36883],[8.58935,47.36911],[8.59099,47.36885],[8.59087,47.3685],[8.5903,47.36791],[8.58965,47.3662],[8.58912,47.36574],[8.58738,47.36521],[8.58669,47.36469],[8.58548,47.36253],[8.5838,47.36243],[8.58306,47.36258],[8.58265,47.36233],[8.58211,47.36251],[8.58124,47.36217],[8.5799,47.36221],[8.57914,47.36254],[8.5789,47.36289],[8.5788,47.3633],[8.57903,47.36353],[8.57893,47.36378],[8.57924,47.36393],[8.57906,47.36421],[8.57724,47.36463],[8.57612,47.36455],[8.57548,47.36414],[8.57525,47.36378],[8.57552,47.36365],[8.57569,47.36294],[8.57622,47.36193],[8.57606,47.36189],[8.57649,47.36128],[8.5764,47.36083],[8.57593,47.36065],[8.57543,47.36075],[8.57534,47.36057],[8.5759,47.36016],[8.57637,47.35953],[8.57651,47.35906],[8.57603,47.35878],[8.57632,47.35885],[8.57682,47.35848],[8.57745,47.35838],[8.57747,47.35815],[8.57668,47.35781],[8.57705,47.35734],[8.57693,47.35725],[8.57847,47.35626],[8.57864,47.35634],[8.57931,47.35538],[8.57992,47.35485],[8.58022,47.35508],[8.58075,47.35515],[8.5809,47.35486],[8.58286,47.35379],[8.58324,47.35411],[8.58366,47.35383],[8.5831,47.35342],[8.58258,47.35328],[8.58182,47.35345],[8.58152,47.35379],[8.58084,47.35339],[8.58023,47.35366],[8.57956,47.35361],[8.57939,47.3541],[8.57818,47.35445],[8.57802,47.35489],[8.57743,47.35482],[8.5769,47.35505],[8.5763,47.35493],[8.576,47.35541],[8.57518,47.35555],[8.57505,47.35586],[8.57512,47.35625],[8.57456,47.35664],[8.57444,47.35699],[8.57314,47.35764],[8.57272,47.35804],[8.56992,47.35784],[8.56968,47.35795],[8.56972,47.35846],[8.56942,47.35871],[8.56813,47.35899],[8.56713,47.35874],[8.56587,47.3596],[8.56293,47.35949],[8.56219,47.35994],[8.56164,47.36005],[8.56106,47.36057],[8.56049,47.36163],[8.56014,47.36177],[8.56039,47.36202],[8.55896,47.3625],[8.55666,47.36398]]]}},{"type":"Feature","properties":{"name":"Gewerbeschule (Kreis 5)"},"geometry":{"type":"Polygon","coordinates":[[[8.52056,47.38471],[8.52096,47.3854],[8.52214,47.38627],[8.52529,47.38747],[8.52146,47.38935],[8.52163,47.38953],[8.52565,47.38757],[8.52647,47.38806],[8.52613,47.38825],[8.52648,47.3883],[8.52688,47.38901],[8.52725,47.38907],[8.52721,47.3892],[8.52759,47.38948],[8.53224,47.38618],[8.53249,47.38608],[8.53288,47.38639],[8.53886,47.38297],[8.53848,47.38266],[8.53899,47.38137],[8.53895,47.38025],[8.53842,47.37922],[8.53769,47.37958],[8.53757,47.37938],[8.5312,47.38123],[8.52874,47.38152],[8.52888,47.38175],[8.52836,47.38224],[8.52569,47.383],[8.52533,47.38323],[8.52057,47.3845],[8.52056,47.38471]]]}},{"type":"Feature","properties":{"name":"Werd (Kreis 4)"},"geometry":{"type":"Polygon","coordinates":[[[8.51931,47.37488],[8.52195,47.37429],[8.52485,47.37416],[8.52388,47.37273],[8.52343,47.3725],[8.52394,47.37249],[8.5251,47.37416],[8.52816,47.37313],[8.53023,47.37352],[8.53189,47.37322],[8.53266,47.37446],[8.5331,47.37405],[8.53067,47.37034],[8.52922,47.36921],[8.52901,47.36938],[8.5282,47.36885],[8.52796,47.36902],[8.52797,47.36929],[8.52657,47.36952],[8.52625,47.36979],[8.52597,47.36964],[8.52362,47.37161],[8.52018,47.37391],[8.51931,47.37488]]]}},{"type":"Feature","properties":{"name":"Altstetten (Kreis 9)"},"geometry":{"type":"Polygon","coordinates":[[[8.44802,47.38025],[8.45176,47.38062],[8.4537,47.38027],[8.45616,47.38072],[8.4567,47.38094],[8.45674,47.38244],[8.45743,47.38222],[8.45844,47.38231],[8.45843,47.38262],[8.45747,47.38325],[8.45768,47.3834],[8.45757,47.38371],[8.45808,47.38388],[8.46005,47.38594],[8.46052,47.38674],[8.46089,47.38704],[8.46122,47.38795],[8.46106,47.38803],[8.46382,47.39053],[8.46519,47.39132],[8.46557,47.39113],[8.46619,47.39113],[8.46728,47.39065],[8.46698,47.39131],[8.4674,47.3929],[8.46701,47.39342],[8.46608,47.39378],[8.46511,47.39453],[8.46485,47.39481],[8.4649,47.39508],[8.46855,47.39461],[8.47019,47.39401],[8.47067,47.39439],[8.47191,47.39388],[8.47209,47.39408],[8.47154,47.3943],[8.47153,47.3949],[8.4721,47.39516],[8.47302,47.39506],[8.4735,47.396],[8.46517,47.39829],[8.46569,47.39922],[8.4676,47.39872],[8.46807,47.39957],[8.46616,47.40006],[8.46771,47.403],[8.47002,47.40299],[8.47642,47.40387],[8.4784,47.40386],[8.47996,47.40367],[8.48144,47.40322],[8.48269,47.40255],[8.48541,47.39991],[8.48701,47.39903],[8.48933,47.39867],[8.49447,47.39916],[8.49787,47.39871],[8.50018,47.39784],[8.50312,47.39565],[8.50543,47.39495],[8.5052,47.39404],[8.50468,47.39384],[8.5021,47.39356],[8.50213,47.39325],[8.50293,47.39267],[8.50198,47.39207],[8.49837,47.39205],[8.50073,47.39137],[8.49891,47.39036],[8.49762,47.38834],[8.50511,47.38597],[8.50334,47.38468],[8.50338,47.38452],[8.50316,47.38461],[8.50298,47.38447],[8.50583,47.38315],[8.50389,47.38162],[8.50307,47.38136],[8.5032,47.381],[8.50178,47.37996],[8.50167,47.38015],[8.50091,47.38048],[8.50013,47.37993],[8.4979,47.38133],[8.4984,47.38172],[8.49592,47.38278],[8.49527,47.38211],[8.49341,47.38286],[8.49151,47.38132],[8.48694,47.38266],[8.48673,47.3823],[8.4863,47.38208],[8.48662,47.38194],[8.48639,47.38168],[8.48613,47.38168],[8.48524,47.38016],[8.48453,47.38053],[8.4841,47.38021],[8.48301,47.38026],[8.48268,47.37974],[8.48219,47.37974],[8.48176,47.37953],[8.48103,47.38009],[8.47943,47.37934],[8.47919,47.37903],[8.47706,47.3778],[8.47543,47.37727],[8.47539,47.37687],[8.47495,47.37689],[8.47494,47.37707],[8.47469,47.3771],[8.47403,47.37617],[8.4718,47.37524],[8.47188,47.37512],[8.47034,47.37396],[8.46762,47.37357],[8.46545,47.37443],[8.46289,47.37603],[8.45996,47.3775],[8.45524,47.3781],[8.45117,47.37817],[8.45048,47.37836],[8.44911,47.37924],[8.44848,47.37967],[8.44802,47.38025]]]}},{"type":"Feature","properties":{"name":"Hard (Kreis 4)"},"geometry":{"type":"Polygon","coordinates":[[[8.49762,47.38834],[8.49891,47.39036],[8.50073,47.39137],[8.5031,47.39068],[8.50484,47.38958],[8.50557,47.38929],[8.50632,47.3891],[8.50647,47.38922],[8.50777,47.38877],[8.51005,47.3883],[8.51068,47.38846],[8.51059,47.38877],[8.51075,47.38872],[8.51144,47.38803],[8.51192,47.38717],[8.51237,47.38685],[8.5133,47.38645],[8.51745,47.38537],[8.51549,47.38325],[8.51566,47.38319],[8.51586,47.38339],[8.51572,47.38349],[8.51618,47.38396],[8.51747,47.38362],[8.5207,47.38158],[8.52107,47.38099],[8.52097,47.38005],[8.51907,47.37806],[8.51855,47.37718],[8.51845,47.37604],[8.51896,47.37496],[8.5165,47.37545],[8.51071,47.37799],[8.51013,47.37794],[8.50927,47.37862],[8.50427,47.38085],[8.5032,47.381],[8.50307,47.38136],[8.50389,47.38162],[8.50583,47.38316],[8.50298,47.38447],[8.50316,47.38461],[8.50338,47.38452],[8.50334,47.38468],[8.50511,47.38597],[8.49762,47.38834]]]}},{"type":"Feature","properties":{"name":"Hochschulen (Kreis 1)"},"geometry":{"type":"Polygon","coordinates":[[[8.53984,47.36572],[8.54042,47.36602],[8.54121,47.366],[8.54181,47.36618],[8.54224,47.36635],[8.54235,47.36659],[8.54399,47.36688],[8.54393,47.36719],[8.54707,47.36843],[8.54784,47.36917],[8.54692,47.37051],[8.54676,47.37047],[8.5464,47.37078],[8.5473,47.37159],[8.54703,47.37279],[8.54714,47.37281],[8.54696,47.37318],[8.54583,47.37455],[8.54444,47.37663],[8.54408,47.37663],[8.54407,47.37638],[8.54239,47.37648],[8.54205,47.3779],[8.54139,47.37944],[8.54167,47.37965],[8.54297,47.37993],[8.54344,47.37875],[8.54501,47.37924],[8.54533,47.37903],[8.54666,47.37707],[8.5485,47.37744],[8.54946,47.37556],[8.54945,47.37525],[8.55078,47.37223],[8.55071,47.37192],[8.54894,47.37],[8.55085,47.36846],[8.54979,47.36774],[8.55047,47.36718],[8.54953,47.36658],[8.54924,47.36669],[8.54884,47.3663],[8.54887,47.36604],[8.54737,47.36458],[8.54214,47.36321],[8.53984,47.36572]]]}},{"type":"Feature","properties":{"name":"Friesenberg (Kreis 3)"},"geometry":{"type":"Polygon","coordinates":[[[8.48343,47.35802],[8.4877,47.36215],[8.4896,47.36262],[8.49135,47.36335],[8.49414,47.36412],[8.49427,47.36479],[8.49382,47.36521],[8.49405,47.36519],[8.49452,47.36645],[8.49513,47.36725],[8.49654,47.36781],[8.49644,47.368],[8.50583,47.36922],[8.5068,47.36723],[8.50673,47.36711],[8.50705,47.36725],[8.50711,47.36713],[8.50684,47.36703],[8.5086,47.36508],[8.50826,47.36479],[8.51167,47.36419],[8.50887,47.36306],[8.50732,47.36195],[8.50984,47.35909],[8.51027,47.35924],[8.51054,47.35902],[8.51033,47.35926],[8.51233,47.36029],[8.5127,47.35999],[8.51176,47.35952],[8.51256,47.35982],[8.5142,47.35786],[8.51469,47.35804],[8.51481,47.35786],[8.51384,47.35618],[8.51425,47.35502],[8.51443,47.35389],[8.51436,47.35321],[8.51472,47.35335],[8.51713,47.35543],[8.51719,47.35594],[8.51806,47.35669],[8.51895,47.357],[8.51963,47.35587],[8.5214,47.35637],[8.52084,47.35746],[8.52163,47.35727],[8.52294,47.35518],[8.52134,47.35236],[8.52154,47.3521],[8.51991,47.35167],[8.52005,47.35142],[8.5174,47.35064],[8.51675,47.35017],[8.51624,47.34939],[8.51615,47.34897],[8.51629,47.34834],[8.51836,47.34444],[8.51666,47.34349],[8.51552,47.34352],[8.51473,47.34335],[8.5144,47.34359],[8.51359,47.34379],[8.50944,47.344],[8.50698,47.3429],[8.5045,47.34132],[8.50396,47.34073],[8.50356,47.33997],[8.50331,47.33975],[8.50307,47.33975],[8.50306,47.33931],[8.50267,47.33823],[8.50225,47.33792],[8.50251,47.33663],[8.50202,47.33636],[8.50173,47.33717],[8.49878,47.33968],[8.49809,47.34169],[8.49703,47.34247],[8.4971,47.34326],[8.498,47.34365],[8.49811,47.34387],[8.49818,47.34453],[8.49774,47.34521],[8.49637,47.34648],[8.4951,47.34692],[8.49469,47.3476],[8.49286,47.34828],[8.49207,47.3495],[8.49146,47.34964],[8.49129,47.34983],[8.4909,47.35067],[8.49001,47.35056],[8.48814,47.352],[8.48693,47.35203],[8.48681,47.3522],[8.48729,47.35311],[8.48712,47.3534],[8.48502,47.35468],[8.48464,47.35536],[8.48465,47.3567],[8.48412,47.35756],[8.48343,47.35802]]]}},{"type":"Feature","properties":{"name":"Seebach (Kreis 11)"},"geometry":{"type":"Polygon","coordinates":[[[8.51958,47.42386],[8.52426,47.42393],[8.52432,47.42471],[8.52474,47.42472],[8.52482,47.42508],[8.52439,47.4251],[8.52449,47.42569],[8.52538,47.42567],[8.52548,47.42686],[8.52586,47.4273],[8.52577,47.42907],[8.52601,47.43058],[8.52631,47.43115],[8.52768,47.43266],[8.53031,47.43206],[8.53065,47.43266],[8.53303,47.43228],[8.53375,47.43251],[8.53522,47.43188],[8.53607,47.43186],[8.53741,47.4314],[8.53966,47.43126],[8.54011,47.4311],[8.54021,47.43179],[8.54034,47.43186],[8.54364,47.43143],[8.54286,47.43289],[8.54312,47.43288],[8.54453,47.43251],[8.5446,47.43262],[8.54856,47.43142],[8.55011,47.43128],[8.55084,47.43104],[8.55536,47.43066],[8.55611,47.42803],[8.55685,47.42624],[8.55784,47.42554],[8.55699,47.4249],[8.55737,47.42472],[8.55691,47.42424],[8.55724,47.4241],[8.5542,47.4208],[8.56083,47.41817],[8.5613,47.41829],[8.56236,47.41632],[8.56283,47.41643],[8.56322,47.41569],[8.5614,47.41498],[8.55886,47.41443],[8.55864,47.41309],[8.55886,47.41305],[8.55086,47.41299],[8.5477,47.4128],[8.54738,47.41392],[8.54546,47.41385],[8.54152,47.41408],[8.54188,47.41709],[8.53827,47.41693],[8.53183,47.41616],[8.53244,47.4163],[8.53217,47.41629],[8.53197,47.41705],[8.52872,47.41673],[8.52408,47.41697],[8.52207,47.42059],[8.52176,47.42161],[8.5199,47.42309],[8.51958,47.42386]]]}},{"type":"Feature","properties":{"name":"Saatlen (Kreis 12)"},"geometry":{"type":"Polygon","coordinates":[[[8.55843,47.41305],[8.55886,47.41305],[8.55864,47.41309],[8.55886,47.41443],[8.5614,47.41498],[8.56322,47.41569],[8.56623,47.41632],[8.56694,47.41629],[8.56781,47.41684],[8.56876,47.41855],[8.56904,47.41871],[8.56961,47.41868],[8.56946,47.41926],[8.57225,47.41892],[8.57369,47.42003],[8.5738,47.4178],[8.57367,47.41779],[8.57343,47.41711],[8.57355,47.41566],[8.57374,47.4153],[8.57376,47.41441],[8.57387,47.41438],[8.57385,47.41324],[8.57333,47.41257],[8.57261,47.41206],[8.57296,47.41148],[8.57107,47.41143],[8.57103,47.41116],[8.57259,47.41118],[8.57242,47.41077],[8.57208,47.41049],[8.57029,47.41021],[8.56856,47.40918],[8.56836,47.40937],[8.56606,47.40743],[8.56556,47.40795],[8.56549,47.40786],[8.56589,47.40731],[8.56363,47.40598],[8.56327,47.40628],[8.56358,47.40595],[8.56322,47.40578],[8.56086,47.40519],[8.55852,47.40536],[8.55881,47.40657],[8.55843,47.41305]]]}}]}