{"type":"FeatureCollection","features":[{"type":"Feature","properties":{"zone":"Innenstadt","district":"Lindenhof (Kreis 1)","rawHours":"Montag - Samstag, 9:00 - 20:00 Uhr","rawFee":"Hochtarif (Art. 3 und 4 AS 551.330): 0,50 CHF je 20 Minuten Parkuhrkontrollgebühr, ab der 31. Minute zusätzlich 0,50 CHF je 10 Minuten in den ersten zwei Stunden, danach 0,50 CHF je Stunde — 1 h = 3,00 CHF, 2 h = 7,50 CHF, 3 h = 9,50 CHF","note":"Hochtarifzone Innenstadt (Art. 2 Abs. 1 der Vorschriften über die Parkierungs- und Parkuhrkontrollgebühren, AS 551.330) — 495 Parkuhren in der Fläche, 475 davon mit denselben Angaben; abweichend: 9× „HOCH 2h Mo-So 08:00-21:00\", 7× „NIEDER 2h Mo-Sa 09:00-20:00\", 3× „NIEDER 1h Mo-Sa 09:00-20:00\", 1× „HOCH 0.5h Mo-So 00:00-24:00\"","windows":[{"weekdays":[1,2,3,4,5,6],"fromMinute":540,"toMinute":1200}],"fee":{"kind":"range","minCentsPerHour":150,"maxCentsPerHour":450,"currency":"CHF"},"unmodelledRules":[],"sourceDefect":null,"spaces":2482,"maxStayMinutes":null,"maxStay":"2 h","maxStayShare":0.936,"maxStayValues":["2 h","30 min","3 h","1 h"],"chargingPoints":0,"carsharing":0},"geometry":{"type":"Polygon","coordinates":[[[8.54826,47.37858],[8.54751,47.37842],[8.54468,47.38175],[8.54316,47.38432],[8.54089,47.3837],[8.5393,47.38313],[8.53992,47.38264],[8.5419,47.37982],[8.54228,47.37885],[8.54169,47.37876],[8.54132,47.37961],[8.53998,47.38148],[8.53962,47.38194],[8.53566,47.38427],[8.53275,47.38596],[8.53017,47.38761],[8.52768,47.38942],[8.52736,47.3888],[8.52646,47.38794],[8.5251,47.38732],[8.52306,47.38668],[8.52228,47.38634],[8.52177,47.38603],[8.52139,47.38572],[8.52099,47.38529],[8.52069,47.38471],[8.52494,47.38353],[8.52565,47.38299],[8.52646,47.38282],[8.52815,47.38229],[8.52909,47.38189],[8.52826,47.38077],[8.52661,47.38133],[8.52579,47.38139],[8.52405,47.38138],[8.52289,47.38123],[8.52248,47.38112],[8.52196,47.38093],[8.52159,47.38068],[8.51888,47.37787],[8.51856,47.37727],[8.51847,47.37693],[8.51841,47.37656],[8.51844,47.37598],[8.51851,47.37571],[8.51868,47.37529],[8.51879,47.3752],[8.52136,47.37463],[8.52124,47.37436],[8.51949,47.37365],[8.52333,47.37105],[8.52402,47.3709],[8.52563,47.36952],[8.52611,47.36934],[8.52785,47.36906],[8.52902,47.36846],[8.53838,47.36472],[8.54,47.36552],[8.53985,47.3657],[8.54022,47.36585],[8.54224,47.36632],[8.54218,47.36649],[8.54242,47.36664],[8.54412,47.36694],[8.54439,47.36685],[8.54486,47.36632],[8.54616,47.36412],[8.55121,47.36432],[8.54953,47.36573],[8.54878,47.36622],[8.5475,47.36675],[8.54642,47.3679],[8.54803,47.36873],[8.54899,47.37],[8.5507,47.37191],[8.5508,47.37212],[8.55071,47.37247],[8.54831,47.37779],[8.54825,47.37826],[8.54826,47.37858]]]}},{"type":"Feature","properties":{"zone":"Oerlikon","district":"Oerlikon (Kreis 11)","rawHours":"Montag - Samstag, 9:00 - 20:00 Uhr","rawFee":"Hochtarif (Art. 3 und 4 AS 551.330): 0,50 CHF je 20 Minuten Parkuhrkontrollgebühr, ab der 31. Minute zusätzlich 0,50 CHF je 10 Minuten in den ersten zwei Stunden, danach 0,50 CHF je Stunde — 1 h = 3,00 CHF, 2 h = 7,50 CHF, 3 h = 9,50 CHF","note":"Hochtarifzone Zentrum Oerlikon (Art. 2 Abs. 2 der Vorschriften über die Parkierungs- und Parkuhrkontrollgebühren, AS 551.330) — 58 Parkuhren in der Fläche, 52 davon mit denselben Angaben; abweichend: 4× „Theater 11\", 1× „NIEDER 0.5h Mo-Sa 09:00-20:00\", 1× „NIEDER 2h Mo-Sa 09:00-20:00\"","windows":[{"weekdays":[1,2,3,4,5,6],"fromMinute":540,"toMinute":1200}],"fee":{"kind":"range","minCentsPerHour":150,"maxCentsPerHour":450,"currency":"CHF"},"unmodelledRules":[],"sourceDefect":null,"spaces":404,"maxStayMinutes":null,"maxStay":"4 h","maxStayShare":0.45,"maxStayValues":["4 h","2 h","30 min"],"chargingPoints":0,"carsharing":0},"geometry":{"type":"Polygon","coordinates":[[[8.54821,47.41046],[8.54698,47.41127],[8.54633,47.41303],[8.5467,47.41367],[8.54589,47.41373],[8.54537,47.41379],[8.54527,47.41272],[8.54572,47.41209],[8.54539,47.41196],[8.54535,47.41192],[8.54546,47.41175],[8.5432,47.41099],[8.54175,47.41033],[8.53982,47.4092],[8.53951,47.40908],[8.54519,47.40721],[8.54661,47.40661],[8.54849,47.40596],[8.55009,47.40568],[8.55076,47.40711],[8.5509,47.40754],[8.55089,47.40798],[8.55068,47.40845],[8.55057,47.40879],[8.55012,47.40936],[8.55004,47.40962],[8.55024,47.41037],[8.55053,47.41067],[8.54821,47.41046]]]}}]}