{"type":"FeatureCollection","features":[{"type":"Feature","properties":{"name":"Centrum","bezirk":"Groningen"},"geometry":{"type":"MultiPolygon","coordinates":[[[[6.56023,53.22768],[6.56121,53.22613],[6.56409,53.22648],[6.5664,53.22533],[6.57087,53.2272],[6.57402,53.22511],[6.57634,53.22433],[6.57756,53.22355],[6.57833,53.22268],[6.57869,53.22195],[6.57878,53.22077],[6.57854,53.21965],[6.5782,53.21896],[6.57886,53.2181],[6.58015,53.21705],[6.5766,53.21574],[6.57586,53.21493],[6.57239,53.21312],[6.57015,53.21263],[6.57132,53.21074],[6.55933,53.21056],[6.55867,53.2131],[6.55668,53.21355],[6.55633,53.21398],[6.55586,53.21402],[6.55681,53.21583],[6.55658,53.21612],[6.55757,53.21637],[6.55624,53.21838],[6.55591,53.21918],[6.55494,53.21909],[6.55334,53.21937],[6.55355,53.21984],[6.5529,53.22079],[6.55265,53.22171],[6.55273,53.22245],[6.55305,53.22313],[6.55447,53.22411],[6.55381,53.22573],[6.55406,53.22605],[6.55685,53.2264],[6.55881,53.22757],[6.56023,53.22768]]]]}},{"type":"Feature","properties":{"name":"Oud-Zuid","bezirk":"Groningen"},"geometry":{"type":"MultiPolygon","coordinates":[[[[6.58659,53.21063],[6.58237,53.20913],[6.5783,53.20663],[6.57683,53.20598],[6.56469,53.20323],[6.5552,53.20126],[6.53947,53.19638],[6.53669,53.19589],[6.53395,53.1957],[6.53244,53.20143],[6.53291,53.20149],[6.53191,53.20466],[6.53329,53.20504],[6.53339,53.20522],[6.53301,53.20624],[6.53333,53.20673],[6.53299,53.20682],[6.53245,53.2067],[6.53132,53.2098],[6.54702,53.21019],[6.5442,53.21122],[6.543,53.21198],[6.54201,53.21291],[6.54938,53.21459],[6.55633,53.21398],[6.55668,53.21355],[6.55867,53.2131],[6.55933,53.21056],[6.57132,53.21074],[6.57015,53.21263],[6.57239,53.21312],[6.57586,53.21493],[6.5766,53.21574],[6.58015,53.21705],[6.58253,53.21515],[6.58864,53.21145],[6.58659,53.21063]]]]}},{"type":"Feature","properties":{"name":"Oud-West","bezirk":"Groningen"},"geometry":{"type":"MultiPolygon","coordinates":[[[[6.56023,53.22768],[6.55881,53.22757],[6.55685,53.2264],[6.55406,53.22605],[6.55381,53.22573],[6.55447,53.22411],[6.55305,53.22313],[6.55273,53.22245],[6.5527,53.22128],[6.55355,53.21984],[6.55334,53.21937],[6.55494,53.21909],[6.55591,53.21918],[6.55624,53.21838],[6.55757,53.21637],[6.55658,53.21612],[6.55681,53.21583],[6.55586,53.21402],[6.54938,53.21459],[6.54265,53.21306],[6.54029,53.21605],[6.53985,53.21722],[6.5399,53.21823],[6.54044,53.21936],[6.54109,53.22008],[6.55526,53.22906],[6.5562,53.22984],[6.55939,53.22888],[6.56023,53.22768]]]]}},{"type":"Feature","properties":{"name":"Oud-Noord","bezirk":"Groningen"},"geometry":{"type":"MultiPolygon","coordinates":[[[[6.57087,53.2272],[6.5664,53.22533],[6.56409,53.22648],[6.56121,53.22613],[6.55967,53.22864],[6.55939,53.22888],[6.5562,53.22984],[6.55708,53.23058],[6.55804,53.23183],[6.55898,53.23401],[6.55943,53.23583],[6.55928,53.23717],[6.55884,53.23833],[6.55664,53.24267],[6.57831,53.23609],[6.58124,53.23511],[6.58451,53.23348],[6.57087,53.2272]]]]}},{"type":"Feature","properties":{"name":"Oosterparkwijk","bezirk":"Groningen"},"geometry":{"type":"MultiPolygon","coordinates":[[[[6.5802,53.21707],[6.57886,53.2181],[6.5782,53.21896],[6.57854,53.21965],[6.57878,53.22077],[6.57869,53.22195],[6.57833,53.22268],[6.57756,53.22355],[6.57634,53.22433],[6.57402,53.22511],[6.57087,53.2272],[6.58451,53.23348],[6.59009,53.22906],[6.59826,53.22222],[6.5802,53.21707]]]]}},{"type":"Feature","properties":{"name":"Zuidoost","bezirk":"Groningen"},"geometry":{"type":"MultiPolygon","coordinates":[[[[6.65047,53.19941],[6.65402,53.19943],[6.66216,53.19982],[6.65626,53.19709],[6.6565,53.19693],[6.65171,53.19463],[6.65209,53.19428],[6.6501,53.19343],[6.64998,53.19318],[6.64307,53.19169],[6.64261,53.19188],[6.63981,53.1903],[6.64682,53.18794],[6.64489,53.18741],[6.64431,53.18746],[6.63892,53.18579],[6.63786,53.18619],[6.63591,53.18628],[6.63657,53.18675],[6.63529,53.18721],[6.63543,53.18737],[6.63395,53.1878],[6.6334,53.18737],[6.63191,53.18842],[6.62571,53.19027],[6.62546,53.18998],[6.62306,53.19107],[6.60483,53.19654],[6.60327,53.19636],[6.60107,53.1976],[6.57981,53.20759],[6.58237,53.20913],[6.58864,53.21145],[6.58253,53.21515],[6.58015,53.21705],[6.61215,53.22609],[6.61694,53.21901],[6.62002,53.21527],[6.62262,53.21266],[6.63201,53.20437],[6.63339,53.2035],[6.6357,53.20237],[6.64007,53.2009],[6.6446,53.19996],[6.65047,53.19941]]]]}},{"type":"Feature","properties":{"name":"Helpman e.o.","bezirk":"Groningen"},"geometry":{"type":"MultiPolygon","coordinates":[[[[6.59749,53.19492],[6.59712,53.19482],[6.59589,53.19493],[6.59871,53.19056],[6.59784,53.19042],[6.59711,53.1905],[6.59579,53.19002],[6.58632,53.1876],[6.58656,53.1872],[6.58465,53.18658],[6.58263,53.18609],[6.58104,53.18588],[6.58116,53.18497],[6.57972,53.18469],[6.58064,53.18323],[6.57579,53.18293],[6.56985,53.18579],[6.56863,53.18663],[6.56741,53.18773],[6.56647,53.18895],[6.56368,53.19369],[6.56316,53.19491],[6.56301,53.19619],[6.56337,53.19782],[6.5651,53.20049],[6.56543,53.20124],[6.56533,53.20217],[6.56469,53.20323],[6.57683,53.20598],[6.57791,53.20642],[6.57981,53.20759],[6.60107,53.1976],[6.60327,53.19636],[6.60014,53.19541],[6.59749,53.19492]]]]}},{"type":"Feature","properties":{"name":"Zuidwest","bezirk":"Groningen"},"geometry":{"type":"MultiPolygon","coordinates":[[[[6.56303,53.19567],[6.56316,53.19491],[6.56368,53.19369],[6.56647,53.18895],[6.56773,53.18741],[6.56907,53.18631],[6.57055,53.18539],[6.57579,53.18293],[6.57463,53.18269],[6.57072,53.18289],[6.56768,53.18389],[6.5667,53.18454],[6.55819,53.18204],[6.55694,53.18383],[6.54885,53.18167],[6.54927,53.18119],[6.54838,53.18089],[6.54819,53.1811],[6.54501,53.17979],[6.54313,53.17881],[6.54174,53.17861],[6.54113,53.17968],[6.53966,53.18122],[6.53788,53.1824],[6.53553,53.1833],[6.53421,53.18418],[6.52949,53.19519],[6.53049,53.19556],[6.53055,53.1958],[6.5351,53.19575],[6.53947,53.19638],[6.55459,53.2011],[6.56469,53.20323],[6.56533,53.20217],[6.56543,53.20124],[6.5651,53.20049],[6.56337,53.19782],[6.56307,53.19687],[6.56303,53.19567]]]]}},{"type":"Feature","properties":{"name":"Hoogkerk e.o.","bezirk":"Groningen"},"geometry":{"type":"MultiPolygon","coordinates":[[[[6.5193,53.21523],[6.51924,53.21497],[6.51295,53.21481],[6.51361,53.21108],[6.51421,53.20951],[6.51517,53.20793],[6.5178,53.20484],[6.51867,53.20343],[6.51867,53.20319],[6.51934,53.20295],[6.51931,53.20246],[6.52905,53.205],[6.52898,53.20533],[6.53019,53.20546],[6.53023,53.20531],[6.53128,53.20558],[6.53074,53.20764],[6.53202,53.20782],[6.53245,53.2067],[6.53299,53.20682],[6.53333,53.20673],[6.53301,53.20624],[6.53339,53.20522],[6.53329,53.20504],[6.53191,53.20466],[6.53291,53.20149],[6.53244,53.20143],[6.53395,53.1957],[6.53055,53.1958],[6.53049,53.19556],[6.52731,53.19596],[6.52696,53.1958],[6.52007,53.19714],[6.51577,53.19814],[6.51572,53.19831],[6.51486,53.19765],[6.51339,53.19694],[6.51314,53.19729],[6.51276,53.19732],[6.50996,53.19868],[6.50982,53.19901],[6.50883,53.1992],[6.50761,53.1999],[6.50685,53.20015],[6.49662,53.19816],[6.49423,53.19822],[6.49316,53.19878],[6.49271,53.20034],[6.49288,53.20099],[6.49259,53.20139],[6.49167,53.20119],[6.48948,53.20234],[6.48914,53.20265],[6.48893,53.20313],[6.486,53.20332],[6.48576,53.20344],[6.48572,53.20382],[6.48357,53.20379],[6.48151,53.20355],[6.46346,53.20006],[6.46275,53.20198],[6.46617,53.20413],[6.4669,53.2043],[6.46681,53.20457],[6.46708,53.20563],[6.467,53.20617],[6.46447,53.20761],[6.46468,53.2077],[6.46844,53.21741],[6.47345,53.22967],[6.47435,53.23083],[6.47388,53.23116],[6.47381,53.23162],[6.47498,53.23307],[6.4765,53.23615],[6.47802,53.23944],[6.47846,53.24101],[6.47925,53.24221],[6.4801,53.24414],[6.48048,53.24551],[6.48864,53.24417],[6.51996,53.23582],[6.51884,53.23438],[6.51823,53.23392],[6.51657,53.23328],[6.51338,53.23283],[6.50872,53.23252],[6.50816,53.23238],[6.50735,53.23185],[6.50716,53.23105],[6.50759,53.22662],[6.50717,53.225],[6.50708,53.2235],[6.50807,53.22167],[6.5039,53.22137],[6.50323,53.21854],[6.50979,53.21686],[6.51718,53.21547],[6.5193,53.21523]]]]}},{"type":"Feature","properties":{"name":"Nieuw-West","bezirk":"Groningen"},"geometry":{"type":"MultiPolygon","coordinates":[[[[6.51144,53.25411],[6.51435,53.25254],[6.51765,53.25106],[6.51849,53.2503],[6.51901,53.24924],[6.52186,53.24679],[6.52285,53.24529],[6.5232,53.2438],[6.52489,53.2423],[6.52613,53.24071],[6.52619,53.23966],[6.52644,53.23925],[6.52901,53.23644],[6.53078,53.23338],[6.53263,53.2321],[6.53297,53.23062],[6.53338,53.22992],[6.53437,53.22886],[6.53683,53.22537],[6.53829,53.22387],[6.54036,53.22218],[6.54229,53.22096],[6.54109,53.22008],[6.54044,53.21936],[6.54005,53.21867],[6.53982,53.21759],[6.53994,53.21681],[6.54029,53.21605],[6.54265,53.21306],[6.54201,53.21291],[6.543,53.21198],[6.5442,53.21122],[6.54702,53.21019],[6.53132,53.2098],[6.53202,53.20782],[6.53074,53.20764],[6.53128,53.20558],[6.53023,53.20531],[6.53019,53.20546],[6.52898,53.20533],[6.52905,53.205],[6.51931,53.20246],[6.51934,53.20295],[6.51867,53.20319],[6.51867,53.20343],[6.5178,53.20484],[6.51517,53.20793],[6.51421,53.20951],[6.51361,53.21108],[6.51295,53.21481],[6.51924,53.21497],[6.5193,53.21523],[6.51718,53.21547],[6.50979,53.21686],[6.50323,53.21854],[6.5039,53.22137],[6.50807,53.22167],[6.50708,53.2235],[6.50717,53.225],[6.50759,53.22662],[6.50716,53.23105],[6.50735,53.23185],[6.50816,53.23238],[6.50872,53.23252],[6.51338,53.23283],[6.51657,53.23328],[6.51823,53.23392],[6.51884,53.23438],[6.51996,53.23582],[6.48864,53.24417],[6.48048,53.24551],[6.48043,53.24733],[6.48092,53.25019],[6.4886,53.24902],[6.48823,53.2486],[6.48873,53.24723],[6.49043,53.24732],[6.49043,53.24698],[6.49244,53.24668],[6.49199,53.24556],[6.49368,53.24587],[6.49418,53.24582],[6.49468,53.24556],[6.49599,53.24561],[6.49585,53.24582],[6.49924,53.24838],[6.50264,53.2475],[6.50494,53.24891],[6.50465,53.24909],[6.50619,53.25056],[6.50911,53.25242],[6.50901,53.25307],[6.50956,53.25278],[6.51144,53.25411]]]]}},{"type":"Feature","properties":{"name":"Noordwest","bezirk":"Groningen"},"geometry":{"type":"MultiPolygon","coordinates":[[[[6.5475,53.22416],[6.54229,53.22096],[6.54036,53.22218],[6.53829,53.22387],[6.53683,53.22537],[6.53437,53.22886],[6.53355,53.22966],[6.53297,53.23062],[6.53263,53.2321],[6.53078,53.23338],[6.52901,53.23644],[6.52644,53.23925],[6.52619,53.23966],[6.52613,53.24071],[6.52489,53.2423],[6.5232,53.2438],[6.52285,53.24529],[6.52186,53.24679],[6.51901,53.24924],[6.51849,53.2503],[6.51765,53.25106],[6.51435,53.25254],[6.50887,53.25558],[6.50838,53.25609],[6.50825,53.25727],[6.55664,53.24267],[6.55884,53.23833],[6.55938,53.23663],[6.55933,53.23504],[6.55804,53.23183],[6.55708,53.23058],[6.55526,53.22906],[6.5475,53.22416]]]]}},{"type":"Feature","properties":{"name":"Noordoost","bezirk":"Groningen"},"geometry":{"type":"MultiPolygon","coordinates":[[[[6.54971,53.26431],[6.55032,53.26374],[6.55104,53.26369],[6.55175,53.26337],[6.55189,53.26301],[6.55139,53.26238],[6.55257,53.26217],[6.55395,53.26213],[6.55814,53.26244],[6.55827,53.263],[6.5666,53.26361],[6.56723,53.26149],[6.57322,53.2615],[6.58097,53.26176],[6.58575,53.26154],[6.58578,53.26249],[6.58869,53.26255],[6.58759,53.26092],[6.58633,53.25585],[6.60635,53.25374],[6.60652,53.25303],[6.60633,53.25245],[6.60631,53.25141],[6.60653,53.24966],[6.60673,53.24914],[6.60722,53.24914],[6.60776,53.24817],[6.60817,53.24796],[6.60913,53.24642],[6.6054,53.24487],[6.60494,53.24489],[6.6038,53.24578],[6.60166,53.24483],[6.6011,53.2452],[6.59809,53.2438],[6.5975,53.24448],[6.59274,53.24206],[6.59246,53.24246],[6.58759,53.24031],[6.58955,53.23901],[6.58691,53.23768],[6.58875,53.23568],[6.58863,53.23474],[6.58789,53.2346],[6.58811,53.23553],[6.58784,53.23601],[6.5865,53.23682],[6.58542,53.2372],[6.583,53.23749],[6.58187,53.2372],[6.5808,53.23667],[6.57857,53.23646],[6.57831,53.23609],[6.50825,53.25727],[6.50824,53.25757],[6.51083,53.25679],[6.51223,53.25723],[6.519,53.25849],[6.51941,53.25801],[6.52248,53.25771],[6.52429,53.25644],[6.52541,53.25712],[6.52588,53.258],[6.5266,53.25827],[6.52854,53.25822],[6.52928,53.25842],[6.52968,53.25824],[6.53031,53.25824],[6.53022,53.25852],[6.53141,53.25904],[6.53179,53.2587],[6.53427,53.25964],[6.53427,53.26006],[6.53585,53.26019],[6.53584,53.25995],[6.53931,53.26036],[6.53849,53.26266],[6.53865,53.2629],[6.53793,53.2641],[6.54097,53.26362],[6.54657,53.26428],[6.55033,53.26491],[6.54955,53.26441],[6.54971,53.26431]]]]}},{"type":"Feature","properties":{"name":"Noorddijk e.o.","bezirk":"Groningen"},"geometry":{"type":"MultiPolygon","coordinates":[[[[6.61835,53.25149],[6.6193,53.24945],[6.63504,53.25129],[6.63776,53.24641],[6.63792,53.24609],[6.63778,53.24605],[6.63819,53.24531],[6.6415,53.23986],[6.64289,53.23636],[6.64362,53.23506],[6.64359,53.23481],[6.59826,53.22222],[6.59009,53.22906],[6.58435,53.23362],[6.58124,53.23511],[6.57831,53.23609],[6.57857,53.23646],[6.5808,53.23667],[6.5824,53.23738],[6.5841,53.23745],[6.58641,53.23686],[6.58757,53.23622],[6.5881,53.2356],[6.58789,53.2346],[6.58863,53.23474],[6.58875,53.23568],[6.58691,53.23768],[6.58955,53.23901],[6.58759,53.24031],[6.59246,53.24246],[6.59274,53.24206],[6.5975,53.24448],[6.59809,53.2438],[6.6011,53.2452],[6.60166,53.24483],[6.6038,53.24578],[6.60494,53.24489],[6.6054,53.24487],[6.60913,53.24642],[6.60817,53.24796],[6.60776,53.24817],[6.60722,53.24914],[6.60673,53.24914],[6.60653,53.24966],[6.60631,53.25141],[6.61835,53.25149]]]]}},{"type":"Feature","properties":{"name":"Meerdorpen","bezirk":"Groningen"},"geometry":{"type":"MultiPolygon","coordinates":[[[[6.64005,53.23247],[6.64109,53.23111],[6.64275,53.23126],[6.64331,53.23051],[6.64151,53.22929],[6.64102,53.22919],[6.64097,53.22898],[6.64071,53.22885],[6.6435,53.22673],[6.64673,53.2207],[6.64872,53.21734],[6.66021,53.20722],[6.66111,53.20669],[6.66242,53.20513],[6.66576,53.20266],[6.66687,53.20202],[6.66216,53.19982],[6.65402,53.19943],[6.65047,53.19941],[6.64606,53.19975],[6.64265,53.2003],[6.63889,53.20124],[6.63494,53.2027],[6.63339,53.2035],[6.63139,53.20484],[6.62101,53.21422],[6.61733,53.21848],[6.61215,53.22609],[6.64359,53.23481],[6.64366,53.23347],[6.64005,53.23247]]]]}},{"type":"Feature","properties":{"name":"Meerstad e.o.","bezirk":"Groningen"},"geometry":{"type":"MultiPolygon","coordinates":[[[[6.70012,53.25539],[6.70388,53.25355],[6.70343,53.25228],[6.70356,53.25193],[6.71451,53.24561],[6.71272,53.24462],[6.71769,53.24187],[6.71316,53.23881],[6.71303,53.23887],[6.71227,53.23833],[6.71201,53.23846],[6.71163,53.2382],[6.71203,53.238],[6.71029,53.23679],[6.71047,53.2367],[6.70883,53.23544],[6.70888,53.23514],[6.70933,53.23491],[6.70654,53.23491],[6.70766,53.23435],[6.70721,53.23403],[6.70983,53.23271],[6.70945,53.23153],[6.70806,53.23223],[6.70683,53.23133],[6.7077,53.23085],[6.70641,53.22987],[6.70738,53.2293],[6.70567,53.22826],[6.70763,53.22711],[6.7072,53.22684],[6.7088,53.22583],[6.70883,53.22532],[6.70836,53.22478],[6.70705,53.2256],[6.70576,53.22501],[6.70637,53.22453],[6.70512,53.22371],[6.70554,53.22334],[6.70429,53.22214],[6.70295,53.22171],[6.70338,53.2212],[6.70214,53.22084],[6.70252,53.22033],[6.70202,53.22019],[6.70213,53.22004],[6.70099,53.21972],[6.70146,53.21888],[6.69939,53.21851],[6.69967,53.21812],[6.69853,53.2178],[6.69886,53.21734],[6.69752,53.21697],[6.69816,53.21553],[6.69825,53.21467],[6.69497,53.21456],[6.69331,53.21425],[6.69336,53.213],[6.692,53.21295],[6.69198,53.21317],[6.69077,53.21316],[6.69077,53.21246],[6.69021,53.21232],[6.68991,53.21232],[6.68989,53.21259],[6.68823,53.21264],[6.68819,53.21212],[6.68709,53.21214],[6.68704,53.21182],[6.68485,53.21159],[6.68489,53.21116],[6.68291,53.21106],[6.68266,53.21206],[6.68104,53.21192],[6.68047,53.21169],[6.6807,53.21005],[6.68008,53.21003],[6.68014,53.20951],[6.67964,53.2094],[6.67976,53.20832],[6.68248,53.20849],[6.68398,53.20236],[6.68399,53.20201],[6.68347,53.20148],[6.68346,53.20113],[6.6827,53.20076],[6.67865,53.20085],[6.6735,53.20071],[6.6736,53.20065],[6.67256,53.20075],[6.6678,53.20165],[6.66576,53.20266],[6.66242,53.20513],[6.66111,53.20669],[6.66021,53.20722],[6.65466,53.21225],[6.64879,53.21726],[6.64673,53.2207],[6.6435,53.22673],[6.64071,53.22885],[6.64097,53.22898],[6.64102,53.22919],[6.64151,53.22929],[6.64331,53.23051],[6.64275,53.23126],[6.64109,53.23111],[6.64005,53.23247],[6.64366,53.23347],[6.64358,53.23505],[6.64773,53.23628],[6.65027,53.23726],[6.66829,53.2454],[6.69833,53.25615],[6.70012,53.25539]]]]}},{"type":"Feature","properties":{"name":"Ten Boer e.o.","bezirk":"Groningen"},"geometry":{"type":"MultiPolygon","coordinates":[[[[6.65567,53.30815],[6.65594,53.30833],[6.65675,53.30806],[6.65665,53.30793],[6.65715,53.30772],[6.66077,53.30669],[6.66572,53.30591],[6.66892,53.30523],[6.67325,53.30481],[6.67683,53.30387],[6.68022,53.30266],[6.68398,53.3005],[6.68664,53.29884],[6.68687,53.29852],[6.6903,53.29723],[6.69289,53.29541],[6.694,53.29436],[6.69455,53.29361],[6.69705,53.29204],[6.70017,53.28976],[6.70963,53.28424],[6.71129,53.28335],[6.71207,53.28339],[6.71306,53.28276],[6.71509,53.28211],[6.71662,53.28119],[6.71956,53.28114],[6.72248,53.2798],[6.71444,53.27324],[6.71581,53.2731],[6.71539,53.2727],[6.71547,53.27264],[6.71065,53.26866],[6.71766,53.26317],[6.71425,53.26183],[6.66816,53.24535],[6.65027,53.23726],[6.64773,53.23628],[6.64362,53.23506],[6.64289,53.23636],[6.6415,53.23986],[6.63819,53.24531],[6.63778,53.24605],[6.63792,53.24609],[6.63776,53.24641],[6.63504,53.25129],[6.63537,53.25136],[6.63557,53.25124],[6.63605,53.25144],[6.63568,53.2541],[6.63535,53.25528],[6.63458,53.25677],[6.63345,53.25976],[6.63209,53.26121],[6.62821,53.26433],[6.62755,53.26516],[6.62585,53.2662],[6.64533,53.29472],[6.64559,53.29514],[6.64518,53.29523],[6.64536,53.29571],[6.64596,53.29576],[6.64704,53.29751],[6.64744,53.29825],[6.64793,53.29987],[6.64989,53.30316],[6.652,53.3056],[6.65369,53.30806],[6.65369,53.30836],[6.65391,53.30841],[6.65405,53.30865],[6.65567,53.30815]]]]}},{"type":"Feature","properties":{"name":"Ten Post e.o.","bezirk":"Groningen"},"geometry":{"type":"MultiPolygon","coordinates":[[[[6.74099,53.31197],[6.74268,53.31102],[6.74289,53.31134],[6.74368,53.3111],[6.74421,53.3117],[6.74412,53.31193],[6.74705,53.31149],[6.74733,53.31192],[6.74795,53.31178],[6.74752,53.31103],[6.74882,53.31065],[6.74935,53.30984],[6.74479,53.30775],[6.74491,53.30702],[6.74607,53.30525],[6.74805,53.30297],[6.75308,53.29885],[6.75554,53.29963],[6.75982,53.29639],[6.75947,53.29618],[6.76068,53.29524],[6.76262,53.29645],[6.76462,53.29814],[6.76949,53.294],[6.77237,53.29181],[6.76979,53.29068],[6.77231,53.28779],[6.76914,53.28663],[6.7698,53.28565],[6.77095,53.28479],[6.77253,53.28309],[6.74394,53.27281],[6.73229,53.26921],[6.71766,53.26317],[6.71065,53.26866],[6.71547,53.27264],[6.71539,53.2727],[6.71581,53.2731],[6.71444,53.27324],[6.72248,53.2798],[6.71956,53.28114],[6.71662,53.28119],[6.71509,53.28211],[6.71306,53.28276],[6.71207,53.28339],[6.71129,53.28335],[6.70963,53.28424],[6.70017,53.28976],[6.69705,53.29204],[6.69455,53.29361],[6.694,53.29436],[6.69289,53.29541],[6.68974,53.29754],[6.70533,53.3075],[6.70635,53.30706],[6.70669,53.30711],[6.7087,53.30978],[6.70916,53.31002],[6.71239,53.30944],[6.71407,53.30868],[6.71986,53.30735],[6.72272,53.30599],[6.7265,53.30489],[6.7294,53.30529],[6.72956,53.30642],[6.73057,53.30767],[6.73057,53.30798],[6.73036,53.3082],[6.73095,53.30853],[6.7319,53.30854],[6.73214,53.3087],[6.73236,53.30922],[6.73201,53.30984],[6.7322,53.31047],[6.73266,53.31119],[6.73365,53.3118],[6.73458,53.31208],[6.73614,53.3119],[6.73784,53.31296],[6.74099,53.31197]]]]}},{"type":"Feature","properties":{"name":"Haren-West e.o.","bezirk":"Groningen"},"geometry":{"type":"MultiPolygon","coordinates":[[[[6.60519,53.19479],[6.60664,53.19307],[6.61658,53.1776],[6.62341,53.16686],[6.63119,53.15381],[6.63211,53.15267],[6.63249,53.15139],[6.63267,53.14995],[6.63273,53.14702],[6.63218,53.14702],[6.63214,53.14853],[6.63135,53.14937],[6.62942,53.14873],[6.62778,53.15013],[6.62483,53.14914],[6.62439,53.1495],[6.62408,53.15003],[6.62296,53.14991],[6.62311,53.14927],[6.61661,53.14933],[6.61604,53.15034],[6.6155,53.15024],[6.61495,53.15092],[6.61177,53.15048],[6.61177,53.1477],[6.61196,53.14661],[6.61603,53.14128],[6.6116,53.14031],[6.60829,53.14007],[6.60847,53.14003],[6.60849,53.13977],[6.60884,53.13951],[6.60918,53.1384],[6.60745,53.13925],[6.60652,53.13932],[6.59998,53.14472],[6.5973,53.14402],[6.59638,53.14411],[6.59589,53.14434],[6.59612,53.14525],[6.59568,53.14548],[6.59054,53.14495],[6.58946,53.14502],[6.58796,53.14544],[6.58775,53.14577],[6.58791,53.14693],[6.58774,53.1478],[6.58724,53.14928],[6.58621,53.15068],[6.58616,53.15114],[6.58568,53.15197],[6.58602,53.15219],[6.58476,53.15352],[6.58452,53.15351],[6.58451,53.15423],[6.58664,53.15569],[6.58712,53.15607],[6.58709,53.15623],[6.58691,53.15649],[6.58556,53.15696],[6.58482,53.15764],[6.58357,53.15787],[6.58325,53.15949],[6.58204,53.16071],[6.5817,53.16125],[6.58202,53.16209],[6.58177,53.16221],[6.58073,53.16221],[6.58079,53.16247],[6.58134,53.16293],[6.58152,53.16359],[6.56369,53.15764],[6.56316,53.15872],[6.56286,53.16021],[6.56113,53.1644],[6.5595,53.16911],[6.55631,53.17258],[6.55414,53.17529],[6.55356,53.17514],[6.54838,53.18089],[6.54927,53.18119],[6.54885,53.18167],[6.55694,53.18383],[6.55819,53.18204],[6.5667,53.18454],[6.56825,53.18366],[6.57072,53.18289],[6.57182,53.18274],[6.57463,53.18269],[6.57539,53.18279],[6.57537,53.1829],[6.58064,53.18323],[6.57972,53.18469],[6.58116,53.18497],[6.58104,53.18588],[6.58263,53.18609],[6.58465,53.18658],[6.58656,53.1872],[6.58632,53.1876],[6.59579,53.19002],[6.59711,53.1905],[6.59784,53.19042],[6.59871,53.19056],[6.59589,53.19493],[6.59722,53.19482],[6.60014,53.19541],[6.60327,53.19636],[6.60519,53.19479]]]]}},{"type":"Feature","properties":{"name":"Haren-Oost e.o.","bezirk":"Groningen"},"geometry":{"type":"MultiPolygon","coordinates":[[[[6.60447,53.19659],[6.62306,53.19107],[6.62546,53.18998],[6.62571,53.19027],[6.63191,53.18842],[6.6334,53.18737],[6.63395,53.1878],[6.63546,53.18736],[6.63529,53.18721],[6.63657,53.18675],[6.63591,53.18628],[6.63786,53.18619],[6.63892,53.18579],[6.63947,53.18598],[6.64077,53.18572],[6.64725,53.18378],[6.64506,53.18251],[6.64432,53.18189],[6.63804,53.17392],[6.63682,53.17265],[6.63714,53.17243],[6.63573,53.17125],[6.63506,53.1704],[6.63429,53.17004],[6.6313,53.16748],[6.63262,53.16709],[6.63117,53.16466],[6.63079,53.16478],[6.63034,53.1644],[6.62963,53.16477],[6.62915,53.16404],[6.63088,53.16377],[6.63049,53.16334],[6.6314,53.16274],[6.6303,53.16228],[6.63028,53.16203],[6.62959,53.16179],[6.62938,53.16139],[6.63026,53.1596],[6.63099,53.15749],[6.63064,53.15744],[6.62965,53.15662],[6.62953,53.15659],[6.62341,53.16686],[6.60664,53.19307],[6.60519,53.19479],[6.60327,53.19636],[6.60447,53.19659]]]]}},{"type":"Feature","properties":{"name":"Glimmen-Onnen-Noordlaren","bezirk":"Groningen"},"geometry":{"type":"MultiPolygon","coordinates":[[[[6.65585,53.18115],[6.65647,53.18061],[6.65724,53.18077],[6.65822,53.17972],[6.66027,53.17662],[6.66134,53.17272],[6.66233,53.1713],[6.665,53.1696],[6.66866,53.16922],[6.66959,53.16894],[6.67137,53.16731],[6.67235,53.16667],[6.677,53.16526],[6.67833,53.16464],[6.67966,53.16337],[6.67998,53.16226],[6.6835,53.16048],[6.68449,53.15964],[6.68572,53.15746],[6.68871,53.15461],[6.69019,53.15138],[6.69025,53.15044],[6.68937,53.14993],[6.68699,53.14897],[6.6864,53.14841],[6.68627,53.14785],[6.68649,53.1472],[6.68709,53.14646],[6.68905,53.14467],[6.68957,53.14331],[6.69305,53.12856],[6.69537,53.12118],[6.68121,53.11847],[6.6754,53.11765],[6.67361,53.11701],[6.67346,53.11713],[6.6706,53.11652],[6.67089,53.11625],[6.66515,53.11488],[6.66529,53.11464],[6.65191,53.11116],[6.63806,53.10705],[6.63767,53.10716],[6.63733,53.10683],[6.63483,53.1062],[6.63503,53.10666],[6.63568,53.10668],[6.63598,53.10704],[6.63567,53.10785],[6.63709,53.1083],[6.63686,53.11027],[6.63528,53.11115],[6.63511,53.11146],[6.63566,53.11218],[6.63579,53.11259],[6.63639,53.11265],[6.6366,53.11284],[6.63597,53.11335],[6.63417,53.11383],[6.63364,53.11435],[6.63133,53.11443],[6.62983,53.11468],[6.6296,53.11477],[6.6291,53.11542],[6.62806,53.11565],[6.6284,53.11653],[6.62775,53.11675],[6.62765,53.11706],[6.62888,53.11763],[6.62963,53.11854],[6.63068,53.11898],[6.63083,53.11921],[6.62939,53.11984],[6.62898,53.11947],[6.62865,53.11949],[6.62806,53.12061],[6.62745,53.12118],[6.62797,53.12178],[6.62764,53.12271],[6.62645,53.12327],[6.62605,53.12375],[6.625,53.12399],[6.62425,53.12464],[6.62309,53.12517],[6.6219,53.1262],[6.62165,53.1271],[6.62129,53.12764],[6.62128,53.12841],[6.61935,53.12952],[6.61864,53.13038],[6.61858,53.13072],[6.61902,53.13155],[6.61831,53.13192],[6.61715,53.13212],[6.61697,53.1323],[6.61694,53.13271],[6.61653,53.13298],[6.61412,53.13253],[6.61364,53.1327],[6.61352,53.13292],[6.61369,53.13376],[6.61382,53.13413],[6.61421,53.13442],[6.61414,53.13467],[6.6144,53.13556],[6.61078,53.13791],[6.61022,53.1379],[6.60918,53.1384],[6.60884,53.13951],[6.60849,53.13977],[6.60847,53.14003],[6.60829,53.14007],[6.6116,53.14031],[6.61603,53.14128],[6.61196,53.14661],[6.61177,53.1477],[6.61177,53.15048],[6.61495,53.15092],[6.6155,53.15024],[6.61604,53.15034],[6.61661,53.14933],[6.62311,53.14927],[6.62296,53.14991],[6.62408,53.15003],[6.62439,53.1495],[6.62483,53.14914],[6.62778,53.15013],[6.62942,53.14873],[6.63135,53.14937],[6.63214,53.14853],[6.63218,53.14702],[6.63273,53.14702],[6.63267,53.14995],[6.63249,53.15139],[6.63211,53.15267],[6.63119,53.15381],[6.62953,53.15659],[6.63064,53.15744],[6.63099,53.15749],[6.63026,53.1596],[6.62938,53.16139],[6.62959,53.16179],[6.63028,53.16203],[6.6303,53.16228],[6.6314,53.16274],[6.63049,53.16334],[6.63088,53.16377],[6.62915,53.16404],[6.62963,53.16477],[6.63034,53.1644],[6.63079,53.16478],[6.63117,53.16466],[6.63262,53.16709],[6.6313,53.16748],[6.63429,53.17004],[6.63506,53.1704],[6.63573,53.17125],[6.63714,53.17243],[6.63682,53.17265],[6.63804,53.17392],[6.64432,53.18189],[6.64506,53.18251],[6.64725,53.18378],[6.65585,53.18115]]]]}}]}