{"type":"FeatureCollection","features":[{"type":"Feature","properties":{"zone":"3001","district":"Centrum","rawHours":"Mo–Sa 9–24, So 12–17 Uhr","rawFee":"5,00 per uur — 5,00 €/h","note":"Binnenstad Diepenring 1 — ma-za 09-24, zo 12-17, max 1 uur","windows":[{"weekdays":[2],"fromMinute":540,"toMinute":1440},{"weekdays":[4],"fromMinute":540,"toMinute":1440},{"weekdays":[1],"fromMinute":540,"toMinute":1440},{"weekdays":[5],"fromMinute":540,"toMinute":1440},{"weekdays":[3],"fromMinute":540,"toMinute":1440},{"weekdays":[6],"fromMinute":540,"toMinute":1440},{"weekdays":[0],"fromMinute":720,"toMinute":1020}],"fee":{"kind":"exact","centsPerHour":500},"unmodelledRules":["Feiertage 2026 laut Quelle: frei am 01.01., 06.04., 14.05., 25.05., 25.12., 26.12.; gebührenpflichtig wie am Wochentag am 27.04.","Zusätzlich frei laut Quelle 2026: 03.04., 05.04., 24.05."],"sourceDefect":null,"freeOnHolidays":false,"spaces":null,"maxStayMinutes":60,"maxStay":null,"maxStayShare":0,"maxStayValues":[],"chargingPoints":0,"carsharing":0},"geometry":{"type":"Polygon","coordinates":[[[6.56466,53.21932],[6.5656,53.21959],[6.56654,53.21979],[6.56633,53.22028],[6.56657,53.22034],[6.5666,53.22029],[6.56671,53.22026],[6.56695,53.21973],[6.56759,53.21988],[6.5676,53.21962],[6.567,53.21948],[6.5667,53.21943],[6.56656,53.21968],[6.56595,53.21954],[6.56613,53.21925],[6.56554,53.21911],[6.56538,53.21912],[6.56516,53.21936],[6.56475,53.21923],[6.56466,53.21932]]]}},{"type":"Feature","properties":{"zone":"3001","district":"Centrum","rawHours":"Mo–Sa 9–24, So 12–17 Uhr","rawFee":"5,00 per uur — 5,00 €/h","note":"Binnenstad Diepenring 1 — ma-za 09-24, zo 12-17, max 1 uur","windows":[{"weekdays":[2],"fromMinute":540,"toMinute":1440},{"weekdays":[4],"fromMinute":540,"toMinute":1440},{"weekdays":[1],"fromMinute":540,"toMinute":1440},{"weekdays":[5],"fromMinute":540,"toMinute":1440},{"weekdays":[3],"fromMinute":540,"toMinute":1440},{"weekdays":[6],"fromMinute":540,"toMinute":1440},{"weekdays":[0],"fromMinute":720,"toMinute":1020}],"fee":{"kind":"exact","centsPerHour":500},"unmodelledRules":["Feiertage 2026 laut Quelle: frei am 01.01., 06.04., 14.05., 25.05., 25.12., 26.12.; gebührenpflichtig wie am Wochentag am 27.04.","Zusätzlich frei laut Quelle 2026: 03.04., 05.04., 24.05."],"sourceDefect":null,"freeOnHolidays":false,"spaces":null,"maxStayMinutes":60,"maxStay":null,"maxStayShare":0,"maxStayValues":[],"chargingPoints":0,"carsharing":0},"geometry":{"type":"Polygon","coordinates":[[[6.56071,53.21463],[6.56054,53.21471],[6.5609,53.21506],[6.56107,53.21529],[6.56215,53.21497],[6.56212,53.21493],[6.56308,53.21474],[6.56378,53.21468],[6.56389,53.21469],[6.56574,53.21462],[6.56592,53.21462],[6.56616,53.21464],[6.56633,53.21468],[6.56634,53.2147],[6.56633,53.21472],[6.56617,53.21526],[6.56598,53.21556],[6.56548,53.21627],[6.5651,53.21676],[6.56521,53.21679],[6.56526,53.21676],[6.56568,53.21622],[6.56631,53.21528],[6.56635,53.21517],[6.56633,53.21517],[6.56646,53.21472],[6.56764,53.21502],[6.56745,53.21534],[6.56657,53.21637],[6.56603,53.21705],[6.56621,53.2171],[6.5671,53.21593],[6.56765,53.21528],[6.56761,53.21527],[6.56775,53.21506],[6.56778,53.21505],[6.56894,53.21534],[6.57055,53.21592],[6.57089,53.21609],[6.57139,53.21635],[6.57131,53.21641],[6.57209,53.21716],[6.57224,53.21733],[6.57305,53.21759],[6.57326,53.21736],[6.57284,53.21722],[6.57263,53.21709],[6.57173,53.21636],[6.57133,53.21609],[6.57149,53.21597],[6.57105,53.21578],[6.57018,53.21538],[6.56884,53.21504],[6.56884,53.21501],[6.56792,53.21478],[6.5679,53.21476],[6.56792,53.21471],[6.56781,53.21469],[6.56778,53.21471],[6.56756,53.21467],[6.56647,53.21439],[6.56626,53.21435],[6.56589,53.21432],[6.56362,53.21443],[6.56348,53.21443],[6.56286,53.21451],[6.56167,53.21477],[6.56179,53.21494],[6.56122,53.2151],[6.56118,53.21509],[6.56071,53.21463]]]}},{"type":"Feature","properties":{"zone":"3002","district":"Centrum","rawHours":"Mo–So 0–24 Uhr","rawFee":"5,00 per uur — 5,00 €/h","note":"Stationsplein — ma-zo 00.00-24.00, max 30 min","windows":[{"weekdays":[2],"fromMinute":0,"toMinute":1440},{"weekdays":[4],"fromMinute":0,"toMinute":1440},{"weekdays":[1],"fromMinute":0,"toMinute":1440},{"weekdays":[5],"fromMinute":0,"toMinute":1440},{"weekdays":[3],"fromMinute":0,"toMinute":1440},{"weekdays":[6],"fromMinute":0,"toMinute":1440},{"weekdays":[0],"fromMinute":0,"toMinute":1440}],"fee":{"kind":"exact","centsPerHour":500},"unmodelledRules":["Feiertage 2026 laut Quelle: gebührenpflichtig wie am Wochentag am 01.01., 06.04., 27.04., 14.05., 25.05., 25.12., 26.12."],"sourceDefect":null,"freeOnHolidays":false,"spaces":null,"maxStayMinutes":30,"maxStay":null,"maxStayShare":0,"maxStayValues":[],"chargingPoints":0,"carsharing":0},"geometry":{"type":"Polygon","coordinates":[[[6.56266,53.21126],[6.56366,53.21132],[6.56365,53.21117],[6.56333,53.21117],[6.5632,53.21109],[6.56267,53.21107],[6.56266,53.21126]]]}},{"type":"Feature","properties":{"zone":"3003","district":"Centrum","rawHours":"Mo–Sa 9–24, So 12–17 Uhr","rawFee":"5,00 per uur — 5,00 €/h","note":"Binnenstad Diepenring 2 — ma-za 09-24, zo 12-17, max 1 uur","windows":[{"weekdays":[2],"fromMinute":540,"toMinute":1440},{"weekdays":[4],"fromMinute":540,"toMinute":1440},{"weekdays":[1],"fromMinute":540,"toMinute":1440},{"weekdays":[5],"fromMinute":540,"toMinute":1440},{"weekdays":[3],"fromMinute":540,"toMinute":1440},{"weekdays":[6],"fromMinute":540,"toMinute":1440},{"weekdays":[0],"fromMinute":720,"toMinute":1020}],"fee":{"kind":"exact","centsPerHour":500},"unmodelledRules":["Feiertage 2026 laut Quelle: frei am 01.01., 06.04., 14.05., 25.05., 25.12., 26.12.; gebührenpflichtig wie am Wochentag am 27.04.","Zusätzlich frei laut Quelle 2026: 03.04., 05.04., 24.05."],"sourceDefect":null,"freeOnHolidays":false,"spaces":null,"maxStayMinutes":60,"maxStay":null,"maxStayShare":0,"maxStayValues":[],"chargingPoints":0,"carsharing":0},"geometry":{"type":"Polygon","coordinates":[[[6.5766,53.21574],[6.57586,53.21493],[6.57369,53.21378],[6.57239,53.21312],[6.57015,53.21263],[6.56786,53.21206],[6.56581,53.21192],[6.56407,53.21202],[6.55985,53.21294],[6.55867,53.2131],[6.55912,53.21398],[6.55935,53.21486],[6.55942,53.21727],[6.55931,53.21758],[6.55887,53.21807],[6.55821,53.21844],[6.55776,53.21876],[6.5571,53.21933],[6.55771,53.21975],[6.55882,53.22018],[6.56275,53.22134],[6.5648,53.22185],[6.56532,53.222],[6.56628,53.22224],[6.56665,53.22229],[6.56703,53.2223],[6.56757,53.22222],[6.56841,53.222],[6.57009,53.22149],[6.57039,53.22138],[6.57072,53.2211],[6.57193,53.21987],[6.57274,53.21846],[6.57406,53.21691],[6.57439,53.21662],[6.57503,53.21633],[6.57611,53.21598],[6.5766,53.21574]],[[6.56071,53.21463],[6.56118,53.21509],[6.56122,53.2151],[6.56179,53.21494],[6.56167,53.21477],[6.56286,53.21451],[6.56348,53.21443],[6.56362,53.21443],[6.56589,53.21432],[6.56626,53.21435],[6.56647,53.21439],[6.56756,53.21467],[6.56778,53.21471],[6.56781,53.21469],[6.56792,53.21471],[6.5679,53.21476],[6.56792,53.21478],[6.56884,53.21501],[6.56884,53.21504],[6.57018,53.21538],[6.57105,53.21578],[6.57149,53.21597],[6.57133,53.21609],[6.57173,53.21636],[6.57263,53.21709],[6.57284,53.21722],[6.57326,53.21736],[6.57305,53.21759],[6.57224,53.21733],[6.57209,53.21716],[6.57131,53.21641],[6.57139,53.21635],[6.57089,53.21609],[6.57055,53.21592],[6.56894,53.21534],[6.56778,53.21505],[6.56775,53.21506],[6.56761,53.21527],[6.56765,53.21528],[6.5671,53.21593],[6.56621,53.2171],[6.56603,53.21705],[6.56657,53.21637],[6.56745,53.21534],[6.56764,53.21502],[6.56646,53.21472],[6.56633,53.21517],[6.56635,53.21517],[6.56631,53.21528],[6.56568,53.21622],[6.56526,53.21676],[6.56521,53.21679],[6.5651,53.21676],[6.56548,53.21627],[6.56598,53.21556],[6.56617,53.21526],[6.56633,53.21472],[6.56634,53.2147],[6.56633,53.21468],[6.56616,53.21464],[6.56592,53.21462],[6.56574,53.21462],[6.56389,53.21469],[6.56378,53.21468],[6.56308,53.21474],[6.56212,53.21493],[6.56215,53.21497],[6.56107,53.21529],[6.5609,53.21506],[6.56054,53.21471],[6.56071,53.21463]],[[6.56466,53.21932],[6.56475,53.21923],[6.56516,53.21936],[6.56538,53.21912],[6.56554,53.21911],[6.56613,53.21925],[6.56595,53.21954],[6.56656,53.21968],[6.5667,53.21943],[6.567,53.21948],[6.5676,53.21962],[6.56759,53.21988],[6.56695,53.21973],[6.56671,53.22026],[6.5666,53.22029],[6.56657,53.22034],[6.56633,53.22028],[6.56654,53.21979],[6.5656,53.21959],[6.56466,53.21932]]]}},{"type":"Feature","properties":{"zone":"3004","district":"Centrum","rawHours":"Mo–Sa 9–24, So 12–17 Uhr","rawFee":"4,50 per uur — 4,50 €/h","note":"Binnenstad-Oost 2 — ma-za 09-24, zo 12-17, max 2 uur","windows":[{"weekdays":[2],"fromMinute":540,"toMinute":1440},{"weekdays":[4],"fromMinute":540,"toMinute":1440},{"weekdays":[1],"fromMinute":540,"toMinute":1440},{"weekdays":[5],"fromMinute":540,"toMinute":1440},{"weekdays":[3],"fromMinute":540,"toMinute":1440},{"weekdays":[6],"fromMinute":540,"toMinute":1440},{"weekdays":[0],"fromMinute":720,"toMinute":1020}],"fee":{"kind":"exact","centsPerHour":450},"unmodelledRules":["Feiertage 2026 laut Quelle: frei am 01.01., 06.04., 14.05., 25.05., 25.12., 26.12.; gebührenpflichtig wie am Wochentag am 27.04.","Zusätzlich frei laut Quelle 2026: 03.04., 05.04., 24.05."],"sourceDefect":null,"freeOnHolidays":false,"spaces":null,"maxStayMinutes":120,"maxStay":null,"maxStayShare":0,"maxStayValues":[],"chargingPoints":0,"carsharing":0},"geometry":{"type":"Polygon","coordinates":[[[6.56628,53.22262],[6.56654,53.2227],[6.56637,53.22286],[6.56659,53.22294],[6.56657,53.22295],[6.56668,53.223],[6.56663,53.22311],[6.56683,53.22328],[6.56708,53.22319],[6.5674,53.22328],[6.56765,53.22332],[6.56811,53.22346],[6.56842,53.22335],[6.56872,53.22344],[6.56836,53.22361],[6.56876,53.22388],[6.568,53.2242],[6.56838,53.22448],[6.57171,53.22285],[6.57398,53.22168],[6.576,53.22021],[6.57643,53.22034],[6.57655,53.22008],[6.57676,53.21979],[6.57711,53.2192],[6.57784,53.21932],[6.57819,53.21923],[6.57809,53.21906],[6.57807,53.21898],[6.57806,53.21891],[6.5781,53.21876],[6.5785,53.21815],[6.57617,53.21739],[6.57482,53.21689],[6.57456,53.21681],[6.57429,53.2167],[6.57399,53.21698],[6.57441,53.2171],[6.57438,53.21711],[6.57415,53.21742],[6.57396,53.21763],[6.57328,53.21828],[6.57324,53.21834],[6.57325,53.21839],[6.57657,53.21814],[6.57669,53.21804],[6.57686,53.21811],[6.57692,53.2182],[6.57324,53.21848],[6.57295,53.21881],[6.57288,53.21883],[6.57284,53.21887],[6.57256,53.21926],[6.57238,53.21963],[6.57227,53.21982],[6.57224,53.21983],[6.57207,53.22009],[6.57189,53.22028],[6.57181,53.22039],[6.57177,53.22064],[6.57111,53.22128],[6.57098,53.22124],[6.57079,53.22145],[6.57068,53.22153],[6.57047,53.22161],[6.57015,53.22169],[6.56922,53.22197],[6.56911,53.22202],[6.56901,53.22209],[6.56872,53.22216],[6.56867,53.22212],[6.56859,53.22201],[6.56851,53.222],[6.56849,53.22197],[6.56757,53.22222],[6.56703,53.2223],[6.56665,53.22229],[6.56628,53.22224],[6.56628,53.22262]]]}},{"type":"Feature","properties":{"zone":"3005","district":"Centrum","rawHours":"Mo–Sa 9–24, So 12–17 Uhr","rawFee":"4,50 per uur — 4,50 €/h","note":"Binnenstad-Oost 1 — ma-za 09-24, zo 12-17, max 3 uur","windows":[{"weekdays":[2],"fromMinute":540,"toMinute":1440},{"weekdays":[4],"fromMinute":540,"toMinute":1440},{"weekdays":[1],"fromMinute":540,"toMinute":1440},{"weekdays":[5],"fromMinute":540,"toMinute":1440},{"weekdays":[3],"fromMinute":540,"toMinute":1440},{"weekdays":[6],"fromMinute":540,"toMinute":1440},{"weekdays":[0],"fromMinute":720,"toMinute":1020}],"fee":{"kind":"exact","centsPerHour":450},"unmodelledRules":["Feiertage 2026 laut Quelle: frei am 01.01., 06.04., 14.05., 25.05., 25.12., 26.12.; gebührenpflichtig wie am Wochentag am 27.04.","Zusätzlich frei laut Quelle 2026: 03.04., 05.04., 24.05."],"sourceDefect":null,"freeOnHolidays":false,"spaces":null,"maxStayMinutes":180,"maxStay":null,"maxStayShare":0,"maxStayValues":[],"chargingPoints":0,"carsharing":0},"geometry":{"type":"Polygon","coordinates":[[[6.57429,53.2167],[6.57456,53.21681],[6.57482,53.21689],[6.57617,53.21739],[6.5785,53.21815],[6.57853,53.21811],[6.57909,53.21766],[6.57976,53.21716],[6.5785,53.21678],[6.57725,53.21654],[6.57717,53.21648],[6.57575,53.21621],[6.57536,53.21622],[6.57503,53.21633],[6.57439,53.21662],[6.57429,53.2167]]]}},{"type":"Feature","properties":{"zone":"3006","district":"Oud-Zuid","rawHours":"Mo–Sa 9–24, So 12–17 Uhr","rawFee":"4,50 per uur — 4,50 €/h","note":"Oosterpoort — ma-za 09-24, zo 12-17, max 2 uur","windows":[{"weekdays":[2],"fromMinute":540,"toMinute":1440},{"weekdays":[4],"fromMinute":540,"toMinute":1440},{"weekdays":[1],"fromMinute":540,"toMinute":1440},{"weekdays":[5],"fromMinute":540,"toMinute":1440},{"weekdays":[3],"fromMinute":540,"toMinute":1440},{"weekdays":[6],"fromMinute":540,"toMinute":1440},{"weekdays":[0],"fromMinute":720,"toMinute":1020}],"fee":{"kind":"exact","centsPerHour":450},"unmodelledRules":["Feiertage 2026 laut Quelle: frei am 01.01., 06.04., 14.05., 25.05., 25.12., 26.12.; gebührenpflichtig wie am Wochentag am 27.04.","Zusätzlich frei laut Quelle 2026: 03.04., 05.04., 24.05."],"sourceDefect":null,"freeOnHolidays":false,"spaces":null,"maxStayMinutes":120,"maxStay":null,"maxStayShare":0,"maxStayValues":[],"chargingPoints":0,"carsharing":0},"geometry":{"type":"Polygon","coordinates":[[[6.57132,53.21074],[6.57069,53.21187],[6.57015,53.21263],[6.57239,53.21312],[6.57369,53.21378],[6.57586,53.21493],[6.5766,53.21574],[6.58015,53.21705],[6.58253,53.21515],[6.58802,53.21184],[6.58864,53.21145],[6.58728,53.21089],[6.58659,53.21063],[6.58365,53.20959],[6.58378,53.20941],[6.58309,53.20924],[6.58259,53.20908],[6.58188,53.20873],[6.58175,53.20882],[6.5798,53.20759],[6.57691,53.20902],[6.57608,53.20936],[6.57489,53.20981],[6.57344,53.21025],[6.57132,53.21074]]]}},{"type":"Feature","properties":{"zone":"3007","district":"Oud-Zuid","rawHours":"Mo–Sa 9–24, So 12–17 Uhr","rawFee":"4,50 per uur — 4,50 €/h","note":"Grunobuurt/Laanhuizen — ma-za 09-24, zo 12-17, max 2 uur","windows":[{"weekdays":[2],"fromMinute":540,"toMinute":1440},{"weekdays":[4],"fromMinute":540,"toMinute":1440},{"weekdays":[1],"fromMinute":540,"toMinute":1440},{"weekdays":[5],"fromMinute":540,"toMinute":1440},{"weekdays":[3],"fromMinute":540,"toMinute":1440},{"weekdays":[6],"fromMinute":540,"toMinute":1440},{"weekdays":[0],"fromMinute":720,"toMinute":1020}],"fee":{"kind":"exact","centsPerHour":450},"unmodelledRules":["Feiertage 2026 laut Quelle: frei am 01.01., 06.04., 14.05., 25.05., 25.12., 26.12.; gebührenpflichtig wie am Wochentag am 27.04.","Zusätzlich frei laut Quelle 2026: 03.04., 05.04., 24.05."],"sourceDefect":null,"freeOnHolidays":false,"spaces":null,"maxStayMinutes":120,"maxStay":null,"maxStayShare":0,"maxStayValues":[],"chargingPoints":0,"carsharing":0},"geometry":{"type":"Polygon","coordinates":[[[6.55647,53.21047],[6.55933,53.21056],[6.55951,53.21004],[6.56038,53.20931],[6.56148,53.20745],[6.56302,53.20461],[6.56347,53.20297],[6.56348,53.20297],[6.55906,53.20209],[6.55879,53.20271],[6.55788,53.20404],[6.5578,53.20527],[6.55548,53.20589],[6.5511,53.20461],[6.54872,53.20897],[6.54853,53.20925],[6.54839,53.2094],[6.54819,53.20958],[6.5478,53.20984],[6.54744,53.21003],[6.54714,53.21015],[6.54647,53.21036],[6.54672,53.21064],[6.54715,53.21052],[6.54797,53.21038],[6.54953,53.21025],[6.55647,53.21047]]]}},{"type":"Feature","properties":{"zone":"3008","district":"Centrum","rawHours":"Mo–Sa 9–24, So 12–17 Uhr","rawFee":"4,50 per uur — 4,50 €/h","note":"Hortusbuurt — ma-za 09-24, zo 12-17, max 2 uur","windows":[{"weekdays":[2],"fromMinute":540,"toMinute":1440},{"weekdays":[4],"fromMinute":540,"toMinute":1440},{"weekdays":[1],"fromMinute":540,"toMinute":1440},{"weekdays":[5],"fromMinute":540,"toMinute":1440},{"weekdays":[3],"fromMinute":540,"toMinute":1440},{"weekdays":[6],"fromMinute":540,"toMinute":1440},{"weekdays":[0],"fromMinute":720,"toMinute":1020}],"fee":{"kind":"exact","centsPerHour":450},"unmodelledRules":["Feiertage 2026 laut Quelle: frei am 01.01., 06.04., 14.05., 25.05., 25.12., 26.12.; gebührenpflichtig wie am Wochentag am 27.04.","Zusätzlich frei laut Quelle 2026: 03.04., 05.04., 24.05."],"sourceDefect":null,"freeOnHolidays":false,"spaces":null,"maxStayMinutes":120,"maxStay":null,"maxStayShare":0,"maxStayValues":[],"chargingPoints":0,"carsharing":0},"geometry":{"type":"Polygon","coordinates":[[[6.55665,53.21951],[6.55598,53.22064],[6.55592,53.22089],[6.55591,53.22175],[6.55585,53.22208],[6.55565,53.22256],[6.55558,53.22275],[6.55565,53.22293],[6.55656,53.22488],[6.55785,53.22533],[6.55754,53.22569],[6.55885,53.22604],[6.56,53.22611],[6.56121,53.22613],[6.5617,53.22617],[6.56161,53.22656],[6.56153,53.2267],[6.56178,53.22675],[6.56195,53.22644],[6.56201,53.22626],[6.56196,53.2262],[6.56213,53.2259],[6.56241,53.22567],[6.56266,53.22565],[6.56284,53.22554],[6.56268,53.22547],[6.56306,53.22519],[6.56325,53.22528],[6.56342,53.22517],[6.56372,53.2253],[6.56462,53.22474],[6.5643,53.22457],[6.56476,53.22427],[6.56512,53.22442],[6.56543,53.22423],[6.56485,53.224],[6.56495,53.22393],[6.56603,53.22298],[6.56614,53.22305],[6.56654,53.2227],[6.56628,53.22262],[6.56628,53.22224],[6.56532,53.222],[6.5648,53.22185],[6.56275,53.22134],[6.55882,53.22018],[6.55771,53.21975],[6.5571,53.21933],[6.55678,53.21929],[6.55665,53.21951]]]}},{"type":"Feature","properties":{"zone":"3009","district":"Oud-Noord","rawHours":"Mo–Sa 9–19, So 12–17 Uhr","rawFee":"4,50 per uur — 4,50 €/h","note":"Korrewegwijk — ma-za 09-19, zo 12-17, max 2 uur","windows":[{"weekdays":[2],"fromMinute":540,"toMinute":1140},{"weekdays":[4],"fromMinute":540,"toMinute":1140},{"weekdays":[1],"fromMinute":540,"toMinute":1140},{"weekdays":[5],"fromMinute":540,"toMinute":1140},{"weekdays":[3],"fromMinute":540,"toMinute":1140},{"weekdays":[6],"fromMinute":540,"toMinute":1140},{"weekdays":[0],"fromMinute":720,"toMinute":1020}],"fee":{"kind":"exact","centsPerHour":450},"unmodelledRules":["Feiertage 2026 laut Quelle: frei am 01.01., 06.04., 14.05., 25.05., 25.12., 26.12.; gebührenpflichtig wie am Wochentag am 27.04.","Zusätzlich frei laut Quelle 2026: 03.04., 05.04., 24.05."],"sourceDefect":null,"freeOnHolidays":false,"spaces":null,"maxStayMinutes":120,"maxStay":null,"maxStayShare":0,"maxStayValues":[],"chargingPoints":0,"carsharing":0},"geometry":{"type":"Polygon","coordinates":[[[6.57094,53.22723],[6.56682,53.2255],[6.56553,53.22607],[6.5653,53.2259],[6.56503,53.22604],[6.56549,53.22637],[6.56515,53.22668],[6.56498,53.22662],[6.56471,53.22687],[6.56369,53.2276],[6.56305,53.22731],[6.56285,53.22747],[6.56197,53.22707],[6.56218,53.22692],[6.56178,53.22675],[6.56153,53.2267],[6.56161,53.22656],[6.5617,53.22617],[6.56121,53.22613],[6.56094,53.22612],[6.56058,53.22667],[6.56011,53.22765],[6.56024,53.22768],[6.56,53.22806],[6.56017,53.22836],[6.56054,53.22883],[6.56399,53.23346],[6.56582,53.23607],[6.56795,53.23907],[6.57329,53.23758],[6.57815,53.23614],[6.58124,53.23511],[6.58272,53.23453],[6.58443,53.23344],[6.58083,53.23176],[6.58087,53.23173],[6.58056,53.23158],[6.5781,53.23049],[6.57564,53.22936],[6.5756,53.22939],[6.57543,53.22932],[6.57094,53.22723]]]}},{"type":"Feature","properties":{"zone":"3010","district":"Oosterparkwijk","rawHours":"Mo–Sa 9–19, So 12–17 Uhr","rawFee":"4,50 per uur — 4,50 €/h","note":"Oosterpark/Damsterdiepbuurt — ma-za 09-19, zo 12-17, max 2 uur","windows":[{"weekdays":[2],"fromMinute":540,"toMinute":1140},{"weekdays":[4],"fromMinute":540,"toMinute":1140},{"weekdays":[1],"fromMinute":540,"toMinute":1140},{"weekdays":[5],"fromMinute":540,"toMinute":1140},{"weekdays":[3],"fromMinute":540,"toMinute":1140},{"weekdays":[6],"fromMinute":540,"toMinute":1140},{"weekdays":[0],"fromMinute":720,"toMinute":1020}],"fee":{"kind":"exact","centsPerHour":450},"unmodelledRules":["Feiertage 2026 laut Quelle: frei am 01.01., 06.04., 14.05., 25.05., 25.12., 26.12.; gebührenpflichtig wie am Wochentag am 27.04.","Zusätzlich frei laut Quelle 2026: 03.04., 05.04., 24.05."],"sourceDefect":null,"freeOnHolidays":false,"spaces":null,"maxStayMinutes":120,"maxStay":null,"maxStayShare":0,"maxStayValues":[],"chargingPoints":0,"carsharing":0},"geometry":{"type":"Polygon","coordinates":[[[6.58015,53.21705],[6.57886,53.2181],[6.57838,53.21862],[6.5782,53.21896],[6.5783,53.2192],[6.57819,53.21923],[6.57845,53.21968],[6.57853,53.21987],[6.57863,53.22025],[6.57865,53.22045],[6.57864,53.22122],[6.57861,53.22121],[6.57861,53.22141],[6.57855,53.22189],[6.5784,53.22225],[6.57809,53.22268],[6.57731,53.22352],[6.57694,53.22378],[6.57619,53.22419],[6.57535,53.22459],[6.57472,53.22479],[6.57396,53.22497],[6.57281,53.22561],[6.57138,53.22651],[6.57173,53.22667],[6.57094,53.22723],[6.57543,53.22932],[6.5756,53.22939],[6.57564,53.22936],[6.5781,53.23049],[6.58056,53.23158],[6.58087,53.23173],[6.58083,53.23176],[6.58443,53.23344],[6.59161,53.22761],[6.59105,53.22731],[6.59105,53.22718],[6.59109,53.22704],[6.59234,53.22595],[6.59307,53.22561],[6.59286,53.2253],[6.59278,53.22479],[6.59312,53.22439],[6.59283,53.22374],[6.59274,53.22361],[6.59241,53.22331],[6.59203,53.22315],[6.59089,53.22275],[6.585,53.22083],[6.584,53.22055],[6.58414,53.22021],[6.58278,53.21992],[6.58467,53.21835],[6.58015,53.21705]]]}},{"type":"Feature","properties":{"zone":"3012","district":"Oud-Zuid","rawHours":"Mo–Sa 9–24, So 12–17 Uhr","rawFee":"4,50 per uur — 4,50 €/h","note":"Rivierenbuurt — ma-za 09-24, zo 12-17, max 2 uur","windows":[{"weekdays":[2],"fromMinute":540,"toMinute":1440},{"weekdays":[4],"fromMinute":540,"toMinute":1440},{"weekdays":[1],"fromMinute":540,"toMinute":1440},{"weekdays":[5],"fromMinute":540,"toMinute":1440},{"weekdays":[3],"fromMinute":540,"toMinute":1440},{"weekdays":[6],"fromMinute":540,"toMinute":1440},{"weekdays":[0],"fromMinute":720,"toMinute":1020}],"fee":{"kind":"exact","centsPerHour":450},"unmodelledRules":["Feiertage 2026 laut Quelle: frei am 01.01., 06.04., 14.05., 25.05., 25.12., 26.12.; gebührenpflichtig wie am Wochentag am 27.04.","Zusätzlich frei laut Quelle 2026: 03.04., 05.04., 24.05."],"sourceDefect":null,"freeOnHolidays":false,"spaces":null,"maxStayMinutes":120,"maxStay":null,"maxStayShare":0,"maxStayValues":[],"chargingPoints":0,"carsharing":0},"geometry":{"type":"Polygon","coordinates":[[[6.56348,53.20297],[6.56347,53.20297],[6.56302,53.20461],[6.56148,53.20745],[6.56038,53.20931],[6.56004,53.20959],[6.56352,53.2097],[6.56365,53.20912],[6.56494,53.2092],[6.56547,53.20935],[6.56641,53.20982],[6.56761,53.21035],[6.56863,53.21058],[6.57052,53.21059],[6.57132,53.21074],[6.57344,53.21025],[6.57489,53.20981],[6.57608,53.20936],[6.57691,53.20902],[6.5798,53.20759],[6.5783,53.20663],[6.57791,53.20642],[6.57759,53.20626],[6.57717,53.2061],[6.57683,53.20598],[6.57645,53.20588],[6.57493,53.20552],[6.56872,53.20412],[6.56348,53.20297]]]}},{"type":"Feature","properties":{"zone":"3014","district":"Oud-Zuid","rawHours":"Mo–Sa 9–24, So 12–17 Uhr","rawFee":"4,50 per uur — 4,50 €/h","note":"Zeeheldenbuurt — ma-za 09-24, zo 12-17, max 2 uur","windows":[{"weekdays":[2],"fromMinute":540,"toMinute":1440},{"weekdays":[4],"fromMinute":540,"toMinute":1440},{"weekdays":[1],"fromMinute":540,"toMinute":1440},{"weekdays":[5],"fromMinute":540,"toMinute":1440},{"weekdays":[3],"fromMinute":540,"toMinute":1440},{"weekdays":[6],"fromMinute":540,"toMinute":1440},{"weekdays":[0],"fromMinute":720,"toMinute":1020}],"fee":{"kind":"exact","centsPerHour":450},"unmodelledRules":["Feiertage 2026 laut Quelle: frei am 01.01., 06.04., 14.05., 25.05., 25.12., 26.12.; gebührenpflichtig wie am Wochentag am 27.04.","Zusätzlich frei laut Quelle 2026: 03.04., 05.04., 24.05."],"sourceDefect":null,"freeOnHolidays":false,"spaces":null,"maxStayMinutes":120,"maxStay":null,"maxStayShare":0,"maxStayValues":[],"chargingPoints":0,"carsharing":0},"geometry":{"type":"Polygon","coordinates":[[[6.54672,53.21064],[6.54627,53.21076],[6.54534,53.21108],[6.54457,53.2114],[6.5442,53.21166],[6.54374,53.21193],[6.54335,53.21231],[6.54265,53.21306],[6.54938,53.21459],[6.55078,53.21445],[6.55134,53.21445],[6.5536,53.2142],[6.55632,53.21398],[6.55668,53.21355],[6.55867,53.2131],[6.5587,53.21279],[6.55933,53.21056],[6.54953,53.21025],[6.54797,53.21038],[6.54715,53.21052],[6.54672,53.21064]]]}},{"type":"Feature","properties":{"zone":"3015","district":"Zuidwest","rawHours":"Mo–Sa 9–19 Uhr","rawFee":"Eerste 90 minuten 0,50, daarna 2,70 per uur — 1. Stunde 0,33 €, 2. Stunde 1,52 €, 3. Stunde 2,70 €","note":"Overwinningsplein — ma-za 09-19, max 24 uur","windows":[{"weekdays":[2],"fromMinute":540,"toMinute":1140},{"weekdays":[4],"fromMinute":540,"toMinute":1140},{"weekdays":[1],"fromMinute":540,"toMinute":1140},{"weekdays":[5],"fromMinute":540,"toMinute":1140},{"weekdays":[3],"fromMinute":540,"toMinute":1140},{"weekdays":[6],"fromMinute":540,"toMinute":1140}],"fee":{"kind":"range","minCentsPerHour":33,"maxCentsPerHour":270},"unmodelledRules":["Feiertage 2026 laut Quelle: frei am 01.01., 06.04., 14.05., 25.05., 25.12., 26.12.; gebührenpflichtig wie am Wochentag am 27.04.","Zusätzlich frei laut Quelle 2026: 03.04."],"sourceDefect":null,"freeOnHolidays":false,"spaces":null,"maxStayMinutes":null,"maxStay":null,"maxStayShare":0,"maxStayValues":[],"chargingPoints":0,"carsharing":0},"geometry":{"type":"Polygon","coordinates":[[[6.5595,53.1986],[6.55957,53.19858],[6.55958,53.1986],[6.56032,53.19839],[6.5603,53.19836],[6.56104,53.19816],[6.56106,53.19819],[6.5617,53.19802],[6.56186,53.19799],[6.56187,53.19796],[6.56161,53.1976],[6.56183,53.19754],[6.56206,53.19752],[6.56202,53.19737],[6.56187,53.19739],[6.56123,53.19756],[6.5612,53.19756],[6.56118,53.19753],[6.56014,53.19781],[6.56013,53.1978],[6.55846,53.19826],[6.55865,53.19849],[6.55918,53.19834],[6.55936,53.19848],[6.55934,53.19849],[6.5595,53.1986]]]}},{"type":"Feature","properties":{"zone":"3016","district":"Oud-Zuid","rawHours":"Mo–So 9–24 Uhr","rawFee":"2,70 per uur — 2,70 €/h","note":"Martiniplaza (Expositielaan/Leonard Springerlaan) — ma-zo, 09-24","windows":[{"weekdays":[2],"fromMinute":540,"toMinute":1440},{"weekdays":[4],"fromMinute":540,"toMinute":1440},{"weekdays":[1],"fromMinute":540,"toMinute":1440},{"weekdays":[5],"fromMinute":540,"toMinute":1440},{"weekdays":[3],"fromMinute":540,"toMinute":1440},{"weekdays":[6],"fromMinute":540,"toMinute":1440},{"weekdays":[0],"fromMinute":540,"toMinute":1440}],"fee":{"kind":"exact","centsPerHour":270},"unmodelledRules":["Feiertage 2026 laut Quelle: frei am 01.01., 06.04., 14.05., 25.05., 25.12., 26.12.; gebührenpflichtig wie am Wochentag am 27.04.","Zusätzlich frei laut Quelle 2026: 03.04., 05.04., 24.05."],"sourceDefect":null,"freeOnHolidays":false,"spaces":null,"maxStayMinutes":null,"maxStay":null,"maxStayShare":0,"maxStayValues":[],"chargingPoints":0,"carsharing":0},"geometry":{"type":"Polygon","coordinates":[[[6.55798,53.20388],[6.558,53.20385],[6.55571,53.20316],[6.55452,53.20287],[6.55363,53.2026],[6.5534,53.20243],[6.55337,53.20235],[6.55337,53.20209],[6.55339,53.20198],[6.55361,53.2016],[6.55368,53.20154],[6.55382,53.20152],[6.55381,53.20159],[6.55478,53.20181],[6.55491,53.20161],[6.55405,53.20143],[6.55368,53.20148],[6.55347,53.20153],[6.55324,53.20193],[6.55321,53.2021],[6.55322,53.20226],[6.55308,53.20244],[6.55326,53.2025],[6.55342,53.2026],[6.55341,53.20265],[6.55327,53.20275],[6.55371,53.20283],[6.55522,53.20329],[6.55521,53.20332],[6.55697,53.20385],[6.557,53.20381],[6.55788,53.20407],[6.55788,53.20404],[6.55798,53.20388]]]}},{"type":"Feature","properties":{"zone":"3018","district":"Noordwest","rawHours":"Mo–Sa 9–19 Uhr","rawFee":"2,70 per uur — 2,70 €/h","note":"Winkelcentrum Paddepoel — ma-za, 09-19, max 24 uur","windows":[{"weekdays":[2],"fromMinute":540,"toMinute":1140},{"weekdays":[4],"fromMinute":540,"toMinute":1140},{"weekdays":[1],"fromMinute":540,"toMinute":1140},{"weekdays":[5],"fromMinute":540,"toMinute":1140},{"weekdays":[3],"fromMinute":540,"toMinute":1140},{"weekdays":[6],"fromMinute":540,"toMinute":1140}],"fee":{"kind":"exact","centsPerHour":270},"unmodelledRules":["Feiertage 2026 laut Quelle: frei am 01.01., 06.04., 14.05., 25.05., 25.12., 26.12.; gebührenpflichtig wie am Wochentag am 27.04.","Zusätzlich frei laut Quelle 2026: 03.04."],"sourceDefect":null,"freeOnHolidays":false,"spaces":null,"maxStayMinutes":null,"maxStay":null,"maxStayShare":0,"maxStayValues":[],"chargingPoints":0,"carsharing":0},"geometry":{"type":"MultiPolygon","coordinates":[[[[6.54553,53.23049],[6.54568,53.23052],[6.54538,53.23108],[6.54524,53.23106],[6.54553,53.23049]]],[[[6.54291,53.2289],[6.54354,53.229],[6.54368,53.22918],[6.54367,53.22921],[6.543,53.22908],[6.54226,53.23052],[6.54318,53.2307],[6.54308,53.23088],[6.54223,53.23072],[6.54205,53.23065],[6.54291,53.2289]]]]}},{"type":"Feature","properties":{"zone":"3019","district":"Centrum","rawHours":"Mo–Sa 9–24, So 12–17 Uhr","rawFee":"4,50 per uur — 4,50 €/h","note":"Hanzeplein/L.J. Zielstraweg — ma-za 09-24, zo 12-17, max 2 uur","windows":[{"weekdays":[2],"fromMinute":540,"toMinute":1440},{"weekdays":[4],"fromMinute":540,"toMinute":1440},{"weekdays":[1],"fromMinute":540,"toMinute":1440},{"weekdays":[5],"fromMinute":540,"toMinute":1440},{"weekdays":[3],"fromMinute":540,"toMinute":1440},{"weekdays":[6],"fromMinute":540,"toMinute":1440},{"weekdays":[0],"fromMinute":720,"toMinute":1020}],"fee":{"kind":"exact","centsPerHour":450},"unmodelledRules":["Feiertage 2026 laut Quelle: frei am 01.01., 06.04., 14.05., 25.05., 25.12., 26.12.; gebührenpflichtig wie am Wochentag am 27.04.","Zusätzlich frei laut Quelle 2026: 03.04., 05.04., 24.05."],"sourceDefect":null,"freeOnHolidays":false,"spaces":null,"maxStayMinutes":120,"maxStay":null,"maxStayShare":0,"maxStayValues":[],"chargingPoints":0,"carsharing":0},"geometry":{"type":"Polygon","coordinates":[[[6.57819,53.21923],[6.57784,53.21932],[6.57774,53.2195],[6.57766,53.21971],[6.57734,53.21966],[6.57715,53.21996],[6.57655,53.22008],[6.57641,53.22036],[6.57618,53.22057],[6.57707,53.22092],[6.57786,53.22109],[6.57852,53.22118],[6.57864,53.22122],[6.57865,53.22045],[6.57863,53.22025],[6.57859,53.22004],[6.57845,53.21968],[6.57819,53.21923]]]}},{"type":"Feature","properties":{"zone":"3020","district":"Oud-West","rawHours":"Mo–Sa 9–24, So 12–17 Uhr","rawFee":"4,50 per uur — 4,50 €/h","note":"Oranjewijk — ma-za 09-24, zo 12-17, max 2 uur","windows":[{"weekdays":[2],"fromMinute":540,"toMinute":1440},{"weekdays":[4],"fromMinute":540,"toMinute":1440},{"weekdays":[1],"fromMinute":540,"toMinute":1440},{"weekdays":[5],"fromMinute":540,"toMinute":1440},{"weekdays":[3],"fromMinute":540,"toMinute":1440},{"weekdays":[6],"fromMinute":540,"toMinute":1440},{"weekdays":[0],"fromMinute":720,"toMinute":1020}],"fee":{"kind":"exact","centsPerHour":450},"unmodelledRules":["Feiertage 2026 laut Quelle: frei am 01.01., 06.04., 14.05., 25.05., 25.12., 26.12.; gebührenpflichtig wie am Wochentag am 27.04.","Zusätzlich frei laut Quelle 2026: 03.04., 05.04., 24.05."],"sourceDefect":null,"freeOnHolidays":false,"spaces":null,"maxStayMinutes":120,"maxStay":null,"maxStayShare":0,"maxStayValues":[],"chargingPoints":0,"carsharing":0},"geometry":{"type":"Polygon","coordinates":[[[6.54231,53.22095],[6.54229,53.22096],[6.54754,53.22419],[6.55526,53.22906],[6.5562,53.22984],[6.5568,53.22966],[6.55745,53.22955],[6.55898,53.22907],[6.55939,53.22888],[6.55967,53.22864],[6.55999,53.22807],[6.56024,53.22768],[6.56011,53.22765],[6.56015,53.22756],[6.55985,53.22753],[6.55917,53.22767],[6.55881,53.22757],[6.55821,53.22721],[6.55727,53.22653],[6.55702,53.22639],[6.55682,53.22634],[6.55462,53.22616],[6.55408,53.22602],[6.55391,53.22572],[6.55452,53.22424],[6.55442,53.22404],[6.55356,53.22358],[6.55307,53.22315],[6.55281,53.22243],[6.55273,53.22171],[6.55275,53.22134],[6.55299,53.22078],[6.55331,53.22028],[6.55367,53.21988],[6.5542,53.21961],[6.55463,53.21949],[6.55505,53.21943],[6.55583,53.21941],[6.55665,53.21951],[6.55678,53.21929],[6.55591,53.21918],[6.55494,53.21909],[6.55274,53.21948],[6.55209,53.2195],[6.55163,53.2195],[6.55007,53.21937],[6.54755,53.21898],[6.54632,53.21907],[6.54571,53.21915],[6.54509,53.2193],[6.54406,53.21982],[6.54231,53.22095]],[[6.5468,53.21935],[6.54714,53.21931],[6.54741,53.21929],[6.54811,53.2193],[6.54807,53.21946],[6.54738,53.21945],[6.54688,53.21949],[6.54645,53.21956],[6.54606,53.21964],[6.54598,53.2195],[6.5464,53.21941],[6.5468,53.21935]]]}},{"type":"Feature","properties":{"zone":"3021","district":"Oud-West","rawHours":"Mo–Sa 9–24, So 12–17 Uhr","rawFee":"4,50 per uur — 4,50 €/h","note":"Oranjewijk bij Jumbo — ma-za 09-24, zo 12-17, max 2 uur","windows":[{"weekdays":[2],"fromMinute":540,"toMinute":1440},{"weekdays":[4],"fromMinute":540,"toMinute":1440},{"weekdays":[1],"fromMinute":540,"toMinute":1440},{"weekdays":[5],"fromMinute":540,"toMinute":1440},{"weekdays":[3],"fromMinute":540,"toMinute":1440},{"weekdays":[6],"fromMinute":540,"toMinute":1440},{"weekdays":[0],"fromMinute":720,"toMinute":1020}],"fee":{"kind":"exact","centsPerHour":450},"unmodelledRules":["Feiertage 2026 laut Quelle: frei am 01.01., 06.04., 14.05., 25.05., 25.12., 26.12.; gebührenpflichtig wie am Wochentag am 27.04.","Zusätzlich frei laut Quelle 2026: 03.04., 05.04., 24.05."],"sourceDefect":null,"freeOnHolidays":false,"spaces":null,"maxStayMinutes":120,"maxStay":null,"maxStayShare":0,"maxStayValues":[],"chargingPoints":0,"carsharing":0},"geometry":{"type":"Polygon","coordinates":[[[6.5479,53.2193],[6.54741,53.21929],[6.54697,53.21932],[6.5464,53.21941],[6.54598,53.2195],[6.54606,53.21964],[6.54645,53.21956],[6.54688,53.21949],[6.54738,53.21945],[6.54807,53.21946],[6.54811,53.2193],[6.5479,53.2193]]]}},{"type":"Feature","properties":{"zone":"3022","district":"Zuidoost","rawHours":"Mo–So 9–24 Uhr","rawFee":"2,70 per uur — 2,70 €/h","note":"De Linie — ma-zo, 09-24, max 24 uur","windows":[{"weekdays":[2],"fromMinute":540,"toMinute":1440},{"weekdays":[4],"fromMinute":540,"toMinute":1440},{"weekdays":[1],"fromMinute":540,"toMinute":1440},{"weekdays":[5],"fromMinute":540,"toMinute":1440},{"weekdays":[3],"fromMinute":540,"toMinute":1440},{"weekdays":[6],"fromMinute":540,"toMinute":1440},{"weekdays":[0],"fromMinute":540,"toMinute":1440}],"fee":{"kind":"exact","centsPerHour":270},"unmodelledRules":["Feiertage 2026 laut Quelle: frei am 01.01., 06.04., 14.05., 25.05., 25.12., 26.12.; gebührenpflichtig wie am Wochentag am 27.04.","Zusätzlich frei laut Quelle 2026: 03.04., 05.04., 24.05."],"sourceDefect":null,"freeOnHolidays":false,"spaces":null,"maxStayMinutes":null,"maxStay":null,"maxStayShare":0,"maxStayValues":[],"chargingPoints":0,"carsharing":0},"geometry":{"type":"Polygon","coordinates":[[[6.5798,53.20759],[6.58175,53.20882],[6.58188,53.20873],[6.58259,53.20908],[6.58309,53.20924],[6.58378,53.20941],[6.58477,53.20799],[6.5853,53.20759],[6.58635,53.20704],[6.58552,53.20662],[6.58525,53.2064],[6.58522,53.20608],[6.58509,53.20602],[6.58433,53.20596],[6.58401,53.20588],[6.58356,53.20582],[6.5798,53.20759]]]}},{"type":"Feature","properties":{"zone":"3023","district":"Helpman e.o.","rawHours":"Mo–Fr 9–19 Uhr","rawFee":"2,70 per uur — 2,70 €/h","note":"Papiermolen — ma-vr, 09-19, max 24 uur","windows":[{"weekdays":[2],"fromMinute":540,"toMinute":1140},{"weekdays":[4],"fromMinute":540,"toMinute":1140},{"weekdays":[1],"fromMinute":540,"toMinute":1140},{"weekdays":[5],"fromMinute":540,"toMinute":1140},{"weekdays":[3],"fromMinute":540,"toMinute":1140}],"fee":{"kind":"exact","centsPerHour":270},"unmodelledRules":["Feiertage 2026 laut Quelle: frei am 01.01., 06.04., 14.05., 25.05., 25.12., 26.12.; gebührenpflichtig wie am Wochentag am 27.04.","Zusätzlich frei laut Quelle 2026: 03.04."],"sourceDefect":null,"freeOnHolidays":false,"spaces":null,"maxStayMinutes":null,"maxStay":null,"maxStayShare":0,"maxStayValues":[],"chargingPoints":0,"carsharing":0},"geometry":{"type":"Polygon","coordinates":[[[6.56916,53.20355],[6.56886,53.20373],[6.56814,53.20359],[6.56822,53.2037],[6.57039,53.20412],[6.57042,53.20409],[6.57049,53.20393],[6.57053,53.20377],[6.57014,53.20371],[6.57006,53.20374],[6.56971,53.2037],[6.5697,53.20365],[6.56916,53.20355]]]}},{"type":"Feature","properties":{"zone":"3024","district":"Zuidoost","rawHours":"Mo–Sa 9–24, So 12–17 Uhr","rawFee":"4,50 per uur — 4,50 €/h","note":"Kop van Oost — ma-za 09-24, zo 12-17, max 2 uur","windows":[{"weekdays":[2],"fromMinute":540,"toMinute":1440},{"weekdays":[4],"fromMinute":540,"toMinute":1440},{"weekdays":[1],"fromMinute":540,"toMinute":1440},{"weekdays":[5],"fromMinute":540,"toMinute":1440},{"weekdays":[3],"fromMinute":540,"toMinute":1440},{"weekdays":[6],"fromMinute":540,"toMinute":1440},{"weekdays":[0],"fromMinute":720,"toMinute":1020}],"fee":{"kind":"exact","centsPerHour":450},"unmodelledRules":["Feiertage 2026 laut Quelle: frei am 01.01., 06.04., 14.05., 25.05., 25.12., 26.12.; gebührenpflichtig wie am Wochentag am 27.04.","Zusätzlich frei laut Quelle 2026: 03.04., 05.04., 24.05."],"sourceDefect":null,"freeOnHolidays":false,"spaces":null,"maxStayMinutes":120,"maxStay":null,"maxStayShare":0,"maxStayValues":[],"chargingPoints":0,"carsharing":0},"geometry":{"type":"Polygon","coordinates":[[[6.58015,53.21705],[6.58545,53.21858],[6.58658,53.21742],[6.58179,53.21573],[6.58015,53.21705]]]}},{"type":"Feature","properties":{"zone":"3026","district":"Centrum","rawHours":"Mo–Sa 9–24, So 12–17 Uhr","rawFee":"4,50 per uur — 4,50 €/h","note":"Binnenstad Oost — ma-za 09-24, zo 12-17, max 2 uur","windows":[{"weekdays":[2],"fromMinute":540,"toMinute":1440},{"weekdays":[4],"fromMinute":540,"toMinute":1440},{"weekdays":[1],"fromMinute":540,"toMinute":1440},{"weekdays":[5],"fromMinute":540,"toMinute":1440},{"weekdays":[3],"fromMinute":540,"toMinute":1440},{"weekdays":[6],"fromMinute":540,"toMinute":1440},{"weekdays":[0],"fromMinute":720,"toMinute":1020}],"fee":{"kind":"exact","centsPerHour":450},"unmodelledRules":["Feiertage 2026 laut Quelle: frei am 01.01., 06.04., 14.05., 25.05., 25.12., 26.12.; gebührenpflichtig wie am Wochentag am 27.04.","Zusätzlich frei laut Quelle 2026: 03.04., 05.04., 24.05."],"sourceDefect":null,"freeOnHolidays":false,"spaces":null,"maxStayMinutes":120,"maxStay":null,"maxStayShare":0,"maxStayValues":[],"chargingPoints":0,"carsharing":0},"geometry":{"type":"Polygon","coordinates":[[[6.56849,53.22197],[6.56851,53.222],[6.56859,53.22201],[6.56867,53.22212],[6.56872,53.22216],[6.56901,53.22209],[6.56911,53.22202],[6.56922,53.22197],[6.57015,53.22169],[6.57047,53.22161],[6.57068,53.22153],[6.57079,53.22145],[6.57098,53.22124],[6.57111,53.22128],[6.57177,53.22064],[6.57181,53.22039],[6.57189,53.22028],[6.57207,53.22009],[6.57224,53.21983],[6.57227,53.21982],[6.57238,53.21963],[6.57256,53.21926],[6.57284,53.21887],[6.57288,53.21883],[6.57295,53.21881],[6.57324,53.21848],[6.57692,53.2182],[6.57686,53.21811],[6.57669,53.21804],[6.57657,53.21814],[6.57325,53.21839],[6.57324,53.21834],[6.57328,53.21828],[6.57396,53.21763],[6.57415,53.21742],[6.57438,53.21711],[6.57441,53.2171],[6.57399,53.21698],[6.57274,53.21846],[6.57193,53.21987],[6.57072,53.2211],[6.57039,53.22138],[6.57009,53.22149],[6.56849,53.22197]]]}},{"type":"Feature","properties":{"zone":"3027","district":"Oud-Noord","rawHours":"Mo–Sa 9–19, So 12–17 Uhr","rawFee":"4,50 per uur — 4,50 €/h","note":"De Hoogte — ma-za 09-19, zo 12-17, max 2 uur","windows":[{"weekdays":[2],"fromMinute":540,"toMinute":1140},{"weekdays":[4],"fromMinute":540,"toMinute":1140},{"weekdays":[1],"fromMinute":540,"toMinute":1140},{"weekdays":[5],"fromMinute":540,"toMinute":1140},{"weekdays":[3],"fromMinute":540,"toMinute":1140},{"weekdays":[6],"fromMinute":540,"toMinute":1140},{"weekdays":[0],"fromMinute":720,"toMinute":1020}],"fee":{"kind":"exact","centsPerHour":450},"unmodelledRules":["Feiertage 2026 laut Quelle: frei am 01.01., 06.04., 14.05., 25.05., 25.12., 26.12.; gebührenpflichtig wie am Wochentag am 27.04.","Zusätzlich frei laut Quelle 2026: 03.04., 05.04., 24.05."],"sourceDefect":null,"freeOnHolidays":false,"spaces":null,"maxStayMinutes":120,"maxStay":null,"maxStayShare":0,"maxStayValues":[],"chargingPoints":0,"carsharing":0},"geometry":{"type":"Polygon","coordinates":[[[6.5562,53.22984],[6.55708,53.23058],[6.55808,53.2319],[6.55852,53.23281],[6.55859,53.2328],[6.5587,53.23309],[6.55931,53.23501],[6.55943,53.23574],[6.5594,53.23638],[6.55932,53.23704],[6.55886,53.23831],[6.56043,53.23816],[6.56317,53.23774],[6.56645,53.23697],[6.56399,53.23346],[6.56054,53.22883],[6.56017,53.22836],[6.56,53.22806],[6.55967,53.22864],[6.55939,53.22888],[6.55898,53.22907],[6.55745,53.22955],[6.5568,53.22966],[6.5562,53.22984]]]}},{"type":"Feature","properties":{"zone":"3028","district":"Noordwest","rawHours":"Mo–Sa 9–19 Uhr","rawFee":"2,70 per uur — 2,70 €/h","note":"Tuinwijk — ma-za, 09-19, max 24 uur","windows":[{"weekdays":[2],"fromMinute":540,"toMinute":1140},{"weekdays":[4],"fromMinute":540,"toMinute":1140},{"weekdays":[1],"fromMinute":540,"toMinute":1140},{"weekdays":[5],"fromMinute":540,"toMinute":1140},{"weekdays":[3],"fromMinute":540,"toMinute":1140},{"weekdays":[6],"fromMinute":540,"toMinute":1140}],"fee":{"kind":"exact","centsPerHour":270},"unmodelledRules":["Feiertage 2026 laut Quelle: frei am 01.01., 06.04., 14.05., 25.05., 25.12., 26.12.; gebührenpflichtig wie am Wochentag am 27.04.","Zusätzlich frei laut Quelle 2026: 03.04."],"sourceDefect":null,"freeOnHolidays":false,"spaces":null,"maxStayMinutes":null,"maxStay":null,"maxStayShare":0,"maxStayValues":[],"chargingPoints":0,"carsharing":0},"geometry":{"type":"Polygon","coordinates":[[[6.55366,53.23133],[6.554,53.2307],[6.55435,53.23047],[6.55467,53.23031],[6.5562,53.22984],[6.55526,53.22906],[6.5475,53.22416],[6.54641,53.2248],[6.54462,53.22688],[6.54297,53.22869],[6.54356,53.22888],[6.54347,53.22899],[6.54354,53.229],[6.54356,53.22903],[6.54591,53.22978],[6.54553,53.23049],[6.54575,53.23052],[6.54534,53.2313],[6.54947,53.23207],[6.54957,53.23186],[6.55242,53.23073],[6.55233,53.2311],[6.55366,53.23133]]]}},{"type":"Feature","properties":{"zone":"3029","district":"Helpman e.o.","rawHours":"Mo–Sa 9–19 Uhr","rawFee":"2,70 per uur — 2,70 €/h","note":"Helpman — ma-za, 09-19, max 24 uur","windows":[{"weekdays":[2],"fromMinute":540,"toMinute":1140},{"weekdays":[4],"fromMinute":540,"toMinute":1140},{"weekdays":[1],"fromMinute":540,"toMinute":1140},{"weekdays":[5],"fromMinute":540,"toMinute":1140},{"weekdays":[3],"fromMinute":540,"toMinute":1140},{"weekdays":[6],"fromMinute":540,"toMinute":1140}],"fee":{"kind":"exact","centsPerHour":270},"unmodelledRules":["Feiertage 2026 laut Quelle: frei am 01.01., 06.04., 14.05., 25.05., 25.12., 26.12.; gebührenpflichtig wie am Wochentag am 27.04.","Zusätzlich frei laut Quelle 2026: 03.04."],"sourceDefect":null,"freeOnHolidays":false,"spaces":null,"maxStayMinutes":null,"maxStay":null,"maxStayShare":0,"maxStayValues":[],"chargingPoints":0,"carsharing":0},"geometry":{"type":"Polygon","coordinates":[[[6.57733,53.19369],[6.57533,53.19633],[6.57396,53.19792],[6.57215,53.19907],[6.56997,53.20068],[6.56981,53.20138],[6.56854,53.2024],[6.56746,53.20189],[6.56564,53.20197],[6.56469,53.20323],[6.56872,53.20412],[6.57493,53.20552],[6.57645,53.20588],[6.57683,53.20598],[6.57717,53.2061],[6.57759,53.20626],[6.57791,53.20642],[6.5783,53.20663],[6.57981,53.20759],[6.59338,53.20118],[6.59086,53.20061],[6.5928,53.19784],[6.59373,53.19809],[6.59644,53.19872],[6.59677,53.19808],[6.59666,53.19806],[6.59673,53.19788],[6.59671,53.19761],[6.59672,53.19749],[6.59742,53.19611],[6.59747,53.19594],[6.59748,53.19574],[6.59751,53.19564],[6.59776,53.19514],[6.59697,53.19499],[6.5968,53.19499],[6.59601,53.19506],[6.59579,53.19506],[6.59443,53.1948],[6.59589,53.19197],[6.59132,53.19123],[6.59291,53.18924],[6.58615,53.18755],[6.58451,53.1902],[6.5827,53.19362],[6.58213,53.19466],[6.58171,53.1946],[6.58134,53.1945],[6.58108,53.1945],[6.58089,53.19446],[6.57841,53.19366],[6.57821,53.19391],[6.57733,53.19369]],[[6.57819,53.19767],[6.57843,53.19735],[6.57891,53.19744],[6.57918,53.19755],[6.57934,53.19766],[6.57921,53.19779],[6.57886,53.19826],[6.57876,53.19824],[6.57862,53.19847],[6.57806,53.19832],[6.57829,53.19796],[6.57802,53.1979],[6.57819,53.19767]],[[6.56916,53.20355],[6.5697,53.20365],[6.56971,53.2037],[6.57006,53.20374],[6.57014,53.20371],[6.57053,53.20377],[6.57049,53.20393],[6.57042,53.20409],[6.57039,53.20412],[6.56822,53.2037],[6.56814,53.20359],[6.56886,53.20373],[6.56916,53.20355]]]}},{"type":"Feature","properties":{"zone":"3031","district":"Helpman e.o.","rawHours":"Mo–Sa 9–19 Uhr","rawFee":"Eerste 90 minuten 0,50, daarna 2,70 per uur — 1. Stunde 0,33 €, 2. Stunde 1,52 €, 3. Stunde 2,70 €","note":"Winkelcentrum Helperplein — ma-za 09-19, max 24 uur","windows":[{"weekdays":[2],"fromMinute":540,"toMinute":1140},{"weekdays":[4],"fromMinute":540,"toMinute":1140},{"weekdays":[1],"fromMinute":540,"toMinute":1140},{"weekdays":[5],"fromMinute":540,"toMinute":1140},{"weekdays":[3],"fromMinute":540,"toMinute":1140},{"weekdays":[6],"fromMinute":540,"toMinute":1140}],"fee":{"kind":"range","minCentsPerHour":33,"maxCentsPerHour":270},"unmodelledRules":["Feiertage 2026 laut Quelle: frei am 01.01., 06.04., 14.05., 25.05., 25.12., 26.12.; gebührenpflichtig wie am Wochentag am 27.04.","Zusätzlich frei laut Quelle 2026: 03.04."],"sourceDefect":null,"freeOnHolidays":false,"spaces":null,"maxStayMinutes":null,"maxStay":null,"maxStayShare":0,"maxStayValues":[],"chargingPoints":0,"carsharing":0},"geometry":{"type":"Polygon","coordinates":[[[6.57819,53.19767],[6.57802,53.1979],[6.57829,53.19796],[6.57806,53.19832],[6.57862,53.19847],[6.57876,53.19824],[6.57886,53.19826],[6.57921,53.19779],[6.57934,53.19766],[6.57918,53.19755],[6.57891,53.19744],[6.57843,53.19735],[6.57819,53.19767]]]}},{"type":"Feature","properties":{"zone":"3032","district":"Noordwest","rawHours":"Mo–Sa 9–19 Uhr","rawFee":"2,70 per uur — 2,70 €/h","note":"Selwerd — ma-za, 09-19, max 24 uur","windows":[{"weekdays":[2],"fromMinute":540,"toMinute":1140},{"weekdays":[4],"fromMinute":540,"toMinute":1140},{"weekdays":[1],"fromMinute":540,"toMinute":1140},{"weekdays":[5],"fromMinute":540,"toMinute":1140},{"weekdays":[3],"fromMinute":540,"toMinute":1140},{"weekdays":[6],"fromMinute":540,"toMinute":1140}],"fee":{"kind":"exact","centsPerHour":270},"unmodelledRules":["Feiertage 2026 laut Quelle: frei am 01.01., 06.04., 14.05., 25.05., 25.12., 26.12.; gebührenpflichtig wie am Wochentag am 27.04.","Zusätzlich frei laut Quelle 2026: 03.04."],"sourceDefect":null,"freeOnHolidays":false,"spaces":null,"maxStayMinutes":null,"maxStay":null,"maxStayShare":0,"maxStayValues":[],"chargingPoints":0,"carsharing":0},"geometry":{"type":"Polygon","coordinates":[[[6.53862,53.23596],[6.55096,53.23807],[6.55178,53.23819],[6.55324,53.23834],[6.55482,53.23841],[6.55884,53.23833],[6.55901,53.23791],[6.55932,53.23704],[6.5594,53.23638],[6.55943,53.23574],[6.55931,53.23501],[6.5587,53.23309],[6.55859,53.2328],[6.55852,53.23281],[6.55808,53.2319],[6.55708,53.23058],[6.5562,53.22984],[6.55467,53.23031],[6.55435,53.23047],[6.554,53.2307],[6.55366,53.23133],[6.55233,53.2311],[6.55242,53.23073],[6.54957,53.23186],[6.54947,53.23207],[6.54534,53.2313],[6.542,53.23071],[6.54194,53.23085],[6.54099,53.23158],[6.53862,53.23596]],[[6.5523,53.23361],[6.55343,53.23382],[6.55324,53.23418],[6.55211,53.23397],[6.5523,53.23361]]]}},{"type":"Feature","properties":{"zone":"3033","district":"Oud-West","rawHours":"Mo–Sa 9–24, So 12–17 Uhr","rawFee":"4,50 per uur — 4,50 €/h","note":"Schildersbuurt — ma-za 09-24, zo 12-17, max 2 uur","windows":[{"weekdays":[2],"fromMinute":540,"toMinute":1440},{"weekdays":[4],"fromMinute":540,"toMinute":1440},{"weekdays":[1],"fromMinute":540,"toMinute":1440},{"weekdays":[5],"fromMinute":540,"toMinute":1440},{"weekdays":[3],"fromMinute":540,"toMinute":1440},{"weekdays":[6],"fromMinute":540,"toMinute":1440},{"weekdays":[0],"fromMinute":720,"toMinute":1020}],"fee":{"kind":"exact","centsPerHour":450},"unmodelledRules":["Feiertage 2026 laut Quelle: frei am 01.01., 06.04., 14.05., 25.05., 25.12., 26.12.; gebührenpflichtig wie am Wochentag am 27.04.","Zusätzlich frei laut Quelle 2026: 03.04., 05.04., 24.05."],"sourceDefect":null,"freeOnHolidays":false,"spaces":null,"maxStayMinutes":120,"maxStay":null,"maxStayShare":0,"maxStayValues":[],"chargingPoints":0,"carsharing":0},"geometry":{"type":"Polygon","coordinates":[[[6.54265,53.21306],[6.54053,53.21569],[6.54029,53.21605],[6.54007,53.21645],[6.53994,53.21681],[6.53985,53.21722],[6.53982,53.21759],[6.53985,53.21792],[6.5399,53.21823],[6.54005,53.21867],[6.54017,53.21893],[6.54044,53.21936],[6.54067,53.21966],[6.54109,53.22008],[6.54145,53.22037],[6.54195,53.22072],[6.54231,53.22095],[6.54406,53.21982],[6.54509,53.2193],[6.54571,53.21915],[6.54632,53.21907],[6.54755,53.21898],[6.55007,53.21937],[6.55163,53.2195],[6.55209,53.2195],[6.55274,53.21948],[6.55494,53.21909],[6.55591,53.21918],[6.5571,53.21933],[6.55776,53.21876],[6.55821,53.21844],[6.55887,53.21807],[6.55931,53.21758],[6.55942,53.21727],[6.55935,53.21486],[6.55912,53.21398],[6.55867,53.2131],[6.55668,53.21355],[6.55632,53.21398],[6.5536,53.2142],[6.55134,53.21445],[6.55078,53.21445],[6.54938,53.21459],[6.54265,53.21306]]]}},{"type":"Feature","properties":{"zone":"3037","district":"Noordwest","rawHours":"Mo–Sa 9–19 Uhr","rawFee":"2,70 per uur — 2,70 €/h","note":"Paddepoel — ma-za, 09-19, max 24 uur","windows":[{"weekdays":[2],"fromMinute":540,"toMinute":1140},{"weekdays":[4],"fromMinute":540,"toMinute":1140},{"weekdays":[1],"fromMinute":540,"toMinute":1140},{"weekdays":[5],"fromMinute":540,"toMinute":1140},{"weekdays":[3],"fromMinute":540,"toMinute":1140},{"weekdays":[6],"fromMinute":540,"toMinute":1140}],"fee":{"kind":"exact","centsPerHour":270},"unmodelledRules":["Feiertage 2026 laut Quelle: frei am 01.01., 06.04., 14.05., 25.05., 25.12., 26.12.; gebührenpflichtig wie am Wochentag am 27.04.","Zusätzlich frei laut Quelle 2026: 03.04."],"sourceDefect":null,"freeOnHolidays":false,"spaces":null,"maxStayMinutes":null,"maxStay":null,"maxStayShare":0,"maxStayValues":[],"chargingPoints":0,"carsharing":0},"geometry":{"type":"Polygon","coordinates":[[[6.54017,53.21893],[6.53954,53.21885],[6.53974,53.22002],[6.53968,53.22049],[6.53946,53.22105],[6.53905,53.22162],[6.53722,53.22329],[6.53596,53.22455],[6.53495,53.22572],[6.53405,53.22692],[6.5319,53.22969],[6.52803,53.23432],[6.53862,53.23596],[6.54099,53.23158],[6.54194,53.23085],[6.54293,53.22873],[6.54462,53.22688],[6.54641,53.2248],[6.5475,53.22416],[6.54229,53.22096],[6.54231,53.22095],[6.54195,53.22072],[6.54145,53.22037],[6.54109,53.22008],[6.54067,53.21966],[6.54044,53.21936],[6.54017,53.21893]]]}},{"type":"Feature","properties":{"zone":"3038","district":"Helpman e.o.","rawHours":"Mo–Sa 9–19 Uhr","rawFee":"2,70 per uur — 2,70 €/h","note":"De Wijert-Noord — ma-za, 09-19, max 24 uur","windows":[{"weekdays":[2],"fromMinute":540,"toMinute":1140},{"weekdays":[4],"fromMinute":540,"toMinute":1140},{"weekdays":[1],"fromMinute":540,"toMinute":1140},{"weekdays":[5],"fromMinute":540,"toMinute":1140},{"weekdays":[3],"fromMinute":540,"toMinute":1140},{"weekdays":[6],"fromMinute":540,"toMinute":1140}],"fee":{"kind":"exact","centsPerHour":270},"unmodelledRules":["Feiertage 2026 laut Quelle: frei am 01.01., 06.04., 14.05., 25.05., 25.12., 26.12.; gebührenpflichtig wie am Wochentag am 27.04.","Zusätzlich frei laut Quelle 2026: 03.04."],"sourceDefect":null,"freeOnHolidays":false,"spaces":null,"maxStayMinutes":null,"maxStay":null,"maxStayShare":0,"maxStayValues":[],"chargingPoints":0,"carsharing":0},"geometry":{"type":"Polygon","coordinates":[[[6.56284,53.19273],[6.56221,53.19399],[6.56191,53.19563],[6.56228,53.19757],[6.56282,53.19878],[6.56351,53.1999],[6.56372,53.20066],[6.56369,53.20163],[6.56347,53.20297],[6.56469,53.20323],[6.56564,53.20197],[6.56746,53.20189],[6.56854,53.2024],[6.56981,53.20138],[6.56997,53.20068],[6.57215,53.19907],[6.57396,53.19792],[6.57533,53.19633],[6.57733,53.19369],[6.57584,53.19329],[6.57526,53.19319],[6.56959,53.1929],[6.56882,53.19292],[6.56597,53.19279],[6.56503,53.19271],[6.56289,53.19265],[6.56284,53.19273]],[[6.56821,53.19668],[6.5681,53.19668],[6.56807,53.19665],[6.56812,53.19622],[6.56806,53.19607],[6.5681,53.19576],[6.5682,53.19556],[6.56824,53.19525],[6.56855,53.19529],[6.56843,53.19598],[6.56837,53.19669],[6.56821,53.19668]]]}},{"type":"Feature","properties":{"zone":"3039","district":"Zuidwest","rawHours":"Mo–Sa 9–19 Uhr","rawFee":"2,70 per uur — 2,70 €/h","note":"Corpus den Hoorn — ma-za, 09-19, max 24 uur","windows":[{"weekdays":[2],"fromMinute":540,"toMinute":1140},{"weekdays":[4],"fromMinute":540,"toMinute":1140},{"weekdays":[1],"fromMinute":540,"toMinute":1140},{"weekdays":[5],"fromMinute":540,"toMinute":1140},{"weekdays":[3],"fromMinute":540,"toMinute":1140},{"weekdays":[6],"fromMinute":540,"toMinute":1140}],"fee":{"kind":"exact","centsPerHour":270},"unmodelledRules":["Feiertage 2026 laut Quelle: frei am 01.01., 06.04., 14.05., 25.05., 25.12., 26.12.; gebührenpflichtig wie am Wochentag am 27.04.","Zusätzlich frei laut Quelle 2026: 03.04."],"sourceDefect":null,"freeOnHolidays":false,"spaces":null,"maxStayMinutes":null,"maxStay":null,"maxStayShare":0,"maxStayValues":[],"chargingPoints":0,"carsharing":0},"geometry":{"type":"Polygon","coordinates":[[[6.5552,53.19398],[6.55085,53.19483],[6.55011,53.19505],[6.54884,53.1957],[6.54838,53.19612],[6.54734,53.19739],[6.54638,53.19851],[6.55395,53.20095],[6.55906,53.20209],[6.56347,53.20297],[6.56369,53.20163],[6.56372,53.20066],[6.56351,53.1999],[6.56282,53.19878],[6.56228,53.19757],[6.56191,53.19563],[6.56221,53.19399],[6.56284,53.19273],[6.56194,53.19275],[6.5552,53.19398]],[[6.5595,53.1986],[6.55934,53.19849],[6.55936,53.19848],[6.55918,53.19834],[6.55865,53.19849],[6.55846,53.19826],[6.56013,53.1978],[6.56014,53.19781],[6.56118,53.19753],[6.5612,53.19756],[6.56123,53.19756],[6.56187,53.19739],[6.56202,53.19737],[6.56206,53.19752],[6.56183,53.19754],[6.56161,53.1976],[6.56187,53.19796],[6.56186,53.19799],[6.5617,53.19802],[6.56106,53.19819],[6.56104,53.19816],[6.5603,53.19836],[6.56032,53.19839],[6.55958,53.1986],[6.55957,53.19858],[6.5595,53.1986]]]}},{"type":"Feature","properties":{"zone":"3040","district":"Zuidwest","rawHours":"Mo–Fr 9–19 Uhr","rawFee":"2,70 per uur — 2,70 €/h","note":"Hoornse Meer — ma-vr, 09-19, max 24 uur","windows":[{"weekdays":[2],"fromMinute":540,"toMinute":1140},{"weekdays":[4],"fromMinute":540,"toMinute":1140},{"weekdays":[1],"fromMinute":540,"toMinute":1140},{"weekdays":[5],"fromMinute":540,"toMinute":1140},{"weekdays":[3],"fromMinute":540,"toMinute":1140}],"fee":{"kind":"exact","centsPerHour":270},"unmodelledRules":["Feiertage 2026 laut Quelle: frei am 01.01., 06.04., 14.05., 25.05., 25.12., 26.12.; gebührenpflichtig wie am Wochentag am 27.04.","Zusätzlich frei laut Quelle 2026: 03.04."],"sourceDefect":null,"freeOnHolidays":false,"spaces":null,"maxStayMinutes":null,"maxStay":null,"maxStayShare":0,"maxStayValues":[],"chargingPoints":0,"carsharing":0},"geometry":{"type":"Polygon","coordinates":[[[6.56767,53.18759],[6.5628,53.18658],[6.56211,53.18589],[6.56193,53.18579],[6.56173,53.18574],[6.56284,53.18441],[6.56289,53.1843],[6.56289,53.18418],[6.56286,53.1841],[6.56268,53.18391],[6.56264,53.18361],[6.56266,53.18356],[6.56281,53.18343],[6.56103,53.18293],[6.55819,53.18204],[6.55805,53.18214],[6.5579,53.18231],[6.5578,53.18253],[6.55779,53.18272],[6.55761,53.183],[6.55738,53.18321],[6.55694,53.18383],[6.55412,53.18313],[6.54881,53.18165],[6.54927,53.18123],[6.54837,53.1809],[6.54808,53.18131],[6.54752,53.18216],[6.54693,53.18281],[6.54896,53.18341],[6.54824,53.18449],[6.54955,53.185],[6.55026,53.18636],[6.5504,53.18646],[6.55072,53.18711],[6.55036,53.18774],[6.55114,53.18794],[6.55127,53.18814],[6.55113,53.18822],[6.55082,53.18858],[6.55136,53.18875],[6.55181,53.18974],[6.55325,53.19022],[6.5552,53.19398],[6.56194,53.19275],[6.56284,53.19273],[6.56289,53.19265],[6.56426,53.19269],[6.56647,53.18895],[6.56767,53.18759]]]}},{"type":"Feature","properties":{"zone":"3042","district":"Helpman e.o.","rawHours":"Mo–Fr 9–19 Uhr","rawFee":"2,70 per uur — 2,70 €/h","note":"De Wijert-Zuid — ma-vr, 09-19, max 24 uur","windows":[{"weekdays":[2],"fromMinute":540,"toMinute":1140},{"weekdays":[4],"fromMinute":540,"toMinute":1140},{"weekdays":[1],"fromMinute":540,"toMinute":1140},{"weekdays":[5],"fromMinute":540,"toMinute":1140},{"weekdays":[3],"fromMinute":540,"toMinute":1140}],"fee":{"kind":"exact","centsPerHour":270},"unmodelledRules":["Feiertage 2026 laut Quelle: frei am 01.01., 06.04., 14.05., 25.05., 25.12., 26.12.; gebührenpflichtig wie am Wochentag am 27.04.","Zusätzlich frei laut Quelle 2026: 03.04."],"sourceDefect":null,"freeOnHolidays":false,"spaces":null,"maxStayMinutes":null,"maxStay":null,"maxStayShare":0,"maxStayValues":[],"chargingPoints":0,"carsharing":0},"geometry":{"type":"Polygon","coordinates":[[[6.58213,53.19466],[6.5827,53.19362],[6.58451,53.1902],[6.58615,53.18755],[6.58533,53.18733],[6.58441,53.187],[6.58343,53.18662],[6.58241,53.18638],[6.58076,53.18611],[6.5756,53.18484],[6.57312,53.18427],[6.57095,53.18526],[6.56922,53.18615],[6.56767,53.18759],[6.56647,53.18895],[6.56427,53.19269],[6.56503,53.19271],[6.56597,53.19279],[6.56882,53.19292],[6.56959,53.1929],[6.57526,53.19319],[6.57584,53.19329],[6.57821,53.19391],[6.57841,53.19366],[6.58089,53.19446],[6.58108,53.1945],[6.58134,53.1945],[6.58171,53.1946],[6.58213,53.19466]]]}},{"type":"Feature","properties":{"zone":"3043","district":"Helpman e.o.","rawHours":"Mo–Sa 9–19 Uhr","rawFee":"Eerste 90 minuten 0,50, daarna 2,70 per uur — 1. Stunde 0,33 €, 2. Stunde 1,52 €, 3. Stunde 2,70 €","note":"Winkelcentrum Van Lenneplaan — ma-za 09-19, max 24 uur","windows":[{"weekdays":[2],"fromMinute":540,"toMinute":1140},{"weekdays":[4],"fromMinute":540,"toMinute":1140},{"weekdays":[1],"fromMinute":540,"toMinute":1140},{"weekdays":[5],"fromMinute":540,"toMinute":1140},{"weekdays":[3],"fromMinute":540,"toMinute":1140},{"weekdays":[6],"fromMinute":540,"toMinute":1140}],"fee":{"kind":"range","minCentsPerHour":33,"maxCentsPerHour":270},"unmodelledRules":["Feiertage 2026 laut Quelle: frei am 01.01., 06.04., 14.05., 25.05., 25.12., 26.12.; gebührenpflichtig wie am Wochentag am 27.04.","Zusätzlich frei laut Quelle 2026: 03.04."],"sourceDefect":null,"freeOnHolidays":false,"spaces":null,"maxStayMinutes":null,"maxStay":null,"maxStayShare":0,"maxStayValues":[],"chargingPoints":0,"carsharing":0},"geometry":{"type":"Polygon","coordinates":[[[6.56821,53.19668],[6.56837,53.19669],[6.56843,53.19598],[6.56855,53.19529],[6.56824,53.19525],[6.5682,53.19556],[6.5681,53.19576],[6.56806,53.19607],[6.56812,53.19622],[6.56807,53.19665],[6.5681,53.19668],[6.56821,53.19668]]]}},{"type":"Feature","properties":{"zone":"3044","district":"Noorddijk e.o.","rawHours":"Mo–Fr 9–19 Uhr","rawFee":"Eerste 90 minuten 0,50, daarna 2,70 per uur — 1. Stunde 0,33 €, 2. Stunde 1,52 €, 3. Stunde 2,70 €","note":"Oosterhoogebrug — ma-vr, 09-19, max 24 uur","windows":[{"weekdays":[2],"fromMinute":540,"toMinute":1140},{"weekdays":[4],"fromMinute":540,"toMinute":1140},{"weekdays":[1],"fromMinute":540,"toMinute":1140},{"weekdays":[5],"fromMinute":540,"toMinute":1140},{"weekdays":[3],"fromMinute":540,"toMinute":1140}],"fee":{"kind":"range","minCentsPerHour":33,"maxCentsPerHour":270},"unmodelledRules":["Feiertage 2026 laut Quelle: frei am 01.01., 06.04., 14.05., 25.05., 25.12., 26.12.; gebührenpflichtig wie am Wochentag am 27.04.","Zusätzlich frei laut Quelle 2026: 03.04."],"sourceDefect":null,"freeOnHolidays":false,"spaces":null,"maxStayMinutes":null,"maxStay":null,"maxStayShare":0,"maxStayValues":[],"chargingPoints":0,"carsharing":0},"geometry":{"type":"Polygon","coordinates":[[[6.60145,53.22377],[6.60053,53.22377],[6.59981,53.22381],[6.59903,53.2239],[6.59831,53.224],[6.59782,53.22412],[6.59724,53.22435],[6.59627,53.22479],[6.596,53.22493],[6.59514,53.2252],[6.59466,53.22548],[6.59427,53.22573],[6.59399,53.22594],[6.59438,53.2261],[6.59481,53.22621],[6.59513,53.22618],[6.59543,53.22611],[6.59592,53.22594],[6.59628,53.22588],[6.59661,53.22588],[6.5982,53.22621],[6.59861,53.22628],[6.60485,53.22761],[6.6056,53.22776],[6.60641,53.22785],[6.60724,53.228],[6.61021,53.22865],[6.6116,53.22638],[6.60193,53.22379],[6.60145,53.22377]]]}},{"type":"Feature","properties":{"zone":"3045","district":"Noordwest","rawHours":"Mo–Sa 9–19 Uhr","rawFee":"Eerste 90 minuten 0,50, daarna 2,70 per uur — 1. Stunde 0,33 €, 2. Stunde 1,52 €, 3. Stunde 2,70 €","note":"Winkelcentrum Selwerd — ma-za 09-19, max 24 uur","windows":[{"weekdays":[2],"fromMinute":540,"toMinute":1140},{"weekdays":[4],"fromMinute":540,"toMinute":1140},{"weekdays":[1],"fromMinute":540,"toMinute":1140},{"weekdays":[5],"fromMinute":540,"toMinute":1140},{"weekdays":[3],"fromMinute":540,"toMinute":1140},{"weekdays":[6],"fromMinute":540,"toMinute":1140}],"fee":{"kind":"range","minCentsPerHour":33,"maxCentsPerHour":270},"unmodelledRules":["Feiertage 2026 laut Quelle: frei am 01.01., 06.04., 14.05., 25.05., 25.12., 26.12.; gebührenpflichtig wie am Wochentag am 27.04.","Zusätzlich frei laut Quelle 2026: 03.04."],"sourceDefect":null,"freeOnHolidays":false,"spaces":null,"maxStayMinutes":null,"maxStay":null,"maxStayShare":0,"maxStayValues":[],"chargingPoints":0,"carsharing":0},"geometry":{"type":"Polygon","coordinates":[[[6.5523,53.23361],[6.55211,53.23397],[6.55324,53.23418],[6.55343,53.23382],[6.5523,53.23361]]]}},{"type":"Feature","properties":{"zone":"3046","district":"Oud-Zuid","rawHours":"Mo–Fr 9–19 Uhr","rawFee":"Eerste 3 uren 0,36 per uur, daarna 2,70 per uur — 1. Stunde 0,33 €, 2. Stunde 0,34 €, 3. Stunde 0,33 €","note":"Stadspark — ma-vr, 09-19, max 24 uur","windows":[{"weekdays":[2],"fromMinute":540,"toMinute":1140},{"weekdays":[4],"fromMinute":540,"toMinute":1140},{"weekdays":[1],"fromMinute":540,"toMinute":1140},{"weekdays":[5],"fromMinute":540,"toMinute":1140},{"weekdays":[3],"fromMinute":540,"toMinute":1140}],"fee":{"kind":"range","minCentsPerHour":33,"maxCentsPerHour":34},"unmodelledRules":["Feiertage 2026 laut Quelle: frei am 01.01., 06.04., 14.05., 25.05., 25.12., 26.12.; gebührenpflichtig wie am Wochentag am 27.04.","Zusätzlich frei laut Quelle 2026: 03.04."],"sourceDefect":null,"freeOnHolidays":false,"spaces":null,"maxStayMinutes":null,"maxStay":null,"maxStayShare":0,"maxStayValues":[],"chargingPoints":0,"carsharing":0},"geometry":{"type":"Polygon","coordinates":[[[6.55024,53.2062],[6.5511,53.20461],[6.55345,53.20079],[6.54638,53.19851],[6.54289,53.19746],[6.54038,53.19675],[6.538,53.19619],[6.53636,53.19596],[6.53405,53.19594],[6.53372,53.19716],[6.53357,53.19825],[6.5333,53.19921],[6.53409,53.19927],[6.53362,53.20064],[6.53285,53.20056],[6.53257,53.20144],[6.53291,53.2015],[6.5324,53.20307],[6.53213,53.20408],[6.53193,53.20462],[6.53327,53.20514],[6.53543,53.20562],[6.53892,53.20652],[6.54714,53.20858],[6.54871,53.209],[6.55024,53.2062]]]}},{"type":"Feature","properties":{"zone":"3050","district":"Haren-West e.o.","rawHours":"Mo–Do 9–18, Fr 9–20, Sa 9–18 Uhr","rawFee":"2,70 per uur — 2,70 €/h","note":"Haren — ma-za 09-18, vr 09-20, max 24 uur","windows":[{"weekdays":[2],"fromMinute":540,"toMinute":1080},{"weekdays":[4],"fromMinute":540,"toMinute":1080},{"weekdays":[1],"fromMinute":540,"toMinute":1080},{"weekdays":[5],"fromMinute":540,"toMinute":1200},{"weekdays":[3],"fromMinute":540,"toMinute":1080},{"weekdays":[6],"fromMinute":540,"toMinute":1080}],"fee":{"kind":"exact","centsPerHour":270},"unmodelledRules":["Feiertage 2026 laut Quelle: frei am 01.01., 06.04., 14.05., 25.05., 25.12., 26.12.; gebührenpflichtig wie am Wochentag am 27.04.","Zusätzlich frei laut Quelle 2026: 03.04."],"sourceDefect":null,"freeOnHolidays":false,"spaces":null,"maxStayMinutes":null,"maxStay":null,"maxStayShare":0,"maxStayValues":[],"chargingPoints":0,"carsharing":0},"geometry":{"type":"Polygon","coordinates":[[[6.60549,53.17359],[6.60588,53.17318],[6.60619,53.17318],[6.60629,53.17306],[6.6065,53.17316],[6.60665,53.17301],[6.60691,53.1731],[6.60671,53.17324],[6.60689,53.17334],[6.60724,53.17308],[6.6071,53.17289],[6.60734,53.1726],[6.60624,53.17222],[6.60628,53.17217],[6.60592,53.17205],[6.60572,53.17225],[6.60542,53.17216],[6.60616,53.17154],[6.60642,53.17163],[6.60676,53.17135],[6.60589,53.17102],[6.60467,53.17062],[6.60433,53.1711],[6.60339,53.17134],[6.60298,53.17183],[6.60288,53.17197],[6.6034,53.17211],[6.60308,53.17249],[6.60264,53.17238],[6.60259,53.17243],[6.60244,53.1724],[6.6024,53.17243],[6.60225,53.17239],[6.60221,53.17243],[6.60233,53.17247],[6.60208,53.17274],[6.60196,53.17273],[6.60177,53.17296],[6.60106,53.17274],[6.60099,53.17279],[6.6004,53.1726],[6.60033,53.17267],[6.599,53.17221],[6.59865,53.17263],[6.60104,53.17369],[6.60096,53.17379],[6.60187,53.17419],[6.60204,53.17411],[6.60306,53.17458],[6.60371,53.17412],[6.60437,53.17442],[6.60477,53.1745],[6.60499,53.17449],[6.60521,53.17444],[6.60539,53.17437],[6.60557,53.17417],[6.60525,53.17405],[6.60497,53.17388],[6.6053,53.17351],[6.60549,53.17359]]]}},{"type":"Feature","properties":{"zone":"3051","district":"Haren-West e.o.","rawHours":"Mo–Do 9–18, Fr 9–20, Sa 9–18 Uhr","rawFee":"Eerste 90 minuten 0,50, daarna 2,70 per uur — 1. Stunde 0,33 €, 2. Stunde 1,52 €, 3. Stunde 2,70 €","note":"Garage Voorhorst, De Brinken en Oldehof — ma-za 09-18, vr 09-20, max 24 uur","windows":[{"weekdays":[2],"fromMinute":540,"toMinute":1080},{"weekdays":[4],"fromMinute":540,"toMinute":1080},{"weekdays":[1],"fromMinute":540,"toMinute":1080},{"weekdays":[5],"fromMinute":540,"toMinute":1200},{"weekdays":[3],"fromMinute":540,"toMinute":1080},{"weekdays":[6],"fromMinute":540,"toMinute":1080}],"fee":{"kind":"range","minCentsPerHour":33,"maxCentsPerHour":270},"unmodelledRules":["Feiertage 2026 laut Quelle: frei am 01.01., 06.04., 14.05., 25.05., 25.12., 26.12.; gebührenpflichtig wie am Wochentag am 27.04.","Zusätzlich frei laut Quelle 2026: 03.04."],"sourceDefect":null,"freeOnHolidays":false,"spaces":null,"maxStayMinutes":null,"maxStay":null,"maxStayShare":0,"maxStayValues":[],"chargingPoints":0,"carsharing":0},"geometry":{"type":"Polygon","coordinates":[[[6.60261,53.172],[6.60225,53.17239],[6.6024,53.17243],[6.60244,53.1724],[6.60259,53.17243],[6.60264,53.17238],[6.60308,53.17249],[6.6034,53.17211],[6.60288,53.17197],[6.60298,53.17183],[6.60251,53.17171],[6.60233,53.17191],[6.60261,53.172]]]}},{"type":"Feature","properties":{"zone":"3051","district":"Haren-West e.o.","rawHours":"Mo–Do 9–18, Fr 9–20, Sa 9–18 Uhr","rawFee":"Eerste 90 minuten 0,50, daarna 2,70 per uur — 1. Stunde 0,33 €, 2. Stunde 1,52 €, 3. Stunde 2,70 €","note":"Garage Voorhorst, De Brinken en Oldehof — ma-za 09-18, vr 09-20, max 24 uur","windows":[{"weekdays":[2],"fromMinute":540,"toMinute":1080},{"weekdays":[4],"fromMinute":540,"toMinute":1080},{"weekdays":[1],"fromMinute":540,"toMinute":1080},{"weekdays":[5],"fromMinute":540,"toMinute":1200},{"weekdays":[3],"fromMinute":540,"toMinute":1080},{"weekdays":[6],"fromMinute":540,"toMinute":1080}],"fee":{"kind":"range","minCentsPerHour":33,"maxCentsPerHour":270},"unmodelledRules":["Feiertage 2026 laut Quelle: frei am 01.01., 06.04., 14.05., 25.05., 25.12., 26.12.; gebührenpflichtig wie am Wochentag am 27.04.","Zusätzlich frei laut Quelle 2026: 03.04."],"sourceDefect":null,"freeOnHolidays":false,"spaces":null,"maxStayMinutes":null,"maxStay":null,"maxStayShare":0,"maxStayValues":[],"chargingPoints":0,"carsharing":0},"geometry":{"type":"Polygon","coordinates":[[[6.60585,53.17387],[6.60595,53.17377],[6.6053,53.17351],[6.60497,53.17388],[6.60525,53.17405],[6.60559,53.17417],[6.60575,53.17397],[6.60585,53.17387]]]}},{"type":"Feature","properties":{"zone":"3051","district":"Haren-West e.o.","rawHours":"Mo–Do 9–18, Fr 9–20, Sa 9–18 Uhr","rawFee":"Eerste 90 minuten 0,50, daarna 2,70 per uur — 1. Stunde 0,33 €, 2. Stunde 1,52 €, 3. Stunde 2,70 €","note":"Garage Voorhorst, De Brinken en Oldehof — ma-za 09-18, vr 09-20, max 24 uur","windows":[{"weekdays":[2],"fromMinute":540,"toMinute":1080},{"weekdays":[4],"fromMinute":540,"toMinute":1080},{"weekdays":[1],"fromMinute":540,"toMinute":1080},{"weekdays":[5],"fromMinute":540,"toMinute":1200},{"weekdays":[3],"fromMinute":540,"toMinute":1080},{"weekdays":[6],"fromMinute":540,"toMinute":1080}],"fee":{"kind":"range","minCentsPerHour":33,"maxCentsPerHour":270},"unmodelledRules":["Feiertage 2026 laut Quelle: frei am 01.01., 06.04., 14.05., 25.05., 25.12., 26.12.; gebührenpflichtig wie am Wochentag am 27.04.","Zusätzlich frei laut Quelle 2026: 03.04."],"sourceDefect":null,"freeOnHolidays":false,"spaces":null,"maxStayMinutes":null,"maxStay":null,"maxStayShare":0,"maxStayValues":[],"chargingPoints":0,"carsharing":0},"geometry":{"type":"Polygon","coordinates":[[[6.60642,53.17163],[6.60616,53.17154],[6.60542,53.17216],[6.60572,53.17225],[6.60592,53.17205],[6.60642,53.17163]]]}}]}