{"type":"FeatureCollection","features":[{"type":"Feature","properties":{"name":"Moritzberg/Bockfeld"},"geometry":{"type":"Polygon","coordinates":[[[9.9296,52.15429],[9.93151,52.15395],[9.93454,52.15432],[9.93557,52.15428],[9.93806,52.15354],[9.93881,52.15317],[9.93936,52.15236],[9.93941,52.15126],[9.93906,52.15036],[9.93963,52.1473],[9.94023,52.14698],[9.94122,52.14589],[9.94396,52.1435],[9.94505,52.14295],[9.94339,52.14185],[9.94273,52.14159],[9.94021,52.13976],[9.94085,52.1384],[9.94186,52.13699],[9.94191,52.13654],[9.93512,52.13567],[9.93469,52.13338],[9.93537,52.1297],[9.9361,52.12762],[9.93668,52.12448],[9.93664,52.12408],[9.93616,52.12404],[9.93544,52.12185],[9.93585,52.11951],[9.93542,52.11857],[9.93507,52.11878],[9.93381,52.11906],[9.93204,52.11911],[9.93158,52.11977],[9.93139,52.12036],[9.9315,52.12294],[9.93073,52.12368],[9.9318,52.12505],[9.93214,52.1262],[9.92999,52.13094],[9.92949,52.13323],[9.92931,52.13328],[9.92902,52.13376],[9.92915,52.13411],[9.9288,52.13406],[9.92866,52.13438],[9.92683,52.13439],[9.9225,52.13379],[9.92163,52.13437],[9.92091,52.1359],[9.91653,52.13519],[9.91647,52.13531],[9.9157,52.13521],[9.91272,52.13293],[9.91197,52.13457],[9.91258,52.1383],[9.90473,52.13868],[9.90586,52.13792],[9.90638,52.13733],[9.90659,52.13681],[9.90663,52.13631],[9.90647,52.13587],[9.90611,52.13556],[9.90594,52.13513],[9.90602,52.13421],[9.90002,52.13788],[9.90026,52.1385],[9.90027,52.13917],[9.9,52.14086],[9.90018,52.14103],[9.90051,52.14285],[9.90114,52.14419],[9.90121,52.14485],[9.90102,52.14616],[9.90426,52.14619],[9.9043,52.1465],[9.90484,52.14651],[9.90653,52.14651],[9.90647,52.1463],[9.90814,52.14628],[9.90953,52.15069],[9.91073,52.15087],[9.90984,52.15226],[9.90864,52.1537],[9.90875,52.1544],[9.90913,52.15505],[9.909,52.15676],[9.90917,52.15677],[9.9093,52.15709],[9.91173,52.15675],[9.91884,52.15679],[9.92278,52.15647],[9.92297,52.15652],[9.92306,52.1568],[9.92659,52.15637],[9.92674,52.15654],[9.92754,52.15651],[9.92759,52.15589],[9.92803,52.15521],[9.9296,52.15429]]]}},{"type":"Feature","properties":{"name":"Marienburger Höhe/Galgenberg"},"geometry":{"type":"Polygon","coordinates":[[[9.98963,52.14636],[9.98843,52.14248],[9.98627,52.14067],[9.98603,52.13987],[9.98817,52.13957],[9.98841,52.13856],[9.99263,52.13871],[9.99197,52.13639],[9.99506,52.13607],[9.99261,52.13442],[9.99055,52.13187],[9.98373,52.13457],[9.98218,52.13443],[9.98301,52.13229],[9.98275,52.13178],[9.98248,52.13164],[9.98288,52.13134],[9.98263,52.13085],[9.98097,52.13013],[9.98244,52.12953],[9.98231,52.12879],[9.98186,52.12845],[9.98101,52.1282],[9.9809,52.12793],[9.98075,52.12789],[9.98066,52.12823],[9.98032,52.1282],[9.98019,52.12796],[9.97929,52.12786],[9.97921,52.12761],[9.97895,52.12752],[9.97813,52.1275],[9.97651,52.12702],[9.9754,52.12484],[9.97144,52.12551],[9.97009,52.12511],[9.96745,52.12698],[9.96457,52.1293],[9.9617,52.13999],[9.96155,52.14164],[9.96183,52.14378],[9.96215,52.14496],[9.96544,52.14959],[9.97043,52.1501],[9.98112,52.14923],[9.99014,52.14788],[9.98963,52.14636]]]}},{"type":"Feature","properties":{"name":"Stadtmitte/Neustadt"},"geometry":{"type":"Polygon","coordinates":[[[9.94075,52.15487],[9.94176,52.15488],[9.9418,52.15521],[9.9417,52.15561],[9.94071,52.15713],[9.94902,52.15912],[9.95265,52.16027],[9.95565,52.16101],[9.95726,52.16118],[9.96076,52.16095],[9.95935,52.15926],[9.95878,52.15824],[9.95847,52.15744],[9.9582,52.15544],[9.95751,52.15384],[9.95438,52.15021],[9.95602,52.14974],[9.95903,52.14976],[9.96007,52.14468],[9.96071,52.14472],[9.96051,52.14403],[9.96068,52.14359],[9.96182,52.14373],[9.96155,52.14164],[9.9617,52.13999],[9.96457,52.1293],[9.96212,52.1313],[9.96195,52.13124],[9.96367,52.12939],[9.96497,52.1284],[9.96528,52.12755],[9.96333,52.1282],[9.96213,52.12834],[9.95823,52.12776],[9.95573,52.1276],[9.95464,52.12857],[9.9535,52.13127],[9.95247,52.13241],[9.95257,52.13248],[9.95046,52.13411],[9.94565,52.13684],[9.94491,52.13747],[9.94339,52.13983],[9.94226,52.1397],[9.9408,52.14019],[9.94273,52.14159],[9.94339,52.14185],[9.94505,52.14295],[9.94396,52.1435],[9.94122,52.14589],[9.94023,52.14698],[9.93963,52.1473],[9.93907,52.15023],[9.93941,52.15126],[9.93931,52.15256],[9.93851,52.15336],[9.93674,52.15393],[9.94075,52.15487]]]}},{"type":"Feature","properties":{"name":"Oststadt/Stadtfeld"},"geometry":{"type":"Polygon","coordinates":[[[9.96076,52.16095],[9.96315,52.16371],[9.9643,52.16538],[9.96772,52.16585],[9.97031,52.16597],[9.9773,52.16724],[9.97762,52.16655],[9.9843,52.16871],[9.9861,52.1653],[9.98717,52.1629],[9.98757,52.16266],[9.98842,52.16267],[9.98909,52.16244],[9.99025,52.1611],[9.98997,52.16089],[9.99013,52.16008],[9.9892,52.15951],[9.98908,52.15897],[9.99249,52.15186],[9.98934,52.15205],[9.9871,52.15192],[9.9873,52.14847],[9.98714,52.14839],[9.98062,52.14928],[9.97255,52.15002],[9.96981,52.15008],[9.96544,52.14959],[9.96234,52.14529],[9.96182,52.14373],[9.96068,52.14359],[9.96051,52.14403],[9.96071,52.14472],[9.96007,52.14468],[9.95903,52.14976],[9.95602,52.14974],[9.95438,52.15021],[9.95751,52.15384],[9.9582,52.15544],[9.95847,52.15744],[9.95878,52.15824],[9.95935,52.15926],[9.96076,52.16095]]]}},{"type":"Feature","properties":{"name":"Neuhof/Hildesheimer Wald/Marienrode"},"geometry":{"type":"Polygon","coordinates":[[[9.87102,52.09964],[9.8703,52.09795],[9.86693,52.09586],[9.86666,52.09595],[9.86631,52.09687],[9.86494,52.09796],[9.87082,52.10153],[9.87324,52.10337],[9.87561,52.10464],[9.87537,52.10504],[9.87576,52.10573],[9.87656,52.106],[9.87675,52.10593],[9.87824,52.10725],[9.88049,52.10786],[9.88263,52.10906],[9.88373,52.11103],[9.88452,52.11056],[9.89019,52.11298],[9.88847,52.11404],[9.88852,52.11424],[9.88758,52.11575],[9.88631,52.11646],[9.88624,52.11671],[9.89289,52.1208],[9.89675,52.12441],[9.89292,52.13598],[9.8895,52.13676],[9.89092,52.13781],[9.89184,52.14012],[9.89058,52.14253],[9.89081,52.14424],[9.88975,52.14757],[9.89034,52.14895],[9.89154,52.14894],[9.89217,52.15061],[9.89214,52.15305],[9.89312,52.15313],[9.89318,52.15269],[9.89298,52.15256],[9.89332,52.15163],[9.89556,52.15169],[9.89571,52.15005],[9.89636,52.14914],[9.898,52.14958],[9.89809,52.15155],[9.89974,52.15186],[9.90133,52.15031],[9.90078,52.1472],[9.90118,52.14447],[9.90051,52.14285],[9.90018,52.14103],[9.9,52.14086],[9.90027,52.13917],[9.90026,52.1385],[9.90002,52.13788],[9.90602,52.13421],[9.90594,52.13513],[9.90611,52.13556],[9.90647,52.13587],[9.90663,52.13631],[9.90659,52.13681],[9.90638,52.13733],[9.90586,52.13792],[9.90476,52.13869],[9.91258,52.1383],[9.91197,52.13457],[9.91272,52.13293],[9.9157,52.13521],[9.91647,52.13531],[9.91653,52.13519],[9.92091,52.1359],[9.92163,52.13437],[9.9225,52.13379],[9.92691,52.13439],[9.92866,52.13438],[9.9288,52.13406],[9.92915,52.13411],[9.92902,52.13376],[9.92931,52.13328],[9.92949,52.13323],[9.92999,52.13094],[9.93214,52.1262],[9.9318,52.12505],[9.93073,52.12368],[9.9315,52.12294],[9.93139,52.12036],[9.93204,52.11911],[9.93381,52.11906],[9.93507,52.11878],[9.93542,52.11857],[9.93382,52.11508],[9.93514,52.11455],[9.93106,52.11057],[9.92773,52.10845],[9.92607,52.10694],[9.92574,52.10705],[9.92521,52.10674],[9.92377,52.10631],[9.9231,52.10574],[9.92261,52.10653],[9.91758,52.10432],[9.91855,52.10289],[9.91447,52.09989],[9.91663,52.09778],[9.91607,52.09748],[9.91574,52.09748],[9.91512,52.09759],[9.91442,52.09798],[9.91398,52.09793],[9.91396,52.09713],[9.91363,52.0966],[9.91044,52.0933],[9.90887,52.09336],[9.90189,52.09454],[9.89969,52.09454],[9.8985,52.09484],[9.89795,52.09506],[9.8976,52.09551],[9.89804,52.09682],[9.8981,52.09739],[9.89793,52.09765],[9.8974,52.09778],[9.89648,52.09719],[9.89316,52.09783],[9.88774,52.09953],[9.88463,52.10092],[9.88402,52.10095],[9.88377,52.10073],[9.8828,52.10118],[9.88107,52.09984],[9.87285,52.10223],[9.87107,52.10094],[9.87102,52.09964]],[[9.92943,52.11046],[9.92828,52.11004],[9.92895,52.10946],[9.92999,52.11007],[9.92943,52.11046]]]}},{"type":"Feature","properties":{"name":"Sorsum"},"geometry":{"type":"Polygon","coordinates":[[[9.87487,52.10517],[9.87454,52.10552],[9.87448,52.10539],[9.87408,52.1054],[9.87417,52.10567],[9.87403,52.10575],[9.87404,52.10612],[9.87374,52.10626],[9.87379,52.10647],[9.87364,52.10662],[9.87347,52.10663],[9.87363,52.10685],[9.87336,52.1072],[9.87322,52.10712],[9.87301,52.10732],[9.87178,52.10726],[9.8719,52.10734],[9.87095,52.10767],[9.8712,52.10771],[9.87101,52.10788],[9.87115,52.10805],[9.87084,52.10817],[9.87096,52.10833],[9.87073,52.10841],[9.87107,52.10848],[9.87093,52.10866],[9.87114,52.10875],[9.87072,52.10878],[9.87069,52.10898],[9.87047,52.109],[9.87071,52.1091],[9.87077,52.10944],[9.86988,52.10935],[9.86997,52.10962],[9.86962,52.10984],[9.86923,52.10978],[9.8692,52.10965],[9.86869,52.1099],[9.8688,52.11024],[9.8686,52.11023],[9.86852,52.1105],[9.8682,52.11039],[9.86789,52.1106],[9.86784,52.11082],[9.86745,52.11066],[9.86738,52.11075],[9.86756,52.11093],[9.8672,52.11103],[9.86709,52.1113],[9.86689,52.11135],[9.86674,52.11119],[9.86677,52.11135],[9.86657,52.11152],[9.86666,52.11165],[9.86622,52.11179],[9.86624,52.112],[9.86584,52.11213],[9.86566,52.11236],[9.86562,52.11246],[9.86583,52.11243],[9.86576,52.11261],[9.86518,52.11267],[9.86509,52.1129],[9.86477,52.11276],[9.86467,52.11301],[9.86397,52.11305],[9.86421,52.11327],[9.86414,52.11354],[9.86344,52.11348],[9.86325,52.11363],[9.86347,52.11367],[9.86328,52.11382],[9.86263,52.11405],[9.86277,52.11432],[9.86232,52.11471],[9.86235,52.11487],[9.86206,52.11487],[9.86166,52.11514],[9.86206,52.11532],[9.8618,52.11548],[9.86188,52.11566],[9.86069,52.11616],[9.86064,52.11646],[9.86038,52.11666],[9.86057,52.11682],[9.8604,52.11701],[9.86012,52.11695],[9.86013,52.11709],[9.85969,52.11722],[9.85987,52.11756],[9.85952,52.11779],[9.85964,52.11812],[9.8599,52.1182],[9.85967,52.11822],[9.85992,52.11838],[9.85941,52.11851],[9.85947,52.1187],[9.85922,52.11912],[9.85837,52.11914],[9.85852,52.11941],[9.85738,52.11982],[9.85762,52.11984],[9.85742,52.12004],[9.85751,52.12017],[9.85707,52.12014],[9.85727,52.1204],[9.85707,52.12046],[9.85714,52.12059],[9.85653,52.12076],[9.85666,52.12117],[9.85645,52.12126],[9.8567,52.12148],[9.85642,52.12161],[9.85633,52.12191],[9.85529,52.12202],[9.85533,52.12222],[9.85508,52.12238],[9.85454,52.12213],[9.85208,52.12356],[9.84987,52.12404],[9.84797,52.12576],[9.848,52.12597],[9.84766,52.12646],[9.84658,52.1274],[9.85863,52.14076],[9.85702,52.14098],[9.85806,52.14302],[9.85589,52.14344],[9.85253,52.14467],[9.85457,52.14583],[9.85495,52.14583],[9.85556,52.14672],[9.85705,52.147],[9.85565,52.15076],[9.86112,52.15102],[9.86138,52.15115],[9.85783,52.15592],[9.8641,52.15643],[9.86117,52.15984],[9.86278,52.15973],[9.8634,52.16011],[9.86546,52.15988],[9.86651,52.16002],[9.86681,52.15983],[9.86819,52.15955],[9.87192,52.15898],[9.8731,52.15896],[9.87356,52.15857],[9.87304,52.15825],[9.87313,52.15809],[9.87561,52.15792],[9.87577,52.15752],[9.87774,52.15772],[9.87835,52.15747],[9.8786,52.15756],[9.8787,52.15786],[9.87784,52.15795],[9.87805,52.15863],[9.87746,52.15946],[9.87769,52.15949],[9.8772,52.16028],[9.88293,52.15993],[9.89404,52.15986],[9.89412,52.15963],[9.8896,52.15946],[9.88992,52.15837],[9.88608,52.15806],[9.88707,52.15462],[9.89049,52.15504],[9.89043,52.15522],[9.89082,52.15526],[9.89087,52.15509],[9.89372,52.15544],[9.89463,52.15166],[9.89332,52.15163],[9.89298,52.15256],[9.89318,52.15269],[9.89312,52.15313],[9.89214,52.15305],[9.89217,52.15061],[9.89154,52.14894],[9.89034,52.14895],[9.88975,52.14757],[9.89081,52.14424],[9.89058,52.14253],[9.89184,52.14012],[9.89092,52.13781],[9.8895,52.13676],[9.89292,52.13598],[9.89675,52.12441],[9.89289,52.1208],[9.88624,52.11671],[9.88631,52.11646],[9.88758,52.11575],[9.88852,52.11424],[9.88847,52.11404],[9.89019,52.11298],[9.88452,52.11056],[9.88373,52.11103],[9.88263,52.10906],[9.88049,52.10786],[9.87824,52.10725],[9.87675,52.10593],[9.87656,52.106],[9.87576,52.10573],[9.87541,52.10519],[9.8754,52.10485],[9.87492,52.10477],[9.87487,52.10489],[9.87517,52.10503],[9.87487,52.10517]]]}},{"type":"Feature","properties":{"name":"Himmelsthür"},"geometry":{"type":"Polygon","coordinates":[[[9.89405,52.15982],[9.8934,52.16192],[9.89301,52.16383],[9.89612,52.16506],[9.89586,52.16949],[9.89358,52.17547],[9.89132,52.17806],[9.89305,52.17935],[9.89232,52.18106],[9.89343,52.18136],[9.89609,52.18157],[9.89578,52.1821],[9.89654,52.18232],[9.89662,52.18271],[9.89613,52.18293],[9.89688,52.18353],[9.89719,52.18332],[9.89745,52.1822],[9.89857,52.18251],[9.89721,52.18415],[9.89675,52.18548],[9.89801,52.18601],[9.89877,52.18507],[9.89902,52.18502],[9.90194,52.18212],[9.90307,52.18278],[9.90226,52.18362],[9.90214,52.18407],[9.90258,52.1842],[9.903,52.18369],[9.90432,52.18308],[9.90497,52.18312],[9.90717,52.18373],[9.90685,52.18416],[9.90826,52.18419],[9.9098,52.18469],[9.91008,52.18383],[9.9081,52.18367],[9.90704,52.18334],[9.91444,52.18089],[9.91474,52.18098],[9.91546,52.1798],[9.91545,52.1791],[9.91579,52.17783],[9.91729,52.17761],[9.91909,52.1721],[9.91825,52.17202],[9.91964,52.17136],[9.92224,52.16945],[9.92307,52.17001],[9.92318,52.16969],[9.925,52.16799],[9.92628,52.16635],[9.92633,52.16575],[9.92561,52.16482],[9.92535,52.1637],[9.92614,52.16069],[9.92692,52.15921],[9.92727,52.15745],[9.92724,52.15677],[9.92672,52.1568],[9.92674,52.15649],[9.92659,52.15637],[9.92306,52.1568],[9.92297,52.15652],[9.92278,52.15647],[9.91884,52.15679],[9.91173,52.15675],[9.9093,52.15709],[9.90917,52.15677],[9.909,52.15676],[9.90913,52.15505],[9.90875,52.1544],[9.90864,52.1537],[9.90984,52.15226],[9.91073,52.15087],[9.90953,52.15069],[9.90814,52.14628],[9.90647,52.1463],[9.90653,52.14651],[9.90484,52.14651],[9.9043,52.1465],[9.90426,52.14619],[9.90102,52.14616],[9.90078,52.1472],[9.90133,52.15031],[9.89974,52.15186],[9.89809,52.15155],[9.898,52.14958],[9.89636,52.14914],[9.89571,52.15005],[9.89556,52.15169],[9.89463,52.15166],[9.89372,52.15544],[9.89087,52.15509],[9.89082,52.15526],[9.89043,52.15522],[9.89049,52.15504],[9.88707,52.15462],[9.88608,52.15806],[9.88992,52.15837],[9.8896,52.15946],[9.89412,52.15963],[9.89405,52.15982]]]}},{"type":"Feature","properties":{"name":"Nordstadt"},"geometry":{"type":"Polygon","coordinates":[[[9.91594,52.18126],[9.91805,52.18174],[9.91859,52.18056],[9.92347,52.18171],[9.92329,52.18204],[9.92269,52.18246],[9.92272,52.18278],[9.92231,52.1832],[9.92188,52.18322],[9.92102,52.18285],[9.92054,52.18285],[9.92024,52.18307],[9.91985,52.18377],[9.9237,52.18599],[9.92393,52.1863],[9.92367,52.18739],[9.9238,52.18796],[9.92476,52.18802],[9.92541,52.1876],[9.92373,52.19014],[9.93208,52.19095],[9.93315,52.19152],[9.93425,52.19118],[9.9358,52.19109],[9.93799,52.1916],[9.94798,52.19269],[9.95068,52.18789],[9.95234,52.18417],[9.95279,52.18277],[9.95275,52.18201],[9.95688,52.18271],[9.95762,52.18106],[9.95402,52.18045],[9.95387,52.17857],[9.9526,52.17807],[9.95282,52.17797],[9.95258,52.17778],[9.9525,52.17531],[9.95301,52.17369],[9.95397,52.17155],[9.9553,52.17103],[9.95637,52.1703],[9.95703,52.16958],[9.95829,52.16739],[9.95959,52.16641],[9.96123,52.16552],[9.96126,52.16537],[9.96253,52.16486],[9.96263,52.1651],[9.96368,52.16529],[9.96392,52.16515],[9.964,52.16533],[9.9643,52.16538],[9.96315,52.16371],[9.96076,52.16095],[9.95726,52.16118],[9.95565,52.16101],[9.95265,52.16027],[9.94902,52.15912],[9.94071,52.15713],[9.9417,52.15561],[9.94176,52.15488],[9.94044,52.15483],[9.93674,52.15393],[9.93507,52.15434],[9.93151,52.15395],[9.9296,52.15429],[9.92803,52.15521],[9.92759,52.15589],[9.92754,52.15651],[9.92674,52.15654],[9.92667,52.15671],[9.92724,52.15677],[9.92727,52.15745],[9.92692,52.15921],[9.92614,52.16069],[9.92535,52.1637],[9.92561,52.16482],[9.92633,52.16575],[9.92628,52.16635],[9.925,52.16799],[9.92318,52.16969],[9.92307,52.17001],[9.92224,52.16945],[9.91964,52.17136],[9.91825,52.17202],[9.91909,52.1721],[9.91729,52.17761],[9.91579,52.17783],[9.91545,52.1791],[9.91546,52.1798],[9.91474,52.18098],[9.91594,52.18126]]]}},{"type":"Feature","properties":{"name":"Drispenstedt"},"geometry":{"type":"Polygon","coordinates":[[[9.96217,52.18533],[9.96293,52.18542],[9.96314,52.18529],[9.97758,52.18767],[9.97822,52.18472],[9.97776,52.18475],[9.97852,52.178],[9.97765,52.17806],[9.98011,52.17551],[9.97993,52.17546],[9.98225,52.1722],[9.9843,52.16871],[9.97762,52.16655],[9.9773,52.16724],[9.97031,52.16597],[9.96772,52.16585],[9.964,52.16533],[9.96392,52.16515],[9.96368,52.16529],[9.96319,52.16522],[9.96258,52.16508],[9.96253,52.16486],[9.96126,52.16537],[9.96123,52.16552],[9.95917,52.16668],[9.95825,52.16744],[9.95714,52.16942],[9.9566,52.17009],[9.95545,52.17094],[9.95397,52.17155],[9.95301,52.17369],[9.9525,52.17534],[9.95258,52.17778],[9.95282,52.17797],[9.9526,52.17807],[9.95387,52.17857],[9.95402,52.18045],[9.95762,52.18106],[9.95688,52.18271],[9.95275,52.18201],[9.95279,52.18277],[9.95234,52.18417],[9.96217,52.18533]]]}},{"type":"Feature","properties":{"name":"Einum"},"geometry":{"type":"Polygon","coordinates":[[[10.01695,52.17305],[10.01954,52.17253],[10.02182,52.17232],[10.02336,52.16513],[10.02579,52.16653],[10.02704,52.16687],[10.02826,52.16421],[10.03602,52.16495],[10.03679,52.16222],[10.03711,52.15967],[10.03704,52.15816],[10.03421,52.15148],[10.03381,52.15151],[10.0345,52.15298],[10.02569,52.15404],[10.02554,52.15288],[10.02252,52.15288],[10.0226,52.15464],[10.01893,52.15465],[10.01876,52.15689],[10.01811,52.15853],[9.99859,52.15874],[9.99867,52.15686],[9.99338,52.15777],[9.99312,52.16113],[9.99443,52.16128],[9.99926,52.16132],[9.99926,52.16151],[9.99855,52.16159],[9.99784,52.16564],[9.99796,52.1666],[9.9987,52.16824],[9.99868,52.16837],[9.99817,52.16824],[9.99821,52.16841],[9.99889,52.16857],[9.99819,52.1725],[9.99799,52.1725],[10.00027,52.17287],[10.00386,52.17402],[10.01086,52.17427],[10.01083,52.17441],[10.01261,52.1744],[10.01255,52.17395],[10.01695,52.17305]]]}},{"type":"Feature","properties":{"name":"Bavenstedt"},"geometry":{"type":"Polygon","coordinates":[[[9.97783,52.19112],[9.97741,52.19308],[9.97922,52.19308],[9.98213,52.19348],[9.98305,52.19342],[9.98592,52.19388],[9.98722,52.1939],[9.989,52.19359],[9.99087,52.1852],[9.99261,52.18517],[9.99205,52.18318],[10.01386,52.1781],[10.0145,52.17814],[10.01464,52.17437],[10.01083,52.17441],[10.01086,52.17427],[10.00386,52.17402],[10.00027,52.17287],[9.99799,52.1725],[9.99819,52.1725],[9.99889,52.16857],[9.99821,52.16841],[9.99817,52.16824],[9.99868,52.16837],[9.9987,52.16824],[9.99796,52.1666],[9.99784,52.16564],[9.99855,52.16159],[9.99926,52.16151],[9.99926,52.16132],[9.99172,52.16124],[9.99025,52.1611],[9.98909,52.16244],[9.98842,52.16267],[9.98757,52.16266],[9.98717,52.1629],[9.9844,52.16856],[9.98225,52.1722],[9.97993,52.17546],[9.98011,52.17551],[9.97765,52.17806],[9.97852,52.178],[9.97776,52.18475],[9.97822,52.18472],[9.97758,52.18767],[9.97854,52.18784],[9.97783,52.19112]]]}},{"type":"Feature","properties":{"name":"Achtum-Uppen"},"geometry":{"type":"Polygon","coordinates":[[[10.0319,52.14014],[10.03209,52.13938],[10.03666,52.13796],[10.03751,52.13788],[10.03685,52.13731],[10.04152,52.13668],[10.04149,52.13658],[10.0428,52.13666],[10.04259,52.13599],[10.04042,52.13578],[10.04038,52.13386],[10.03853,52.13436],[10.03723,52.13507],[10.03713,52.13291],[10.03667,52.13326],[10.03575,52.13325],[10.03341,52.13274],[10.03187,52.1302],[10.03358,52.12829],[10.03012,52.12791],[10.02708,52.12804],[10.02296,52.12875],[10.01384,52.131],[10.01151,52.13181],[10.01151,52.13243],[10.0096,52.13378],[9.99927,52.13562],[9.99197,52.13639],[9.99263,52.13871],[9.98841,52.13856],[9.98817,52.13957],[9.98603,52.13987],[9.98627,52.14067],[9.98843,52.14248],[9.99014,52.14788],[9.98712,52.14829],[9.98716,52.14849],[9.9873,52.14847],[9.98704,52.15188],[9.98934,52.15205],[9.99249,52.15186],[9.98935,52.15823],[9.98908,52.15933],[9.99013,52.16008],[9.98997,52.16089],[9.99011,52.16105],[9.99172,52.16124],[9.99443,52.16128],[9.99312,52.16113],[9.99338,52.15777],[9.99867,52.15686],[9.99859,52.15874],[10.01811,52.15853],[10.01876,52.15689],[10.01893,52.15465],[10.0226,52.15464],[10.02252,52.15288],[10.02554,52.15288],[10.02569,52.15404],[10.0345,52.15298],[10.03381,52.15151],[10.03421,52.15146],[10.03402,52.15027],[10.03313,52.14783],[10.03258,52.147],[10.03083,52.14565],[10.02984,52.14382],[10.02977,52.14326],[10.02998,52.14311],[10.03096,52.14311],[10.0319,52.14014]]]}},{"type":"Feature","properties":{"name":"Itzum-Marienburg"},"geometry":{"type":"Polygon","coordinates":[[[10.01146,52.12696],[10.01131,52.12518],[10.01065,52.12257],[10.01066,52.12236],[10.01169,52.12235],[10.01173,52.12079],[10.00926,52.12103],[10.00791,52.1207],[10.0086,52.12034],[10.00728,52.11803],[10.00783,52.11776],[10.00699,52.11561],[10.006,52.11561],[10.00561,52.11318],[10.00474,52.11283],[10.00376,52.11071],[10.00618,52.11001],[10.00504,52.10774],[10.00339,52.10808],[10.00275,52.10679],[10.00195,52.10718],[10.00168,52.10698],[10.00607,52.10415],[10.00551,52.10349],[10.0045,52.10296],[10.00259,52.10242],[10.0011,52.10221],[10.00068,52.1023],[9.99952,52.1033],[9.99846,52.10364],[9.99753,52.1037],[9.99626,52.1033],[9.99508,52.10316],[9.99417,52.10365],[9.99303,52.10365],[9.99017,52.10494],[9.98914,52.10558],[9.9875,52.10599],[9.98705,52.10635],[9.9863,52.10755],[9.98568,52.10719],[9.98421,52.10417],[9.98208,52.10696],[9.98102,52.10788],[9.97488,52.11124],[9.96477,52.11788],[9.97066,52.12159],[9.96898,52.12311],[9.96722,52.12418],[9.96768,52.12449],[9.96763,52.12481],[9.96713,52.12499],[9.96647,52.12496],[9.96642,52.12528],[9.96656,52.12534],[9.96781,52.12533],[9.96628,52.12706],[9.96528,52.12755],[9.96497,52.1284],[9.96367,52.12939],[9.96195,52.13124],[9.96212,52.1313],[9.96745,52.12698],[9.97009,52.12511],[9.97144,52.12551],[9.9754,52.12484],[9.97651,52.12702],[9.97813,52.1275],[9.97895,52.12752],[9.97921,52.12761],[9.97929,52.12786],[9.98019,52.12796],[9.98032,52.1282],[9.98066,52.12823],[9.98075,52.12789],[9.9809,52.12793],[9.98101,52.1282],[9.98186,52.12845],[9.98231,52.12879],[9.98244,52.12953],[9.98097,52.13013],[9.98263,52.13085],[9.98288,52.13134],[9.98248,52.13164],[9.98275,52.13178],[9.98301,52.13229],[9.98218,52.13443],[9.98373,52.13457],[9.99046,52.13186],[9.99261,52.13442],[9.99506,52.13607],[9.99927,52.13562],[10.0096,52.13378],[10.01151,52.13243],[10.01151,52.13181],[10.0135,52.13116],[10.01172,52.12796],[10.01146,52.12696]]]}},{"type":"Feature","properties":{"name":"Ochtersum"},"geometry":{"type":"Polygon","coordinates":[[[9.96075,52.12047],[9.9604,52.12015],[9.95884,52.11738],[9.95456,52.12015],[9.95199,52.1196],[9.9482,52.11912],[9.9483,52.11862],[9.94805,52.1186],[9.94784,52.11901],[9.94761,52.11905],[9.94201,52.11811],[9.93906,52.11701],[9.9378,52.11639],[9.93521,52.11456],[9.93382,52.11508],[9.93585,52.11951],[9.93544,52.12185],[9.93616,52.12404],[9.93664,52.12408],[9.93668,52.12448],[9.9361,52.12762],[9.93537,52.1297],[9.93469,52.13338],[9.93512,52.13567],[9.94191,52.13654],[9.94186,52.13699],[9.94085,52.1384],[9.94021,52.13976],[9.9408,52.14019],[9.94226,52.1397],[9.94339,52.13983],[9.94491,52.13747],[9.94565,52.13684],[9.95046,52.13411],[9.95257,52.13248],[9.95247,52.13241],[9.9535,52.13127],[9.95464,52.12857],[9.95573,52.1276],[9.95823,52.12776],[9.96213,52.12834],[9.96333,52.1282],[9.96542,52.12751],[9.96628,52.12706],[9.96781,52.12533],[9.96656,52.12534],[9.96642,52.12528],[9.96647,52.12496],[9.96713,52.12499],[9.96763,52.12481],[9.96768,52.12449],[9.96722,52.12418],[9.96898,52.12311],[9.97066,52.12159],[9.96477,52.11788],[9.96075,52.12047]]]}}]}