{"type":"FeatureCollection","features":[{"type":"Feature","properties":{"zone":"D","district":"Stadtmitte/Neustadt","rawHours":"","rawFee":"","note":"Bewohnerparkzone D — Zeiten und Beträge stehen in der Gebührenordnung für das Parken an Parkscheinautomaten der Stadt Hildesheim und am Schild, nicht im Dienst","windows":[],"fee":{"kind":"unknown"},"unmodelledRules":[],"sourceDefect":null,"scheduleUnknown":true,"spaces":null,"maxStayMinutes":null,"maxStay":null,"maxStayShare":0,"maxStayValues":[],"chargingPoints":0,"carsharing":0},"geometry":{"type":"Polygon","coordinates":[[[9.95213,52.14632],[9.95203,52.14613],[9.95176,52.14577],[9.95173,52.14578],[9.95154,52.14557],[9.95149,52.14549],[9.95146,52.14541],[9.95131,52.14541],[9.95134,52.14548],[9.95129,52.14621],[9.95127,52.14623],[9.95119,52.14629],[9.95072,52.14632],[9.95071,52.14628],[9.95047,52.14629],[9.95038,52.1464],[9.95107,52.14637],[9.95134,52.14642],[9.95203,52.14665],[9.95216,52.14671],[9.95221,52.14675],[9.95251,52.14673],[9.95249,52.1466],[9.95387,52.14647],[9.95392,52.14664],[9.95401,52.14705],[9.95408,52.14705],[9.95404,52.14664],[9.954,52.14646],[9.9543,52.14644],[9.95588,52.14627],[9.95733,52.14616],[9.95752,52.14615],[9.95752,52.14613],[9.95782,52.14613],[9.95788,52.14601],[9.95245,52.14652],[9.95236,52.14625],[9.95236,52.14594],[9.95228,52.1458],[9.95222,52.14581],[9.95229,52.14589],[9.95232,52.14595],[9.95229,52.14619],[9.9523,52.14629],[9.95234,52.14634],[9.95242,52.14653],[9.95221,52.14655],[9.95213,52.14632]],[[9.95142,52.14625],[9.95145,52.14569],[9.95148,52.14567],[9.9517,52.1459],[9.95185,52.14609],[9.95208,52.14654],[9.95203,52.14657],[9.95145,52.14637],[9.95137,52.14629],[9.95142,52.14625]]]}},{"type":"Feature","properties":{"zone":"G","district":"Stadtmitte/Neustadt","rawHours":"","rawFee":"","note":"Bewohnerparkzone G — Zeiten und Beträge stehen in der Gebührenordnung für das Parken an Parkscheinautomaten der Stadt Hildesheim und am Schild, nicht im Dienst","windows":[],"fee":{"kind":"unknown"},"unmodelledRules":[],"sourceDefect":null,"scheduleUnknown":true,"spaces":null,"maxStayMinutes":null,"maxStay":null,"maxStayShare":0,"maxStayValues":[],"chargingPoints":0,"carsharing":0},"geometry":{"type":"Polygon","coordinates":[[[9.95269,52.14736],[9.95267,52.14728],[9.95396,52.14718],[9.95402,52.14719],[9.95398,52.1472],[9.95413,52.14787],[9.95352,52.14793],[9.95352,52.14797],[9.95299,52.14803],[9.95299,52.14806],[9.95414,52.14793],[9.95422,52.14822],[9.95424,52.14837],[9.95421,52.14874],[9.95309,52.14906],[9.9532,52.14916],[9.95376,52.149],[9.95392,52.14897],[9.95397,52.14905],[9.95405,52.14951],[9.95416,52.1495],[9.95406,52.14893],[9.95418,52.14892],[9.95418,52.14888],[9.95421,52.14888],[9.95578,52.14874],[9.957,52.14867],[9.95787,52.14858],[9.95825,52.14856],[9.95885,52.14857],[9.9589,52.14845],[9.95815,52.14844],[9.95738,52.14848],[9.95554,52.14865],[9.95546,52.14834],[9.95536,52.14809],[9.95531,52.14791],[9.95657,52.14779],[9.95719,52.14775],[9.95788,52.14773],[9.95786,52.14763],[9.95754,52.14763],[9.95651,52.14769],[9.9553,52.14781],[9.95514,52.14715],[9.95673,52.147],[9.95673,52.14697],[9.95696,52.14695],[9.95697,52.14699],[9.95769,52.14697],[9.95769,52.1468],[9.95767,52.14681],[9.95696,52.14686],[9.9549,52.14705],[9.95434,52.14706],[9.95408,52.14709],[9.95408,52.14705],[9.95259,52.14715],[9.95264,52.14736],[9.95269,52.14736]],[[9.95432,52.14722],[9.95494,52.1472],[9.95501,52.14723],[9.95506,52.14742],[9.95503,52.14745],[9.95507,52.14763],[9.95487,52.14764],[9.9549,52.14782],[9.95492,52.14782],[9.95492,52.14785],[9.95491,52.14785],[9.95492,52.1479],[9.95452,52.14793],[9.95452,52.14795],[9.95434,52.14796],[9.9543,52.14772],[9.95424,52.14773],[9.95417,52.14737],[9.95418,52.14731],[9.95432,52.14722]],[[9.95489,52.14827],[9.95536,52.14822],[9.95542,52.14848],[9.95545,52.14866],[9.95454,52.14873],[9.95448,52.1483],[9.95489,52.14827]]]}},{"type":"Feature","properties":{"zone":"A","district":"Stadtmitte/Neustadt","rawHours":"","rawFee":"","note":"Bewohnerparkzone A — Zeiten und Beträge stehen in der Gebührenordnung für das Parken an Parkscheinautomaten der Stadt Hildesheim und am Schild, nicht im Dienst","windows":[],"fee":{"kind":"unknown"},"unmodelledRules":[],"sourceDefect":null,"scheduleUnknown":true,"spaces":null,"maxStayMinutes":null,"maxStay":null,"maxStayShare":0,"maxStayValues":[],"chargingPoints":0,"carsharing":0},"geometry":{"type":"Polygon","coordinates":[[[9.95498,52.15703],[9.95055,52.15561],[9.94991,52.15538],[9.94911,52.15512],[9.94857,52.15502],[9.9485,52.15518],[9.94855,52.15524],[9.94863,52.15542],[9.9488,52.15597],[9.94893,52.1561],[9.94911,52.15643],[9.94955,52.15772],[9.94963,52.15784],[9.94979,52.15797],[9.9504,52.15835],[9.95033,52.15846],[9.95359,52.15929],[9.95367,52.15924],[9.95372,52.15924],[9.95373,52.15922],[9.95377,52.15923],[9.9538,52.15919],[9.95378,52.15919],[9.95407,52.15906],[9.95462,52.15884],[9.95466,52.15884],[9.95514,52.15945],[9.95527,52.15941],[9.95463,52.1586],[9.95437,52.15774],[9.95498,52.15703]],[[9.95126,52.15766],[9.95219,52.15661],[9.95232,52.15663],[9.95237,52.15759],[9.9524,52.15759],[9.95241,52.15778],[9.95108,52.15793],[9.95105,52.1579],[9.95126,52.15766]],[[9.95292,52.15745],[9.95395,52.15778],[9.95398,52.15781],[9.95293,52.15904],[9.95264,52.15896],[9.9527,52.15889],[9.95263,52.15778],[9.95292,52.15745]],[[9.95407,52.15771],[9.95402,52.15771],[9.95301,52.15739],[9.953,52.15736],[9.95353,52.15673],[9.95357,52.15672],[9.9546,52.15705],[9.95461,52.15708],[9.95407,52.15771]],[[9.95089,52.15842],[9.95094,52.15834],[9.95084,52.15831],[9.9509,52.15821],[9.9508,52.15819],[9.95088,52.15807],[9.95235,52.15789],[9.95239,52.15791],[9.95242,52.15845],[9.95239,52.15852],[9.95242,52.15853],[9.95239,52.15858],[9.95243,52.15859],[9.9524,52.15864],[9.95244,52.15865],[9.95238,52.15874],[9.95243,52.15875],[9.95241,52.15878],[9.95241,52.15883],[9.95243,52.15884],[9.95239,52.15891],[9.95091,52.15855],[9.95093,52.15853],[9.95083,52.1585],[9.95089,52.15842]],[[9.952,52.15639],[9.95207,52.15641],[9.95081,52.15784],[9.95066,52.15792],[9.95044,52.15792],[9.95044,52.1579],[9.95039,52.1579],[9.95029,52.15785],[9.95025,52.15785],[9.95007,52.15774],[9.95007,52.15772],[9.94991,52.15762],[9.9498,52.15753],[9.94934,52.15612],[9.94936,52.1561],[9.95116,52.15605],[9.95171,52.15612],[9.95209,52.15625],[9.952,52.15639]],[[9.94903,52.15531],[9.94908,52.15529],[9.95078,52.15583],[9.95077,52.15585],[9.9508,52.15588],[9.95076,52.15589],[9.95075,52.15592],[9.94924,52.15596],[9.94903,52.15531]],[[9.95309,52.15657],[9.95332,52.15664],[9.95333,52.15668],[9.9528,52.15729],[9.95258,52.15727],[9.95253,52.15649],[9.9525,52.15648],[9.95257,52.1564],[9.95309,52.15657]],[[9.95328,52.15901],[9.95418,52.15796],[9.95429,52.15797],[9.95449,52.15863],[9.95457,52.15873],[9.95457,52.15875],[9.95351,52.15919],[9.95316,52.1591],[9.95325,52.159],[9.95328,52.15901]]]}},{"type":"Feature","properties":{"zone":"B","district":"Stadtmitte/Neustadt","rawHours":"","rawFee":"","note":"Bewohnerparkzone B — Zeiten und Beträge stehen in der Gebührenordnung für das Parken an Parkscheinautomaten der Stadt Hildesheim und am Schild, nicht im Dienst","windows":[],"fee":{"kind":"unknown"},"unmodelledRules":[],"sourceDefect":null,"scheduleUnknown":true,"spaces":null,"maxStayMinutes":null,"maxStay":null,"maxStayShare":0,"maxStayValues":[],"chargingPoints":0,"carsharing":0},"geometry":{"type":"Polygon","coordinates":[[[9.94182,52.14961],[9.94235,52.14974],[9.9422,52.14994],[9.94186,52.15028],[9.94186,52.15065],[9.942,52.15086],[9.94161,52.15139],[9.94145,52.15135],[9.94138,52.15145],[9.94188,52.15164],[9.94265,52.15186],[9.9425,52.15205],[9.94247,52.15206],[9.94224,52.15196],[9.9422,52.15199],[9.9425,52.15217],[9.94272,52.15187],[9.9432,52.15201],[9.9433,52.15207],[9.94345,52.15218],[9.94343,52.15223],[9.94337,52.15227],[9.94289,52.15245],[9.94271,52.15256],[9.94212,52.15304],[9.94226,52.15308],[9.9424,52.15293],[9.94264,52.15273],[9.94291,52.15255],[9.94313,52.15244],[9.94336,52.15236],[9.94367,52.15229],[9.94388,52.15227],[9.94412,52.15229],[9.94418,52.15232],[9.94424,52.15239],[9.94439,52.15261],[9.94445,52.15275],[9.94446,52.15282],[9.94441,52.15323],[9.9444,52.15355],[9.94458,52.15366],[9.94458,52.1537],[9.94493,52.15371],[9.94496,52.15393],[9.94492,52.15399],[9.94444,52.15401],[9.9432,52.15412],[9.94239,52.15414],[9.94239,52.15422],[9.94322,52.15421],[9.94397,52.15413],[9.94445,52.15411],[9.94481,52.15407],[9.94624,52.1541],[9.94758,52.15423],[9.94821,52.15434],[9.94839,52.15434],[9.94838,52.1544],[9.94841,52.1545],[9.94851,52.15451],[9.9486,52.15484],[9.94857,52.15502],[9.94911,52.15512],[9.94991,52.15538],[9.95055,52.15561],[9.95238,52.1562],[9.95238,52.156],[9.95233,52.15586],[9.95196,52.15537],[9.95183,52.15522],[9.95177,52.15508],[9.95149,52.15461],[9.95125,52.15427],[9.95092,52.15386],[9.95057,52.15355],[9.9504,52.15329],[9.95033,52.1531],[9.95036,52.15297],[9.95034,52.15264],[9.95037,52.15254],[9.95059,52.15222],[9.95077,52.15188],[9.95086,52.15165],[9.95095,52.15095],[9.9511,52.1509],[9.95124,52.15089],[9.95122,52.15053],[9.95124,52.15037],[9.95132,52.15021],[9.95136,52.14978],[9.95056,52.14973],[9.9505,52.1497],[9.95046,52.14964],[9.95016,52.14955],[9.94897,52.14964],[9.94849,52.14969],[9.94826,52.14968],[9.9482,52.14983],[9.94815,52.14984],[9.9481,52.15034],[9.94805,52.15037],[9.94648,52.15038],[9.94595,52.15028],[9.94552,52.15015],[9.94496,52.14991],[9.94479,52.14991],[9.9445,52.14984],[9.94407,52.14979],[9.94347,52.14979],[9.94315,52.14976],[9.94164,52.14942],[9.94158,52.14955],[9.94182,52.14961]],[[9.95037,52.15235],[9.95003,52.15222],[9.9501,52.15215],[9.95026,52.15206],[9.95032,52.152],[9.95035,52.152],[9.95041,52.15188],[9.95043,52.15188],[9.95046,52.15183],[9.95048,52.15183],[9.95052,52.15175],[9.95063,52.15164],[9.95065,52.15157],[9.9506,52.1515],[9.95057,52.15144],[9.95055,52.15137],[9.95054,52.15118],[9.95049,52.15118],[9.95048,52.15115],[9.95081,52.15113],[9.95081,52.15122],[9.95075,52.15165],[9.95063,52.15192],[9.95048,52.1522],[9.95038,52.15235],[9.95048,52.15237],[9.95037,52.15235]],[[9.94518,52.15395],[9.94518,52.15392],[9.94503,52.15391],[9.94498,52.15357],[9.94462,52.15347],[9.94462,52.15327],[9.94488,52.15327],[9.94488,52.15325],[9.9453,52.15325],[9.94769,52.15342],[9.94823,52.15339],[9.94833,52.15377],[9.94836,52.15383],[9.94838,52.15382],[9.94843,52.15407],[9.94839,52.15407],[9.94841,52.15421],[9.94825,52.15422],[9.94628,52.15404],[9.94531,52.15398],[9.94518,52.15395]],[[9.94799,52.15332],[9.94783,52.15332],[9.94739,52.1533],[9.94692,52.15326],[9.94692,52.15324],[9.94649,52.15321],[9.94648,52.15323],[9.94534,52.15316],[9.94458,52.15315],[9.94455,52.15313],[9.94457,52.15285],[9.94456,52.15276],[9.94454,52.1527],[9.9444,52.15243],[9.94443,52.15233],[9.94532,52.15244],[9.94592,52.15256],[9.9464,52.15264],[9.9464,52.15265],[9.94692,52.15269],[9.94778,52.15278],[9.94793,52.15286],[9.94805,52.15295],[9.94823,52.1532],[9.94824,52.1533],[9.94799,52.15332]],[[9.94739,52.15264],[9.94602,52.15246],[9.94582,52.15241],[9.94581,52.1524],[9.94599,52.15199],[9.94604,52.15199],[9.94596,52.15153],[9.94599,52.1515],[9.94625,52.1515],[9.94628,52.15152],[9.94628,52.15156],[9.94765,52.15166],[9.94762,52.15201],[9.94765,52.15201],[9.94759,52.15221],[9.94757,52.1523],[9.94759,52.15241],[9.94768,52.15257],[9.94739,52.15264]],[[9.94731,52.15157],[9.94692,52.15155],[9.94688,52.15145],[9.94687,52.15145],[9.94686,52.15139],[9.94667,52.15137],[9.94518,52.15144],[9.9445,52.15145],[9.94432,52.15144],[9.94437,52.15121],[9.94438,52.15118],[9.9444,52.15118],[9.94448,52.15098],[9.94461,52.1506],[9.94461,52.15056],[9.94458,52.15056],[9.94467,52.15032],[9.94479,52.15012],[9.9457,52.15041],[9.94635,52.15055],[9.94658,52.15058],[9.94658,52.15056],[9.94715,52.15058],[9.94776,52.15062],[9.94777,52.15067],[9.94768,52.15158],[9.94731,52.15157]],[[9.94169,52.15144],[9.94202,52.15099],[9.9421,52.15094],[9.94254,52.15119],[9.94249,52.15123],[9.9426,52.15128],[9.94293,52.15135],[9.94374,52.1515],[9.94383,52.15151],[9.94385,52.15147],[9.944,52.15149],[9.94388,52.15191],[9.94374,52.1522],[9.94357,52.15217],[9.94331,52.15197],[9.94188,52.15156],[9.94189,52.15155],[9.94167,52.15149],[9.9417,52.15144],[9.94169,52.15144]],[[9.944,52.15204],[9.94415,52.15167],[9.9442,52.15168],[9.94425,52.15152],[9.94449,52.15156],[9.94572,52.15153],[9.94573,52.15174],[9.94579,52.15174],[9.94583,52.15201],[9.94581,52.15212],[9.9457,52.15235],[9.94565,52.15237],[9.94505,52.15226],[9.94392,52.15212],[9.94396,52.15203],[9.944,52.15204]],[[9.94282,52.14985],[9.94277,52.14993],[9.94246,52.15012],[9.94214,52.15038],[9.94202,52.15032],[9.94208,52.15027],[9.94211,52.15029],[9.94231,52.15006],[9.94249,52.1499],[9.94243,52.14988],[9.94245,52.14986],[9.94242,52.14985],[9.94247,52.14976],[9.94282,52.14985]],[[9.94215,52.15058],[9.94231,52.15041],[9.94235,52.15042],[9.94239,52.15039],[9.94226,52.15034],[9.9424,52.15024],[9.94242,52.15024],[9.94261,52.15032],[9.94328,52.15046],[9.9436,52.15034],[9.94444,52.1505],[9.94445,52.15052],[9.94422,52.15104],[9.94413,52.15131],[9.94409,52.15136],[9.94405,52.15138],[9.94404,52.15141],[9.94307,52.15128],[9.94302,52.15126],[9.94303,52.15125],[9.9428,52.15119],[9.94241,52.15099],[9.9422,52.15085],[9.94213,52.15076],[9.94209,52.15062],[9.94215,52.15058]],[[9.94332,52.15034],[9.94331,52.15036],[9.94317,52.15034],[9.94317,52.15036],[9.94273,52.15027],[9.94262,52.15021],[9.94278,52.1501],[9.94273,52.15007],[9.94287,52.14997],[9.94292,52.14988],[9.94329,52.14994],[9.94398,52.14998],[9.94445,52.15003],[9.94445,52.15005],[9.94461,52.15008],[9.9445,52.1503],[9.9444,52.15042],[9.94358,52.15026],[9.94335,52.15035],[9.94332,52.15034]],[[9.94787,52.1525],[9.94788,52.15232],[9.94788,52.15234],[9.94802,52.15235],[9.94843,52.15226],[9.94928,52.15213],[9.94925,52.15203],[9.94854,52.15214],[9.94802,52.15225],[9.94789,52.15225],[9.94789,52.15217],[9.94787,52.15217],[9.94787,52.15213],[9.94789,52.15213],[9.94793,52.1517],[9.94807,52.15171],[9.94821,52.15169],[9.94869,52.15167],[9.94927,52.15176],[9.94932,52.15187],[9.94935,52.15186],[9.94946,52.15218],[9.94974,52.15224],[9.94976,52.15219],[9.94974,52.15217],[9.94977,52.15216],[9.94989,52.1522],[9.94986,52.15227],[9.95027,52.15238],[9.95024,52.15244],[9.95022,52.15244],[9.95019,52.15255],[9.95025,52.15297],[9.95022,52.15299],[9.94979,52.15303],[9.94978,52.15301],[9.94966,52.15302],[9.94881,52.15317],[9.94874,52.15316],[9.94861,52.15318],[9.94858,52.15312],[9.94841,52.15316],[9.94832,52.15299],[9.94801,52.15267],[9.94787,52.1525]],[[9.94981,52.15211],[9.94962,52.15206],[9.94955,52.15201],[9.94951,52.15196],[9.94937,52.15168],[9.94931,52.1515],[9.9493,52.15123],[9.94934,52.1512],[9.94964,52.15113],[9.94968,52.15115],[9.94974,52.15121],[9.94978,52.15123],[9.95031,52.15122],[9.95035,52.15127],[9.95037,52.15138],[9.95051,52.15144],[9.95058,52.15155],[9.95058,52.15159],[9.95055,52.15166],[9.95038,52.15179],[9.95016,52.15202],[9.94998,52.15211],[9.94981,52.15211]],[[9.94983,52.15117],[9.9498,52.15116],[9.94979,52.15113],[9.94974,52.15091],[9.94976,52.15086],[9.94972,52.15086],[9.94976,52.15079],[9.95067,52.15094],[9.95066,52.15105],[9.95062,52.15105],[9.95063,52.15107],[9.95045,52.15109],[9.95045,52.15113],[9.95035,52.15113],[9.95035,52.15114],[9.94983,52.15117]],[[9.94942,52.14973],[9.95006,52.14971],[9.95008,52.14989],[9.95003,52.14998],[9.94992,52.15012],[9.9498,52.15021],[9.94966,52.15025],[9.94958,52.15057],[9.94955,52.15059],[9.94832,52.15042],[9.9483,52.15032],[9.94832,52.15017],[9.94838,52.14992],[9.94841,52.14992],[9.94845,52.14979],[9.94865,52.14981],[9.94901,52.14976],[9.94942,52.14973]],[[9.94974,52.15042],[9.94979,52.15034],[9.94983,52.15033],[9.95042,52.15045],[9.95049,52.15039],[9.95001,52.1503],[9.95021,52.14993],[9.95023,52.14993],[9.95023,52.14987],[9.95096,52.14986],[9.95123,52.14987],[9.95126,52.14989],[9.95124,52.15021],[9.95118,52.15035],[9.95117,52.15035],[9.95116,52.15079],[9.95104,52.15079],[9.95103,52.15083],[9.95084,52.15082],[9.95084,52.15078],[9.95048,52.15075],[9.94967,52.15061],[9.94972,52.15042],[9.94974,52.15042]],[[9.94921,52.1507],[9.94966,52.15077],[9.94961,52.15088],[9.94965,52.15104],[9.94915,52.15116],[9.94914,52.15126],[9.94917,52.15126],[9.94916,52.15139],[9.94918,52.1514],[9.9492,52.15153],[9.94917,52.15163],[9.94908,52.15163],[9.94869,52.15158],[9.94797,52.15161],[9.94793,52.15159],[9.94801,52.15077],[9.94806,52.15065],[9.9482,52.15058],[9.94833,52.15058],[9.94921,52.1507]],[[9.94862,52.15399],[9.94855,52.15364],[9.94848,52.1534],[9.94874,52.15336],[9.94877,52.15344],[9.94879,52.15344],[9.94892,52.15367],[9.94898,52.15374],[9.94982,52.15432],[9.95133,52.15518],[9.95154,52.15524],[9.95164,52.15522],[9.95168,52.15529],[9.95187,52.15535],[9.9518,52.15543],[9.9519,52.15545],[9.95223,52.15588],[9.95215,52.15597],[9.949,52.15497],[9.94901,52.15496],[9.94895,52.15489],[9.94883,52.15453],[9.94878,52.15454],[9.94862,52.15399]],[[9.94942,52.15317],[9.95016,52.15309],[9.9503,52.15336],[9.95036,52.15344],[9.95035,52.15344],[9.95055,52.15369],[9.95093,52.15404],[9.95112,52.15426],[9.95138,52.15463],[9.95166,52.1551],[9.95153,52.15513],[9.95143,52.15509],[9.9499,52.15422],[9.94909,52.15366],[9.94888,52.15329],[9.94903,52.15325],[9.94902,52.15324],[9.94942,52.15317]]]}},{"type":"Feature","properties":{"zone":"E","district":"Moritzberg/Bockfeld","rawHours":"","rawFee":"","note":"Bewohnerparkzone E — Zeiten und Beträge stehen in der Gebührenordnung für das Parken an Parkscheinautomaten der Stadt Hildesheim und am Schild, nicht im Dienst","windows":[],"fee":{"kind":"unknown"},"unmodelledRules":[],"sourceDefect":null,"scheduleUnknown":true,"spaces":null,"maxStayMinutes":null,"maxStay":null,"maxStayShare":0,"maxStayValues":[],"chargingPoints":0,"carsharing":0},"geometry":{"type":"Polygon","coordinates":[[[9.92851,52.14828],[9.92917,52.14845],[9.92916,52.14846],[9.92996,52.14864],[9.9303,52.1487],[9.93029,52.14872],[9.93052,52.14876],[9.93057,52.14882],[9.93053,52.14894],[9.93055,52.14894],[9.93053,52.149],[9.93038,52.14924],[9.92951,52.15002],[9.92894,52.14986],[9.92892,52.14993],[9.92832,52.14998],[9.92808,52.14999],[9.9279,52.14995],[9.92789,52.14997],[9.92729,52.14985],[9.9272,52.1499],[9.92815,52.15006],[9.92903,52.14999],[9.92936,52.15008],[9.92938,52.15011],[9.9285,52.15102],[9.92831,52.15114],[9.92823,52.15117],[9.92849,52.15126],[9.9287,52.15106],[9.92881,52.15093],[9.92883,52.15088],[9.92898,52.15072],[9.92896,52.15074],[9.92914,52.1506],[9.92928,52.15054],[9.92949,52.15052],[9.93133,52.15055],[9.93134,52.15043],[9.93078,52.15042],[9.93049,52.1504],[9.92945,52.1504],[9.92941,52.15038],[9.92938,52.15036],[9.92939,52.15032],[9.92942,52.15027],[9.92931,52.15039],[9.9296,52.1501],[9.92969,52.15003],[9.92976,52.15],[9.92985,52.14999],[9.93002,52.15004],[9.9313,52.15018],[9.93141,52.15005],[9.93133,52.15005],[9.9313,52.15008],[9.93081,52.15005],[9.93078,52.15003],[9.93068,52.15003],[9.93069,52.15001],[9.93017,52.14996],[9.92991,52.14984],[9.93032,52.14951],[9.93051,52.14933],[9.93078,52.14891],[9.93079,52.14871],[9.93029,52.14862],[9.93029,52.14863],[9.92987,52.14855],[9.92917,52.14836],[9.92839,52.14818],[9.92836,52.14825],[9.92851,52.14828]],[[9.92901,52.15069],[9.92899,52.15072],[9.92903,52.15067],[9.92901,52.15069]]]}},{"type":"Feature","properties":{"zone":"F","district":"Stadtmitte/Neustadt","rawHours":"","rawFee":"","note":"Bewohnerparkzone F — Zeiten und Beträge stehen in der Gebührenordnung für das Parken an Parkscheinautomaten der Stadt Hildesheim und am Schild, nicht im Dienst","windows":[],"fee":{"kind":"unknown"},"unmodelledRules":[],"sourceDefect":null,"scheduleUnknown":true,"spaces":null,"maxStayMinutes":null,"maxStay":null,"maxStayShare":0,"maxStayValues":[],"chargingPoints":0,"carsharing":0},"geometry":{"type":"Polygon","coordinates":[[[9.95041,52.14723],[9.95033,52.14678],[9.95038,52.1464],[9.95047,52.14629],[9.95044,52.14627],[9.95039,52.14616],[9.95034,52.14616],[9.9503,52.14607],[9.94987,52.14589],[9.94944,52.14561],[9.9493,52.14547],[9.94928,52.14538],[9.94937,52.14486],[9.94906,52.14484],[9.949,52.14515],[9.94862,52.14506],[9.9486,52.14508],[9.94832,52.14499],[9.9481,52.14494],[9.94792,52.14501],[9.94829,52.14509],[9.9487,52.14522],[9.94956,52.14583],[9.94924,52.14596],[9.94917,52.14595],[9.94911,52.14625],[9.9491,52.14644],[9.9491,52.14671],[9.94914,52.14711],[9.94913,52.14732],[9.94912,52.14732],[9.94909,52.14737],[9.94888,52.14759],[9.94879,52.14762],[9.94795,52.14782],[9.94762,52.14775],[9.94696,52.14769],[9.94647,52.14761],[9.94636,52.14768],[9.94645,52.14774],[9.9476,52.14784],[9.94779,52.14787],[9.94797,52.14793],[9.94803,52.14791],[9.94807,52.14792],[9.94838,52.1484],[9.94847,52.14884],[9.94845,52.14885],[9.94845,52.14888],[9.94839,52.14907],[9.94833,52.14906],[9.94829,52.14909],[9.94827,52.14934],[9.94833,52.14935],[9.94832,52.14945],[9.9483,52.14949],[9.94827,52.14949],[9.94823,52.14959],[9.94827,52.14961],[9.94825,52.14968],[9.94849,52.14969],[9.94848,52.14949],[9.94861,52.14888],[9.94857,52.1485],[9.9485,52.14834],[9.94837,52.1482],[9.9482,52.14792],[9.94821,52.14788],[9.94824,52.14786],[9.94844,52.14781],[9.949,52.1477],[9.94898,52.14765],[9.94913,52.14756],[9.94913,52.14754],[9.94928,52.14748],[9.95029,52.14752],[9.95031,52.14753],[9.95037,52.14792],[9.95041,52.14826],[9.9504,52.14826],[9.95039,52.14833],[9.95031,52.14855],[9.95028,52.14867],[9.95029,52.14906],[9.95026,52.14929],[9.95025,52.14935],[9.95014,52.14935],[9.95016,52.14955],[9.95046,52.14964],[9.9505,52.14935],[9.95043,52.14934],[9.95046,52.14911],[9.95043,52.14891],[9.95042,52.14869],[9.95045,52.14869],[9.95045,52.14858],[9.95055,52.1484],[9.95058,52.14833],[9.95064,52.14834],[9.95065,52.14828],[9.95065,52.14811],[9.95068,52.14811],[9.95066,52.1481],[9.95065,52.14807],[9.95067,52.14807],[9.95063,52.14792],[9.95059,52.14792],[9.9505,52.14765],[9.95048,52.14749],[9.95237,52.14731],[9.95243,52.14754],[9.95248,52.14753],[9.9526,52.14797],[9.95266,52.14823],[9.9526,52.14827],[9.95273,52.14887],[9.95278,52.149],[9.9528,52.14917],[9.95267,52.14918],[9.95267,52.14921],[9.95256,52.14936],[9.95252,52.14947],[9.95246,52.14971],[9.95249,52.14997],[9.95265,52.14998],[9.95263,52.14989],[9.95258,52.14989],[9.95256,52.14979],[9.95262,52.1498],[9.95271,52.14942],[9.95273,52.14943],[9.95271,52.14933],[9.953,52.14931],[9.95353,52.14974],[9.9535,52.14975],[9.95363,52.14984],[9.95385,52.14976],[9.95324,52.14927],[9.95327,52.14925],[9.95301,52.14896],[9.95283,52.14817],[9.95278,52.14789],[9.95277,52.14789],[9.95259,52.14715],[9.95251,52.14673],[9.95221,52.14675],[9.95226,52.14679],[9.95227,52.14683],[9.95229,52.14683],[9.95229,52.14685],[9.95228,52.14685],[9.95233,52.14707],[9.95232,52.14707],[9.95235,52.14722],[9.95176,52.14728],[9.95177,52.1473],[9.95114,52.14734],[9.95044,52.14741],[9.95041,52.14723]],[[9.94941,52.14606],[9.94962,52.14609],[9.95015,52.14612],[9.95018,52.14616],[9.95024,52.14631],[9.95025,52.14631],[9.95021,52.14672],[9.9502,52.14691],[9.95027,52.14736],[9.95018,52.1474],[9.94992,52.14741],[9.94971,52.1474],[9.94927,52.14739],[9.94925,52.14738],[9.94925,52.14712],[9.9492,52.14689],[9.94921,52.14689],[9.94919,52.14645],[9.94921,52.14639],[9.94923,52.14621],[9.94929,52.14605],[9.94941,52.14606]],[[9.94991,52.14608],[9.94936,52.14603],[9.94933,52.14601],[9.94948,52.14595],[9.94961,52.14594],[9.95005,52.14607],[9.94991,52.14608]]]}},{"type":"Feature","properties":{"zone":"C","district":"Stadtmitte/Neustadt","rawHours":"","rawFee":"","note":"Bewohnerparkzone C — Zeiten und Beträge stehen in der Gebührenordnung für das Parken an Parkscheinautomaten der Stadt Hildesheim und am Schild, nicht im Dienst","windows":[],"fee":{"kind":"unknown"},"unmodelledRules":[],"sourceDefect":null,"scheduleUnknown":true,"spaces":null,"maxStayMinutes":null,"maxStay":null,"maxStayShare":0,"maxStayValues":[],"chargingPoints":0,"carsharing":0},"geometry":{"type":"Polygon","coordinates":[[[9.95304,52.14998],[9.95283,52.14999],[9.95249,52.14997],[9.95211,52.14997],[9.9517,52.15001],[9.95165,52.14981],[9.95143,52.14983],[9.95143,52.14978],[9.95136,52.14978],[9.95132,52.15021],[9.95124,52.15037],[9.95122,52.15053],[9.95124,52.15089],[9.9511,52.1509],[9.95095,52.15095],[9.95086,52.15165],[9.95077,52.15188],[9.95059,52.15222],[9.95037,52.15254],[9.95034,52.15264],[9.95036,52.15297],[9.95033,52.1531],[9.9504,52.15329],[9.95057,52.15355],[9.95092,52.15386],[9.95125,52.15427],[9.95149,52.15461],[9.95177,52.15508],[9.95183,52.15522],[9.95196,52.15537],[9.95233,52.15586],[9.95238,52.156],[9.95238,52.1562],[9.95498,52.15703],[9.95526,52.15682],[9.95685,52.15497],[9.95705,52.15492],[9.95715,52.15491],[9.95748,52.15492],[9.95772,52.15492],[9.95789,52.15488],[9.95798,52.15484],[9.95802,52.15478],[9.95805,52.15469],[9.95779,52.15406],[9.95761,52.15378],[9.95735,52.15343],[9.95709,52.15313],[9.95691,52.15297],[9.95662,52.15267],[9.95663,52.15262],[9.95618,52.15213],[9.95614,52.15209],[9.95616,52.15208],[9.95588,52.15178],[9.95586,52.15179],[9.95585,52.15177],[9.95579,52.1517],[9.95581,52.1517],[9.95573,52.15157],[9.95509,52.15079],[9.95499,52.15076],[9.95465,52.15033],[9.95444,52.1501],[9.95435,52.1501],[9.95426,52.15006],[9.95385,52.14976],[9.95363,52.14984],[9.95353,52.1499],[9.95336,52.14995],[9.95304,52.14998]],[[9.95324,52.15632],[9.95266,52.15614],[9.95206,52.15535],[9.95208,52.15532],[9.95265,52.15527],[9.9543,52.15536],[9.95444,52.15539],[9.95357,52.1564],[9.95351,52.15641],[9.95324,52.15632]],[[9.9545,52.15527],[9.95332,52.1552],[9.95337,52.15486],[9.95374,52.15487],[9.95466,52.15485],[9.95471,52.15485],[9.95485,52.15491],[9.95457,52.15524],[9.9545,52.15527]],[[9.95319,52.15519],[9.95242,52.15515],[9.95195,52.15518],[9.9516,52.1546],[9.95179,52.15455],[9.9527,52.15479],[9.95324,52.15484],[9.95319,52.15519]],[[9.95146,52.1544],[9.95107,52.15383],[9.95179,52.15372],[9.9519,52.15396],[9.95205,52.15393],[9.95196,52.1537],[9.95288,52.15359],[9.95297,52.15387],[9.95304,52.15387],[9.95306,52.15395],[9.95302,52.15396],[9.95311,52.15431],[9.9532,52.15455],[9.95324,52.15455],[9.95324,52.15476],[9.95274,52.15471],[9.95235,52.15462],[9.95224,52.15436],[9.95209,52.15439],[9.9521,52.15442],[9.95154,52.15451],[9.95146,52.1544]],[[9.95354,52.15353],[9.95394,52.15349],[9.95405,52.15386],[9.95413,52.15419],[9.95418,52.15457],[9.95418,52.15468],[9.95414,52.15468],[9.95414,52.15478],[9.95337,52.15478],[9.95337,52.1544],[9.95312,52.15357],[9.95354,52.15353]],[[9.95431,52.15346],[9.95431,52.15347],[9.95465,52.15344],[9.95468,52.15352],[9.95469,52.15353],[9.95481,52.15384],[9.95485,52.15398],[9.95491,52.15433],[9.95491,52.15477],[9.95433,52.15478],[9.95432,52.15448],[9.95428,52.15419],[9.9541,52.15348],[9.95431,52.15346]],[[9.95418,52.15335],[9.95268,52.15348],[9.95267,52.15343],[9.95263,52.15344],[9.95213,52.1535],[9.95211,52.15351],[9.95213,52.15353],[9.95208,52.15354],[9.95207,52.15351],[9.95194,52.15352],[9.95196,52.15358],[9.95093,52.15371],[9.95091,52.15367],[9.95085,52.15367],[9.9508,52.1536],[9.95078,52.15356],[9.95067,52.15353],[9.95054,52.15328],[9.95051,52.15328],[9.95048,52.1531],[9.9507,52.15309],[9.95124,52.15303],[9.95128,52.15302],[9.95127,52.15297],[9.95102,52.15297],[9.95102,52.15298],[9.95054,52.15301],[9.95053,52.15296],[9.95047,52.15296],[9.95045,52.15274],[9.95048,52.15264],[9.95071,52.15266],[9.95109,52.15273],[9.95148,52.15266],[9.95195,52.15262],[9.95253,52.1526],[9.95254,52.15261],[9.9528,52.1526],[9.95315,52.15256],[9.95315,52.15254],[9.95344,52.1525],[9.95357,52.15262],[9.95375,52.15271],[9.95376,52.15273],[9.95258,52.15288],[9.95213,52.1529],[9.95215,52.153],[9.95394,52.15281],[9.95398,52.15282],[9.95409,52.15289],[9.95428,52.15304],[9.95442,52.15319],[9.95448,52.15332],[9.95418,52.15335]],[[9.95385,52.15257],[9.95379,52.15258],[9.95363,52.15241],[9.95402,52.15228],[9.95404,52.15229],[9.95407,52.15228],[9.95408,52.15229],[9.95434,52.15221],[9.95435,52.15223],[9.95514,52.15197],[9.95511,52.15193],[9.9553,52.15186],[9.95533,52.15191],[9.95542,52.1519],[9.95548,52.15192],[9.95565,52.15208],[9.9558,52.15218],[9.9559,52.15229],[9.95594,52.15229],[9.9567,52.15308],[9.95654,52.15314],[9.95561,52.15327],[9.95564,52.15334],[9.95572,52.15333],[9.95575,52.15339],[9.95577,52.1534],[9.95587,52.15338],[9.95597,52.15332],[9.9568,52.15319],[9.95686,52.15335],[9.95687,52.15352],[9.95688,52.15394],[9.95685,52.1542],[9.95678,52.15455],[9.95672,52.15457],[9.9561,52.15431],[9.9553,52.15414],[9.95512,52.15408],[9.95497,52.15361],[9.95483,52.1534],[9.95456,52.15308],[9.95436,52.15289],[9.95398,52.15264],[9.95394,52.15266],[9.95385,52.15257]],[[9.95347,52.15225],[9.9534,52.15227],[9.95321,52.1521],[9.95318,52.15211],[9.95307,52.15204],[9.95286,52.15195],[9.95265,52.15181],[9.95238,52.15157],[9.95202,52.15122],[9.95193,52.15111],[9.95188,52.15098],[9.95186,52.1509],[9.95261,52.15076],[9.95384,52.15047],[9.954,52.15041],[9.95414,52.15048],[9.95432,52.15043],[9.95441,52.15055],[9.95308,52.15103],[9.95307,52.15102],[9.95301,52.15104],[9.95281,52.15083],[9.95267,52.15086],[9.95287,52.15107],[9.95294,52.15115],[9.95293,52.15116],[9.95309,52.15135],[9.95307,52.15136],[9.9531,52.15148],[9.95316,52.15147],[9.95325,52.15156],[9.95327,52.15162],[9.9534,52.15179],[9.95376,52.15224],[9.95353,52.15231],[9.95347,52.15225]],[[9.95179,52.15072],[9.95132,52.15077],[9.95127,52.15053],[9.95129,52.15042],[9.95134,52.15029],[9.95199,52.15009],[9.95241,52.15007],[9.95294,52.15009],[9.95339,52.15007],[9.9534,52.15008],[9.95344,52.15006],[9.95343,52.15005],[9.95357,52.14997],[9.95372,52.14993],[9.95379,52.14994],[9.95385,52.14997],[9.954,52.15009],[9.95404,52.15014],[9.95403,52.15018],[9.954,52.15022],[9.95382,52.15029],[9.95366,52.15033],[9.95363,52.15029],[9.95325,52.15041],[9.95256,52.15058],[9.95179,52.15072]],[[9.95236,52.15251],[9.95174,52.15254],[9.95173,52.1523],[9.95179,52.15202],[9.95179,52.15192],[9.95177,52.15163],[9.95178,52.15143],[9.95201,52.15143],[9.95225,52.15167],[9.95252,52.1519],[9.95308,52.15224],[9.9532,52.15232],[9.95325,52.15242],[9.95295,52.15247],[9.95236,52.15251]],[[9.95125,52.1526],[9.95114,52.15261],[9.95089,52.15259],[9.95056,52.15255],[9.95059,52.15239],[9.95069,52.15223],[9.95091,52.15181],[9.95097,52.15159],[9.951,52.15136],[9.95105,52.15118],[9.95111,52.15102],[9.95168,52.15099],[9.9517,52.15126],[9.95165,52.15159],[9.95168,52.15197],[9.95161,52.15224],[9.95163,52.15224],[9.95162,52.15227],[9.9516,52.15227],[9.95162,52.1524],[9.95167,52.1524],[9.95169,52.15256],[9.95125,52.15258],[9.95125,52.1526]],[[9.95485,52.15108],[9.95537,52.15172],[9.95513,52.1518],[9.95511,52.15178],[9.95403,52.15215],[9.954,52.15212],[9.95391,52.15215],[9.95387,52.15207],[9.9531,52.15114],[9.95446,52.15064],[9.95482,52.15109],[9.95485,52.15108]],[[9.95711,52.15443],[9.95713,52.1543],[9.95708,52.15429],[9.95711,52.15378],[9.95704,52.15378],[9.95707,52.15373],[9.95712,52.1537],[9.95725,52.1537],[9.95731,52.15373],[9.95735,52.15376],[9.95758,52.15425],[9.95751,52.15426],[9.95763,52.15457],[9.95759,52.15463],[9.9575,52.15467],[9.95713,52.15465],[9.95714,52.15453],[9.95709,52.15451],[9.95711,52.15443]],[[9.95467,52.1554],[9.95475,52.15538],[9.95571,52.15569],[9.95575,52.15571],[9.95575,52.15575],[9.95485,52.1568],[9.95479,52.15678],[9.95475,52.15679],[9.95469,52.15679],[9.95377,52.15649],[9.95376,52.15645],[9.95467,52.1554]],[[9.95483,52.15528],[9.95484,52.15526],[9.9548,52.15525],[9.95506,52.15494],[9.95514,52.15471],[9.95512,52.15425],[9.9553,52.15425],[9.95594,52.1544],[9.95661,52.1547],[9.95662,52.15473],[9.95586,52.15562],[9.95484,52.15529],[9.95483,52.15528]]]}}]}