{"type":"FeatureCollection","features":[{"type":"Feature","properties":{"zone":"Porz-City","district":"Köln","rawHours":"Mo-Fr 09:00 - 19:00 + Sa 09:00 - 16:00 (21×); Mo-Fr 08:00 - 19:00 + Sa 08:00 - 16:00 (1×); Mo-Sa 09:00 - 23:00 (1×)","rawFee":"","note":"Kürzel auf dem Automaten: Porz · Gebietsseite bei stadt-koeln.de","windows":[{"weekdays":[1,2,3,4,5],"fromMinute":540,"toMinute":1140},{"weekdays":[6],"fromMinute":540,"toMinute":960},{"weekdays":[1,2,3,4,5],"fromMinute":480,"toMinute":1140},{"weekdays":[6],"fromMinute":480,"toMinute":960},{"weekdays":[1,2,3,4,5,6],"fromMinute":540,"toMinute":1380}],"fee":{"kind":"unknown"},"unmodelledRules":[],"sourceDefect":"Die Quelle nennt 0,50 € bzw. 1,00 € je 20 Minuten. Dieser Wert ist veraltet: Die Datei führt eine Spalte „Tagesgebühr 4,00 €\", während die Stadt Köln für dasselbe Tagesticket heute 5 Euro nennt. Deshalb steht hier kein Betrag.","spaces":436,"maxStayMinutes":null,"maxStay":"4h","maxStayShare":0.957,"maxStayValues":["4h","10h","2h"],"chargingPoints":0,"carsharing":0},"geometry":{"type":"Polygon","coordinates":[[[7.06186,50.88096],[7.06218,50.88263],[7.06087,50.88297],[7.06088,50.88298],[7.06049,50.88308],[7.06044,50.88307],[7.06039,50.88297],[7.06023,50.88263],[7.06015,50.88247],[7.05986,50.88205],[7.06012,50.88197],[7.06008,50.88186],[7.05985,50.88193],[7.05977,50.88192],[7.05929,50.88094],[7.05914,50.8806],[7.05797,50.88084],[7.05729,50.88096],[7.05721,50.88082],[7.05709,50.88057],[7.05701,50.88032],[7.05696,50.88008],[7.05582,50.88027],[7.05538,50.88071],[7.05543,50.88085],[7.05545,50.88102],[7.05552,50.8827],[7.0545,50.8831],[7.05448,50.88313],[7.05446,50.8832],[7.05443,50.88362],[7.05443,50.88395],[7.0544,50.88395],[7.05441,50.88403],[7.0544,50.8841],[7.05437,50.88413],[7.05437,50.88416],[7.05438,50.88416],[7.05432,50.88455],[7.05426,50.88479],[7.05417,50.88492],[7.05409,50.88512],[7.05396,50.88584],[7.05391,50.88599],[7.05406,50.8861],[7.05423,50.88609],[7.05445,50.88643],[7.05451,50.88641],[7.05525,50.88753],[7.05523,50.88754],[7.05529,50.88763],[7.05522,50.88767],[7.05527,50.88771],[7.05537,50.88796],[7.05558,50.8881],[7.05559,50.88809],[7.05576,50.88824],[7.05597,50.88839],[7.05622,50.88854],[7.05641,50.88863],[7.0567,50.88875],[7.05758,50.88906],[7.05802,50.88918],[7.05822,50.88927],[7.05827,50.88925],[7.05864,50.88843],[7.05943,50.88604],[7.06088,50.88587],[7.06164,50.88564],[7.06148,50.88537],[7.06165,50.88527],[7.06167,50.88523],[7.06173,50.8852],[7.06211,50.88512],[7.06232,50.88505],[7.06253,50.88493],[7.06266,50.88482],[7.06276,50.8847],[7.06281,50.8846],[7.06284,50.8845],[7.06284,50.88439],[7.06257,50.88272],[7.06261,50.8827],[7.06426,50.88228],[7.06411,50.88219],[7.0641,50.88215],[7.06361,50.88227],[7.06358,50.88211],[7.06355,50.88211],[7.0635,50.88185],[7.06352,50.88185],[7.06349,50.88168],[7.06351,50.88168],[7.06339,50.88108],[7.06335,50.88109],[7.06322,50.88049],[7.06317,50.88044],[7.06308,50.88041],[7.06301,50.8804],[7.06181,50.8805],[7.06188,50.88089],[7.06185,50.88089],[7.06186,50.88096]]]}},{"type":"Feature","properties":{"zone":"Mülheim","district":"Köln","rawHours":"Mo-Sa 09:00 - 23:00 (58×); Mo-Sa 12:00/18:00 - 20:00 (3×); Mo-Sa 09:00 - 18:00 (2×); Mo-Sa 12:00 - 20:00 (2×); Mo-So 09:00 - 21:00 (2×); + 4 weitere","rawFee":"","note":"Kürzel auf dem Automaten: MÜLH · Gebietsseite bei stadt-koeln.de","windows":[{"weekdays":[1,2,3,4,5,6],"fromMinute":540,"toMinute":1080},{"weekdays":[1,2,3,4,5,6],"fromMinute":540,"toMinute":1380},{"weekdays":[1,2,3,4,5,6],"fromMinute":720,"toMinute":1200},{"weekdays":[1,2,3,4,5],"fromMinute":540,"toMinute":1140},{"weekdays":[6],"fromMinute":540,"toMinute":960},{"weekdays":[1,2,3,4,5,6],"fromMinute":540,"toMinute":1260},{"weekdays":[0,1,2,3,4,5,6],"fromMinute":540,"toMinute":1260}],"fee":{"kind":"unknown"},"unmodelledRules":["Beginn laut Quelle uneindeutig: 09:00/12:00 Uhr","Beginn laut Quelle uneindeutig: 09:00/18:00 Uhr","Beginn laut Quelle uneindeutig: 12:00/18:00 Uhr"],"sourceDefect":"Die Quelle nennt 0,50 € bzw. 1,00 € je 20 Minuten. Dieser Wert ist veraltet: Die Datei führt eine Spalte „Tagesgebühr 4,00 €\", während die Stadt Köln für dasselbe Tagesticket heute 5 Euro nennt. Deshalb steht hier kein Betrag.","spaces":1078,"maxStayMinutes":null,"maxStay":"4h","maxStayShare":1,"maxStayValues":["4h","2h","14h","12h"],"chargingPoints":0,"carsharing":0},"geometry":{"type":"Polygon","coordinates":[[[7.01717,50.96387],[7.01732,50.96379],[7.01695,50.96292],[7.01588,50.96199],[7.01445,50.9605],[7.0138,50.95942],[7.01277,50.95803],[7.01278,50.95802],[7.01271,50.95794],[7.01279,50.95791],[7.01233,50.95728],[7.01235,50.95727],[7.01193,50.95672],[7.01166,50.95645],[7.01164,50.95646],[7.01156,50.95638],[7.01158,50.95637],[7.01118,50.95597],[7.01116,50.95597],[7.01105,50.95586],[7.01107,50.95586],[7.01083,50.95565],[7.0108,50.95561],[7.01079,50.95562],[7.01067,50.95551],[7.01062,50.95552],[7.01042,50.95561],[7.01008,50.95579],[7.00975,50.95593],[7.00939,50.95607],[7.00927,50.95607],[7.0092,50.95609],[7.00916,50.95612],[7.0091,50.9562],[7.00872,50.95638],[7.00845,50.95649],[7.00743,50.95694],[7.00698,50.95722],[7.00641,50.9577],[7.00665,50.95781],[7.00652,50.95833],[7.00637,50.95868],[7.00605,50.95923],[7.00609,50.95926],[7.00558,50.96011],[7.00535,50.96019],[7.00431,50.96007],[7.00429,50.96017],[7.00443,50.96041],[7.0046,50.96059],[7.00495,50.96112],[7.00549,50.96196],[7.00593,50.96299],[7.00619,50.96342],[7.00642,50.96354],[7.00725,50.96339],[7.00777,50.96324],[7.00845,50.96301],[7.00922,50.9627],[7.00959,50.96259],[7.01016,50.9625],[7.01045,50.96249],[7.01073,50.96252],[7.01112,50.96259],[7.01429,50.96327],[7.01717,50.96387]]]}},{"type":"Feature","properties":{"zone":"Keupstr.","district":"Köln","rawHours":"Mo-Sa 09:00 - 23:00 (17×); Mo-So 09:00 - 18:00 (1×)","rawFee":"","note":"Kürzel auf dem Automaten: KEUP · Gebietsseite bei stadt-koeln.de","windows":[{"weekdays":[1,2,3,4,5,6],"fromMinute":540,"toMinute":1380},{"weekdays":[0,1,2,3,4,5,6],"fromMinute":540,"toMinute":1080}],"fee":{"kind":"unknown"},"unmodelledRules":[],"sourceDefect":"Die Quelle nennt 0,50 € bzw. 1,00 € je 20 Minuten. Dieser Wert ist veraltet: Die Datei führt eine Spalte „Tagesgebühr 4,00 €\", während die Stadt Köln für dasselbe Tagesticket heute 5 Euro nennt. Deshalb steht hier kein Betrag.","spaces":268,"maxStayMinutes":null,"maxStay":"4h","maxStayShare":1,"maxStayValues":["4h","2h","9h","14h"],"chargingPoints":0,"carsharing":0},"geometry":{"type":"Polygon","coordinates":[[[7.01506,50.96421],[7.0174,50.96425],[7.01717,50.96387],[7.01429,50.96327],[7.01112,50.96259],[7.01073,50.96252],[7.01045,50.96249],[7.01016,50.9625],[7.00959,50.96259],[7.00922,50.9627],[7.00845,50.96301],[7.00777,50.96324],[7.00725,50.96339],[7.00642,50.96354],[7.00687,50.96434],[7.00679,50.96446],[7.00619,50.96458],[7.00618,50.96466],[7.00643,50.96535],[7.00656,50.96555],[7.00721,50.96669],[7.00908,50.96593],[7.01165,50.96397],[7.01168,50.96397],[7.01483,50.96421],[7.01506,50.96421]]]}},{"type":"Feature","properties":{"zone":"Kalk","district":"Köln","rawHours":"Mo-Sa 09:00 - 18:00 (1×)","rawFee":"","note":"Gebietsseite bei stadt-koeln.de","windows":[{"weekdays":[1,2,3,4,5,6],"fromMinute":540,"toMinute":1080}],"fee":{"kind":"unknown"},"unmodelledRules":[],"sourceDefect":"Die Quelle nennt 0,50 € bzw. 1,00 € je 20 Minuten. Dieser Wert ist veraltet: Die Datei führt eine Spalte „Tagesgebühr 4,00 €\", während die Stadt Köln für dasselbe Tagesticket heute 5 Euro nennt. Deshalb steht hier kein Betrag.","spaces":82,"maxStayMinutes":null,"maxStay":"2h","maxStayShare":1,"maxStayValues":["2h"],"chargingPoints":0,"carsharing":0},"geometry":{"type":"Polygon","coordinates":[[[7.00111,50.93784],[7.00058,50.9378],[7.00054,50.93756],[7.0006,50.93734],[7.00062,50.93734],[7.00065,50.93715],[7.00081,50.9367],[7.00087,50.93659],[7.00095,50.93638],[7.00108,50.93579],[7.00109,50.93579],[7.00115,50.9355],[7.00117,50.93515],[7.00123,50.93489],[7.00122,50.93477],[7.0013,50.93434],[7.00128,50.93415],[7.00088,50.93434],[7.00007,50.93467],[6.99996,50.93474],[6.99953,50.93489],[6.99799,50.93549],[6.99771,50.93563],[6.99554,50.93654],[6.99572,50.93674],[6.99568,50.93739],[6.99519,50.93925],[6.99413,50.94215],[6.99475,50.94226],[6.99498,50.94227],[6.99709,50.94258],[6.99725,50.94255],[6.99739,50.94249],[6.99762,50.94246],[6.99772,50.94247],[6.99847,50.94274],[6.99922,50.94295],[7.0001,50.94322],[7.00132,50.94353],[7.00156,50.94344],[7.00177,50.94084],[7.00119,50.93942],[7.0012,50.9394],[7.00231,50.93919],[7.00278,50.93921],[7.00289,50.93803],[7.00212,50.93791],[7.00111,50.93784]]]}},{"type":"Feature","properties":{"zone":"Deutz III","district":"Köln","rawHours":"Mo-So 09:00 - 23:00 (10×)","rawFee":"","note":"Gebietsseite bei stadt-koeln.de","windows":[{"weekdays":[0,1,2,3,4,5,6],"fromMinute":540,"toMinute":1380}],"fee":{"kind":"unknown"},"unmodelledRules":[],"sourceDefect":"Die Quelle nennt 0,50 € bzw. 1,00 € je 20 Minuten. Dieser Wert ist veraltet: Die Datei führt eine Spalte „Tagesgebühr 4,00 €\", während die Stadt Köln für dasselbe Tagesticket heute 5 Euro nennt. Deshalb steht hier kein Betrag.","spaces":199,"maxStayMinutes":null,"maxStay":"4h","maxStayShare":1,"maxStayValues":["4h","14h"],"chargingPoints":0,"carsharing":0},"geometry":{"type":"Polygon","coordinates":[[[6.98587,50.93665],[6.98639,50.93648],[6.99311,50.93716],[6.99316,50.93716],[6.99345,50.93703],[6.99327,50.93696],[6.99312,50.93688],[6.99295,50.93675],[6.99284,50.93663],[6.99275,50.93645],[6.99263,50.93594],[6.99253,50.93561],[6.99189,50.93571],[6.99174,50.93576],[6.99088,50.93588],[6.98965,50.93588],[6.98911,50.93592],[6.98899,50.93643],[6.98692,50.93622],[6.98682,50.93612],[6.9868,50.93599],[6.98687,50.9355],[6.98688,50.93525],[6.98656,50.93382],[6.98668,50.93359],[6.98665,50.93338],[6.98631,50.93338],[6.98631,50.93335],[6.98616,50.93335],[6.98512,50.93336],[6.98419,50.93317],[6.9834,50.93448],[6.98303,50.93502],[6.98184,50.93652],[6.98161,50.93685],[6.98156,50.93697],[6.98154,50.93706],[6.98155,50.93729],[6.98373,50.93737],[6.98587,50.93665]]]}},{"type":"Feature","properties":{"zone":"Deutz II","district":"Köln","rawHours":"Mo-Sa 09:00 - 21:00 (28×); Mo-So 09:00 - 23:00 (11×)","rawFee":"","note":"Gebietsseite bei stadt-koeln.de","windows":[{"weekdays":[1,2,3,4,5,6],"fromMinute":540,"toMinute":1260},{"weekdays":[0,1,2,3,4,5,6],"fromMinute":540,"toMinute":1380}],"fee":{"kind":"unknown"},"unmodelledRules":[],"sourceDefect":"Die Quelle nennt 0,50 € bzw. 1,00 € je 20 Minuten. Dieser Wert ist veraltet: Die Datei führt eine Spalte „Tagesgebühr 4,00 €\", während die Stadt Köln für dasselbe Tagesticket heute 5 Euro nennt. Deshalb steht hier kein Betrag.","spaces":783,"maxStayMinutes":null,"maxStay":"4h","maxStayShare":1,"maxStayValues":["4h","12h","14h","2h"],"chargingPoints":0,"carsharing":0},"geometry":{"type":"Polygon","coordinates":[[[6.98074,50.93752],[6.98091,50.93743],[6.98123,50.9374],[6.98155,50.93729],[6.98154,50.93706],[6.98156,50.93697],[6.98161,50.93685],[6.98184,50.93652],[6.98303,50.93502],[6.9834,50.93448],[6.98419,50.93317],[6.98372,50.93308],[6.98348,50.93288],[6.98366,50.93249],[6.98358,50.93244],[6.98209,50.93105],[6.98213,50.93047],[6.98205,50.93029],[6.98178,50.93029],[6.98139,50.93027],[6.98032,50.93035],[6.97971,50.93042],[6.97897,50.93057],[6.97816,50.93081],[6.97596,50.9316],[6.97559,50.9317],[6.97515,50.93178],[6.97492,50.93199],[6.97537,50.93217],[6.97576,50.93236],[6.97593,50.93246],[6.97627,50.9327],[6.97668,50.93307],[6.97699,50.93341],[6.97717,50.93367],[6.97737,50.93399],[6.97748,50.93427],[6.9776,50.93471],[6.9778,50.93574],[6.97796,50.9371],[6.97802,50.93799],[6.97807,50.93829],[6.97824,50.93876],[6.9784,50.93902],[6.97901,50.93856],[6.98074,50.93752]]]}},{"type":"Feature","properties":{"zone":"Deutz V","district":"Köln","rawHours":"Mo-Sa 09:00 - 21:00 (9×); Mo-Sa 09:00 - 18:00 (4×); Mo-Sa 09:00 - 23:00 (3×); Mo-Sa 09:00 - 13:00 (3×); Mo-So 09:00 - 23:00 (1×)","rawFee":"","note":"Gebietsseite bei stadt-koeln.de","windows":[{"weekdays":[1,2,3,4,5,6],"fromMinute":540,"toMinute":1260},{"weekdays":[1,2,3,4,5,6],"fromMinute":540,"toMinute":1380},{"weekdays":[1,2,3,4,5,6],"fromMinute":540,"toMinute":780},{"weekdays":[0,1,2,3,4,5,6],"fromMinute":540,"toMinute":1380},{"weekdays":[1,2,3,4,5,6],"fromMinute":540,"toMinute":1080}],"fee":{"kind":"unknown"},"unmodelledRules":[],"sourceDefect":"Die Quelle nennt 0,50 € bzw. 1,00 € je 20 Minuten. Dieser Wert ist veraltet: Die Datei führt eine Spalte „Tagesgebühr 4,00 €\", während die Stadt Köln für dasselbe Tagesticket heute 5 Euro nennt. Deshalb steht hier kein Betrag.","spaces":486,"maxStayMinutes":null,"maxStay":"12h","maxStayShare":1,"maxStayValues":["12h","4h","9h","14h","2h"],"chargingPoints":0,"carsharing":0},"geometry":{"type":"Polygon","coordinates":[[[6.97777,50.92945],[6.97833,50.92905],[6.97854,50.92891],[6.97857,50.92891],[6.97934,50.92829],[6.97938,50.92826],[6.97943,50.92817],[6.97947,50.928],[6.9799,50.928],[6.98019,50.92805],[6.9805,50.92787],[6.97996,50.92783],[6.97941,50.92783],[6.97942,50.92777],[6.9795,50.92763],[6.98007,50.9269],[6.98013,50.92668],[6.98006,50.92651],[6.97955,50.92627],[6.9783,50.92579],[6.97799,50.92568],[6.97715,50.92647],[6.97616,50.92751],[6.97559,50.92801],[6.97494,50.92848],[6.97471,50.9284],[6.97404,50.92876],[6.97358,50.92905],[6.97305,50.92944],[6.97272,50.92975],[6.97253,50.92995],[6.97174,50.93089],[6.97178,50.93093],[6.97178,50.93097],[6.97156,50.93125],[6.97298,50.93144],[6.9736,50.93158],[6.97437,50.93179],[6.97492,50.93199],[6.9752,50.93158],[6.97628,50.93058],[6.97726,50.92976],[6.97744,50.92963],[6.97777,50.92945]]]}},{"type":"Feature","properties":{"zone":"Deutz I","district":"Köln","rawHours":"Mo-Sa 09:00 - 21:00 (57×); Mo-So 09:00 - 23:00 (9×); Mo-Sa 09:00 - 18:00 (2×)","rawFee":"","note":"Gebietsseite bei stadt-koeln.de","windows":[{"weekdays":[1,2,3,4,5,6],"fromMinute":540,"toMinute":1260},{"weekdays":[0,1,2,3,4,5,6],"fromMinute":540,"toMinute":1380},{"weekdays":[1,2,3,4,5,6],"fromMinute":540,"toMinute":1080}],"fee":{"kind":"unknown"},"unmodelledRules":[],"sourceDefect":"Die Quelle nennt 0,50 € bzw. 1,00 € je 20 Minuten. Dieser Wert ist veraltet: Die Datei führt eine Spalte „Tagesgebühr 4,00 €\", während die Stadt Köln für dasselbe Tagesticket heute 5 Euro nennt. Deshalb steht hier kein Betrag.","spaces":1209,"maxStayMinutes":null,"maxStay":"4h","maxStayShare":1,"maxStayValues":["4h","2h","12h","14h","9h"],"chargingPoints":0,"carsharing":0},"geometry":{"type":"Polygon","coordinates":[[[6.97784,50.93615],[6.9778,50.93574],[6.9776,50.93471],[6.97748,50.93427],[6.97737,50.93399],[6.97717,50.93367],[6.97699,50.93341],[6.97668,50.93307],[6.97627,50.9327],[6.97593,50.93246],[6.97557,50.93226],[6.97492,50.93199],[6.97437,50.93179],[6.9736,50.93158],[6.97298,50.93144],[6.97156,50.93125],[6.9712,50.93181],[6.97076,50.9327],[6.97065,50.93348],[6.97057,50.93455],[6.97056,50.93486],[6.97059,50.9352],[6.97064,50.9352],[6.97068,50.93551],[6.97086,50.93609],[6.97102,50.93747],[6.97105,50.93757],[6.97103,50.93756],[6.97107,50.93767],[6.97108,50.93777],[6.97109,50.93807],[6.97114,50.93844],[6.97113,50.93853],[6.97118,50.93868],[6.97125,50.93875],[6.97133,50.93893],[6.97143,50.93909],[6.97157,50.93925],[6.97179,50.93945],[6.97185,50.93952],[6.97199,50.93961],[6.97228,50.93977],[6.97277,50.93994],[6.97352,50.93992],[6.97352,50.93994],[6.97505,50.93991],[6.9761,50.93984],[6.9761,50.93988],[6.97682,50.93983],[6.97755,50.93979],[6.97834,50.93972],[6.9789,50.93963],[6.97863,50.93932],[6.9784,50.93902],[6.97824,50.93876],[6.97807,50.93829],[6.97802,50.93799],[6.97796,50.9371],[6.97784,50.93615]]]}},{"type":"Feature","properties":{"zone":"Nördliche Neustadt","district":"Köln","rawHours":"Mo-Sa 09:00 - 18:00 (34×)","rawFee":"","note":"Kürzel auf dem Automaten: NORD · Gebietsseite bei stadt-koeln.de","windows":[{"weekdays":[1,2,3,4,5,6],"fromMinute":540,"toMinute":1080}],"fee":{"kind":"unknown"},"unmodelledRules":[],"sourceDefect":"Die Quelle nennt 0,50 € bzw. 1,00 € je 20 Minuten. Dieser Wert ist veraltet: Die Datei führt eine Spalte „Tagesgebühr 4,00 €\", während die Stadt Köln für dasselbe Tagesticket heute 5 Euro nennt. Deshalb steht hier kein Betrag.","spaces":798,"maxStayMinutes":null,"maxStay":"9h","maxStayShare":1,"maxStayValues":["9h"],"chargingPoints":0,"carsharing":0},"geometry":{"type":"Polygon","coordinates":[[[6.97103,50.95361],[6.9705,50.95321],[6.96931,50.95225],[6.96824,50.95129],[6.96768,50.95075],[6.96716,50.9502],[6.95887,50.95048],[6.95898,50.95075],[6.95914,50.951],[6.95936,50.95125],[6.9596,50.95145],[6.95981,50.9516],[6.96224,50.95311],[6.96283,50.95344],[6.96365,50.95383],[6.96418,50.95404],[6.96528,50.95445],[6.96635,50.95484],[6.969,50.95583],[6.9705,50.95451],[6.97079,50.95429],[6.97145,50.95391],[6.97103,50.95361]]]}},{"type":"Feature","properties":{"zone":"Agnesviertel II","district":"Köln","rawHours":"Mo-Sa 09:00 - 01:00 (21×); Mo-Sa 09:00 - 21:00 (20×); Mo-Sa 09:00 - 18:00 (5×); Mo-Sa 09:00 - 23:00 (4×); Mo-So 09:00 - 21:00 (3×); + 3 weitere","rawFee":"","note":"Kürzel auf dem Automaten: AGN II · Gebietsseite bei stadt-koeln.de","windows":[{"weekdays":[1,2,3,4,5,6],"fromMinute":540,"toMinute":1260},{"weekdays":[1,2,3,4,5,6],"fromMinute":540,"toMinute":1080},{"weekdays":[1,2,3,4,5,6],"fromMinute":540,"toMinute":1440},{"weekdays":[0,2,3,4,5,6],"fromMinute":0,"toMinute":60},{"weekdays":[1,2,3,4,5,6],"fromMinute":540,"toMinute":1380},{"weekdays":[1,2,3,4,5,6],"fromMinute":540,"toMinute":960},{"weekdays":[0,1,2,3,4,5,6],"fromMinute":540,"toMinute":1260},{"weekdays":[1,2,3,4,5],"fromMinute":540,"toMinute":1080},{"weekdays":[6],"fromMinute":540,"toMinute":780},{"weekdays":[1,2,3,4,5],"fromMinute":480,"toMinute":960}],"fee":{"kind":"unknown"},"unmodelledRules":[],"sourceDefect":"Die Quelle nennt 0,50 € bzw. 1,00 € je 20 Minuten. Dieser Wert ist veraltet: Die Datei führt eine Spalte „Tagesgebühr 4,00 €\", während die Stadt Köln für dasselbe Tagesticket heute 5 Euro nennt. Deshalb steht hier kein Betrag.","spaces":1385,"maxStayMinutes":null,"maxStay":"4h","maxStayShare":1,"maxStayValues":["4h","12h"],"chargingPoints":0,"carsharing":0},"geometry":{"type":"Polygon","coordinates":[[[6.95775,50.95772],[6.95881,50.95716],[6.9588,50.95715],[6.96144,50.95678],[6.9624,50.95675],[6.96243,50.9571],[6.96341,50.95708],[6.96342,50.95728],[6.96364,50.95729],[6.96364,50.95725],[6.96415,50.95724],[6.96677,50.95702],[6.96778,50.95683],[6.96893,50.9558],[6.96635,50.95484],[6.96528,50.95445],[6.96418,50.95404],[6.96365,50.95383],[6.96283,50.95344],[6.96224,50.95311],[6.95981,50.9516],[6.9596,50.95145],[6.95936,50.95125],[6.95914,50.951],[6.95898,50.95075],[6.95887,50.95048],[6.957,50.95044],[6.95723,50.95388],[6.9572,50.95416],[6.95575,50.95713],[6.95775,50.95772]]]}},{"type":"Feature","properties":{"zone":"Severinsviertel","district":"Köln","rawHours":"Mo-Sa 09:00 - 23:00 (54×); Mo-Sa 09:00 - 20:00 (6×); Mo-Sa 09:00 - 18:00 (5×); Mo-Sa 09:00 - 21:00 (3×); Mo-Fr 09:00 - 18:00 + Sa 09:00 - 13:00 (2×); + 3 weitere","rawFee":"","note":"Kürzel auf dem Automaten: SEV · Gebietsseite bei stadt-koeln.de","windows":[{"weekdays":[1,2,3,4,5,6],"fromMinute":540,"toMinute":1380},{"weekdays":[1,2,3,4,5,6],"fromMinute":540,"toMinute":1200},{"weekdays":[1,2,3,4,5,6],"fromMinute":540,"toMinute":1080},{"weekdays":[1,2,3,4,5],"fromMinute":540,"toMinute":1080},{"weekdays":[6],"fromMinute":540,"toMinute":780},{"weekdays":[1,2,3,4,5,6],"fromMinute":540,"toMinute":1440},{"weekdays":[0,2,3,4,5,6],"fromMinute":0,"toMinute":60},{"weekdays":[1,2,3,4,5],"fromMinute":540,"toMinute":960},{"weekdays":[1,2,3,4,5,6],"fromMinute":540,"toMinute":1260},{"weekdays":[1,2,3,4,5],"fromMinute":660,"toMinute":1260},{"weekdays":[6],"fromMinute":600,"toMinute":900}],"fee":{"kind":"unknown"},"unmodelledRules":[],"sourceDefect":"Die Quelle nennt 0,50 € bzw. 1,00 € je 20 Minuten. Dieser Wert ist veraltet: Die Datei führt eine Spalte „Tagesgebühr 4,00 €\", während die Stadt Köln für dasselbe Tagesticket heute 5 Euro nennt. Deshalb steht hier kein Betrag.","spaces":1453,"maxStayMinutes":null,"maxStay":"4h","maxStayShare":1,"maxStayValues":["4h","14h","2h","9h","7h"],"chargingPoints":0,"carsharing":0},"geometry":{"type":"Polygon","coordinates":[[[6.95554,50.92734],[6.9557,50.92754],[6.9558,50.92769],[6.95593,50.928],[6.95596,50.92815],[6.95598,50.92832],[6.95595,50.92857],[6.95588,50.92881],[6.9558,50.92897],[6.95676,50.92908],[6.95863,50.92954],[6.95952,50.9297],[6.96073,50.92989],[6.96297,50.93018],[6.96301,50.92952],[6.96301,50.92931],[6.96307,50.92892],[6.96317,50.92853],[6.96323,50.92833],[6.96349,50.92776],[6.96384,50.92721],[6.96412,50.92685],[6.96444,50.92651],[6.96479,50.92618],[6.96546,50.92548],[6.9661,50.92476],[6.96624,50.92456],[6.9665,50.92415],[6.96672,50.92372],[6.96681,50.92351],[6.96696,50.92308],[6.96713,50.92242],[6.9634,50.92173],[6.95944,50.92104],[6.95917,50.92107],[6.95891,50.92115],[6.95729,50.92183],[6.9565,50.92213],[6.95329,50.92359],[6.95247,50.92398],[6.95254,50.92412],[6.95282,50.92453],[6.95383,50.92584],[6.95554,50.92734]]]}},{"type":"Feature","properties":{"zone":"Südliche Neustadt II","district":"Köln","rawHours":"Mo-Sa 09:00 - 23:00 (75×); Mo-Sa 09:00 - 18:00 (6×); Mo-Sa 11:00 - 23:00 (6×)","rawFee":"","note":"Kürzel auf dem Automaten: SÜD II · Gebietsseite bei stadt-koeln.de","windows":[{"weekdays":[1,2,3,4,5,6],"fromMinute":540,"toMinute":1080},{"weekdays":[1,2,3,4,5,6],"fromMinute":540,"toMinute":1380},{"weekdays":[1,2,3,4,5,6],"fromMinute":660,"toMinute":1380}],"fee":{"kind":"unknown"},"unmodelledRules":[],"sourceDefect":"Die Quelle nennt 0,50 € bzw. 1,00 € je 20 Minuten. Dieser Wert ist veraltet: Die Datei führt eine Spalte „Tagesgebühr 4,00 €\", während die Stadt Köln für dasselbe Tagesticket heute 5 Euro nennt. Deshalb steht hier kein Betrag.","spaces":2058,"maxStayMinutes":null,"maxStay":"4h","maxStayShare":1,"maxStayValues":["4h","14h","9h"],"chargingPoints":0,"carsharing":0},"geometry":{"type":"Polygon","coordinates":[[[6.95665,50.91619],[6.95365,50.91654],[6.95296,50.91666],[6.95229,50.9168],[6.95163,50.91697],[6.95099,50.91718],[6.94983,50.91761],[6.94915,50.9179],[6.94941,50.91836],[6.94928,50.91841],[6.95083,50.92098],[6.95106,50.92111],[6.95188,50.92251],[6.95197,50.92269],[6.95235,50.92374],[6.95247,50.92398],[6.95329,50.92359],[6.9565,50.92213],[6.95729,50.92183],[6.95891,50.92115],[6.95917,50.92107],[6.95944,50.92104],[6.9634,50.92173],[6.96713,50.92242],[6.96866,50.91928],[6.97013,50.91659],[6.96936,50.91639],[6.9693,50.9164],[6.96862,50.91626],[6.96862,50.91625],[6.96756,50.916],[6.96755,50.91601],[6.96681,50.91587],[6.9663,50.91575],[6.96598,50.91566],[6.96559,50.91564],[6.96558,50.91566],[6.96495,50.91557],[6.96395,50.91548],[6.96324,50.91548],[6.96305,50.9155],[6.96277,50.91549],[6.96252,50.91553],[6.96217,50.91555],[6.96218,50.91556],[6.95665,50.91619]]]}},{"type":"Feature","properties":{"zone":"Georgsviertel","district":"Köln","rawHours":"Mo-Sa 09:00 - 23:00 (42×); Mo-Sa 09:00 - 18:00 (3×); Mo-Fr 09:00 - 21:00 + Sa 10:00 - 15:00 (1×); Mo-Sa 09:00 - 20:00 (1×); Mo-Sa 09:00 - 01:00 (1×)","rawFee":"","note":"Kürzel auf dem Automaten: GEO · Gebietsseite bei stadt-koeln.de","windows":[{"weekdays":[1,2,3,4,5,6],"fromMinute":540,"toMinute":1080},{"weekdays":[1,2,3,4,5,6],"fromMinute":540,"toMinute":1380},{"weekdays":[1,2,3,4,5],"fromMinute":540,"toMinute":1260},{"weekdays":[6],"fromMinute":600,"toMinute":900},{"weekdays":[1,2,3,4,5,6],"fromMinute":540,"toMinute":1200},{"weekdays":[1,2,3,4,5,6],"fromMinute":540,"toMinute":1440},{"weekdays":[0,2,3,4,5,6],"fromMinute":0,"toMinute":60}],"fee":{"kind":"unknown"},"unmodelledRules":[],"sourceDefect":"Die Quelle nennt 0,50 € bzw. 1,00 € je 20 Minuten. Dieser Wert ist veraltet: Die Datei führt eine Spalte „Tagesgebühr 4,00 €\", während die Stadt Köln für dasselbe Tagesticket heute 5 Euro nennt. Deshalb steht hier kein Betrag.","spaces":689,"maxStayMinutes":null,"maxStay":"4h","maxStayShare":1,"maxStayValues":["4h","14h"],"chargingPoints":0,"carsharing":0},"geometry":{"type":"Polygon","coordinates":[[[6.95379,50.93508],[6.95441,50.93501],[6.95475,50.93499],[6.95553,50.93502],[6.95676,50.93518],[6.95814,50.93529],[6.95813,50.93536],[6.9591,50.93561],[6.96018,50.93571],[6.96068,50.93497],[6.96341,50.93501],[6.96343,50.93465],[6.96343,50.93392],[6.96338,50.93312],[6.96333,50.93272],[6.96303,50.9321],[6.96298,50.93145],[6.96299,50.93081],[6.96297,50.93018],[6.96073,50.92989],[6.95952,50.9297],[6.95863,50.92954],[6.95676,50.92908],[6.9558,50.92897],[6.95406,50.9318],[6.95367,50.93255],[6.9535,50.93296],[6.95337,50.93331],[6.95326,50.93383],[6.95321,50.93415],[6.95313,50.93519],[6.95379,50.93508]]]}},{"type":"Feature","properties":{"zone":"City-Martinsviertel","district":"Köln","rawHours":"Mo-Sa 09:00 - 23:00 (68×); Mo-Fr 09:00 - 21:00 + Sa 09:00 - 13:00 (9×); Mo-Sa 09:00 - 18:00 (4×); Mo-Sa 09:00 - 13:00 (3×); Mo-So 09:00 - 18:00 (2×); + 6 weitere","rawFee":"","note":"Kürzel auf dem Automaten: CITY · Gebietsseite bei stadt-koeln.de","windows":[{"weekdays":[1,2,3,4,5,6],"fromMinute":540,"toMinute":1380},{"weekdays":[1,2,3,4,5,6],"fromMinute":540,"toMinute":1080},{"weekdays":[0,1,2,3,4,5,6],"fromMinute":540,"toMinute":1080},{"weekdays":[1,2,3,4,5,6],"fromMinute":540,"toMinute":1260},{"weekdays":[1,2,3,4,5,6],"fromMinute":540,"toMinute":1440},{"weekdays":[0,2,3,4,5,6],"fromMinute":0,"toMinute":60},{"weekdays":[1,2,3,4,5],"fromMinute":660,"toMinute":1260},{"weekdays":[6],"fromMinute":600,"toMinute":900},{"weekdays":[1,2,3,4,5],"fromMinute":540,"toMinute":1080},{"weekdays":[6],"fromMinute":540,"toMinute":780},{"weekdays":[1,2,3,4,5,6],"fromMinute":540,"toMinute":780},{"weekdays":[1,2,3,4,5],"fromMinute":540,"toMinute":1020},{"weekdays":[1,2,3,4,5,6],"fromMinute":540,"toMinute":1200},{"weekdays":[1,2,3,4,5],"fromMinute":540,"toMinute":1260}],"fee":{"kind":"unknown"},"unmodelledRules":[],"sourceDefect":"Die Quelle nennt 0,50 € bzw. 1,00 € je 20 Minuten. Dieser Wert ist veraltet: Die Datei führt eine Spalte „Tagesgebühr 4,00 €\", während die Stadt Köln für dasselbe Tagesticket heute 5 Euro nennt. Deshalb steht hier kein Betrag.","spaces":2043,"maxStayMinutes":null,"maxStay":"4h","maxStayShare":1,"maxStayValues":["4h","14h","12h","9h","10h","2h"],"chargingPoints":0,"carsharing":0},"geometry":{"type":"Polygon","coordinates":[[[6.95676,50.93518],[6.95553,50.93502],[6.95475,50.93499],[6.95405,50.93504],[6.95313,50.93519],[6.95312,50.93537],[6.95301,50.9356],[6.95286,50.93585],[6.95273,50.93616],[6.95269,50.93644],[6.95268,50.93684],[6.95279,50.93735],[6.95325,50.93878],[6.95329,50.93901],[6.95329,50.9393],[6.95304,50.94081],[6.95288,50.94126],[6.95283,50.94149],[6.95605,50.94174],[6.95888,50.94184],[6.95925,50.94175],[6.95956,50.9416],[6.95982,50.94141],[6.95995,50.94127],[6.96001,50.94118],[6.96061,50.94122],[6.96294,50.94121],[6.96294,50.94029],[6.96299,50.93947],[6.96305,50.93879],[6.96312,50.93819],[6.9632,50.93812],[6.96335,50.93711],[6.96341,50.93501],[6.96068,50.93497],[6.96018,50.93571],[6.9591,50.93561],[6.95813,50.93536],[6.95814,50.93529],[6.95676,50.93518]]]}},{"type":"Feature","properties":{"zone":"Kunibertsviertel","district":"Köln","rawHours":"Mo-Sa 09:00 - 23:00 (46×); Mo-Sa 09:00 - 18:00 (5×); Mo-Fr 09:00 - 21:00 + Sa 10:00 - 15:00 (1×)","rawFee":"","note":"Kürzel auf dem Automaten: KUN · Gebietsseite bei stadt-koeln.de","windows":[{"weekdays":[1,2,3,4,5,6],"fromMinute":540,"toMinute":1380},{"weekdays":[1,2,3,4,5],"fromMinute":540,"toMinute":1260},{"weekdays":[6],"fromMinute":600,"toMinute":900},{"weekdays":[1,2,3,4,5,6],"fromMinute":540,"toMinute":1080}],"fee":{"kind":"unknown"},"unmodelledRules":[],"sourceDefect":"Die Quelle nennt 0,50 € bzw. 1,00 € je 20 Minuten. Dieser Wert ist veraltet: Die Datei führt eine Spalte „Tagesgebühr 4,00 €\", während die Stadt Köln für dasselbe Tagesticket heute 5 Euro nennt. Deshalb steht hier kein Betrag.","spaces":1059,"maxStayMinutes":null,"maxStay":"4h","maxStayShare":1,"maxStayValues":["4h","9h"],"chargingPoints":0,"carsharing":0},"geometry":{"type":"Polygon","coordinates":[[[6.96699,50.95021],[6.96716,50.9502],[6.96678,50.94979],[6.96612,50.94901],[6.96546,50.94811],[6.96515,50.94766],[6.96474,50.94699],[6.96435,50.94632],[6.96401,50.94566],[6.96363,50.94483],[6.96342,50.94423],[6.96328,50.94378],[6.96312,50.94306],[6.96265,50.94302],[6.9605,50.94353],[6.96024,50.94363],[6.95988,50.94381],[6.95895,50.94422],[6.95866,50.94437],[6.95832,50.94465],[6.95759,50.94556],[6.9574,50.9461],[6.95753,50.94636],[6.95759,50.94666],[6.95887,50.95048],[6.96699,50.95021]]]}},{"type":"Feature","properties":{"zone":"Nippes III","district":"Köln","rawHours":"Mo-Fr 09:00 - 21:00 + Sa 10:00 - 15:00 (19×); Mo-Sa 09:00 - 18:00 (4×)","rawFee":"","note":"Gebietsseite bei stadt-koeln.de","windows":[{"weekdays":[1,2,3,4,5,6],"fromMinute":540,"toMinute":1080},{"weekdays":[1,2,3,4,5],"fromMinute":540,"toMinute":1260},{"weekdays":[6],"fromMinute":600,"toMinute":900}],"fee":{"kind":"unknown"},"unmodelledRules":[],"sourceDefect":"Die Quelle nennt 0,50 € bzw. 1,00 € je 20 Minuten. Dieser Wert ist veraltet: Die Datei führt eine Spalte „Tagesgebühr 4,00 €\", während die Stadt Köln für dasselbe Tagesticket heute 5 Euro nennt. Deshalb steht hier kein Betrag.","spaces":248,"maxStayMinutes":null,"maxStay":"4h","maxStayShare":1,"maxStayValues":["4h","12h"],"chargingPoints":0,"carsharing":0},"geometry":{"type":"Polygon","coordinates":[[[6.95249,50.97245],[6.95297,50.97247],[6.95323,50.97246],[6.95361,50.97243],[6.95404,50.97236],[6.95484,50.97219],[6.95574,50.97193],[6.95609,50.97185],[6.95648,50.97178],[6.95692,50.97172],[6.95774,50.97165],[6.95948,50.97158],[6.95918,50.96971],[6.95896,50.96816],[6.95888,50.96755],[6.95877,50.9663],[6.95853,50.96638],[6.95332,50.96669],[6.95277,50.96892],[6.95264,50.96934],[6.95244,50.96983],[6.95137,50.97234],[6.95249,50.97245]]]}},{"type":"Feature","properties":{"zone":"Nippes IV","district":"Köln","rawHours":"Mo-Fr 09:00 - 21:00 + Sa 10:00 - 15:00 (10×); Mo-Sa 09:00 - 18:00 (7×); Mo-Fr 09:00 - 18:00 + Sa 09:00 - 14:00 (2×); Mo-Sa 09:00 - 21:00 (2×); Mo-Fr 09:00 - 19:00 + Sa 09:00 - 16:00 (2×); + 1 weitere","rawFee":"","note":"Gebietsseite bei stadt-koeln.de","windows":[{"weekdays":[1,2,3,4,5],"fromMinute":540,"toMinute":1080},{"weekdays":[6],"fromMinute":540,"toMinute":840},{"weekdays":[1,2,3,4,5,6],"fromMinute":540,"toMinute":1260},{"weekdays":[1,2,3,4,5],"fromMinute":540,"toMinute":1140},{"weekdays":[6],"fromMinute":540,"toMinute":960},{"weekdays":[1,2,3,4,5,6],"fromMinute":540,"toMinute":1080},{"weekdays":[1,2,3,4,5],"fromMinute":660,"toMinute":1260},{"weekdays":[6],"fromMinute":600,"toMinute":900},{"weekdays":[1,2,3,4,5],"fromMinute":540,"toMinute":1260}],"fee":{"kind":"unknown"},"unmodelledRules":[],"sourceDefect":"Die Quelle nennt 0,50 € bzw. 1,00 € je 20 Minuten. Dieser Wert ist veraltet: Die Datei führt eine Spalte „Tagesgebühr 4,00 €\", während die Stadt Köln für dasselbe Tagesticket heute 5 Euro nennt. Deshalb steht hier kein Betrag.","spaces":452,"maxStayMinutes":null,"maxStay":"4h","maxStayShare":1,"maxStayValues":["4h","12h","10h","2h","9h"],"chargingPoints":0,"carsharing":0},"geometry":{"type":"Polygon","coordinates":[[[6.95121,50.97261],[6.95013,50.97521],[6.95051,50.97518],[6.95135,50.97501],[6.95367,50.97442],[6.95457,50.97426],[6.95528,50.97419],[6.95615,50.97415],[6.95977,50.97422],[6.95948,50.97158],[6.95774,50.97165],[6.95692,50.97172],[6.95648,50.97178],[6.95574,50.97193],[6.95484,50.97219],[6.95437,50.9723],[6.95382,50.9724],[6.95343,50.97245],[6.95297,50.97247],[6.95249,50.97245],[6.95137,50.97234],[6.95121,50.97261]]]}},{"type":"Feature","properties":{"zone":"Nippes I","district":"Köln","rawHours":"Mo-Fr 09:00 - 21:00 + Sa 10:00 - 15:00 (18×); Mo-Sa 09:00 - 23:00 (3×); Mo-Sa 09:00 - 18:00 (3×)","rawFee":"","note":"Gebietsseite bei stadt-koeln.de","windows":[{"weekdays":[1,2,3,4,5],"fromMinute":540,"toMinute":1260},{"weekdays":[6],"fromMinute":600,"toMinute":900},{"weekdays":[1,2,3,4,5,6],"fromMinute":540,"toMinute":1380},{"weekdays":[1,2,3,4,5,6],"fromMinute":540,"toMinute":1080}],"fee":{"kind":"unknown"},"unmodelledRules":[],"sourceDefect":"Die Quelle nennt 0,50 € bzw. 1,00 € je 20 Minuten. Dieser Wert ist veraltet: Die Datei führt eine Spalte „Tagesgebühr 4,00 €\", während die Stadt Köln für dasselbe Tagesticket heute 5 Euro nennt. Deshalb steht hier kein Betrag.","spaces":296,"maxStayMinutes":null,"maxStay":"12h","maxStayShare":1,"maxStayValues":["12h","4h","10h"],"chargingPoints":0,"carsharing":0},"geometry":{"type":"Polygon","coordinates":[[[6.94381,50.96805],[6.94374,50.96817],[6.94359,50.96859],[6.94356,50.96863],[6.9435,50.96889],[6.9435,50.96915],[6.94355,50.96939],[6.9436,50.96953],[6.94375,50.96988],[6.94388,50.97009],[6.94402,50.97027],[6.9443,50.97054],[6.94426,50.97056],[6.94451,50.97078],[6.94493,50.97104],[6.94523,50.97118],[6.9457,50.97135],[6.94597,50.97143],[6.94652,50.97172],[6.94705,50.9718],[6.94897,50.97199],[6.95084,50.97223],[6.95085,50.97219],[6.9514,50.97226],[6.95244,50.96983],[6.95264,50.96934],[6.95277,50.96892],[6.95332,50.96669],[6.95239,50.96662],[6.95173,50.96654],[6.95119,50.96646],[6.95104,50.96639],[6.95111,50.96618],[6.94876,50.9659],[6.94776,50.96586],[6.9475,50.96588],[6.94632,50.96585],[6.94625,50.96578],[6.94403,50.96737],[6.94444,50.9674],[6.9441,50.96768],[6.9439,50.9679],[6.94381,50.96805]]]}},{"type":"Feature","properties":{"zone":"Gereonsviertel","district":"Köln","rawHours":"Mo-Sa 09:00 - 23:00 (50×); Mo-Sa 09:00 - 18:00 (2×); Mo-Sa 11:00 - 23:00 (1×); Mo-Sa 09:00 - 01:00 (1×); Mo-Sa 09:00 - 21:00 (1×); + 1 weitere","rawFee":"","note":"Kürzel auf dem Automaten: GER · Gebietsseite bei stadt-koeln.de","windows":[{"weekdays":[1,2,3,4,5,6],"fromMinute":540,"toMinute":1380},{"weekdays":[1,2,3,4,5,6],"fromMinute":660,"toMinute":1380},{"weekdays":[1,2,3,4,5,6],"fromMinute":540,"toMinute":1080},{"weekdays":[1,2,3,4,5,6],"fromMinute":540,"toMinute":1440},{"weekdays":[0,2,3,4,5,6],"fromMinute":0,"toMinute":60},{"weekdays":[1,2,3,4,5,6],"fromMinute":540,"toMinute":1260},{"weekdays":[0,1,2,3,4,5,6],"fromMinute":540,"toMinute":1380}],"fee":{"kind":"unknown"},"unmodelledRules":[],"sourceDefect":"Die Quelle nennt 0,50 € bzw. 1,00 € je 20 Minuten. Dieser Wert ist veraltet: Die Datei führt eine Spalte „Tagesgebühr 4,00 €\", während die Stadt Köln für dasselbe Tagesticket heute 5 Euro nennt. Deshalb steht hier kein Betrag.","spaces":838,"maxStayMinutes":null,"maxStay":"4h","maxStayShare":1,"maxStayValues":["4h","12h","14h"],"chargingPoints":0,"carsharing":0},"geometry":{"type":"Polygon","coordinates":[[[6.96294,50.94144],[6.96294,50.9412],[6.96061,50.94122],[6.96001,50.94118],[6.95995,50.94127],[6.95982,50.94141],[6.95956,50.9416],[6.95925,50.94175],[6.95888,50.94184],[6.95605,50.94174],[6.95283,50.94149],[6.95248,50.94145],[6.9509,50.94137],[6.94776,50.94107],[6.94702,50.94106],[6.94674,50.94107],[6.94643,50.94104],[6.94603,50.9409],[6.94522,50.94048],[6.9448,50.9403],[6.94453,50.94022],[6.94385,50.94008],[6.94356,50.94004],[6.94324,50.94002],[6.94281,50.94001],[6.94223,50.94007],[6.94182,50.94016],[6.94116,50.94033],[6.9408,50.94044],[6.94054,50.94049],[6.93997,50.94055],[6.9402,50.94162],[6.94043,50.94246],[6.94033,50.94294],[6.94044,50.94311],[6.94213,50.94485],[6.94246,50.94517],[6.94264,50.94528],[6.94275,50.94532],[6.94312,50.94535],[6.94347,50.94543],[6.94582,50.94649],[6.94677,50.94567],[6.94708,50.9456],[6.94768,50.94549],[6.94826,50.94541],[6.95062,50.94523],[6.95136,50.94516],[6.95246,50.94501],[6.95335,50.94485],[6.95391,50.9448],[6.9545,50.94481],[6.95516,50.94488],[6.9558,50.94503],[6.95611,50.94513],[6.95651,50.94532],[6.95684,50.9455],[6.95714,50.94576],[6.95725,50.94588],[6.9574,50.9461],[6.95759,50.94556],[6.95832,50.94465],[6.95866,50.94437],[6.95895,50.94422],[6.9605,50.94353],[6.96265,50.94302],[6.96312,50.94306],[6.96306,50.94275],[6.96299,50.94221],[6.96294,50.94144]]]}},{"type":"Feature","properties":{"zone":"Eigelstein","district":"Köln","rawHours":"Mo-Sa 09:00 - 23:00 (46×); Mo-Sa 09:00 - 21:00 (6×); Mo-Sa 09:00 - 01:00 (4×); Mo-Fr 09:00 - 21:00 + Sa 10:00 - 15:00 (2×); Mo-Sa 09:00 - 18:00 (1×); + 1 weitere","rawFee":"","note":"Kürzel auf dem Automaten: EIGEL · Gebietsseite bei stadt-koeln.de","windows":[{"weekdays":[1,2,3,4,5,6],"fromMinute":540,"toMinute":1380},{"weekdays":[1,2,3,4,5],"fromMinute":540,"toMinute":1260},{"weekdays":[6],"fromMinute":600,"toMinute":900},{"weekdays":[1,2,3,4,5,6],"fromMinute":540,"toMinute":1080},{"weekdays":[1,2,3,4,5,6],"fromMinute":540,"toMinute":1440},{"weekdays":[0,2,3,4,5,6],"fromMinute":0,"toMinute":60},{"weekdays":[1,2,3,4,5,6],"fromMinute":540,"toMinute":1260},{"weekdays":[1,2,3,4,5,6],"fromMinute":720,"toMinute":1380}],"fee":{"kind":"unknown"},"unmodelledRules":[],"sourceDefect":"Die Quelle nennt 0,50 € bzw. 1,00 € je 20 Minuten. Dieser Wert ist veraltet: Die Datei führt eine Spalte „Tagesgebühr 4,00 €\", während die Stadt Köln für dasselbe Tagesticket heute 5 Euro nennt. Deshalb steht hier kein Betrag.","spaces":1137,"maxStayMinutes":null,"maxStay":"4h","maxStayShare":1,"maxStayValues":["4h","14h","9h"],"chargingPoints":0,"carsharing":0},"geometry":{"type":"Polygon","coordinates":[[[6.95109,50.94958],[6.9517,50.94926],[6.95195,50.94909],[6.95205,50.94901],[6.95267,50.94923],[6.95287,50.949],[6.9549,50.94968],[6.95465,50.95],[6.95597,50.95042],[6.95887,50.95048],[6.95759,50.94666],[6.95753,50.94636],[6.9574,50.9461],[6.95725,50.94588],[6.95714,50.94576],[6.95684,50.9455],[6.95651,50.94532],[6.95611,50.94513],[6.9558,50.94503],[6.95549,50.94495],[6.95516,50.94488],[6.9545,50.94481],[6.9542,50.9448],[6.95361,50.94482],[6.95321,50.94487],[6.9521,50.94507],[6.95136,50.94516],[6.95062,50.94523],[6.94826,50.94541],[6.94762,50.9455],[6.94695,50.94563],[6.94677,50.94567],[6.94582,50.94649],[6.94503,50.94729],[6.94515,50.94728],[6.94536,50.94736],[6.94536,50.94739],[6.94551,50.94744],[6.94554,50.94743],[6.95109,50.94958]]]}},{"type":"Feature","properties":{"zone":"Nippes","district":"Köln","rawHours":"Mo-Fr 11:00 - 21:00 + Sa 10:00 - 15:00 (47×); Mo-Fr 09:00 - 21:00 + Sa 10:00 - 15:00 (32×); Mo-Sa 09:00 - 18:00 (18×); Mo-Fr 08:00 - 21:00 + Sa 08:00 - 15:00 (8×); Mo-Sa 09:00 - 23:00 (3×); + 3 weitere","rawFee":"","note":"Gebietsseite bei stadt-koeln.de","windows":[{"weekdays":[1,2,3,4,5],"fromMinute":540,"toMinute":1260},{"weekdays":[6],"fromMinute":600,"toMinute":900},{"weekdays":[1,2,3,4,5,6],"fromMinute":540,"toMinute":1380},{"weekdays":[1,2,3,4,5,6],"fromMinute":540,"toMinute":1260},{"weekdays":[1,2,3,4,5,6],"fromMinute":540,"toMinute":1080},{"weekdays":[1,2,3,4,5],"fromMinute":540,"toMinute":1080},{"weekdays":[6],"fromMinute":540,"toMinute":780},{"weekdays":[1,2,3,4,5],"fromMinute":540,"toMinute":1380},{"weekdays":[1,2,3,4,5],"fromMinute":480,"toMinute":1260},{"weekdays":[6],"fromMinute":480,"toMinute":900},{"weekdays":[1,2,3,4,5],"fromMinute":660,"toMinute":1260}],"fee":{"kind":"unknown"},"unmodelledRules":[],"sourceDefect":"Die Quelle nennt 0,50 € bzw. 1,00 € je 20 Minuten. Dieser Wert ist veraltet: Die Datei führt eine Spalte „Tagesgebühr 4,00 €\", während die Stadt Köln für dasselbe Tagesticket heute 5 Euro nennt. Deshalb steht hier kein Betrag.","spaces":1499,"maxStayMinutes":null,"maxStay":"4h","maxStayShare":1,"maxStayValues":["4h","10h","14h"],"chargingPoints":0,"carsharing":0},"geometry":{"type":"Polygon","coordinates":[[[6.95651,50.9665],[6.95853,50.96638],[6.95877,50.9663],[6.95855,50.96401],[6.95854,50.96358],[6.95856,50.96276],[6.95854,50.96225],[6.95846,50.96189],[6.95825,50.96115],[6.95814,50.96054],[6.95802,50.95999],[6.9579,50.95894],[6.95041,50.95893],[6.95039,50.95891],[6.95048,50.95857],[6.95049,50.95847],[6.95001,50.95842],[6.9489,50.96196],[6.94872,50.96215],[6.94845,50.96211],[6.9483,50.96214],[6.9467,50.96198],[6.94666,50.96229],[6.94652,50.96287],[6.94618,50.96523],[6.94596,50.96539],[6.94628,50.96557],[6.94625,50.96578],[6.94632,50.96585],[6.9475,50.96588],[6.94776,50.96586],[6.94876,50.9659],[6.95111,50.96618],[6.95104,50.96639],[6.95119,50.96646],[6.95173,50.96654],[6.95239,50.96662],[6.95313,50.96668],[6.9535,50.96669],[6.95651,50.9665]]]}},{"type":"Feature","properties":{"zone":"Agnesviertel I","district":"Köln","rawHours":"Mo-Sa 09:00 - 01:00 (37×); Mo-Sa 09:00 - 21:00 (5×); Mo-So 09:00 - 21:00 (1×); Mo-Fr 09:00 - 21:00 + Sa 10:00 - 15:00 (1×); Mo-Sa 09:00 - 23:00 (1×)","rawFee":"","note":"Kürzel auf dem Automaten: AGN I · Gebietsseite bei stadt-koeln.de","windows":[{"weekdays":[1,2,3,4,5,6],"fromMinute":540,"toMinute":1260},{"weekdays":[1,2,3,4,5,6],"fromMinute":540,"toMinute":1440},{"weekdays":[0,2,3,4,5,6],"fromMinute":0,"toMinute":60},{"weekdays":[0,1,2,3,4,5,6],"fromMinute":540,"toMinute":1260},{"weekdays":[1,2,3,4,5],"fromMinute":540,"toMinute":1260},{"weekdays":[6],"fromMinute":600,"toMinute":900},{"weekdays":[1,2,3,4,5,6],"fromMinute":540,"toMinute":1380}],"fee":{"kind":"unknown"},"unmodelledRules":[],"sourceDefect":"Die Quelle nennt 0,50 € bzw. 1,00 € je 20 Minuten. Dieser Wert ist veraltet: Die Datei führt eine Spalte „Tagesgebühr 4,00 €\", während die Stadt Köln für dasselbe Tagesticket heute 5 Euro nennt. Deshalb steht hier kein Betrag.","spaces":1361,"maxStayMinutes":null,"maxStay":"4h","maxStayShare":1,"maxStayValues":["4h","16h","10h"],"chargingPoints":0,"carsharing":0},"geometry":{"type":"Polygon","coordinates":[[[6.94817,50.9549],[6.94991,50.9556],[6.95575,50.95713],[6.9572,50.95416],[6.95723,50.95388],[6.957,50.95044],[6.95597,50.95042],[6.95465,50.95],[6.9549,50.94968],[6.95287,50.949],[6.95229,50.94968],[6.95197,50.95024],[6.95177,50.95066],[6.95178,50.95066],[6.95165,50.95107],[6.95151,50.95165],[6.95145,50.95177],[6.95137,50.95188],[6.95135,50.95188],[6.95107,50.95248],[6.95075,50.95294],[6.95053,50.95321],[6.95026,50.95348],[6.95003,50.95369],[6.94965,50.95398],[6.94918,50.95428],[6.94893,50.95441],[6.9484,50.95467],[6.94801,50.95482],[6.94817,50.9549]]]}},{"type":"Feature","properties":{"zone":"Pantaleonsviertel","district":"Köln","rawHours":"Mo-Sa 09:00 - 23:00 (49×); Mo-Sa 09:00 - 18:00 (3×); Mo-Fr 09:00 - 21:00 + Sa 10:00 - 15:00 (1×)","rawFee":"","note":"Kürzel auf dem Automaten: PAN · Gebietsseite bei stadt-koeln.de","windows":[{"weekdays":[1,2,3,4,5,6],"fromMinute":540,"toMinute":1380},{"weekdays":[1,2,3,4,5,6],"fromMinute":540,"toMinute":1080},{"weekdays":[1,2,3,4,5],"fromMinute":540,"toMinute":1260},{"weekdays":[6],"fromMinute":600,"toMinute":900}],"fee":{"kind":"unknown"},"unmodelledRules":[],"sourceDefect":"Die Quelle nennt 0,50 € bzw. 1,00 € je 20 Minuten. Dieser Wert ist veraltet: Die Datei führt eine Spalte „Tagesgebühr 4,00 €\", während die Stadt Köln für dasselbe Tagesticket heute 5 Euro nennt. Deshalb steht hier kein Betrag.","spaces":779,"maxStayMinutes":null,"maxStay":"4h","maxStayShare":1,"maxStayValues":["4h","9h","2h","10h"],"chargingPoints":0,"carsharing":0},"geometry":{"type":"Polygon","coordinates":[[[6.95415,50.93165],[6.9558,50.92897],[6.95588,50.92881],[6.95595,50.92857],[6.95598,50.92832],[6.95595,50.92807],[6.95587,50.92784],[6.9558,50.92769],[6.9557,50.92754],[6.95559,50.92739],[6.95383,50.92584],[6.95282,50.92453],[6.95254,50.92412],[6.95247,50.92398],[6.94744,50.92603],[6.94674,50.92629],[6.94607,50.92656],[6.94542,50.92686],[6.94479,50.92718],[6.94418,50.92752],[6.94329,50.92807],[6.94271,50.92858],[6.94234,50.92871],[6.94165,50.92913],[6.94143,50.92922],[6.9422,50.92957],[6.94253,50.92969],[6.94275,50.92973],[6.943,50.92974],[6.9443,50.92957],[6.94481,50.92974],[6.94526,50.92987],[6.94575,50.92999],[6.9461,50.93006],[6.94664,50.93015],[6.94947,50.93042],[6.95071,50.93063],[6.95122,50.93069],[6.95193,50.93081],[6.95255,50.931],[6.95295,50.93118],[6.95409,50.93175],[6.95415,50.93165]]]}},{"type":"Feature","properties":{"zone":"Südliche Neustadt I","district":"Köln","rawHours":"Mo-Sa 09:00 - 23:00 (62×); Mo-Sa 09:00 - 18:00 (8×); Mo-Fr 08:00 - 19:00 + Sa 08:00 - 14:00 (4×); Mo-Fr 09:00 - 18:00 + Sa 09:00 - 14:00 (3×); Mo-Fr 11:00 - 21:00 + Sa 10:00 - 15:00 (1×); + 4 weitere","rawFee":"","note":"Kürzel auf dem Automaten: SÜD I · Gebietsseite bei stadt-koeln.de","windows":[{"weekdays":[1,2,3,4,5,6],"fromMinute":540,"toMinute":1380},{"weekdays":[1,2,3,4,5],"fromMinute":660,"toMinute":1260},{"weekdays":[6],"fromMinute":600,"toMinute":900},{"weekdays":[1,2,3,4,5,6],"fromMinute":540,"toMinute":1080},{"weekdays":[1,2,3,4,5],"fromMinute":480,"toMinute":1140},{"weekdays":[6],"fromMinute":480,"toMinute":840},{"weekdays":[1,2,3,4,5],"fromMinute":540,"toMinute":1260},{"weekdays":[1,2,3,4,5],"fromMinute":480,"toMinute":960},{"weekdays":[1,2,3,4,5],"fromMinute":540,"toMinute":1080},{"weekdays":[6],"fromMinute":540,"toMinute":780},{"weekdays":[1,2,3,4,5,6],"fromMinute":540,"toMinute":1440},{"weekdays":[0,2,3,4,5,6],"fromMinute":0,"toMinute":60},{"weekdays":[6],"fromMinute":540,"toMinute":840}],"fee":{"kind":"unknown"},"unmodelledRules":[],"sourceDefect":"Die Quelle nennt 0,50 € bzw. 1,00 € je 20 Minuten. Dieser Wert ist veraltet: Die Datei führt eine Spalte „Tagesgebühr 4,00 €\", während die Stadt Köln für dasselbe Tagesticket heute 5 Euro nennt. Deshalb steht hier kein Betrag.","spaces":1703,"maxStayMinutes":null,"maxStay":"4h","maxStayShare":1,"maxStayValues":["4h","14h","9h","8h","10h"],"chargingPoints":0,"carsharing":0},"geometry":{"type":"Polygon","coordinates":[[[6.94542,50.92686],[6.94607,50.92656],[6.94674,50.92629],[6.94744,50.92603],[6.95247,50.92398],[6.95235,50.92374],[6.95197,50.92269],[6.95106,50.92111],[6.95083,50.92098],[6.94462,50.92362],[6.94394,50.92354],[6.94237,50.92212],[6.94276,50.9219],[6.94395,50.92112],[6.94345,50.92075],[6.9424,50.92141],[6.94087,50.9225],[6.94095,50.92271],[6.94106,50.92311],[6.94111,50.9235],[6.94109,50.92396],[6.94102,50.92433],[6.9409,50.92469],[6.94067,50.92516],[6.94048,50.92545],[6.94026,50.92573],[6.94,50.926],[6.93972,50.92626],[6.9394,50.9265],[6.93906,50.92672],[6.93995,50.92761],[6.94137,50.92769],[6.94271,50.92858],[6.94329,50.92807],[6.94418,50.92752],[6.94479,50.92718],[6.94542,50.92686]]]}},{"type":"Feature","properties":{"zone":"Nördlich Neumarkt","district":"Köln","rawHours":"Mo-Sa 09:00 - 23:00 (56×); Mo-Sa 09:00 - 18:00 (5×); Mo-Sa 19:00 - 01:00 (2×); Mo-So 09:00 - 21:00 (2×); Mo-Sa 09:00 - 01:00 (1×); + 5 weitere","rawFee":"","note":"Kürzel auf dem Automaten: NEU · Gebietsseite bei stadt-koeln.de","windows":[{"weekdays":[1,2,3,4,5,6],"fromMinute":540,"toMinute":1380},{"weekdays":[1,2,3,4,5,6],"fromMinute":540,"toMinute":1440},{"weekdays":[0,2,3,4,5,6],"fromMinute":0,"toMinute":60},{"weekdays":[1,2,3,4,5,6],"fromMinute":540,"toMinute":1080},{"weekdays":[1,2,3,4,5],"fromMinute":540,"toMinute":1140},{"weekdays":[6],"fromMinute":540,"toMinute":960},{"weekdays":[1,2,3,4,5,6],"fromMinute":480,"toMinute":1080},{"weekdays":[1,2,3,4,5,6],"fromMinute":720,"toMinute":1200},{"weekdays":[1,2,3,4,5,6],"fromMinute":1140,"toMinute":1440},{"weekdays":[0,1,2,3,4,5,6],"fromMinute":540,"toMinute":1260},{"weekdays":[1,2,3,4,5],"fromMinute":660,"toMinute":1260},{"weekdays":[6],"fromMinute":600,"toMinute":900},{"weekdays":[1,2,3,4,5,6],"fromMinute":540,"toMinute":780}],"fee":{"kind":"unknown"},"unmodelledRules":[],"sourceDefect":"Die Quelle nennt 0,50 € bzw. 1,00 € je 20 Minuten. Dieser Wert ist veraltet: Die Datei führt eine Spalte „Tagesgebühr 4,00 €\", während die Stadt Köln für dasselbe Tagesticket heute 5 Euro nennt. Deshalb steht hier kein Betrag.","spaces":943,"maxStayMinutes":null,"maxStay":"4h","maxStayShare":0.986,"maxStayValues":["4h"],"chargingPoints":0,"carsharing":0},"geometry":{"type":"Polygon","coordinates":[[[6.94307,50.93585],[6.94266,50.93586],[6.9417,50.93592],[6.94101,50.93604],[6.93899,50.93632],[6.93898,50.93641],[6.93904,50.93689],[6.93927,50.93795],[6.93957,50.93899],[6.93997,50.94055],[6.94054,50.94049],[6.9408,50.94044],[6.94116,50.94033],[6.94182,50.94016],[6.94223,50.94007],[6.94281,50.94001],[6.94356,50.94004],[6.94424,50.94016],[6.94453,50.94022],[6.9448,50.9403],[6.94522,50.94048],[6.94603,50.9409],[6.94643,50.94104],[6.94674,50.94107],[6.94702,50.94106],[6.94776,50.94107],[6.9509,50.94137],[6.95248,50.94145],[6.95283,50.94149],[6.95288,50.94126],[6.95304,50.94081],[6.95329,50.9393],[6.95329,50.93901],[6.95325,50.93878],[6.95279,50.93735],[6.95268,50.93684],[6.95269,50.93644],[6.95273,50.93616],[6.95286,50.93585],[6.95301,50.9356],[6.95312,50.93537],[6.95313,50.93519],[6.95247,50.93531],[6.95215,50.93534],[6.951,50.93532],[6.94949,50.93542],[6.94862,50.93559],[6.94641,50.93577],[6.94588,50.93586],[6.94468,50.93589],[6.94307,50.93585]]]}},{"type":"Feature","properties":{"zone":"Griechenmarktviertel","district":"Köln","rawHours":"Mo-Sa 09:00 - 23:00 (81×); Mo-Sa 09:00 - 18:00 (4×); Mo-Sa 09:00 - 01:00 (3×); Mo-Fr 09:00 - 21:00 + Sa 10:00 - 15:00 (2×); Mo-Sa 19:00 - 01:00 (1×); + 2 weitere","rawFee":"","note":"Kürzel auf dem Automaten: GRI · Gebietsseite bei stadt-koeln.de","windows":[{"weekdays":[1,2,3,4,5,6],"fromMinute":540,"toMinute":1380},{"weekdays":[1,2,3,4,5,6],"fromMinute":540,"toMinute":1080},{"weekdays":[1,2,3,4,5,6],"fromMinute":540,"toMinute":1440},{"weekdays":[0,2,3,4,5,6],"fromMinute":0,"toMinute":60},{"weekdays":[1,2,3,4,5,6],"fromMinute":1140,"toMinute":1440},{"weekdays":[1,2,3,4,5],"fromMinute":660,"toMinute":1260},{"weekdays":[6],"fromMinute":600,"toMinute":900},{"weekdays":[1,2,3,4,5],"fromMinute":540,"toMinute":1260},{"weekdays":[0,1,2,3,4,5,6],"fromMinute":540,"toMinute":1380}],"fee":{"kind":"unknown"},"unmodelledRules":[],"sourceDefect":"Die Quelle nennt 0,50 € bzw. 1,00 € je 20 Minuten. Dieser Wert ist veraltet: Die Datei führt eine Spalte „Tagesgebühr 4,00 €\", während die Stadt Köln für dasselbe Tagesticket heute 5 Euro nennt. Deshalb steht hier kein Betrag.","spaces":1553,"maxStayMinutes":null,"maxStay":"4h","maxStayShare":1,"maxStayValues":["4h","9h","1h","14h"],"chargingPoints":0,"carsharing":0},"geometry":{"type":"Polygon","coordinates":[[[6.95409,50.93175],[6.95295,50.93118],[6.95255,50.931],[6.95193,50.93081],[6.95122,50.93069],[6.95071,50.93063],[6.94947,50.93042],[6.94664,50.93015],[6.9461,50.93006],[6.94575,50.92999],[6.94526,50.92987],[6.94481,50.92974],[6.9443,50.92957],[6.943,50.92974],[6.94275,50.92973],[6.94253,50.92969],[6.9422,50.92957],[6.94162,50.9293],[6.94146,50.92945],[6.94137,50.9296],[6.9399,50.9331],[6.93943,50.93413],[6.93923,50.93465],[6.93905,50.93539],[6.93899,50.93632],[6.94101,50.93604],[6.9417,50.93592],[6.9421,50.93589],[6.9429,50.93585],[6.94468,50.93589],[6.94588,50.93586],[6.94641,50.93577],[6.94862,50.93559],[6.94949,50.93542],[6.951,50.93532],[6.95215,50.93534],[6.95247,50.93531],[6.95313,50.93519],[6.95321,50.93415],[6.95326,50.93383],[6.95337,50.93331],[6.9535,50.93296],[6.95367,50.93255],[6.95409,50.93175]]]}},{"type":"Feature","properties":{"zone":"Nippes II","district":"Köln","rawHours":"Mo-Fr 09:00 - 21:00 + Sa 10:00 - 15:00 (49×); Mo-Fr 09:00 - 18:00 + Sa 09:00 - 14:00 (1×)","rawFee":"","note":"Gebietsseite bei stadt-koeln.de","windows":[{"weekdays":[1,2,3,4,5],"fromMinute":540,"toMinute":1260},{"weekdays":[6],"fromMinute":600,"toMinute":900},{"weekdays":[1,2,3,4,5],"fromMinute":540,"toMinute":1080},{"weekdays":[6],"fromMinute":540,"toMinute":840}],"fee":{"kind":"unknown"},"unmodelledRules":[],"sourceDefect":"Die Quelle nennt 0,50 € bzw. 1,00 € je 20 Minuten. Dieser Wert ist veraltet: Die Datei führt eine Spalte „Tagesgebühr 4,00 €\", während die Stadt Köln für dasselbe Tagesticket heute 5 Euro nennt. Deshalb steht hier kein Betrag.","spaces":661,"maxStayMinutes":null,"maxStay":"12h","maxStayShare":1,"maxStayValues":["12h","4h"],"chargingPoints":0,"carsharing":0},"geometry":{"type":"Polygon","coordinates":[[[6.94206,50.95687],[6.94189,50.95711],[6.94169,50.95751],[6.9416,50.95784],[6.94159,50.95813],[6.94177,50.95904],[6.942,50.95968],[6.9422,50.96032],[6.94236,50.96097],[6.94248,50.96162],[6.94257,50.96227],[6.94262,50.96293],[6.94256,50.96348],[6.94345,50.96354],[6.94367,50.96266],[6.94652,50.9629],[6.94666,50.96229],[6.9467,50.96198],[6.9483,50.96214],[6.94845,50.96211],[6.94872,50.96215],[6.9489,50.96196],[6.95001,50.95842],[6.95049,50.95847],[6.9506,50.95782],[6.95107,50.9559],[6.94991,50.9556],[6.94817,50.9549],[6.94801,50.95482],[6.94758,50.95493],[6.94715,50.95502],[6.94671,50.95508],[6.94634,50.95512],[6.94559,50.95515],[6.94499,50.95522],[6.94438,50.95539],[6.94381,50.9556],[6.94354,50.95572],[6.94303,50.95601],[6.94274,50.95621],[6.94249,50.95642],[6.94226,50.95664],[6.94206,50.95687]]]}},{"type":"Feature","properties":{"zone":"Nippes EAW","district":"Köln","rawHours":"Mo-Fr 09:00 - 23:00 + Sa 10:00 - 15:00 (6×); Mo-Fr 09:00 - 22:00 + Sa 09:00 - 13:00 (2×); Mo-Fr 09:00 - 21:00 + Sa 09:00 - 13:00 (2×); Mo-Sa 09:00 - 18:00 (1×)","rawFee":"","note":"Gebietsseite bei stadt-koeln.de","windows":[{"weekdays":[1,2,3,4,5],"fromMinute":540,"toMinute":1380},{"weekdays":[6],"fromMinute":600,"toMinute":900},{"weekdays":[1,2,3,4,5],"fromMinute":540,"toMinute":1320},{"weekdays":[6],"fromMinute":540,"toMinute":780},{"weekdays":[1,2,3,4,5,6],"fromMinute":540,"toMinute":1080},{"weekdays":[1,2,3,4,5],"fromMinute":540,"toMinute":1260}],"fee":{"kind":"unknown"},"unmodelledRules":[],"sourceDefect":"Die Quelle nennt 0,50 € bzw. 1,00 € je 20 Minuten. Dieser Wert ist veraltet: Die Datei führt eine Spalte „Tagesgebühr 4,00 €\", während die Stadt Köln für dasselbe Tagesticket heute 5 Euro nennt. Deshalb steht hier kein Betrag.","spaces":218,"maxStayMinutes":null,"maxStay":"14h","maxStayShare":1,"maxStayValues":["14h","4h"],"chargingPoints":0,"carsharing":0},"geometry":{"type":"Polygon","coordinates":[[[6.94189,50.96697],[6.9419,50.96722],[6.94193,50.96744],[6.94199,50.96766],[6.9421,50.96792],[6.9429,50.96798],[6.94348,50.96768],[6.94389,50.96739],[6.94403,50.96737],[6.94615,50.96585],[6.94614,50.96567],[6.94475,50.96487],[6.94466,50.96487],[6.94489,50.96365],[6.94256,50.96348],[6.94234,50.9645],[6.94237,50.9645],[6.94204,50.96626],[6.94199,50.96642],[6.94189,50.96697]]]}},{"type":"Feature","properties":{"zone":"Belgisches Viertel","district":"Köln","rawHours":"Mo-Sa 09:00 - 01:00 (67×); Mo-Sa 09:00 - 18:00 (22×); Mo-Sa 09:00 - 23:00 (1×); Mo-So 09:00 - 01:00 (1×)","rawFee":"","note":"Kürzel auf dem Automaten: BELG · Gebietsseite bei stadt-koeln.de","windows":[{"weekdays":[1,2,3,4,5,6],"fromMinute":540,"toMinute":1380},{"weekdays":[1,2,3,4,5,6],"fromMinute":540,"toMinute":1440},{"weekdays":[0,2,3,4,5,6],"fromMinute":0,"toMinute":60},{"weekdays":[1,2,3,4,5,6],"fromMinute":540,"toMinute":1080},{"weekdays":[0,1,2,3,4,5,6],"fromMinute":540,"toMinute":1440},{"weekdays":[0,1,2,3,4,5,6],"fromMinute":0,"toMinute":60}],"fee":{"kind":"unknown"},"unmodelledRules":[],"sourceDefect":"Die Quelle nennt 0,50 € bzw. 1,00 € je 20 Minuten. Dieser Wert ist veraltet: Die Datei führt eine Spalte „Tagesgebühr 4,00 €\", während die Stadt Köln für dasselbe Tagesticket heute 5 Euro nennt. Deshalb steht hier kein Betrag.","spaces":2119,"maxStayMinutes":null,"maxStay":"4h","maxStayShare":1,"maxStayValues":["4h","9h","2h"],"chargingPoints":0,"carsharing":0},"geometry":{"type":"Polygon","coordinates":[[[6.93,50.93949],[6.93003,50.93957],[6.93005,50.93957],[6.93013,50.93965],[6.93021,50.93988],[6.93023,50.93988],[6.93038,50.94018],[6.93223,50.9427],[6.93138,50.94295],[6.93201,50.94375],[6.93187,50.94386],[6.93209,50.94412],[6.93297,50.94517],[6.93421,50.94624],[6.93557,50.94749],[6.93775,50.94709],[6.93796,50.947],[6.93797,50.94702],[6.93837,50.9469],[6.93863,50.94686],[6.93913,50.94681],[6.93937,50.94674],[6.94231,50.94654],[6.94278,50.94656],[6.94321,50.94665],[6.94495,50.94731],[6.94497,50.94729],[6.94503,50.94729],[6.94582,50.94649],[6.94347,50.94543],[6.94312,50.94535],[6.94275,50.94532],[6.94255,50.94524],[6.94246,50.94517],[6.94213,50.94485],[6.94044,50.94311],[6.94033,50.94294],[6.94043,50.94246],[6.9402,50.94162],[6.93997,50.94055],[6.93957,50.93899],[6.93927,50.93795],[6.93904,50.93689],[6.93898,50.93641],[6.93899,50.93632],[6.93831,50.93647],[6.93262,50.93656],[6.9311,50.93657],[6.9282,50.93666],[6.92823,50.93755],[6.92955,50.93751],[6.92955,50.93759],[6.93005,50.93758],[6.92999,50.93801],[6.93,50.93949]]]}},{"type":"Feature","properties":{"zone":"Südbahnhof","district":"Köln","rawHours":"Mo-Sa 09:00 - 23:00 (3×); Mo-Sa 09:00 - 18:00 (2×)","rawFee":"","note":"Kürzel auf dem Automaten: SBF · Gebietsseite bei stadt-koeln.de","windows":[{"weekdays":[1,2,3,4,5,6],"fromMinute":540,"toMinute":1380},{"weekdays":[1,2,3,4,5,6],"fromMinute":540,"toMinute":1080}],"fee":{"kind":"unknown"},"unmodelledRules":[],"sourceDefect":"Die Quelle nennt 0,50 € bzw. 1,00 € je 20 Minuten. Dieser Wert ist veraltet: Die Datei führt eine Spalte „Tagesgebühr 4,00 €\", während die Stadt Köln für dasselbe Tagesticket heute 5 Euro nennt. Deshalb steht hier kein Betrag.","spaces":125,"maxStayMinutes":null,"maxStay":"4h","maxStayShare":1,"maxStayValues":["4h","9h","14h"],"chargingPoints":0,"carsharing":0},"geometry":{"type":"Polygon","coordinates":[[[6.93765,50.9248],[6.9353,50.92636],[6.93566,50.92644],[6.93807,50.92718],[6.93832,50.92708],[6.93906,50.92672],[6.9394,50.9265],[6.93972,50.92626],[6.94,50.926],[6.94026,50.92573],[6.94048,50.92545],[6.94067,50.92516],[6.9409,50.92469],[6.94102,50.92433],[6.94109,50.92396],[6.94111,50.9235],[6.94106,50.92311],[6.94095,50.92271],[6.94087,50.9225],[6.94043,50.92292],[6.94017,50.92312],[6.93981,50.92322],[6.93921,50.92361],[6.93933,50.92369],[6.93765,50.9248]]]}},{"type":"Feature","properties":{"zone":"Rathenauviertel","district":"Köln","rawHours":"Mo-Sa 09:00 - 23:00 (71×); Mo-Sa 09:00 - 18:00 (6×)","rawFee":"","note":"Kürzel auf dem Automaten: RATH · Gebietsseite bei stadt-koeln.de","windows":[{"weekdays":[1,2,3,4,5,6],"fromMinute":540,"toMinute":1380},{"weekdays":[1,2,3,4,5,6],"fromMinute":540,"toMinute":1080}],"fee":{"kind":"unknown"},"unmodelledRules":[],"sourceDefect":"Die Quelle nennt 0,50 € bzw. 1,00 € je 20 Minuten. Dieser Wert ist veraltet: Die Datei führt eine Spalte „Tagesgebühr 4,00 €\", während die Stadt Köln für dasselbe Tagesticket heute 5 Euro nennt. Deshalb steht hier kein Betrag.","spaces":1618,"maxStayMinutes":null,"maxStay":"4h","maxStayShare":1,"maxStayValues":["4h","9h"],"chargingPoints":0,"carsharing":0},"geometry":{"type":"Polygon","coordinates":[[[6.93832,50.92708],[6.93807,50.92718],[6.93566,50.92644],[6.9353,50.92636],[6.93473,50.9262],[6.93385,50.9273],[6.93412,50.92748],[6.93454,50.92761],[6.93398,50.9281],[6.93153,50.93117],[6.93163,50.93142],[6.93191,50.93152],[6.9317,50.9319],[6.93153,50.93225],[6.93139,50.93262],[6.93126,50.93308],[6.9312,50.9334],[6.93116,50.93371],[6.9311,50.93657],[6.93262,50.93656],[6.93831,50.93647],[6.93899,50.93632],[6.93905,50.93539],[6.93923,50.93465],[6.93943,50.93413],[6.9399,50.9331],[6.94137,50.9296],[6.94146,50.92945],[6.94162,50.9293],[6.94143,50.92922],[6.94165,50.92913],[6.94234,50.92871],[6.94271,50.92858],[6.94137,50.92769],[6.93995,50.92761],[6.93906,50.92672],[6.93832,50.92708]]]}},{"type":"Feature","properties":{"zone":"Ehrenfeld III","district":"Köln","rawHours":"Mo-Sa 09:00 - 18:00 (5×); Mo-Sa 09:00 - 23:00 (1×)","rawFee":"","note":"Kürzel auf dem Automaten: Ehre III · Gebietsseite bei stadt-koeln.de","windows":[{"weekdays":[1,2,3,4,5,6],"fromMinute":540,"toMinute":1080},{"weekdays":[1,2,3,4,5,6],"fromMinute":540,"toMinute":1380}],"fee":{"kind":"unknown"},"unmodelledRules":[],"sourceDefect":"Die Quelle nennt 0,50 € bzw. 1,00 € je 20 Minuten. Dieser Wert ist veraltet: Die Datei führt eine Spalte „Tagesgebühr 4,00 €\", während die Stadt Köln für dasselbe Tagesticket heute 5 Euro nennt. Deshalb steht hier kein Betrag.","spaces":84,"maxStayMinutes":null,"maxStay":"4h","maxStayShare":1,"maxStayValues":["4h","9h"],"chargingPoints":0,"carsharing":0},"geometry":{"type":"Polygon","coordinates":[[[6.92316,50.94714],[6.92743,50.94535],[6.9284,50.94504],[6.92899,50.94555],[6.93274,50.94863],[6.93495,50.95062],[6.93328,50.95218],[6.93255,50.95297],[6.9323,50.95299],[6.92996,50.95276],[6.92981,50.95252],[6.92774,50.9507],[6.92757,50.95059],[6.92625,50.94963],[6.92499,50.94869],[6.9242,50.94808],[6.92316,50.94714]]]}},{"type":"Feature","properties":{"zone":"Ehrenfeld IV","district":"Köln","rawHours":"Mo-Sa 09:00 - 18:00 (4×); Mo-Fr 09:00 - 20:00 + Sa 09:00 - 16:00 (1×)","rawFee":"","note":"Kürzel auf dem Automaten: Ehre IV · Gebietsseite bei stadt-koeln.de","windows":[{"weekdays":[1,2,3,4,5,6],"fromMinute":540,"toMinute":1080},{"weekdays":[1,2,3,4,5],"fromMinute":540,"toMinute":1200},{"weekdays":[6],"fromMinute":540,"toMinute":960}],"fee":{"kind":"unknown"},"unmodelledRules":[],"sourceDefect":"Die Quelle nennt 0,50 € bzw. 1,00 € je 20 Minuten. Dieser Wert ist veraltet: Die Datei führt eine Spalte „Tagesgebühr 4,00 €\", während die Stadt Köln für dasselbe Tagesticket heute 5 Euro nennt. Deshalb steht hier kein Betrag.","spaces":41,"maxStayMinutes":null,"maxStay":"4h","maxStayShare":1,"maxStayValues":["4h"],"chargingPoints":0,"carsharing":0},"geometry":{"type":"Polygon","coordinates":[[[6.92996,50.95276],[6.92981,50.95252],[6.92774,50.9507],[6.92757,50.95059],[6.92625,50.94963],[6.92499,50.94869],[6.9242,50.94808],[6.92316,50.94714],[6.92024,50.94836],[6.91853,50.94909],[6.91811,50.94931],[6.91773,50.94954],[6.91673,50.95019],[6.91711,50.95052],[6.91812,50.95151],[6.92062,50.95174],[6.92158,50.95187],[6.92426,50.9521],[6.92654,50.9524],[6.92996,50.95276]]]}},{"type":"Feature","properties":{"zone":"Ehrenfeld I","district":"Köln","rawHours":"Mo-Sa 09:00 - 18:00 (1×); Mo-Fr 09:00 - 20:00 + Sa 09:00 - 16:00 (1×)","rawFee":"","note":"Kürzel auf dem Automaten: Ehre I · Gebietsseite bei stadt-koeln.de","windows":[{"weekdays":[1,2,3,4,5,6],"fromMinute":540,"toMinute":1080},{"weekdays":[1,2,3,4,5],"fromMinute":540,"toMinute":1200},{"weekdays":[6],"fromMinute":540,"toMinute":960}],"fee":{"kind":"unknown"},"unmodelledRules":[],"sourceDefect":"Die Quelle nennt 0,50 € bzw. 1,00 € je 20 Minuten. Dieser Wert ist veraltet: Die Datei führt eine Spalte „Tagesgebühr 4,00 €\", während die Stadt Köln für dasselbe Tagesticket heute 5 Euro nennt. Deshalb steht hier kein Betrag.","spaces":11,"maxStayMinutes":null,"maxStay":"4h","maxStayShare":1,"maxStayValues":["4h"],"chargingPoints":0,"carsharing":0},"geometry":{"type":"Polygon","coordinates":[[[6.92236,50.94027],[6.92243,50.94101],[6.91859,50.94256],[6.91832,50.94264],[6.91763,50.94187],[6.91746,50.94193],[6.91816,50.94272],[6.91827,50.94278],[6.91961,50.944],[6.91972,50.94406],[6.92136,50.94534],[6.92224,50.94752],[6.92743,50.94535],[6.92839,50.94503],[6.92826,50.94492],[6.92677,50.94288],[6.92641,50.94209],[6.92529,50.93911],[6.92369,50.93934],[6.92366,50.9394],[6.92369,50.93988],[6.92261,50.94031],[6.92236,50.94027]]]}},{"type":"Feature","properties":{"zone":"Sülz-Nord I","district":"Köln","rawHours":"Mo-Sa 09:00 - 18:00 (15×); Mo-Sa 09:00 - 23:00 (3×); Mo-Fr 09:00 - 18:00 + Sa 09:00 - 14:00 (1×); Mo-Fr 09:00 - 18:00 (1×)","rawFee":"","note":"Kürzel auf dem Automaten: Sülz-N. I · Gebietsseite bei stadt-koeln.de","windows":[{"weekdays":[1,2,3,4,5,6],"fromMinute":540,"toMinute":1080},{"weekdays":[1,2,3,4,5,6],"fromMinute":540,"toMinute":1380},{"weekdays":[1,2,3,4,5],"fromMinute":540,"toMinute":1080},{"weekdays":[6],"fromMinute":540,"toMinute":840}],"fee":{"kind":"unknown"},"unmodelledRules":[],"sourceDefect":"Die Quelle nennt 0,50 € bzw. 1,00 € je 20 Minuten. Dieser Wert ist veraltet: Die Datei führt eine Spalte „Tagesgebühr 4,00 €\", während die Stadt Köln für dasselbe Tagesticket heute 5 Euro nennt. Deshalb steht hier kein Betrag.","spaces":308,"maxStayMinutes":null,"maxStay":"4h","maxStayShare":1,"maxStayValues":["4h","2h"],"chargingPoints":0,"carsharing":0},"geometry":{"type":"Polygon","coordinates":[[[6.92249,50.92254],[6.92417,50.92313],[6.92601,50.92374],[6.92852,50.92453],[6.92924,50.92479],[6.92997,50.92515],[6.93006,50.92522],[6.93047,50.92454],[6.93114,50.92337],[6.93173,50.92217],[6.93204,50.9217],[6.93223,50.92142],[6.93244,50.92118],[6.93264,50.92102],[6.93287,50.92087],[6.93065,50.91873],[6.92749,50.91573],[6.92435,50.91766],[6.92243,50.91876],[6.9208,50.91972],[6.91973,50.92046],[6.91862,50.92119],[6.919,50.9213],[6.91952,50.92146],[6.92249,50.92254]]]}},{"type":"Feature","properties":{"zone":"Lindenthal-Süd I","district":"Köln","rawHours":"Mo-Fr 09:00 - 21:00 + Sa 09:00 - 13:00 (93×); Mo-Sa 09:00 - 18:00 (10×); Mo-Fr 09:00 - 21:00 + Sa 09:00 - 13:00 Uhr (1×)","rawFee":"","note":"Kürzel auf dem Automaten: Lind-S. I · Gebietsseite bei stadt-koeln.de","windows":[{"weekdays":[1,2,3,4,5,6],"fromMinute":540,"toMinute":1080},{"weekdays":[1,2,3,4,5],"fromMinute":540,"toMinute":1260},{"weekdays":[6],"fromMinute":540,"toMinute":780}],"fee":{"kind":"unknown"},"unmodelledRules":[],"sourceDefect":"Die Quelle nennt 0,50 € bzw. 1,00 € je 20 Minuten. Dieser Wert ist veraltet: Die Datei führt eine Spalte „Tagesgebühr 4,00 €\", während die Stadt Köln für dasselbe Tagesticket heute 5 Euro nennt. Deshalb steht hier kein Betrag.","spaces":1730,"maxStayMinutes":null,"maxStay":"4h","maxStayShare":1,"maxStayValues":["4h","12h","2h"],"chargingPoints":0,"carsharing":0},"geometry":{"type":"Polygon","coordinates":[[[6.91949,50.92584],[6.91945,50.92601],[6.91885,50.92734],[6.91853,50.92781],[6.91833,50.92801],[6.91795,50.92856],[6.9174,50.92954],[6.9162,50.92908],[6.91603,50.92925],[6.9173,50.92972],[6.91674,50.93077],[6.91659,50.93087],[6.92481,50.93358],[6.92493,50.93351],[6.92599,50.93193],[6.92657,50.93105],[6.92729,50.93009],[6.92782,50.92927],[6.92835,50.9285],[6.9295,50.92662],[6.92964,50.92668],[6.9309,50.92698],[6.93148,50.9264],[6.93174,50.92611],[6.93174,50.926],[6.93188,50.92547],[6.93072,50.92468],[6.93139,50.9236],[6.93114,50.92337],[6.93047,50.92454],[6.93006,50.92522],[6.92997,50.92515],[6.92924,50.92479],[6.92852,50.92453],[6.92698,50.92405],[6.92417,50.92313],[6.92167,50.92224],[6.92142,50.92245],[6.92124,50.92284],[6.92028,50.9226],[6.92019,50.92275],[6.92116,50.92297],[6.91949,50.92584]]]}},{"type":"Feature","properties":{"zone":"Sülz-Nord II","district":"Köln","rawHours":"Mo-Sa 09:00 - 18:00 (7×); Mo-Sa 09:00 - 23:00 (1×)","rawFee":"","note":"Kürzel auf dem Automaten: Sülz-N. II · Gebietsseite bei stadt-koeln.de","windows":[{"weekdays":[1,2,3,4,5,6],"fromMinute":540,"toMinute":1080},{"weekdays":[1,2,3,4,5,6],"fromMinute":540,"toMinute":1380}],"fee":{"kind":"unknown"},"unmodelledRules":[],"sourceDefect":"Die Quelle nennt 0,50 € bzw. 1,00 € je 20 Minuten. Dieser Wert ist veraltet: Die Datei führt eine Spalte „Tagesgebühr 4,00 €\", während die Stadt Köln für dasselbe Tagesticket heute 5 Euro nennt. Deshalb steht hier kein Betrag.","spaces":95,"maxStayMinutes":null,"maxStay":"4h","maxStayShare":1,"maxStayValues":["4h","2h"],"chargingPoints":0,"carsharing":0},"geometry":{"type":"Polygon","coordinates":[[[6.92247,50.91321],[6.92095,50.91419],[6.91717,50.91677],[6.9169,50.91719],[6.9165,50.91795],[6.91516,50.92032],[6.91574,50.92042],[6.91611,50.9205],[6.91862,50.92119],[6.91973,50.92046],[6.9208,50.91972],[6.92243,50.91876],[6.92435,50.91766],[6.92749,50.91573],[6.92388,50.91229],[6.92247,50.91321]]]}},{"type":"Feature","properties":{"zone":"Lindenthal-Süd II","district":"Köln","rawHours":"Mo-Sa 09:00 - 18:00 (8×); Mo-Fr 09:00 - 18:00 + Sa 09:00 - 14:00 (4×); Mo-Fr 09:00 - 21:00 + Sa 09:00 - 13:00 (1×)","rawFee":"","note":"Kürzel auf dem Automaten: Lind-S. II · Gebietsseite bei stadt-koeln.de","windows":[{"weekdays":[1,2,3,4,5,6],"fromMinute":540,"toMinute":1080},{"weekdays":[1,2,3,4,5],"fromMinute":540,"toMinute":1080},{"weekdays":[6],"fromMinute":540,"toMinute":840},{"weekdays":[1,2,3,4,5],"fromMinute":540,"toMinute":1260},{"weekdays":[6],"fromMinute":540,"toMinute":780}],"fee":{"kind":"unknown"},"unmodelledRules":[],"sourceDefect":"Die Quelle nennt 0,50 € bzw. 1,00 € je 20 Minuten. Dieser Wert ist veraltet: Die Datei führt eine Spalte „Tagesgebühr 4,00 €\", während die Stadt Köln für dasselbe Tagesticket heute 5 Euro nennt. Deshalb steht hier kein Betrag.","spaces":124,"maxStayMinutes":null,"maxStay":"2h","maxStayShare":0.923,"maxStayValues":["2h","4h"],"chargingPoints":0,"carsharing":0},"geometry":{"type":"Polygon","coordinates":[[[6.91131,50.92449],[6.91114,50.92483],[6.91087,50.92518],[6.90874,50.92762],[6.90882,50.92777],[6.90969,50.92814],[6.91659,50.93087],[6.91674,50.93077],[6.9173,50.92972],[6.91603,50.92925],[6.9162,50.92908],[6.9174,50.92954],[6.91795,50.92856],[6.91833,50.92801],[6.91853,50.92781],[6.91885,50.92734],[6.91945,50.92601],[6.91949,50.92584],[6.92116,50.92297],[6.92019,50.92275],[6.92028,50.9226],[6.92124,50.92284],[6.92142,50.92245],[6.92167,50.92224],[6.91952,50.92146],[6.919,50.9213],[6.91611,50.9205],[6.91574,50.92042],[6.91516,50.92032],[6.9151,50.92042],[6.91159,50.9246],[6.91131,50.92449]]]}},{"type":"Feature","properties":{"zone":"Lindenthal-Nord I","district":"Köln","rawHours":"Mo-Fr 08:00 - 17:00 (33×); Mo-Sa 09:00 - 18:00 (11×)","rawFee":"","note":"Kürzel auf dem Automaten: Lind-N. I · Gebietsseite bei stadt-koeln.de","windows":[{"weekdays":[1,2,3,4,5,6],"fromMinute":540,"toMinute":1080},{"weekdays":[1,2,3,4,5],"fromMinute":480,"toMinute":1020}],"fee":{"kind":"unknown"},"unmodelledRules":[],"sourceDefect":"Die Quelle nennt 0,50 € bzw. 1,00 € je 20 Minuten. Dieser Wert ist veraltet: Die Datei führt eine Spalte „Tagesgebühr 4,00 €\", während die Stadt Köln für dasselbe Tagesticket heute 5 Euro nennt. Deshalb steht hier kein Betrag.","spaces":496,"maxStayMinutes":null,"maxStay":"9h","maxStayShare":1,"maxStayValues":["9h","4h","2h"],"chargingPoints":0,"carsharing":0},"geometry":{"type":"Polygon","coordinates":[[[6.91332,50.93569],[6.91286,50.93679],[6.91281,50.93686],[6.9188,50.9367],[6.92466,50.93666],[6.9247,50.93402],[6.92481,50.93358],[6.91659,50.93087],[6.91497,50.93024],[6.91399,50.93188],[6.91381,50.93221],[6.9135,50.93452],[6.91335,50.9356],[6.91332,50.93569]]]}},{"type":"Feature","properties":{"zone":"Ehrenfeld II","district":"Köln","rawHours":"Mo-Sa 09:00 - 18:00 (4×)","rawFee":"","note":"Kürzel auf dem Automaten: Ehre II · Gebietsseite bei stadt-koeln.de","windows":[{"weekdays":[1,2,3,4,5,6],"fromMinute":540,"toMinute":1080}],"fee":{"kind":"unknown"},"unmodelledRules":[],"sourceDefect":"Die Quelle nennt 0,50 € bzw. 1,00 € je 20 Minuten. Dieser Wert ist veraltet: Die Datei führt eine Spalte „Tagesgebühr 4,00 €\", während die Stadt Köln für dasselbe Tagesticket heute 5 Euro nennt. Deshalb steht hier kein Betrag.","spaces":34,"maxStayMinutes":null,"maxStay":"4h","maxStayShare":1,"maxStayValues":["4h"],"chargingPoints":0,"carsharing":0},"geometry":{"type":"Polygon","coordinates":[[[6.91283,50.94567],[6.91289,50.94587],[6.91325,50.9467],[6.91477,50.94842],[6.91657,50.95007],[6.91673,50.95019],[6.91773,50.94954],[6.91811,50.94931],[6.91853,50.94909],[6.92024,50.94836],[6.92224,50.94752],[6.92136,50.94534],[6.91972,50.94406],[6.91961,50.944],[6.91827,50.94278],[6.91816,50.94272],[6.91503,50.94399],[6.9149,50.94401],[6.9146,50.94389],[6.91414,50.94351],[6.91382,50.94331],[6.91355,50.94318],[6.91286,50.94307],[6.91275,50.94446],[6.91274,50.94501],[6.91283,50.94567]]]}},{"type":"Feature","properties":{"zone":"Lindenthal-Nord II","district":"Köln","rawHours":"Mo-Fr 08:00 - 17:00 (52×); Mo-Fr 09:00 - 16:00 (12×); Mo-Sa 09:00 - 18:00 (3×)","rawFee":"","note":"Kürzel auf dem Automaten: Lind-N. II · Gebietsseite bei stadt-koeln.de","windows":[{"weekdays":[1,2,3,4,5,6],"fromMinute":540,"toMinute":1080},{"weekdays":[1,2,3,4,5],"fromMinute":480,"toMinute":1020},{"weekdays":[1,2,3,4,5],"fromMinute":540,"toMinute":960}],"fee":{"kind":"unknown"},"unmodelledRules":[],"sourceDefect":"Die Quelle nennt 0,50 € bzw. 1,00 € je 20 Minuten. Dieser Wert ist veraltet: Die Datei führt eine Spalte „Tagesgebühr 4,00 €\", während die Stadt Köln für dasselbe Tagesticket heute 5 Euro nennt. Deshalb steht hier kein Betrag.","spaces":998,"maxStayMinutes":null,"maxStay":"9h","maxStayShare":1,"maxStayValues":["9h","7h","4h","2h"],"chargingPoints":0,"carsharing":0},"geometry":{"type":"Polygon","coordinates":[[[6.90969,50.92814],[6.90882,50.92777],[6.90856,50.92836],[6.90834,50.92903],[6.90808,50.9302],[6.9079,50.93119],[6.90783,50.93221],[6.90781,50.93359],[6.90788,50.93436],[6.90796,50.93489],[6.90816,50.93587],[6.90846,50.937],[6.91281,50.93686],[6.91286,50.93679],[6.91325,50.93588],[6.91335,50.9356],[6.91381,50.93221],[6.91399,50.93188],[6.91497,50.93024],[6.91194,50.92902],[6.90969,50.92814]]]}},{"type":"Feature","properties":{"zone":"Hültzviertel","district":"Köln","rawHours":"Mo-Sa 09:00 - 18:00 (4×); Mo-Sa 09:00 - 23:00 (2×)","rawFee":"","note":"Kürzel auf dem Automaten: HV · Gebietsseite bei stadt-koeln.de","windows":[{"weekdays":[1,2,3,4,5,6],"fromMinute":540,"toMinute":1080},{"weekdays":[1,2,3,4,5,6],"fromMinute":540,"toMinute":1380}],"fee":{"kind":"unknown"},"unmodelledRules":[],"sourceDefect":"Die Quelle nennt 0,50 € bzw. 1,00 € je 20 Minuten. Dieser Wert ist veraltet: Die Datei führt eine Spalte „Tagesgebühr 4,00 €\", während die Stadt Köln für dasselbe Tagesticket heute 5 Euro nennt. Deshalb steht hier kein Betrag.","spaces":78,"maxStayMinutes":null,"maxStay":"4h","maxStayShare":1,"maxStayValues":["4h","2h"],"chargingPoints":0,"carsharing":0},"geometry":{"type":"Polygon","coordinates":[[[6.90047,50.93719],[6.90846,50.937],[6.90816,50.93587],[6.90796,50.93489],[6.90788,50.93436],[6.90781,50.93359],[6.90783,50.93221],[6.9079,50.93119],[6.90808,50.9302],[6.90834,50.92903],[6.90856,50.92836],[6.90882,50.92777],[6.90817,50.92801],[6.90524,50.92999],[6.90453,50.9339],[6.90392,50.93421],[6.90075,50.9343],[6.90067,50.93531],[6.90061,50.93668],[6.90047,50.93719]]]}},{"type":"Feature","properties":{"zone":"Weiden Süd","district":"Köln","rawHours":"Mo-Sa 09:00 - 20:00 (17×); Mo-Sa 09:00 - 23:00 (6×); Mo-Sa 09:00 - 18:00 (2×); Mo-So 09:00 - 18:00 (1×)","rawFee":"","note":"Kürzel auf dem Automaten: Weiden-S · Gebietsseite bei stadt-koeln.de","windows":[{"weekdays":[1,2,3,4,5,6],"fromMinute":540,"toMinute":1200},{"weekdays":[1,2,3,4,5,6],"fromMinute":540,"toMinute":1080},{"weekdays":[0,1,2,3,4,5,6],"fromMinute":540,"toMinute":1080},{"weekdays":[1,2,3,4,5,6],"fromMinute":540,"toMinute":1380}],"fee":{"kind":"unknown"},"unmodelledRules":[],"sourceDefect":"Die Quelle nennt 0,50 € bzw. 1,00 € je 20 Minuten. Dieser Wert ist veraltet: Die Datei führt eine Spalte „Tagesgebühr 4,00 €\", während die Stadt Köln für dasselbe Tagesticket heute 5 Euro nennt. Deshalb steht hier kein Betrag.","spaces":381,"maxStayMinutes":null,"maxStay":"4h","maxStayShare":1,"maxStayValues":["4h","11h","2h","9h"],"chargingPoints":0,"carsharing":0},"geometry":{"type":"Polygon","coordinates":[[[6.83902,50.93325],[6.83836,50.93325],[6.83836,50.93326],[6.83794,50.93327],[6.83794,50.93325],[6.83678,50.93328],[6.83679,50.93328],[6.83586,50.93336],[6.83568,50.93334],[6.83568,50.93328],[6.83426,50.93342],[6.83306,50.9335],[6.83248,50.93357],[6.83086,50.93383],[6.83035,50.93397],[6.82974,50.93423],[6.82969,50.93422],[6.82949,50.93405],[6.82941,50.93402],[6.82842,50.93402],[6.82837,50.93401],[6.82835,50.93397],[6.82856,50.93338],[6.82837,50.93335],[6.82836,50.93339],[6.8281,50.93419],[6.82809,50.9343],[6.82813,50.93441],[6.82824,50.93462],[6.82838,50.93478],[6.8287,50.93507],[6.82883,50.9351],[6.82883,50.93511],[6.82893,50.93515],[6.82908,50.93528],[6.82919,50.93544],[6.82931,50.9358],[6.82929,50.93583],[6.82924,50.93585],[6.82907,50.93589],[6.82796,50.93597],[6.82793,50.93605],[6.82796,50.93648],[6.82793,50.93656],[6.82782,50.93668],[6.82779,50.93674],[6.82778,50.93682],[6.82779,50.93705],[6.82775,50.93715],[6.82779,50.93719],[6.82787,50.93721],[6.82921,50.9372],[6.82924,50.93819],[6.82935,50.93834],[6.83954,50.93823],[6.84422,50.93814],[6.84439,50.93812],[6.8443,50.9356],[6.84159,50.93556],[6.8415,50.93554],[6.84146,50.93551],[6.84145,50.93548],[6.84138,50.93476],[6.84134,50.93469],[6.84127,50.93463],[6.84115,50.93456],[6.84101,50.93453],[6.8401,50.93453],[6.84003,50.93451],[6.83999,50.93447],[6.8398,50.93355],[6.83992,50.93319],[6.8397,50.9332],[6.83969,50.93325],[6.83902,50.93325]]]}},{"type":"Feature","properties":{"zone":"Weiden Nord","district":"Köln","rawHours":"Mo-Fr 09:00 - 19:00 + Sa 09:00 - 16:00 (8×); Mo-Sa 09:00 - 20:00 (7×); Mo-Sa 09:00 - 23:00 (1×); Mo-Di+Do-Fr 09:00 - 20:00; Mi+Sa 14:00 - 20:00 (1×)","rawFee":"","note":"Kürzel auf dem Automaten: Weiden-N · Gebietsseite bei stadt-koeln.de","windows":[{"weekdays":[1,2,3,4,5,6],"fromMinute":540,"toMinute":1380},{"weekdays":[1,2,3,4,5],"fromMinute":540,"toMinute":1140},{"weekdays":[6],"fromMinute":540,"toMinute":960},{"weekdays":[1,2,3,4,5,6],"fromMinute":540,"toMinute":1200},{"weekdays":[1,2,4,5],"fromMinute":540,"toMinute":1200},{"weekdays":[3,6],"fromMinute":840,"toMinute":1200}],"fee":{"kind":"unknown"},"unmodelledRules":[],"sourceDefect":"Die Quelle nennt 0,50 € bzw. 1,00 € je 20 Minuten. Dieser Wert ist veraltet: Die Datei führt eine Spalte „Tagesgebühr 4,00 €\", während die Stadt Köln für dasselbe Tagesticket heute 5 Euro nennt. Deshalb steht hier kein Betrag.","spaces":376,"maxStayMinutes":null,"maxStay":"4h","maxStayShare":1,"maxStayValues":["4h","10h"],"chargingPoints":0,"carsharing":0},"geometry":{"type":"Polygon","coordinates":[[[6.83937,50.94048],[6.84059,50.9399],[6.84058,50.93988],[6.84213,50.93915],[6.84113,50.93837],[6.8409,50.93835],[6.83953,50.93837],[6.83954,50.93823],[6.82935,50.93834],[6.8293,50.93916],[6.83073,50.93911],[6.83243,50.93898],[6.83159,50.93989],[6.83201,50.93996],[6.83174,50.9408],[6.83155,50.94193],[6.83424,50.94222],[6.83465,50.94222],[6.83612,50.94203],[6.83937,50.94048]]]}},{"type":"Feature","properties":{"zone":"Hohenlind","district":"Köln","rawHours":"Mo-So 09:00 - 21:00 (4×); Mo-Sa 09:00 - 13:00 (4×)","rawFee":"","note":"Kürzel auf dem Automaten: H.-lind · Gebietsseite bei stadt-koeln.de","windows":[{"weekdays":[0,1,2,3,4,5,6],"fromMinute":540,"toMinute":1260},{"weekdays":[1,2,3,4,5,6],"fromMinute":540,"toMinute":780}],"fee":{"kind":"unknown"},"unmodelledRules":[],"sourceDefect":"Die Quelle nennt 0,50 € bzw. 1,00 € je 20 Minuten. Dieser Wert ist veraltet: Die Datei führt eine Spalte „Tagesgebühr 4,00 €\", während die Stadt Köln für dasselbe Tagesticket heute 5 Euro nennt. Deshalb steht hier kein Betrag.","spaces":166,"maxStayMinutes":null,"maxStay":"4h","maxStayShare":1,"maxStayValues":["4h"],"chargingPoints":0,"carsharing":0},"geometry":{"type":"Polygon","coordinates":[[[6.8906,50.92477],[6.89169,50.92482],[6.8919,50.92488],[6.89245,50.92492],[6.89226,50.9258],[6.89253,50.92582],[6.8932,50.9264],[6.89621,50.92663],[6.89623,50.92674],[6.89609,50.9273],[6.89713,50.92746],[6.89705,50.92764],[6.89766,50.92778],[6.89798,50.92777],[6.90145,50.92807],[6.90167,50.92807],[6.9017,50.92729],[6.90165,50.9265],[6.90166,50.92647],[6.90199,50.9262],[6.90253,50.92557],[6.90321,50.9249],[6.90413,50.9241],[6.90365,50.92397],[6.90335,50.92386],[6.90313,50.92375],[6.90139,50.92263],[6.90097,50.92244],[6.89976,50.92206],[6.89652,50.92107],[6.89621,50.921],[6.89571,50.92095],[6.89529,50.92088],[6.89348,50.92063],[6.89142,50.92031],[6.89139,50.92046],[6.89136,50.92051],[6.89115,50.92149],[6.89113,50.92165],[6.89088,50.92281],[6.89085,50.92305],[6.89063,50.92416],[6.89065,50.92419],[6.89056,50.92462],[6.8906,50.92477]]]}}]}