{"type":"FeatureCollection","features":[{"type":"Feature","properties":{"name":"Niederkassel"},"geometry":{"type":"Polygon","coordinates":[[[6.76787,51.23624],[6.76687,51.23851],[6.76546,51.24073],[6.76375,51.24277],[6.76164,51.24473],[6.7592,51.24655],[6.7565,51.24817],[6.75354,51.24959],[6.75026,51.25086],[6.7461,51.25203],[6.74378,51.24934],[6.74211,51.2478],[6.74305,51.24753],[6.74117,51.24577],[6.73916,51.24627],[6.7379,51.24639],[6.73779,51.24624],[6.74059,51.24482],[6.74164,51.24405],[6.7424,51.24324],[6.74289,51.24263],[6.7435,51.24145],[6.74446,51.23821],[6.74498,51.23703],[6.74611,51.23563],[6.74803,51.23427],[6.74974,51.2347],[6.75076,51.23534],[6.75148,51.23456],[6.75242,51.23504],[6.75489,51.23553],[6.75518,51.23466],[6.75685,51.23487],[6.75896,51.2354],[6.7606,51.23619],[6.76191,51.23424],[6.76261,51.23441],[6.76261,51.2348],[6.7624,51.23514],[6.76258,51.23521],[6.76216,51.23561],[6.76787,51.23624]]]}},{"type":"Feature","properties":{"name":"Golzheim"},"geometry":{"type":"Polygon","coordinates":[[[6.78206,51.24236],[6.77901,51.2461],[6.77299,51.25174],[6.77177,51.2525],[6.77122,51.25333],[6.76829,51.25479],[6.76427,51.25629],[6.76292,51.25715],[6.74791,51.2551],[6.74578,51.2521],[6.74997,51.25095],[6.75262,51.24998],[6.75574,51.24856],[6.75855,51.24697],[6.76108,51.24519],[6.76333,51.2432],[6.76517,51.24112],[6.76666,51.23888],[6.77388,51.23981],[6.78206,51.24236]]]}},{"type":"Feature","properties":{"name":"Derendorf"},"geometry":{"type":"Polygon","coordinates":[[[6.7962,51.24362],[6.79403,51.25],[6.79285,51.2574],[6.79132,51.2627],[6.78864,51.26291],[6.78845,51.26319],[6.78807,51.26307],[6.78617,51.26316],[6.77934,51.263],[6.77701,51.2627],[6.77379,51.26274],[6.77245,51.26247],[6.7716,51.26203],[6.76935,51.26142],[6.76354,51.25932],[6.76191,51.25897],[6.76246,51.25766],[6.76367,51.2566],[6.76876,51.25458],[6.77122,51.25333],[6.77177,51.2525],[6.77299,51.25174],[6.77901,51.2461],[6.78206,51.24236],[6.78745,51.2428],[6.78889,51.24272],[6.79032,51.2431],[6.7962,51.24362]]]}},{"type":"Feature","properties":{"name":"Altstadt"},"geometry":{"type":"Polygon","coordinates":[[[6.77683,51.23076],[6.77607,51.23134],[6.77499,51.23163],[6.76868,51.23149],[6.76846,51.22859],[6.76791,51.22589],[6.77023,51.22541],[6.77125,51.225],[6.77143,51.22459],[6.77219,51.22393],[6.77255,51.22408],[6.77285,51.2238],[6.77423,51.22378],[6.77426,51.22444],[6.77413,51.22463],[6.77565,51.22504],[6.77567,51.22548],[6.77687,51.22553],[6.77708,51.23005],[6.77683,51.23076]]]}},{"type":"Feature","properties":{"name":"Carlstadt"},"geometry":{"type":"Polygon","coordinates":[[[6.77565,51.22504],[6.77413,51.22463],[6.77426,51.22444],[6.77423,51.22378],[6.77285,51.2238],[6.77255,51.22408],[6.77206,51.22401],[6.77143,51.22459],[6.77125,51.225],[6.77023,51.22541],[6.76791,51.22589],[6.76718,51.22437],[6.76615,51.22299],[6.76499,51.22194],[6.76349,51.22103],[6.76573,51.21916],[6.76616,51.21927],[6.76814,51.21903],[6.76973,51.2191],[6.77128,51.2187],[6.77204,51.21908],[6.77544,51.21902],[6.77565,51.22504]]]}},{"type":"Feature","properties":{"name":"Friedrichstadt"},"geometry":{"type":"Polygon","coordinates":[[[6.79217,51.21716],[6.79014,51.21732],[6.79028,51.21966],[6.78567,51.21893],[6.7841,51.21881],[6.77694,51.219],[6.77664,51.21068],[6.77689,51.20977],[6.77668,51.20928],[6.77726,51.20808],[6.78427,51.20932],[6.78621,51.21008],[6.78913,51.21198],[6.78985,51.21277],[6.79065,51.21284],[6.79084,51.21541],[6.79217,51.21716]]]}},{"type":"Feature","properties":{"name":"Mörsenbroich"},"geometry":{"type":"Polygon","coordinates":[[[6.82216,51.25095],[6.82163,51.25088],[6.82133,51.25148],[6.82089,51.2519],[6.81671,51.25454],[6.81295,51.2576],[6.8124,51.25934],[6.81158,51.25974],[6.8118,51.25991],[6.81128,51.2606],[6.79866,51.26269],[6.79594,51.26299],[6.79484,51.26287],[6.79334,51.26234],[6.79239,51.26167],[6.79186,51.26092],[6.79285,51.2574],[6.79361,51.25296],[6.79705,51.25219],[6.80162,51.25055],[6.81437,51.24302],[6.82196,51.24562],[6.82216,51.25095]]]}},{"type":"Feature","properties":{"name":"Grafenberg"},"geometry":{"type":"Polygon","coordinates":[[[6.83945,51.23642],[6.83654,51.23804],[6.83391,51.24003],[6.83355,51.24049],[6.83249,51.24098],[6.83005,51.24159],[6.83075,51.2429],[6.83058,51.2435],[6.82609,51.24761],[6.82521,51.24964],[6.82405,51.25143],[6.82216,51.25095],[6.82179,51.23879],[6.82258,51.23838],[6.82419,51.23982],[6.83095,51.23663],[6.83216,51.23445],[6.83394,51.2347],[6.83429,51.23495],[6.83506,51.23481],[6.83736,51.23527],[6.83945,51.23642]]]}},{"type":"Feature","properties":{"name":"Ludenberg"},"geometry":{"type":"Polygon","coordinates":[[[6.87907,51.26115],[6.87762,51.26145],[6.87559,51.26234],[6.87497,51.26244],[6.87379,51.26197],[6.87289,51.26191],[6.87016,51.26285],[6.86736,51.26424],[6.86366,51.26394],[6.86332,51.26413],[6.86259,51.26381],[6.86129,51.26356],[6.85926,51.26386],[6.85835,51.26385],[6.85797,51.26357],[6.85788,51.26258],[6.85685,51.26146],[6.85685,51.26114],[6.8573,51.26022],[6.85722,51.25996],[6.85605,51.25901],[6.85546,51.25881],[6.85544,51.25834],[6.85015,51.25683],[6.85013,51.25671],[6.85103,51.25635],[6.85135,51.25604],[6.85138,51.25567],[6.85094,51.25529],[6.85002,51.25522],[6.84783,51.25612],[6.8467,51.25631],[6.83624,51.25356],[6.8366,51.25464],[6.8362,51.25483],[6.83558,51.25485],[6.83165,51.25304],[6.82405,51.25143],[6.82521,51.24964],[6.82609,51.24761],[6.83058,51.2435],[6.83075,51.2429],[6.83005,51.24159],[6.83249,51.24098],[6.83355,51.24049],[6.83391,51.24003],[6.83637,51.23817],[6.8378,51.23878],[6.83762,51.23909],[6.83948,51.24018],[6.8419,51.24079],[6.84342,51.24089],[6.85028,51.24288],[6.85185,51.24349],[6.85435,51.24496],[6.85603,51.24556],[6.85743,51.24428],[6.86088,51.23987],[6.86126,51.23993],[6.86142,51.23973],[6.86486,51.23984],[6.86564,51.24007],[6.86585,51.24065],[6.86614,51.24077],[6.86689,51.24066],[6.86842,51.23981],[6.87151,51.2398],[6.87075,51.24245],[6.87076,51.24369],[6.87136,51.24517],[6.87234,51.24569],[6.87312,51.24729],[6.87373,51.24972],[6.87523,51.253],[6.87856,51.25643],[6.8786,51.25687],[6.87803,51.2582],[6.87803,51.25856],[6.87854,51.25947],[6.87907,51.26115]]]}},{"type":"Feature","properties":{"name":"Vennhausen"},"geometry":{"type":"Polygon","coordinates":[[[6.88052,51.20617],[6.8785,51.20791],[6.87619,51.20951],[6.86807,51.21402],[6.86657,51.21567],[6.86649,51.21669],[6.8663,51.21707],[6.86383,51.2163],[6.86167,51.21652],[6.86029,51.21547],[6.85689,51.21571],[6.85669,51.21757],[6.85491,51.21781],[6.8553,51.21925],[6.85446,51.21952],[6.85423,51.2201],[6.84407,51.22001],[6.83976,51.22046],[6.84742,51.20674],[6.84877,51.20491],[6.8496,51.20416],[6.85091,51.2034],[6.85649,51.20125],[6.86105,51.19925],[6.88052,51.20617]]]}},{"type":"Feature","properties":{"name":"Reisholz"},"geometry":{"type":"Polygon","coordinates":[[[6.87124,51.17034],[6.86677,51.17481],[6.85799,51.18437],[6.85434,51.18746],[6.85374,51.18718],[6.8553,51.18514],[6.8545,51.18491],[6.85023,51.18571],[6.84816,51.18355],[6.8465,51.18118],[6.84634,51.17839],[6.8471,51.17557],[6.84742,51.17502],[6.84791,51.1751],[6.84847,51.17486],[6.85311,51.17191],[6.85347,51.17163],[6.85344,51.17138],[6.85601,51.17043],[6.86093,51.17008],[6.86616,51.17045],[6.86959,51.16981],[6.87124,51.17034]]]}},{"type":"Feature","properties":{"name":"Düsseltal"},"geometry":{"type":"Polygon","coordinates":[[[6.82196,51.24562],[6.81437,51.24302],[6.80162,51.25055],[6.79705,51.25219],[6.79361,51.25296],[6.79403,51.25],[6.79741,51.24013],[6.79726,51.23476],[6.7975,51.23205],[6.79802,51.22993],[6.80681,51.23145],[6.81741,51.23399],[6.81992,51.23578],[6.82258,51.23838],[6.82171,51.23893],[6.82196,51.24562]]]}},{"type":"Feature","properties":{"name":"Unterrath"},"geometry":{"type":"Polygon","coordinates":[[[6.7977,51.27522],[6.79464,51.27544],[6.79359,51.27568],[6.79392,51.27578],[6.79427,51.27635],[6.7947,51.27778],[6.79475,51.27897],[6.79444,51.2815],[6.79309,51.28123],[6.78483,51.28067],[6.78161,51.28021],[6.77684,51.28048],[6.77627,51.28141],[6.77332,51.28131],[6.77366,51.28033],[6.76977,51.27968],[6.76925,51.27972],[6.76899,51.2792],[6.76936,51.27875],[6.76919,51.27823],[6.76869,51.2776],[6.76812,51.2772],[6.76836,51.27711],[6.7681,51.27679],[6.76781,51.27678],[6.76661,51.27503],[6.76297,51.27361],[6.76306,51.27352],[6.76243,51.27286],[6.761,51.27303],[6.75979,51.27295],[6.7597,51.27263],[6.76036,51.27171],[6.76033,51.27141],[6.7593,51.27148],[6.75927,51.27128],[6.76003,51.27084],[6.75997,51.27034],[6.76136,51.26593],[6.762,51.265],[6.76285,51.26236],[6.76303,51.26172],[6.76298,51.26122],[6.76241,51.26063],[6.76305,51.25922],[6.76935,51.26142],[6.7716,51.26203],[6.77245,51.26247],[6.77404,51.26277],[6.77701,51.2627],[6.77934,51.263],[6.78617,51.26316],[6.78807,51.26307],[6.78853,51.26319],[6.78864,51.26291],[6.79132,51.2627],[6.79186,51.26092],[6.79239,51.26167],[6.7931,51.26221],[6.79419,51.26269],[6.79541,51.26295],[6.79363,51.27015],[6.79358,51.27141],[6.79398,51.27247],[6.79475,51.27341],[6.79576,51.27417],[6.7977,51.27522]]]}},{"type":"Feature","properties":{"name":"Flehe"},"geometry":{"type":"Polygon","coordinates":[[[6.80395,51.18061],[6.79988,51.18312],[6.79195,51.18697],[6.79218,51.18713],[6.78997,51.18865],[6.78829,51.19046],[6.78737,51.19122],[6.78661,51.19219],[6.78561,51.1929],[6.78375,51.19577],[6.77667,51.19445],[6.77611,51.19547],[6.77557,51.19713],[6.76881,51.19595],[6.76857,51.19602],[6.76815,51.19559],[6.76693,51.1932],[6.7657,51.19242],[6.76581,51.19164],[6.76563,51.19013],[6.76856,51.18879],[6.7695,51.18799],[6.77071,51.1873],[6.76899,51.18604],[6.76901,51.18592],[6.7731,51.18677],[6.77385,51.18519],[6.7764,51.18554],[6.77907,51.18564],[6.78175,51.18546],[6.78431,51.18502],[6.78703,51.18423],[6.78971,51.18311],[6.79203,51.1818],[6.79405,51.18026],[6.796,51.1811],[6.7969,51.18128],[6.7992,51.18101],[6.80011,51.18075],[6.80208,51.18069],[6.80294,51.18041],[6.80395,51.18061]]]}},{"type":"Feature","properties":{"name":"Himmelgeist"},"geometry":{"type":"Polygon","coordinates":[[[6.81809,51.14564],[6.81671,51.14667],[6.81608,51.14788],[6.81452,51.14994],[6.81194,51.15435],[6.81142,51.15606],[6.81232,51.15631],[6.81239,51.15647],[6.80855,51.16087],[6.80871,51.16154],[6.80956,51.16191],[6.80952,51.16224],[6.80918,51.16267],[6.81238,51.16395],[6.8112,51.16533],[6.8097,51.16596],[6.8087,51.16668],[6.8098,51.16691],[6.80948,51.16779],[6.80934,51.16967],[6.80965,51.17077],[6.81007,51.17126],[6.80987,51.17369],[6.80969,51.17432],[6.80979,51.17496],[6.81016,51.17558],[6.80395,51.18061],[6.80294,51.18041],[6.80208,51.18069],[6.80011,51.18075],[6.7992,51.18101],[6.7969,51.18128],[6.796,51.1811],[6.79405,51.18026],[6.79593,51.17824],[6.79721,51.17609],[6.79806,51.17333],[6.79836,51.17047],[6.79814,51.16778],[6.79745,51.16517],[6.79641,51.16279],[6.79405,51.15867],[6.79337,51.15692],[6.79291,51.15517],[6.79276,51.15341],[6.79296,51.15161],[6.79352,51.14984],[6.79434,51.14833],[6.79613,51.14643],[6.79864,51.14484],[6.8016,51.14371],[6.805,51.14304],[6.80847,51.14291],[6.81188,51.14331],[6.81493,51.14417],[6.81809,51.14564]]]}},{"type":"Feature","properties":{"name":"Lierenfeld"},"geometry":{"type":"Polygon","coordinates":[[[6.83991,51.22009],[6.83976,51.22046],[6.83741,51.22078],[6.82395,51.22391],[6.82124,51.21942],[6.8188,51.21606],[6.81669,51.21374],[6.81421,51.21134],[6.81914,51.2078],[6.8245,51.20522],[6.82741,51.20343],[6.82933,51.20394],[6.82995,51.20446],[6.82964,51.20481],[6.82931,51.20563],[6.83104,51.20523],[6.83362,51.20614],[6.83478,51.20612],[6.83733,51.20663],[6.83682,51.20767],[6.83661,51.20879],[6.83544,51.2087],[6.83529,51.20948],[6.83504,51.20947],[6.8347,51.2103],[6.83422,51.21059],[6.8359,51.2119],[6.83657,51.21205],[6.83647,51.21249],[6.83892,51.21617],[6.83887,51.21668],[6.83963,51.21942],[6.83953,51.21998],[6.83991,51.22009]]]}},{"type":"Feature","properties":{"name":"Bilk"},"geometry":{"type":"Polygon","coordinates":[[[6.80838,51.19328],[6.8033,51.19506],[6.79711,51.19684],[6.79751,51.19768],[6.79798,51.19813],[6.79568,51.19784],[6.79506,51.19961],[6.79484,51.19968],[6.79494,51.19987],[6.79466,51.20185],[6.7944,51.20249],[6.79409,51.20274],[6.79417,51.20304],[6.79333,51.20552],[6.79363,51.20832],[6.79354,51.20946],[6.79218,51.21017],[6.79126,51.211],[6.79077,51.21194],[6.7906,51.21287],[6.78985,51.21277],[6.78932,51.21215],[6.7885,51.21154],[6.78621,51.21008],[6.78497,51.20951],[6.77236,51.20728],[6.77081,51.20727],[6.7694,51.20748],[6.76411,51.20937],[6.75856,51.2104],[6.75711,51.20717],[6.75548,51.20097],[6.75435,51.20096],[6.7541,51.19977],[6.75327,51.19872],[6.7524,51.1971],[6.75085,51.19504],[6.75036,51.1946],[6.75407,51.19319],[6.76149,51.19157],[6.76563,51.19013],[6.76581,51.19164],[6.76571,51.19246],[6.76693,51.1932],[6.76815,51.19559],[6.76857,51.19602],[6.76881,51.19595],[6.77557,51.19713],[6.77611,51.19547],[6.77667,51.19445],[6.78375,51.19577],[6.78561,51.1929],[6.78661,51.19219],[6.78737,51.19122],[6.78829,51.19046],[6.78997,51.18865],[6.79218,51.18713],[6.79195,51.18697],[6.79988,51.18312],[6.80395,51.18061],[6.8045,51.18112],[6.80401,51.18267],[6.804,51.18321],[6.80497,51.18614],[6.80577,51.18945],[6.80604,51.18971],[6.80586,51.1898],[6.806,51.19076],[6.80563,51.19078],[6.80602,51.19125],[6.80804,51.19166],[6.80808,51.19245],[6.80838,51.19328]]]}},{"type":"Feature","properties":{"name":"Wersten"},"geometry":{"type":"Polygon","coordinates":[[[6.84422,51.18866],[6.844,51.18986],[6.83709,51.19013],[6.82959,51.1902],[6.82603,51.19048],[6.82703,51.19384],[6.82692,51.19384],[6.82696,51.19413],[6.82584,51.19419],[6.82591,51.19441],[6.82473,51.19434],[6.82326,51.19463],[6.82091,51.19562],[6.81711,51.19677],[6.81423,51.19834],[6.81188,51.19833],[6.81198,51.19767],[6.81136,51.19767],[6.81068,51.19795],[6.81059,51.19817],[6.80949,51.19875],[6.80621,51.19917],[6.80415,51.19961],[6.79867,51.19849],[6.79759,51.19777],[6.79711,51.19684],[6.8033,51.19506],[6.80838,51.19328],[6.80808,51.19245],[6.80804,51.19166],[6.80602,51.19125],[6.80563,51.19078],[6.806,51.19076],[6.80586,51.1898],[6.80604,51.18971],[6.80577,51.18945],[6.80497,51.18614],[6.804,51.18321],[6.80401,51.18267],[6.8045,51.18112],[6.80395,51.18061],[6.81051,51.17532],[6.81101,51.17557],[6.81181,51.17553],[6.81221,51.17587],[6.81341,51.17641],[6.81384,51.1772],[6.81491,51.17757],[6.81697,51.17881],[6.8183,51.17932],[6.81904,51.17982],[6.81937,51.17979],[6.81949,51.17954],[6.82128,51.17857],[6.82394,51.17945],[6.82615,51.17802],[6.82803,51.17913],[6.83496,51.18009],[6.83559,51.18309],[6.83735,51.18236],[6.83883,51.1827],[6.84306,51.18721],[6.84401,51.18801],[6.84422,51.18866]]]}},{"type":"Feature","properties":{"name":"Holthausen"},"geometry":{"type":"Polygon","coordinates":[[[6.8553,51.18514],[6.85374,51.18718],[6.85434,51.18746],[6.85015,51.19016],[6.844,51.18986],[6.84422,51.18866],[6.84407,51.18809],[6.84306,51.18721],[6.83889,51.18274],[6.83735,51.18236],[6.83559,51.18309],[6.83499,51.1801],[6.82803,51.17913],[6.82615,51.17802],[6.82394,51.17945],[6.82128,51.17857],[6.81949,51.17954],[6.81937,51.17979],[6.81904,51.17982],[6.8183,51.17932],[6.81697,51.17881],[6.81491,51.17757],[6.81384,51.1772],[6.81341,51.17641],[6.81221,51.17587],[6.81181,51.17553],[6.81101,51.17557],[6.81051,51.17532],[6.81465,51.17273],[6.81961,51.17044],[6.82503,51.16891],[6.82763,51.16852],[6.82578,51.16625],[6.82517,51.16605],[6.82228,51.1657],[6.82231,51.1647],[6.82411,51.16405],[6.82443,51.16348],[6.82564,51.16257],[6.82314,51.16121],[6.82665,51.15645],[6.82866,51.15565],[6.83155,51.15792],[6.83493,51.15999],[6.83754,51.16118],[6.8404,51.16197],[6.84377,51.16238],[6.84721,51.16229],[6.85058,51.16168],[6.85347,51.16063],[6.85367,51.1626],[6.84776,51.1658],[6.85269,51.16991],[6.85324,51.17077],[6.85347,51.17163],[6.84847,51.17486],[6.84791,51.1751],[6.84742,51.17502],[6.8471,51.17557],[6.84634,51.17839],[6.84634,51.17997],[6.84641,51.1809],[6.84673,51.18161],[6.84792,51.18305],[6.84816,51.18355],[6.85023,51.18571],[6.8545,51.18491],[6.8553,51.18514]]]}},{"type":"Feature","properties":{"name":"Benrath"},"geometry":{"type":"Polygon","coordinates":[[[6.9002,51.16715],[6.89878,51.1725],[6.89574,51.17337],[6.89534,51.17366],[6.88621,51.17631],[6.88325,51.17343],[6.88082,51.17178],[6.87829,51.17382],[6.87378,51.17165],[6.87406,51.17075],[6.87385,51.17026],[6.87339,51.16996],[6.87242,51.17081],[6.86959,51.16981],[6.86638,51.17045],[6.86134,51.17006],[6.85649,51.17036],[6.85548,51.17057],[6.85344,51.17138],[6.85316,51.17059],[6.85269,51.16991],[6.84776,51.1658],[6.85367,51.1626],[6.85347,51.16063],[6.85531,51.15945],[6.85662,51.15805],[6.85734,51.1565],[6.85744,51.1549],[6.86932,51.15507],[6.87014,51.15444],[6.8709,51.15423],[6.86979,51.15355],[6.86893,51.15157],[6.87251,51.15041],[6.87449,51.15157],[6.87697,51.15362],[6.87807,51.15297],[6.87985,51.15403],[6.88813,51.15716],[6.89034,51.15894],[6.89068,51.15888],[6.89132,51.15942],[6.89235,51.15925],[6.89288,51.15943],[6.89347,51.15936],[6.89366,51.15928],[6.8937,51.15905],[6.89407,51.1589],[6.89662,51.15821],[6.89731,51.15846],[6.89797,51.15838],[6.89825,51.15873],[6.89822,51.16389],[6.89689,51.16453],[6.89848,51.167],[6.9002,51.16715]]]}},{"type":"Feature","properties":{"name":"Pempelfort"},"geometry":{"type":"Polygon","coordinates":[[[6.79803,51.23003],[6.7975,51.23205],[6.79726,51.23476],[6.79743,51.24002],[6.7962,51.24362],[6.79032,51.2431],[6.78889,51.24272],[6.78745,51.2428],[6.78206,51.24236],[6.77388,51.23981],[6.76666,51.23888],[6.76757,51.23703],[6.76821,51.23512],[6.76856,51.23336],[6.76868,51.23149],[6.77333,51.23165],[6.77541,51.23156],[6.77607,51.23134],[6.77674,51.23087],[6.77702,51.23046],[6.77704,51.22974],[6.78092,51.23018],[6.7813,51.22855],[6.78281,51.229],[6.7873,51.22883],[6.78734,51.22781],[6.78883,51.22817],[6.79061,51.22818],[6.7929,51.22887],[6.79709,51.22969],[6.79803,51.23003]]]}},{"type":"Feature","properties":{"name":"Unterbilk"},"geometry":{"type":"Polygon","coordinates":[[[6.77694,51.219],[6.77204,51.21908],[6.77128,51.2187],[6.76999,51.21907],[6.76814,51.21903],[6.76616,51.21927],[6.76497,51.2185],[6.76384,51.21806],[6.7625,51.2178],[6.76251,51.21744],[6.76234,51.2173],[6.7578,51.2157],[6.75572,51.21437],[6.75206,51.21303],[6.75077,51.21231],[6.75056,51.21194],[6.76388,51.20943],[6.7687,51.20767],[6.77014,51.20734],[6.77255,51.2073],[6.77726,51.20808],[6.77668,51.20928],[6.77689,51.20977],[6.77664,51.21068],[6.77694,51.219]]]}},{"type":"Feature","properties":{"name":"Oberkassel"},"geometry":{"type":"Polygon","coordinates":[[[6.76868,51.23195],[6.76843,51.23416],[6.76787,51.23624],[6.76216,51.23561],[6.76258,51.23521],[6.7624,51.23514],[6.76261,51.2348],[6.76261,51.23441],[6.76191,51.23424],[6.7606,51.23619],[6.75896,51.2354],[6.75685,51.23487],[6.75518,51.23466],[6.75489,51.23553],[6.75242,51.23504],[6.75148,51.23456],[6.75076,51.23534],[6.74974,51.2347],[6.74803,51.23427],[6.74611,51.23563],[6.74511,51.23682],[6.74446,51.23821],[6.74373,51.24082],[6.74026,51.24075],[6.73911,51.2405],[6.73806,51.24006],[6.73701,51.23925],[6.73386,51.23571],[6.7332,51.23514],[6.73233,51.23468],[6.73058,51.23426],[6.72732,51.23431],[6.72756,51.23292],[6.72912,51.2289],[6.73108,51.2292],[6.73317,51.22924],[6.73519,51.22902],[6.73715,51.22854],[6.74091,51.22713],[6.7444,51.22551],[6.74702,51.22406],[6.75083,51.22157],[6.75207,51.22092],[6.75433,51.22018],[6.75677,51.21983],[6.75945,51.21992],[6.76196,51.22045],[6.76415,51.22139],[6.76587,51.2227],[6.76718,51.22437],[6.768,51.22615],[6.76851,51.22896],[6.76868,51.23195]]]}},{"type":"Feature","properties":{"name":"Stadtmitte"},"geometry":{"type":"Polygon","coordinates":[[[6.79958,51.22495],[6.79947,51.22589],[6.79802,51.22993],[6.7929,51.22887],[6.79061,51.22818],[6.78883,51.22817],[6.78734,51.22781],[6.7873,51.22883],[6.78281,51.229],[6.7813,51.22855],[6.78092,51.23018],[6.77704,51.22974],[6.77687,51.22553],[6.77567,51.22548],[6.77544,51.21902],[6.7841,51.21881],[6.78567,51.21893],[6.79028,51.21966],[6.79014,51.21732],[6.79217,51.21716],[6.7945,51.21864],[6.79662,51.22045],[6.79669,51.22078],[6.79723,51.22123],[6.79746,51.2222],[6.79922,51.22409],[6.79958,51.22495]]]}},{"type":"Feature","properties":{"name":"Flingern Süd"},"geometry":{"type":"Polygon","coordinates":[[[6.82395,51.22391],[6.81453,51.22605],[6.81231,51.22621],[6.80555,51.22616],[6.80239,51.22606],[6.80074,51.22568],[6.79951,51.2249],[6.79922,51.22409],[6.79876,51.22357],[6.80068,51.22351],[6.80199,51.22226],[6.80291,51.22243],[6.80553,51.21984],[6.8074,51.21825],[6.80807,51.21729],[6.80934,51.21619],[6.81212,51.21318],[6.8144,51.21149],[6.8188,51.21606],[6.82124,51.21942],[6.82395,51.22391]]]}},{"type":"Feature","properties":{"name":"Oberbilk"},"geometry":{"type":"Polygon","coordinates":[[[6.82593,51.1957],[6.82573,51.19585],[6.82509,51.19551],[6.82421,51.19595],[6.8241,51.19584],[6.82193,51.19712],[6.82076,51.19829],[6.81907,51.19946],[6.81702,51.20122],[6.81436,51.20428],[6.8145,51.20536],[6.81653,51.20432],[6.8174,51.20413],[6.81924,51.20429],[6.82088,51.20459],[6.82096,51.20473],[6.82197,51.20497],[6.82215,51.20463],[6.82352,51.20474],[6.82429,51.20528],[6.81914,51.2078],[6.81446,51.21113],[6.81421,51.21134],[6.8144,51.21149],[6.81212,51.21318],[6.80934,51.21619],[6.80807,51.21729],[6.8074,51.21825],[6.80553,51.21984],[6.80291,51.22243],[6.80199,51.22226],[6.80068,51.22351],[6.79876,51.22357],[6.7975,51.22225],[6.79723,51.22123],[6.79669,51.22078],[6.79662,51.22045],[6.79446,51.21861],[6.7923,51.21727],[6.7909,51.21558],[6.7907,51.21493],[6.79069,51.21224],[6.79097,51.21145],[6.79152,51.21071],[6.79238,51.21004],[6.79354,51.20946],[6.79363,51.20832],[6.79333,51.20552],[6.79417,51.20304],[6.79409,51.20274],[6.7944,51.20249],[6.79466,51.20185],[6.79494,51.19987],[6.79484,51.19968],[6.79506,51.19961],[6.79568,51.19784],[6.79798,51.19813],[6.79867,51.19849],[6.80432,51.19961],[6.80621,51.19917],[6.80949,51.19875],[6.81059,51.19817],[6.81068,51.19795],[6.81136,51.19767],[6.81198,51.19767],[6.81188,51.19833],[6.81436,51.19831],[6.81722,51.19673],[6.82077,51.19566],[6.82326,51.19463],[6.82406,51.19445],[6.82485,51.19433],[6.82591,51.19441],[6.82593,51.1957]]]}},{"type":"Feature","properties":{"name":"Flingern Nord"},"geometry":{"type":"Polygon","coordinates":[[[6.83976,51.22046],[6.83855,51.22268],[6.8384,51.22345],[6.83809,51.22403],[6.83095,51.23663],[6.82419,51.23982],[6.81992,51.23578],[6.81725,51.23393],[6.80681,51.23145],[6.79802,51.22993],[6.79947,51.22589],[6.79958,51.22495],[6.7999,51.22525],[6.80116,51.22583],[6.8029,51.22611],[6.81398,51.22611],[6.81644,51.22571],[6.83741,51.22078],[6.83976,51.22046]]]}},{"type":"Feature","properties":{"name":"Eller"},"geometry":{"type":"Polygon","coordinates":[[[6.87957,51.19002],[6.8669,51.19614],[6.86467,51.19745],[6.86067,51.19944],[6.85649,51.20125],[6.85124,51.20325],[6.8496,51.20416],[6.84852,51.20518],[6.84756,51.20649],[6.83996,51.22001],[6.83953,51.21998],[6.83963,51.21942],[6.83887,51.21668],[6.83892,51.21617],[6.83647,51.21249],[6.83657,51.21205],[6.8359,51.2119],[6.83422,51.21059],[6.8347,51.2103],[6.83504,51.20947],[6.83529,51.20948],[6.83544,51.2087],[6.83661,51.20879],[6.83682,51.20767],[6.83733,51.20663],[6.83478,51.20612],[6.83362,51.20614],[6.83104,51.20523],[6.82931,51.20563],[6.82964,51.20481],[6.82995,51.20446],[6.82933,51.20394],[6.82741,51.20343],[6.82429,51.20528],[6.82352,51.20474],[6.82215,51.20463],[6.82197,51.20497],[6.82096,51.20473],[6.82088,51.20459],[6.81924,51.20429],[6.8174,51.20413],[6.81653,51.20432],[6.81443,51.20535],[6.81436,51.20428],[6.81702,51.20122],[6.81868,51.19978],[6.82076,51.19829],[6.8217,51.19729],[6.8238,51.19596],[6.8241,51.19584],[6.82421,51.19595],[6.82509,51.19551],[6.82573,51.19585],[6.82591,51.19575],[6.82584,51.19419],[6.82696,51.19413],[6.82692,51.19384],[6.82703,51.19384],[6.82603,51.19048],[6.82959,51.1902],[6.83709,51.19013],[6.844,51.18986],[6.85443,51.19031],[6.87172,51.18989],[6.87957,51.19002]]]}},{"type":"Feature","properties":{"name":"Urdenbach"},"geometry":{"type":"Polygon","coordinates":[[[6.8961,51.13527],[6.89606,51.13545],[6.89583,51.13553],[6.89584,51.13601],[6.89556,51.13599],[6.89565,51.13615],[6.89512,51.13615],[6.89471,51.13666],[6.89465,51.13748],[6.89455,51.13746],[6.89464,51.13796],[6.89432,51.13797],[6.89351,51.13883],[6.89326,51.13886],[6.89245,51.1399],[6.8893,51.14106],[6.88615,51.14198],[6.87935,51.14372],[6.87921,51.14507],[6.8799,51.14569],[6.88967,51.14783],[6.88629,51.14908],[6.88833,51.14991],[6.88773,51.15046],[6.8901,51.15149],[6.88542,51.15615],[6.87968,51.15396],[6.87807,51.15297],[6.87697,51.15362],[6.87449,51.15157],[6.87251,51.15041],[6.86893,51.15157],[6.86979,51.15355],[6.8709,51.15423],[6.87014,51.15444],[6.86932,51.15507],[6.85744,51.1549],[6.85714,51.15377],[6.85653,51.15269],[6.85486,51.15051],[6.85193,51.14716],[6.85024,51.14462],[6.8489,51.14154],[6.84828,51.13848],[6.8483,51.13691],[6.84861,51.13524],[6.84918,51.13365],[6.85002,51.13211],[6.85111,51.13064],[6.85253,51.12914],[6.85615,51.12624],[6.85967,51.12815],[6.8586,51.12945],[6.85799,51.1299],[6.85688,51.13036],[6.85709,51.13043],[6.85714,51.13123],[6.8622,51.1297],[6.8619,51.12923],[6.86474,51.12917],[6.86476,51.12903],[6.86767,51.12933],[6.86904,51.1292],[6.87291,51.13144],[6.8751,51.13004],[6.87446,51.12852],[6.87657,51.12828],[6.87816,51.12837],[6.88046,51.12806],[6.88248,51.12773],[6.8829,51.12745],[6.88407,51.12712],[6.88439,51.12813],[6.88571,51.12821],[6.88997,51.12915],[6.89183,51.12991],[6.8927,51.13087],[6.89328,51.12954],[6.89439,51.12908],[6.89441,51.12934],[6.89398,51.12968],[6.89432,51.13014],[6.89442,51.1309],[6.89361,51.13105],[6.89452,51.1315],[6.89452,51.1319],[6.89499,51.13231],[6.89522,51.13351],[6.89582,51.1338],[6.89555,51.13392],[6.89555,51.1341],[6.89594,51.13428],[6.89588,51.13491],[6.8961,51.13527]]]}},{"type":"Feature","properties":{"name":"Hellerhof"},"geometry":{"type":"Polygon","coordinates":[[[6.92512,51.13657],[6.92476,51.13729],[6.92506,51.1374],[6.92461,51.13838],[6.92323,51.14021],[6.92342,51.14225],[6.92107,51.1425],[6.91987,51.14112],[6.91769,51.14094],[6.91823,51.14008],[6.91453,51.13996],[6.91127,51.14032],[6.91083,51.13861],[6.90921,51.13861],[6.90773,51.13756],[6.90723,51.1375],[6.90699,51.1369],[6.90667,51.13767],[6.9054,51.13737],[6.9049,51.13681],[6.90443,51.13659],[6.9044,51.13627],[6.90484,51.13578],[6.9048,51.13549],[6.9039,51.13546],[6.90303,51.13516],[6.90289,51.13501],[6.90303,51.13482],[6.90293,51.13471],[6.90211,51.13475],[6.90224,51.13459],[6.90213,51.13425],[6.90244,51.13401],[6.9017,51.13359],[6.90136,51.13311],[6.90099,51.13317],[6.90086,51.13288],[6.90002,51.13251],[6.89919,51.13245],[6.89944,51.13224],[6.89895,51.132],[6.89906,51.13171],[6.89878,51.13149],[6.89898,51.13114],[6.89878,51.13088],[6.89733,51.1302],[6.89442,51.1309],[6.89432,51.13014],[6.89398,51.12968],[6.8944,51.12927],[6.89554,51.12943],[6.8966,51.12888],[6.89762,51.12917],[6.89904,51.12438],[6.90703,51.12735],[6.90856,51.12649],[6.9128,51.12839],[6.91312,51.12807],[6.91637,51.12948],[6.91704,51.12893],[6.91894,51.12976],[6.91831,51.13052],[6.91813,51.13359],[6.91925,51.13403],[6.91865,51.13459],[6.92117,51.13537],[6.92235,51.13551],[6.92218,51.13612],[6.92512,51.13657]]]}},{"type":"Feature","properties":{"name":"Garath"},"geometry":{"type":"Polygon","coordinates":[[[6.91823,51.14008],[6.91728,51.14167],[6.91543,51.14259],[6.91395,51.14473],[6.91278,51.14576],[6.9114,51.14661],[6.91011,51.14603],[6.90887,51.14617],[6.90761,51.14744],[6.9076,51.14768],[6.90706,51.148],[6.90664,51.14804],[6.90652,51.14892],[6.90586,51.15043],[6.90262,51.15135],[6.8998,51.1517],[6.89705,51.15309],[6.89407,51.15506],[6.89337,51.15615],[6.8928,51.15664],[6.89133,51.15739],[6.89125,51.15866],[6.89045,51.15899],[6.88825,51.15722],[6.88542,51.15615],[6.8901,51.15149],[6.88773,51.15046],[6.88833,51.14991],[6.88629,51.14908],[6.88963,51.14777],[6.8799,51.14569],[6.87921,51.14507],[6.87935,51.14372],[6.88615,51.14198],[6.8893,51.14106],[6.89245,51.1399],[6.89326,51.13886],[6.89351,51.13883],[6.89432,51.13797],[6.89464,51.13796],[6.89455,51.13746],[6.89465,51.13748],[6.89471,51.13666],[6.89512,51.13615],[6.89565,51.13615],[6.89556,51.13599],[6.89584,51.13601],[6.89583,51.13553],[6.89606,51.13545],[6.8961,51.13527],[6.89588,51.13491],[6.89594,51.13428],[6.89555,51.1341],[6.89555,51.13392],[6.89582,51.1338],[6.89522,51.13351],[6.89499,51.13231],[6.89452,51.1319],[6.89452,51.1315],[6.89361,51.13105],[6.89715,51.13021],[6.89762,51.13026],[6.89893,51.13103],[6.89898,51.13123],[6.89878,51.13149],[6.89906,51.13171],[6.89895,51.132],[6.89942,51.13219],[6.89916,51.1324],[6.8993,51.13254],[6.90002,51.13251],[6.90086,51.13288],[6.90099,51.13317],[6.90136,51.13311],[6.9017,51.13359],[6.90244,51.13401],[6.90213,51.13425],[6.90224,51.13459],[6.90211,51.13475],[6.90293,51.13471],[6.90303,51.13482],[6.90289,51.13501],[6.90303,51.13516],[6.9039,51.13546],[6.9048,51.13548],[6.90484,51.13578],[6.9044,51.13627],[6.90443,51.13659],[6.9049,51.13681],[6.90541,51.13738],[6.90667,51.13767],[6.90699,51.1369],[6.90723,51.1375],[6.90773,51.13756],[6.90921,51.13861],[6.91083,51.13861],[6.91127,51.14032],[6.91453,51.13996],[6.91823,51.14008]]]}},{"type":"Feature","properties":{"name":"Hassels"},"geometry":{"type":"Polygon","coordinates":[[[6.90502,51.17655],[6.88518,51.18718],[6.87957,51.19002],[6.87172,51.18989],[6.85531,51.1903],[6.85015,51.19016],[6.85434,51.18746],[6.85745,51.18488],[6.86677,51.17481],[6.87124,51.17034],[6.87242,51.17081],[6.87339,51.16996],[6.87353,51.17001],[6.87385,51.17026],[6.87407,51.17081],[6.87378,51.17165],[6.87829,51.17382],[6.88082,51.17178],[6.88325,51.17343],[6.88621,51.17631],[6.89552,51.17365],[6.90044,51.17478],[6.90412,51.17664],[6.90457,51.1764],[6.90502,51.17655]]]}},{"type":"Feature","properties":{"name":"Unterbach"},"geometry":{"type":"Polygon","coordinates":[[[6.9213,51.19269],[6.92128,51.1928],[6.9188,51.19287],[6.91715,51.19359],[6.91568,51.19348],[6.91469,51.19315],[6.91213,51.19446],[6.90937,51.19555],[6.90954,51.19563],[6.90959,51.19591],[6.90929,51.19671],[6.90681,51.1986],[6.90643,51.19946],[6.90645,51.20066],[6.90518,51.20132],[6.9054,51.20264],[6.90587,51.20342],[6.90885,51.20621],[6.91005,51.20753],[6.91104,51.20892],[6.91094,51.20895],[6.91181,51.21075],[6.91042,51.21095],[6.91059,51.21139],[6.90871,51.21164],[6.90726,51.21075],[6.90682,51.21071],[6.90672,51.2108],[6.90713,51.21129],[6.90639,51.21178],[6.90539,51.21139],[6.90285,51.21128],[6.90295,51.21097],[6.90114,51.21143],[6.89914,51.21222],[6.89912,51.21263],[6.89949,51.21284],[6.89708,51.21313],[6.8949,51.2132],[6.8938,51.21268],[6.89074,51.21256],[6.89011,51.21392],[6.88931,51.21416],[6.88658,51.21392],[6.88543,51.21341],[6.8851,51.21379],[6.88425,51.21426],[6.88289,51.21454],[6.8821,51.21453],[6.88118,51.21575],[6.88103,51.21573],[6.88083,51.21483],[6.88099,51.21452],[6.8808,51.21419],[6.8796,51.21419],[6.87938,51.21405],[6.87853,51.21398],[6.8784,51.21408],[6.87856,51.21463],[6.8778,51.21506],[6.87827,51.21529],[6.87769,51.21587],[6.87725,51.21582],[6.87486,51.21835],[6.87237,51.21738],[6.87157,51.21759],[6.87057,51.21759],[6.86912,51.2175],[6.86775,51.2172],[6.86648,51.21674],[6.86648,51.21586],[6.86727,51.21476],[6.86838,51.2138],[6.87619,51.20951],[6.8785,51.20791],[6.88052,51.20617],[6.86105,51.19925],[6.86467,51.19745],[6.8669,51.19614],[6.88349,51.18807],[6.90502,51.17655],[6.90574,51.17675],[6.90489,51.17724],[6.91457,51.17874],[6.91424,51.18104],[6.91257,51.18089],[6.91081,51.18376],[6.91027,51.18719],[6.91042,51.18731],[6.91027,51.18741],[6.91303,51.18821],[6.91417,51.18825],[6.91462,51.18731],[6.91648,51.18738],[6.92056,51.18894],[6.91562,51.1921],[6.91735,51.1922],[6.91713,51.19245],[6.91765,51.19252],[6.9213,51.19269]]]}},{"type":"Feature","properties":{"name":"Gerresheim"},"geometry":{"type":"Polygon","coordinates":[[[6.88005,51.22802],[6.87972,51.22819],[6.87982,51.22826],[6.87579,51.23024],[6.87713,51.23119],[6.87697,51.23217],[6.87319,51.23235],[6.87269,51.2331],[6.87253,51.23814],[6.87164,51.23914],[6.87151,51.2398],[6.86842,51.23981],[6.86689,51.24066],[6.86614,51.24077],[6.86585,51.24065],[6.86564,51.24007],[6.86486,51.23984],[6.86142,51.23973],[6.86126,51.23993],[6.86088,51.23987],[6.85743,51.24428],[6.85603,51.24556],[6.85435,51.24496],[6.85185,51.24349],[6.85028,51.24288],[6.84342,51.24089],[6.84177,51.24076],[6.8393,51.24011],[6.83762,51.23909],[6.8378,51.23878],[6.83637,51.23817],[6.83945,51.23642],[6.83736,51.23527],[6.83506,51.23481],[6.83429,51.23495],[6.83394,51.2347],[6.83216,51.23445],[6.83809,51.22403],[6.8384,51.22345],[6.83855,51.22268],[6.83976,51.22046],[6.84407,51.22001],[6.85423,51.2201],[6.85446,51.21952],[6.8553,51.21925],[6.85491,51.21781],[6.85669,51.21757],[6.85689,51.21571],[6.86029,51.21547],[6.86176,51.21655],[6.86383,51.2163],[6.86596,51.21703],[6.8663,51.21707],[6.86657,51.21675],[6.86775,51.2172],[6.86912,51.2175],[6.8715,51.21759],[6.87237,51.21738],[6.87486,51.21835],[6.87333,51.21997],[6.87314,51.21997],[6.8737,51.22045],[6.87384,51.22143],[6.87331,51.22168],[6.87335,51.2221],[6.87264,51.22257],[6.87189,51.22263],[6.8733,51.2242],[6.87381,51.22434],[6.87459,51.22507],[6.87576,51.22553],[6.87536,51.22606],[6.88005,51.22802]]]}},{"type":"Feature","properties":{"name":"Hubbelrath"},"geometry":{"type":"Polygon","coordinates":[[[6.93993,51.27255],[6.93979,51.27287],[6.9373,51.27363],[6.93728,51.27387],[6.93466,51.27431],[6.93496,51.27486],[6.93582,51.27536],[6.93583,51.27608],[6.93484,51.27568],[6.93445,51.27612],[6.93054,51.27533],[6.93108,51.27456],[6.93083,51.27453],[6.93017,51.27324],[6.92842,51.27294],[6.92252,51.27365],[6.91764,51.27272],[6.91671,51.27297],[6.91732,51.2733],[6.9173,51.27423],[6.91543,51.27495],[6.91427,51.27602],[6.91278,51.27614],[6.91239,51.27575],[6.91208,51.27421],[6.91129,51.27318],[6.91274,51.27251],[6.91141,51.27111],[6.9111,51.27166],[6.90909,51.27136],[6.90842,51.27103],[6.90867,51.27068],[6.90798,51.26992],[6.90804,51.26864],[6.90781,51.26753],[6.9076,51.26736],[6.90643,51.26755],[6.90368,51.26494],[6.89953,51.26496],[6.89753,51.2647],[6.89693,51.26477],[6.897,51.26505],[6.89644,51.26512],[6.89598,51.26453],[6.89383,51.26497],[6.89437,51.26574],[6.89205,51.26671],[6.89172,51.26617],[6.89083,51.26673],[6.88991,51.26751],[6.88968,51.26787],[6.88977,51.26822],[6.88962,51.26874],[6.88976,51.26894],[6.88914,51.26937],[6.88234,51.26832],[6.88183,51.26916],[6.87613,51.268],[6.876,51.26793],[6.87845,51.26399],[6.87902,51.26183],[6.87894,51.26055],[6.87803,51.25856],[6.87803,51.2582],[6.87862,51.2566],[6.8751,51.25275],[6.87373,51.24972],[6.87312,51.24729],[6.87234,51.24569],[6.87136,51.24517],[6.87076,51.24369],[6.87075,51.24245],[6.87099,51.24144],[6.87196,51.2417],[6.87207,51.24154],[6.87327,51.24121],[6.87339,51.24061],[6.87358,51.24061],[6.87441,51.2412],[6.87602,51.24139],[6.87805,51.24222],[6.87757,51.24223],[6.87834,51.24251],[6.88234,51.24212],[6.88317,51.24179],[6.88324,51.24133],[6.88278,51.24078],[6.88359,51.24071],[6.88389,51.24011],[6.88396,51.23953],[6.88392,51.23923],[6.88305,51.23903],[6.88276,51.23827],[6.88467,51.23883],[6.8853,51.23883],[6.88753,51.23971],[6.88823,51.23896],[6.89046,51.23928],[6.8904,51.23825],[6.89095,51.23752],[6.89155,51.23765],[6.89321,51.23744],[6.89264,51.23859],[6.89346,51.23872],[6.89348,51.23912],[6.8949,51.23881],[6.89572,51.23884],[6.89654,51.23857],[6.89725,51.23817],[6.89699,51.23762],[6.8991,51.23719],[6.90136,51.23704],[6.90264,51.2372],[6.90321,51.23712],[6.90256,51.23822],[6.90326,51.23833],[6.90389,51.23822],[6.90404,51.23959],[6.90386,51.2398],[6.90287,51.24],[6.90298,51.24024],[6.90358,51.24043],[6.90418,51.24036],[6.90841,51.23897],[6.91014,51.24126],[6.91033,51.24188],[6.91127,51.24174],[6.9129,51.24119],[6.91521,51.24094],[6.9171,51.2411],[6.91694,51.2407],[6.9178,51.24021],[6.91794,51.23994],[6.91838,51.2403],[6.91962,51.24071],[6.92083,51.24183],[6.92187,51.24175],[6.9246,51.24218],[6.92545,51.24237],[6.92668,51.24292],[6.92675,51.24245],[6.93097,51.24086],[6.93005,51.23954],[6.93014,51.23887],[6.9305,51.23801],[6.93124,51.23804],[6.93106,51.23913],[6.93128,51.23967],[6.93216,51.24026],[6.93237,51.24079],[6.93237,51.24114],[6.93181,51.24166],[6.93146,51.24241],[6.93164,51.24312],[6.93151,51.24457],[6.93265,51.24573],[6.93308,51.24592],[6.9327,51.24696],[6.93428,51.24845],[6.93325,51.24805],[6.93315,51.24815],[6.93349,51.24841],[6.93331,51.24856],[6.92935,51.25142],[6.92919,51.25209],[6.92828,51.2521],[6.9269,51.25349],[6.9275,51.25438],[6.92778,51.25397],[6.92821,51.25402],[6.92873,51.25472],[6.92807,51.25495],[6.92845,51.25516],[6.92798,51.25522],[6.92809,51.25574],[6.92904,51.25649],[6.9304,51.2572],[6.93002,51.25744],[6.92895,51.26163],[6.92928,51.26164],[6.92884,51.26231],[6.92926,51.26247],[6.92853,51.26352],[6.92878,51.26436],[6.92783,51.26443],[6.92784,51.26471],[6.92762,51.26488],[6.9277,51.26558],[6.93105,51.26565],[6.93262,51.26428],[6.93412,51.26578],[6.93245,51.26662],[6.93284,51.26706],[6.93272,51.26717],[6.93382,51.26791],[6.93576,51.26999],[6.93713,51.26967],[6.93849,51.27099],[6.93932,51.27232],[6.93993,51.27255]]]}},{"type":"Feature","properties":{"name":"Knittkuhl"},"geometry":{"type":"Polygon","coordinates":[[[6.87907,51.26141],[6.87837,51.26416],[6.876,51.26793],[6.87613,51.268],[6.87546,51.26911],[6.87468,51.26977],[6.8752,51.26992],[6.87454,51.26988],[6.87462,51.27087],[6.87576,51.27124],[6.87594,51.27361],[6.87577,51.2747],[6.87496,51.27425],[6.87489,51.2738],[6.87469,51.27365],[6.87235,51.27282],[6.87251,51.27217],[6.87159,51.2716],[6.87061,51.27173],[6.87008,51.27312],[6.86927,51.2739],[6.86687,51.27224],[6.86592,51.27245],[6.86541,51.27102],[6.86562,51.27097],[6.86559,51.27031],[6.86738,51.26845],[6.86574,51.26818],[6.86641,51.26519],[6.86332,51.26413],[6.86366,51.26394],[6.86736,51.26424],[6.87016,51.26285],[6.87289,51.26191],[6.87379,51.26197],[6.87497,51.26244],[6.87559,51.26234],[6.87762,51.26145],[6.87907,51.26115],[6.87907,51.26141]]]}},{"type":"Feature","properties":{"name":"Rath"},"geometry":{"type":"Polygon","coordinates":[[[6.86738,51.26845],[6.86559,51.27031],[6.86562,51.27097],[6.86541,51.27102],[6.86592,51.27245],[6.86312,51.27344],[6.86117,51.27374],[6.85995,51.27431],[6.85833,51.27426],[6.85635,51.27521],[6.85325,51.27565],[6.85144,51.2761],[6.85143,51.2766],[6.85048,51.27672],[6.85077,51.27683],[6.85114,51.27806],[6.85095,51.27802],[6.85128,51.27874],[6.8496,51.27815],[6.84679,51.27754],[6.84196,51.27617],[6.84025,51.2767],[6.83913,51.27627],[6.83591,51.27638],[6.83594,51.27721],[6.83529,51.27722],[6.83434,51.2769],[6.83166,51.2784],[6.8311,51.27836],[6.83229,51.28037],[6.8309,51.28068],[6.83082,51.28052],[6.83058,51.28058],[6.82951,51.28016],[6.82862,51.27956],[6.82493,51.2736],[6.81972,51.27427],[6.81648,51.27533],[6.81305,51.27712],[6.80969,51.27964],[6.80908,51.27938],[6.80879,51.27944],[6.80747,51.27912],[6.80352,51.27899],[6.80375,51.27931],[6.80325,51.27958],[6.80216,51.27822],[6.80069,51.27697],[6.79576,51.27417],[6.79484,51.27349],[6.79385,51.27222],[6.79353,51.271],[6.79363,51.27015],[6.79541,51.26295],[6.79866,51.26269],[6.81128,51.2606],[6.8118,51.25991],[6.81158,51.25974],[6.8124,51.25934],[6.81295,51.2576],[6.81671,51.25454],[6.82089,51.2519],[6.82133,51.25148],[6.82163,51.25088],[6.83129,51.25294],[6.83258,51.2534],[6.83558,51.25485],[6.8362,51.25483],[6.8366,51.25464],[6.83624,51.25356],[6.8467,51.25631],[6.84783,51.25612],[6.85002,51.25522],[6.85094,51.25529],[6.85138,51.25567],[6.85135,51.25604],[6.85103,51.25635],[6.85013,51.25671],[6.85015,51.25683],[6.85544,51.25834],[6.85546,51.25881],[6.85605,51.25901],[6.85724,51.25999],[6.8573,51.26022],[6.85684,51.26142],[6.85788,51.26258],[6.85809,51.26375],[6.85894,51.26388],[6.8616,51.26361],[6.86267,51.26383],[6.86399,51.26443],[6.86641,51.26519],[6.86574,51.26818],[6.86738,51.26845]]]}},{"type":"Feature","properties":{"name":"Lichtenbroich"},"geometry":{"type":"Polygon","coordinates":[[[6.80387,51.28707],[6.79951,51.28961],[6.79656,51.29103],[6.79651,51.2913],[6.79533,51.29112],[6.79349,51.29032],[6.79294,51.29099],[6.7916,51.29089],[6.79118,51.29215],[6.78653,51.292],[6.78682,51.2894],[6.78412,51.28819],[6.78375,51.28789],[6.78043,51.28657],[6.77481,51.28386],[6.77684,51.28048],[6.78182,51.28022],[6.78483,51.28067],[6.7929,51.28121],[6.79444,51.2815],[6.79475,51.27897],[6.7947,51.27778],[6.79427,51.27635],[6.79392,51.27578],[6.79359,51.27568],[6.79464,51.27544],[6.7977,51.27522],[6.80106,51.27725],[6.80227,51.27834],[6.80325,51.27958],[6.80306,51.27968],[6.80367,51.28092],[6.80399,51.28226],[6.80401,51.28345],[6.80384,51.28382],[6.80399,51.2841],[6.80387,51.28707]]]}},{"type":"Feature","properties":{"name":"Kalkum"},"geometry":{"type":"Polygon","coordinates":[[[6.81745,51.32094],[6.81517,51.32098],[6.81027,51.32192],[6.80872,51.32263],[6.79444,51.32095],[6.79655,51.31332],[6.78932,51.31263],[6.78274,51.31249],[6.77978,51.31265],[6.77763,51.31297],[6.77617,51.31251],[6.77475,51.31364],[6.77271,51.31416],[6.771,51.31425],[6.76684,51.31377],[6.76103,51.31185],[6.76092,51.31153],[6.76057,51.31155],[6.75878,51.31084],[6.75869,51.31051],[6.75745,51.31009],[6.75638,51.30944],[6.75248,51.30776],[6.75148,51.3069],[6.75148,51.30641],[6.7523,51.30476],[6.75256,51.30149],[6.75123,51.29889],[6.75071,51.29496],[6.75169,51.29304],[6.75187,51.29216],[6.75192,51.28989],[6.75432,51.28994],[6.75579,51.29024],[6.7785,51.30123],[6.78052,51.30192],[6.78145,51.30206],[6.78372,51.30145],[6.78605,51.30142],[6.79164,51.30235],[6.79368,51.30252],[6.7951,51.30239],[6.79698,51.30187],[6.79827,51.30119],[6.79927,51.30031],[6.80221,51.29571],[6.80313,51.2885],[6.80329,51.28834],[6.80362,51.28835],[6.80354,51.29011],[6.80315,51.29018],[6.80316,51.29095],[6.80355,51.29097],[6.80411,51.29312],[6.80631,51.29762],[6.80698,51.29956],[6.80527,51.29978],[6.80123,51.301],[6.80335,51.30483],[6.80353,51.3069],[6.80503,51.30748],[6.80945,51.30739],[6.81061,51.30981],[6.81144,51.31114],[6.80968,51.31397],[6.81411,51.31514],[6.81745,51.32094]]]}},{"type":"Feature","properties":{"name":"Angermund"},"geometry":{"type":"Polygon","coordinates":[[[6.80952,51.34292],[6.8094,51.34318],[6.80452,51.343],[6.80449,51.34612],[6.80588,51.35041],[6.79381,51.35222],[6.79437,51.34963],[6.79409,51.34784],[6.79396,51.34767],[6.79204,51.34765],[6.79169,51.34665],[6.7919,51.3466],[6.79106,51.34521],[6.79077,51.34503],[6.79216,51.34501],[6.79274,51.34462],[6.79287,51.34428],[6.79254,51.34391],[6.79181,51.34382],[6.79182,51.34326],[6.78976,51.34363],[6.78957,51.34339],[6.78928,51.34353],[6.78947,51.34365],[6.78728,51.34429],[6.78742,51.34447],[6.78612,51.34515],[6.78578,51.3449],[6.78225,51.34386],[6.78269,51.34269],[6.7815,51.34255],[6.77646,51.34365],[6.77263,51.34569],[6.7668,51.34733],[6.76459,51.34757],[6.76226,51.34819],[6.76088,51.34811],[6.75985,51.34827],[6.75462,51.35001],[6.75433,51.34994],[6.75314,51.349],[6.75316,51.34953],[6.75285,51.34997],[6.74855,51.35244],[6.74729,51.3524],[6.74596,51.35199],[6.74552,51.35171],[6.74614,51.35003],[6.75147,51.33931],[6.75157,51.33867],[6.75146,51.33722],[6.75011,51.33298],[6.75035,51.3327],[6.74993,51.33168],[6.75088,51.33155],[6.75144,51.33128],[6.75285,51.3302],[6.75478,51.32657],[6.75464,51.32594],[6.75486,51.32541],[6.75482,51.32495],[6.75378,51.32308],[6.75264,51.32172],[6.75202,51.32019],[6.75556,51.31965],[6.75559,51.3195],[6.76111,51.31645],[6.76167,51.31679],[6.76166,51.31614],[6.76623,51.31355],[6.76703,51.31381],[6.77065,51.31422],[6.77245,51.3142],[6.77484,51.3136],[6.77617,51.31251],[6.77763,51.31297],[6.77978,51.31265],[6.78274,51.31249],[6.78932,51.31263],[6.79655,51.31332],[6.79444,51.32095],[6.80872,51.32263],[6.80735,51.32324],[6.80674,51.32615],[6.8026,51.32843],[6.80274,51.32963],[6.8026,51.33054],[6.80439,51.33149],[6.80376,51.33238],[6.80363,51.33334],[6.80327,51.33393],[6.80358,51.33504],[6.80321,51.33519],[6.80305,51.33547],[6.80419,51.33615],[6.80473,51.33721],[6.80509,51.33703],[6.80608,51.33714],[6.80799,51.33701],[6.80887,51.33723],[6.80912,51.33745],[6.80865,51.33863],[6.80877,51.33938],[6.80857,51.34051],[6.80875,51.3407],[6.80952,51.34292]]]}},{"type":"Feature","properties":{"name":"Wittlaer"},"geometry":{"type":"Polygon","coordinates":[[[6.76623,51.31355],[6.76166,51.31614],[6.76167,51.31679],[6.76111,51.31645],[6.75559,51.3195],[6.75556,51.31965],[6.75202,51.32019],[6.75264,51.32172],[6.75378,51.32308],[6.75482,51.32495],[6.75486,51.32541],[6.75464,51.32594],[6.75478,51.32657],[6.75285,51.3302],[6.75144,51.33128],[6.75088,51.33155],[6.74993,51.33168],[6.75035,51.3327],[6.75011,51.33298],[6.75146,51.33722],[6.75157,51.33867],[6.75147,51.33931],[6.74614,51.35003],[6.74552,51.35171],[6.74408,51.35091],[6.74399,51.35066],[6.74223,51.34889],[6.7416,51.34871],[6.73937,51.34711],[6.73834,51.34587],[6.73826,51.34539],[6.72952,51.34228],[6.72779,51.34189],[6.72506,51.34071],[6.72435,51.34028],[6.72166,51.33771],[6.72005,51.33654],[6.71872,51.33507],[6.71711,51.33588],[6.71605,51.33437],[6.71449,51.33338],[6.72094,51.33022],[6.72699,51.32672],[6.73003,51.32436],[6.73237,51.3217],[6.73502,51.32244],[6.73526,51.3223],[6.73602,51.32176],[6.73671,51.32064],[6.73872,51.31839],[6.73955,51.31699],[6.74004,51.31479],[6.7409,51.31384],[6.74167,51.314],[6.7422,51.31465],[6.74266,51.31464],[6.74391,51.31407],[6.74363,51.31247],[6.74503,51.31253],[6.74695,51.31204],[6.74789,51.31197],[6.74927,51.31144],[6.75054,51.31051],[6.7513,51.30901],[6.75248,51.30776],[6.75638,51.30944],[6.75745,51.31009],[6.75869,51.31051],[6.75878,51.31084],[6.76057,51.31155],[6.76092,51.31153],[6.76103,51.31185],[6.76623,51.31355]]]}},{"type":"Feature","properties":{"name":"Kaiserswerth"},"geometry":{"type":"Polygon","coordinates":[[[6.75248,51.30776],[6.7513,51.30901],[6.75054,51.31051],[6.74927,51.31144],[6.74789,51.31197],[6.74695,51.31204],[6.74503,51.31253],[6.74363,51.31247],[6.74391,51.31407],[6.74266,51.31464],[6.7422,51.31465],[6.74167,51.314],[6.7409,51.31384],[6.74004,51.31479],[6.73955,51.31699],[6.73872,51.31839],[6.73671,51.32064],[6.73602,51.32176],[6.73526,51.3223],[6.73502,51.32244],[6.73237,51.3217],[6.73337,51.32008],[6.73412,51.31834],[6.73458,51.31656],[6.73474,51.31476],[6.73458,51.31258],[6.73413,51.31013],[6.73343,51.30772],[6.73253,51.30551],[6.73055,51.30214],[6.72786,51.2989],[6.72595,51.29709],[6.71717,51.28955],[6.72412,51.28634],[6.7257,51.2882],[6.72651,51.28977],[6.72686,51.28976],[6.7286,51.28881],[6.73403,51.28691],[6.73614,51.28674],[6.73845,51.2869],[6.74142,51.28674],[6.74359,51.29],[6.74458,51.29031],[6.74543,51.28994],[6.74633,51.28981],[6.75192,51.28989],[6.75187,51.29216],[6.75169,51.29304],[6.75071,51.29496],[6.75123,51.29889],[6.75255,51.3014],[6.7523,51.30476],[6.75143,51.30664],[6.75162,51.30713],[6.75248,51.30776]]]}},{"type":"Feature","properties":{"name":"Lohausen"},"geometry":{"type":"Polygon","coordinates":[[[6.80371,51.28715],[6.80362,51.28835],[6.80329,51.28834],[6.80313,51.2885],[6.80221,51.29571],[6.79927,51.30031],[6.79827,51.30119],[6.79633,51.3021],[6.79383,51.30251],[6.79173,51.30236],[6.78605,51.30142],[6.78372,51.30145],[6.78211,51.30193],[6.78106,51.30204],[6.7785,51.30123],[6.75579,51.29024],[6.75396,51.28992],[6.74666,51.2898],[6.74543,51.28994],[6.74458,51.29031],[6.74359,51.29],[6.74142,51.28674],[6.73845,51.2869],[6.73614,51.28674],[6.73403,51.28691],[6.7286,51.28881],[6.72694,51.28972],[6.72658,51.28978],[6.7257,51.2882],[6.72412,51.28634],[6.71717,51.28955],[6.70752,51.28125],[6.70605,51.27976],[6.70476,51.27817],[6.71583,51.27434],[6.7218,51.27165],[6.72567,51.27043],[6.72982,51.26965],[6.73343,51.26927],[6.73716,51.26916],[6.74138,51.26935],[6.74448,51.26981],[6.74965,51.27121],[6.75229,51.27167],[6.75549,51.27178],[6.76033,51.27141],[6.76036,51.27171],[6.7597,51.27263],[6.75979,51.27295],[6.761,51.27303],[6.76243,51.27286],[6.76306,51.27352],[6.76297,51.27361],[6.76661,51.27503],[6.76781,51.27678],[6.7681,51.27679],[6.76836,51.27711],[6.76812,51.2772],[6.76869,51.2776],[6.76919,51.27823],[6.76936,51.27875],[6.76899,51.2792],[6.76925,51.27972],[6.76977,51.27968],[6.77366,51.28033],[6.77332,51.28131],[6.7763,51.28142],[6.77481,51.28386],[6.78043,51.28657],[6.78375,51.28789],[6.78412,51.28819],[6.78682,51.2894],[6.78653,51.292],[6.79118,51.29215],[6.7916,51.29089],[6.79294,51.29099],[6.79349,51.29032],[6.79533,51.29112],[6.79651,51.2913],[6.79656,51.29103],[6.79951,51.28961],[6.80371,51.28715]]]}},{"type":"Feature","properties":{"name":"Stockum"},"geometry":{"type":"Polygon","coordinates":[[[6.76303,51.26172],[6.762,51.265],[6.7614,51.26581],[6.76103,51.26692],[6.75997,51.27034],[6.76003,51.27084],[6.75935,51.27117],[6.7593,51.27148],[6.75549,51.27178],[6.75229,51.27167],[6.74965,51.27121],[6.74448,51.26981],[6.7405,51.26928],[6.7354,51.26918],[6.73068,51.26954],[6.72653,51.27023],[6.72327,51.27111],[6.72124,51.27188],[6.71614,51.27422],[6.70476,51.27817],[6.70331,51.27575],[6.70263,51.2738],[6.7025,51.27229],[6.7027,51.27074],[6.70325,51.26924],[6.70413,51.26778],[6.70548,51.26624],[6.70718,51.26473],[6.70909,51.26339],[6.71129,51.26215],[6.71751,51.2595],[6.72446,51.25718],[6.72943,51.25587],[6.74578,51.2521],[6.74791,51.2551],[6.76292,51.25715],[6.76225,51.25797],[6.76191,51.25897],[6.76305,51.25922],[6.76241,51.26063],[6.76294,51.26113],[6.76303,51.26172]]]}},{"type":"Feature","properties":{"name":"Lörick"},"geometry":{"type":"Polygon","coordinates":[[[6.7461,51.25203],[6.72698,51.25648],[6.72218,51.25207],[6.722,51.25207],[6.72055,51.25084],[6.72026,51.2505],[6.72138,51.25007],[6.71949,51.24799],[6.71783,51.24646],[6.71648,51.24563],[6.71613,51.24518],[6.72035,51.24268],[6.72177,51.24234],[6.7356,51.23767],[6.73731,51.23954],[6.73872,51.24036],[6.7407,51.2408],[6.74373,51.24082],[6.74289,51.24263],[6.74175,51.24396],[6.73988,51.24526],[6.73779,51.24624],[6.7379,51.24639],[6.73916,51.24627],[6.74117,51.24577],[6.74305,51.24753],[6.74211,51.2478],[6.74378,51.24934],[6.7461,51.25203]]]}},{"type":"Feature","properties":{"name":"Heerdt"},"geometry":{"type":"Polygon","coordinates":[[[6.7356,51.23767],[6.72177,51.24234],[6.72035,51.24268],[6.71915,51.24329],[6.71684,51.24481],[6.71357,51.24286],[6.71127,51.2406],[6.71102,51.24077],[6.71095,51.24044],[6.71023,51.23968],[6.70818,51.23841],[6.70613,51.23758],[6.70585,51.23783],[6.70409,51.23722],[6.70434,51.23693],[6.70291,51.23636],[6.70294,51.23624],[6.69898,51.23508],[6.69858,51.23462],[6.69607,51.23384],[6.69483,51.23323],[6.69503,51.23301],[6.69069,51.23077],[6.68881,51.2295],[6.69116,51.22891],[6.69256,51.2265],[6.69301,51.22667],[6.69314,51.22653],[6.69308,51.22643],[6.69348,51.22584],[6.69328,51.22497],[6.69838,51.22495],[6.69837,51.22468],[6.70785,51.22461],[6.70787,51.22531],[6.71112,51.22497],[6.71154,51.22546],[6.71264,51.22563],[6.71621,51.22504],[6.71645,51.22488],[6.71634,51.2248],[6.71783,51.22403],[6.72119,51.22685],[6.72355,51.22594],[6.72457,51.22689],[6.72588,51.22774],[6.72739,51.22841],[6.72912,51.2289],[6.72756,51.23292],[6.72732,51.23431],[6.73058,51.23426],[6.73233,51.23468],[6.73346,51.23534],[6.7356,51.23767]]]}},{"type":"Feature","properties":{"name":"Hafen"},"geometry":{"type":"Polygon","coordinates":[[[6.76616,51.21927],[6.76573,51.21916],[6.76349,51.22103],[6.76112,51.22022],[6.75857,51.21984],[6.75593,51.2199],[6.75338,51.22043],[6.75128,51.22131],[6.7465,51.22437],[6.7422,51.22657],[6.73702,51.22858],[6.73388,51.2292],[6.73182,51.22925],[6.7297,51.22902],[6.72775,51.22853],[6.72602,51.22781],[6.72454,51.22687],[6.7234,51.22576],[6.72265,51.22453],[6.72232,51.22323],[6.7224,51.222],[6.72286,51.22079],[6.72958,51.21015],[6.73052,51.20838],[6.73459,51.20923],[6.73871,51.21032],[6.74632,51.2119],[6.74859,51.21213],[6.75056,51.21194],[6.75077,51.21231],[6.75206,51.21303],[6.75572,51.21437],[6.7578,51.2157],[6.76234,51.2173],[6.76251,51.21744],[6.7625,51.2178],[6.76384,51.21806],[6.76497,51.2185],[6.76616,51.21927]]]}},{"type":"Feature","properties":{"name":"Hamm"},"geometry":{"type":"Polygon","coordinates":[[[6.75856,51.2104],[6.75002,51.21204],[6.74796,51.21211],[6.74611,51.21187],[6.73891,51.21036],[6.73459,51.20923],[6.73052,51.20838],[6.7311,51.2068],[6.73151,51.20509],[6.73184,51.20128],[6.73153,51.19802],[6.73034,51.19301],[6.73029,51.19135],[6.73051,51.19013],[6.73095,51.18896],[6.73162,51.18779],[6.73248,51.18669],[6.73478,51.18472],[6.73773,51.18314],[6.74069,51.18582],[6.74087,51.18576],[6.75085,51.19504],[6.7524,51.1971],[6.75327,51.19872],[6.7541,51.19977],[6.75435,51.20096],[6.75548,51.20097],[6.75711,51.20717],[6.75856,51.2104]]]}},{"type":"Feature","properties":{"name":"Volmerswerth"},"geometry":{"type":"Polygon","coordinates":[[[6.77385,51.18519],[6.7731,51.18677],[6.76901,51.18592],[6.76899,51.18604],[6.77071,51.1873],[6.7695,51.18799],[6.76856,51.18879],[6.76424,51.19071],[6.76135,51.19161],[6.75407,51.19319],[6.75036,51.1946],[6.74087,51.18576],[6.74069,51.18582],[6.73773,51.18314],[6.74097,51.18204],[6.74462,51.18128],[6.74833,51.18091],[6.75218,51.18093],[6.75685,51.18142],[6.76168,51.18223],[6.77385,51.18519]]]}},{"type":"Feature","properties":{"name":"Itter"},"geometry":{"type":"Polygon","coordinates":[[[6.82866,51.15565],[6.82665,51.15645],[6.82314,51.16121],[6.82564,51.16257],[6.82443,51.16348],[6.82411,51.16405],[6.82231,51.1647],[6.82228,51.1657],[6.82517,51.16605],[6.82578,51.16625],[6.82763,51.16852],[6.82503,51.16891],[6.82279,51.16947],[6.81845,51.1709],[6.81378,51.17322],[6.81016,51.17558],[6.80979,51.17496],[6.80969,51.17432],[6.80987,51.17369],[6.81007,51.17126],[6.80965,51.17077],[6.80934,51.16967],[6.80948,51.16779],[6.8098,51.16691],[6.8087,51.16668],[6.8097,51.16596],[6.8112,51.16533],[6.81238,51.16395],[6.80918,51.16267],[6.80952,51.16224],[6.80956,51.16191],[6.80873,51.16156],[6.80854,51.16093],[6.81239,51.15647],[6.81232,51.15631],[6.81142,51.15606],[6.81186,51.1545],[6.81452,51.14994],[6.81608,51.14788],[6.81671,51.14667],[6.81809,51.14564],[6.8205,51.14719],[6.82246,51.14891],[6.82682,51.15385],[6.82866,51.15565]]]}}]}