{"type":"FeatureCollection","features":[{"type":"Feature","properties":{"kind":"accessible","label":"Stadtbad Niederheid","detail":"4 Stellplätze"},"geometry":{"type":"Point","coordinates":[6.85161,51.17042]}},{"type":"Feature","properties":{"kind":"accessible","label":"Einkaufszentrum","detail":"2 Stellplätze"},"geometry":{"type":"Point","coordinates":[6.88559,51.14449]}},{"type":"Feature","properties":{"kind":"accessible","label":"Arztpraxis","detail":"1 Stellplatz"},"geometry":{"type":"Point","coordinates":[6.78566,51.21859]}},{"type":"Feature","properties":{"kind":"accessible","label":"Versicherung","detail":"1 Stellplatz"},"geometry":{"type":"Point","coordinates":[6.78091,51.23102]}},{"type":"Feature","properties":{"kind":"accessible","label":"Kirche","detail":"2 Stellplätze"},"geometry":{"type":"Point","coordinates":[6.83048,51.20879]}},{"type":"Feature","properties":{"kind":"accessible","label":"DRK","detail":"1 Stellplatz · Mo.-So. 8:00-18:00"},"geometry":{"type":"Point","coordinates":[6.86189,51.18449]}},{"type":"Feature","properties":{"kind":"accessible","label":"Ärztehaus","detail":"1 Stellplatz"},"geometry":{"type":"Point","coordinates":[6.73454,51.237]}},{"type":"Feature","properties":{"kind":"accessible","label":"Friedhof","detail":"2 Stellplätze"},"geometry":{"type":"Point","coordinates":[6.86592,51.23213]}},{"type":"Feature","properties":{"kind":"accessible","label":"vor der Kirche","detail":"1 Stellplatz"},"geometry":{"type":"Point","coordinates":[6.75015,51.23367]}},{"type":"Feature","properties":{"kind":"accessible","label":"Arztpraxis","detail":"1 Stellplatz · Mo.-Fr. 9:00-17:00"},"geometry":{"type":"Point","coordinates":[6.78988,51.24588]}},{"type":"Feature","properties":{"kind":"accessible","label":"Einkaufszentrum","detail":"2 Stellplätze"},"geometry":{"type":"Point","coordinates":[6.90008,51.13804]}},{"type":"Feature","properties":{"kind":"accessible","label":"Einkaufsstraße","detail":"1 Stellplatz · Mo.-Fr. 9:00-18:00, Sa. 9:00-16:00"},"geometry":{"type":"Point","coordinates":[6.83253,51.2066]}},{"type":"Feature","properties":{"kind":"accessible","label":"Ergotherapie","detail":"2 Stellplätze · Mo.-Fr. 8:00-19:00"},"geometry":{"type":"Point","coordinates":[6.83098,51.20729]}},{"type":"Feature","properties":{"kind":"accessible","label":"Wildpark","detail":"3 Stellplätze"},"geometry":{"type":"Point","coordinates":[6.83858,51.25053]}},{"type":"Feature","properties":{"kind":"accessible","label":"Einkaufsbereich","detail":"1 Stellplatz"},"geometry":{"type":"Point","coordinates":[6.7993,51.23068]}},{"type":"Feature","properties":{"kind":"accessible","label":"Arztpraxen und Physiotherapie","detail":"2 Stellplätze"},"geometry":{"type":"Point","coordinates":[6.81572,51.19044]}},{"type":"Feature","properties":{"kind":"accessible","label":"Willi-Fährman-Schule","detail":"1 Stellplatz · Mo.-Fr. 7:00-17:00"},"geometry":{"type":"Point","coordinates":[6.89858,51.1379]}},{"type":"Feature","properties":{"kind":"accessible","label":"Altenheim","detail":"3 Stellplätze"},"geometry":{"type":"Point","coordinates":[6.86797,51.15417]}},{"type":"Feature","properties":{"kind":"accessible","label":"Marktplatz Eller, Rathaus","detail":"1 Stellplatz"},"geometry":{"type":"Point","coordinates":[6.83828,51.20048]}},{"type":"Feature","properties":{"kind":"accessible","label":"Marktplatz Eller","detail":"2 Stellplätze"},"geometry":{"type":"Point","coordinates":[6.83799,51.20053]}},{"type":"Feature","properties":{"kind":"accessible","label":"Postfiliale","detail":"1 Stellplatz"},"geometry":{"type":"Point","coordinates":[6.73941,51.29998]}},{"type":"Feature","properties":{"kind":"accessible","label":"Praxis","detail":"1 Stellplatz · werktags 7:00-19:00"},"geometry":{"type":"Point","coordinates":[6.77578,51.23362]}},{"type":"Feature","properties":{"kind":"accessible","label":"ARGE-Anlaufstelle","detail":"1 Stellplatz · Mo.-Fr. 8:00-16:00"},"geometry":{"type":"Point","coordinates":[6.78726,51.21687]}},{"type":"Feature","properties":{"kind":"accessible","label":"Standesamt","detail":"1 Stellplatz"},"geometry":{"type":"Point","coordinates":[6.77675,51.23326]}},{"type":"Feature","properties":{"kind":"accessible","label":"Begegnungsstätte","detail":"1 Stellplatz"},"geometry":{"type":"Point","coordinates":[6.75618,51.26282]}},{"type":"Feature","properties":{"kind":"accessible","label":"Einkaufsbereich","detail":"1 Stellplatz"},"geometry":{"type":"Point","coordinates":[6.83051,51.17384]}},{"type":"Feature","properties":{"kind":"accessible","label":"S-Bahnhof Eller-Mitte","detail":"2 Stellplätze"},"geometry":{"type":"Point","coordinates":[6.83683,51.20207]}},{"type":"Feature","properties":{"kind":"accessible","label":"Einkaufsbereich","detail":"2 Stellplätze · werktags 7:00-19:00"},"geometry":{"type":"Point","coordinates":[6.84094,51.20053]}},{"type":"Feature","properties":{"kind":"accessible","label":"Finanzamt Nord","detail":"1 Stellplatz · Mo.-Fr. 7:00-17:00"},"geometry":{"type":"Point","coordinates":[6.77444,51.24628]}},{"type":"Feature","properties":{"kind":"accessible","label":"Praxis für Physiotherapie","detail":"2 Stellplätze · Mo.-Fr. 8:00-18:00"},"geometry":{"type":"Point","coordinates":[6.81679,51.19676]}},{"type":"Feature","properties":{"kind":"accessible","label":"Friedhof","detail":"1 Stellplatz"},"geometry":{"type":"Point","coordinates":[6.87376,51.17281]}},{"type":"Feature","properties":{"kind":"accessible","label":"Einkaufszentrum","detail":"1 Stellplatz · werktags 8:00-18:00"},"geometry":{"type":"Point","coordinates":[6.8716,51.17535]}},{"type":"Feature","properties":{"kind":"accessible","label":"Ambulante Pflege","detail":"1 Stellplatz · Mo.-Fr. 9:00-17:00"},"geometry":{"type":"Point","coordinates":[6.87154,51.17596]}},{"type":"Feature","properties":{"kind":"accessible","label":"Einkaufszentrum","detail":"1 Stellplatz"},"geometry":{"type":"Point","coordinates":[6.86288,51.22474]}},{"type":"Feature","properties":{"kind":"accessible","label":"Stadtbad Eller","detail":"1 Stellplatz"},"geometry":{"type":"Point","coordinates":[6.85215,51.19714]}},{"type":"Feature","properties":{"kind":"accessible","label":"REHA-Ambulanz","detail":"2 Stellplätze · Mo.-Fr. 8:00-17:00"},"geometry":{"type":"Point","coordinates":[6.78921,51.21686]}},{"type":"Feature","properties":{"kind":"accessible","label":"Innenstadt / St. Antonius","detail":"1 Stellplatz"},"geometry":{"type":"Point","coordinates":[6.78948,51.2168]}},{"type":"Feature","properties":{"kind":"accessible","label":"Einkaufszentrum","detail":"2 Stellplätze"},"geometry":{"type":"Point","coordinates":[6.83454,51.17544]}},{"type":"Feature","properties":{"kind":"accessible","label":"Einkaufszentrum","detail":"2 Stellplätze"},"geometry":{"type":"Point","coordinates":[6.83582,51.17552]}},{"type":"Feature","properties":{"kind":"accessible","label":"Neubaugebiet","detail":"1 Stellplatz"},"geometry":{"type":"Point","coordinates":[6.77981,51.25229]}},{"type":"Feature","properties":{"kind":"accessible","label":"Praxis für Physiotherapie","detail":"1 Stellplatz · Mo.-Fr. 7:00-18:00"},"geometry":{"type":"Point","coordinates":[6.78512,51.21541]}},{"type":"Feature","properties":{"kind":"accessible","label":"Arztpraxis","detail":"1 Stellplatz · Mo.-Fr. 8:00-18:00"},"geometry":{"type":"Point","coordinates":[6.78369,51.21567]}},{"type":"Feature","properties":{"kind":"accessible","label":"Einkaufszentrum","detail":"1 Stellplatz"},"geometry":{"type":"Point","coordinates":[6.8613,51.22821]}},{"type":"Feature","properties":{"kind":"accessible","label":"Arztpraxis","detail":"1 Stellplatz · Mo.-Fr. 7:00-17:00"},"geometry":{"type":"Point","coordinates":[6.8613,51.22821]}},{"type":"Feature","properties":{"kind":"accessible","label":"Reha-Zentrum","detail":"1 Stellplatz · Mo.-So. 8:00-19:00"},"geometry":{"type":"Point","coordinates":[6.78411,51.21003]}},{"type":"Feature","properties":{"kind":"accessible","label":"Einkaufszentrum","detail":"2 Stellplätze · Mo.-Fr. 8:00-18:00"},"geometry":{"type":"Point","coordinates":[6.88246,51.16122]}},{"type":"Feature","properties":{"kind":"accessible","label":"Sanitätshaus","detail":"1 Stellplatz · Mo.-Fr. 8:00-17:00"},"geometry":{"type":"Point","coordinates":[6.78202,51.1987]}},{"type":"Feature","properties":{"kind":"accessible","label":"Gemeinschaftspraxis","detail":"2 Stellplätze · Mo.-Fr. 7:00-19:00"},"geometry":{"type":"Point","coordinates":[6.78906,51.22526]}},{"type":"Feature","properties":{"kind":"accessible","label":"Stadtwerke","detail":"2 Stellplätze"},"geometry":{"type":"Point","coordinates":[6.81311,51.22263]}},{"type":"Feature","properties":{"kind":"accessible","label":"Ministerien","detail":"2 Stellplätze"},"geometry":{"type":"Point","coordinates":[6.76866,51.21983]}},{"type":"Feature","properties":{"kind":"accessible","label":"Verwaltungsgebäude","detail":"1 Stellplatz · Mo.-Fr. 8:00-14:00"},"geometry":{"type":"Point","coordinates":[6.7804,51.2573]}},{"type":"Feature","properties":{"kind":"accessible","label":"Maxkirche / Carlsplatz","detail":"1 Stellplatz"},"geometry":{"type":"Point","coordinates":[6.7717,51.22297]}},{"type":"Feature","properties":{"kind":"accessible","label":"Arztpraxis","detail":"1 Stellplatz · Mo.-Fr. 7:00-17:00"},"geometry":{"type":"Point","coordinates":[6.78422,51.21655]}},{"type":"Feature","properties":{"kind":"accessible","label":"Seniorenwohnheim","detail":"1 Stellplatz · Mo.-So. 8:00-18:00"},"geometry":{"type":"Point","coordinates":[6.76778,51.20336]}},{"type":"Feature","properties":{"kind":"accessible","label":"Schauspielhaus","detail":"3 Stellplätze · werktags 9:00-21:00"},"geometry":{"type":"Point","coordinates":[6.78419,51.22843]}},{"type":"Feature","properties":{"kind":"accessible","label":"Kirche","detail":"1 Stellplatz"},"geometry":{"type":"Point","coordinates":[6.73935,51.2976]}},{"type":"Feature","properties":{"kind":"accessible","label":"Ärzthaus / Innenstadt","detail":"2 Stellplätze"},"geometry":{"type":"Point","coordinates":[6.786,51.22494]}},{"type":"Feature","properties":{"kind":"accessible","label":"Innenstadt","detail":"1 Stellplatz"},"geometry":{"type":"Point","coordinates":[6.78869,51.22365]}},{"type":"Feature","properties":{"kind":"accessible","label":"Piel's Kull Kleingartenverein","detail":"3 Stellplätze"},"geometry":{"type":"Point","coordinates":[6.80206,51.19813]}},{"type":"Feature","properties":{"kind":"accessible","label":"WfaA, Cafe","detail":"2 Stellplätze"},"geometry":{"type":"Point","coordinates":[6.80342,51.19932]}},{"type":"Feature","properties":{"kind":"accessible","label":"Seniorenwohnpark","detail":"1 Stellplatz · Mo.-So. 8:00-18:00"},"geometry":{"type":"Point","coordinates":[6.79205,51.2148]}},{"type":"Feature","properties":{"kind":"accessible","label":"Einkaufsbereich","detail":"1 Stellplatz · Mo.-Fr. 8:00-19:00"},"geometry":{"type":"Point","coordinates":[6.82311,51.17055]}},{"type":"Feature","properties":{"kind":"accessible","label":"Friedhof","detail":"2 Stellplätze"},"geometry":{"type":"Point","coordinates":[6.83181,51.17438]}},{"type":"Feature","properties":{"kind":"accessible","label":"Parkplatz Malkasten","detail":"1 Stellplatz"},"geometry":{"type":"Point","coordinates":[6.78781,51.23012]}},{"type":"Feature","properties":{"kind":"accessible","label":"Orthopädietechnik","detail":"2 Stellplätze · Mo.-So. 9:00-19:00"},"geometry":{"type":"Point","coordinates":[6.78536,51.24243]}},{"type":"Feature","properties":{"kind":"accessible","label":"Kirche","detail":"2 Stellplätze"},"geometry":{"type":"Point","coordinates":[6.78966,51.24327]}},{"type":"Feature","properties":{"kind":"accessible","label":"Massagepraxis","detail":"1 Stellplatz · Mo.-Fr. 7:00-20:00"},"geometry":{"type":"Point","coordinates":[6.7617,51.23419]}},{"type":"Feature","properties":{"kind":"accessible","label":"Stadtbücherei","detail":"1 Stellplatz · Mo.-Fr. 9:00-19:00"},"geometry":{"type":"Point","coordinates":[6.73508,51.30165]}},{"type":"Feature","properties":{"kind":"accessible","label":"Diakonie","detail":"1 Stellplatz"},"geometry":{"type":"Point","coordinates":[6.73601,51.30159]}},{"type":"Feature","properties":{"kind":"accessible","label":"Einkaufszentrum","detail":"1 Stellplatz"},"geometry":{"type":"Point","coordinates":[6.76207,51.2522]}},{"type":"Feature","properties":{"kind":"accessible","label":"Kirche","detail":"1 Stellplatz · Sa. 17:00-19:00, So. 10:00-12:00"},"geometry":{"type":"Point","coordinates":[6.77653,51.23958]}},{"type":"Feature","properties":{"kind":"accessible","label":"Ärztehaus","detail":"2 Stellplätze · Mo.-Fr. 8:00-20:00"},"geometry":{"type":"Point","coordinates":[6.7739,51.24203]}},{"type":"Feature","properties":{"kind":"accessible","label":"Einkaufsbereich","detail":"1 Stellplatz"},"geometry":{"type":"Point","coordinates":[6.76207,51.2522]}},{"type":"Feature","properties":{"kind":"accessible","label":"Einkaufszentrum","detail":"2 Stellplätze"},"geometry":{"type":"Point","coordinates":[6.755,51.2598]}},{"type":"Feature","properties":{"kind":"accessible","label":"Praxis für Physiotherapie","detail":"1 Stellplatz · Mo.-Fr. 9:00-19:00"},"geometry":{"type":"Point","coordinates":[6.77398,51.27234]}},{"type":"Feature","properties":{"kind":"accessible","label":"Innenstadt","detail":"1 Stellplatz"},"geometry":{"type":"Point","coordinates":[6.77534,51.22102]}},{"type":"Feature","properties":{"kind":"accessible","label":"Krankenkasse","detail":"2 Stellplätze"},"geometry":{"type":"Point","coordinates":[6.77565,51.22144]}},{"type":"Feature","properties":{"kind":"accessible","label":"Krankenhaus","detail":"1 Stellplatz · Mo.-Fr. 8:00-18:00"},"geometry":{"type":"Point","coordinates":[6.77301,51.21232]}},{"type":"Feature","properties":{"kind":"accessible","label":"Krankenkasse","detail":"2 Stellplätze"},"geometry":{"type":"Point","coordinates":[6.7921,51.22397]}},{"type":"Feature","properties":{"kind":"accessible","label":"Arztpraxis","detail":"1 Stellplatz · Mo.-Fr. 8:00-18:00"},"geometry":{"type":"Point","coordinates":[6.7863,51.22523]}},{"type":"Feature","properties":{"kind":"accessible","label":"Konsulat","detail":"1 Stellplatz · Mo.-Fr. 8:00-18:00"},"geometry":{"type":"Point","coordinates":[6.78431,51.22572]}},{"type":"Feature","properties":{"kind":"accessible","label":"Massagepraxis","detail":"1 Stellplatz · Mo.-Fr. 9:00-19:00"},"geometry":{"type":"Point","coordinates":[6.87575,51.15459]}},{"type":"Feature","properties":{"kind":"accessible","label":"DRK-Zentrum","detail":"1 Stellplatz"},"geometry":{"type":"Point","coordinates":[6.8167,51.18904]}},{"type":"Feature","properties":{"kind":"accessible","label":"Matthias-Claudius-Heim","detail":"1 Stellplatz · Mo.-So. 7:00-19:00"},"geometry":{"type":"Point","coordinates":[6.82196,51.18364]}},{"type":"Feature","properties":{"kind":"accessible","label":"Caritas Beratungsstelle","detail":"1 Stellplatz · Mo.-Do. 8:00-19:00, Fr. 8:00-15:00"},"geometry":{"type":"Point","coordinates":[6.81836,51.18843]}},{"type":"Feature","properties":{"kind":"accessible","label":"Arztpraxis / Innenstadt","detail":"1 Stellplatz"},"geometry":{"type":"Point","coordinates":[6.79202,51.22799]}},{"type":"Feature","properties":{"kind":"accessible","label":"Orthopädietechnik","detail":"2 Stellplätze · Mo.-Fr. 9:00-18:00"},"geometry":{"type":"Point","coordinates":[6.79369,51.22622]}},{"type":"Feature","properties":{"kind":"accessible","label":"Sozialverband Deutschland e.V.","detail":"1 Stellplatz · Mo.-Fr. 8:00-18:00"},"geometry":{"type":"Point","coordinates":[6.79839,51.22127]}},{"type":"Feature","properties":{"kind":"accessible","label":"Ärztehaus","detail":"1 Stellplatz · Mo.-Fr. 9:00-17:00"},"geometry":{"type":"Point","coordinates":[6.8049,51.2144]}},{"type":"Feature","properties":{"kind":"accessible","label":"Bahnstraße","detail":"6 Stellplätze"},"geometry":{"type":"Point","coordinates":[6.78159,51.22714]}},{"type":"Feature","properties":{"kind":"accessible","label":"Kö / Stadtmitte","detail":"1 Stellplatz"},"geometry":{"type":"Point","coordinates":[6.77954,51.22341]}},{"type":"Feature","properties":{"kind":"accessible","label":"Kö / Stadtmitte","detail":"1 Stellplatz"},"geometry":{"type":"Point","coordinates":[6.7796,51.22569]}},{"type":"Feature","properties":{"kind":"accessible","label":"Kirche","detail":"1 Stellplatz · Mo.-Fr. 19:00-21:00, So. 10:30-13:00"},"geometry":{"type":"Point","coordinates":[6.77372,51.20131]}},{"type":"Feature","properties":{"kind":"accessible","label":"Praxis für Physiotherapie","detail":"1 Stellplatz · Mo.-Fr. 8:00-18:00"},"geometry":{"type":"Point","coordinates":[6.80171,51.21505]}},{"type":"Feature","properties":{"kind":"accessible","label":"Lebenshilfe Kita","detail":"2 Stellplätze · Mo.-Fr. 7:00-9:00 und 14:00-17:00"},"geometry":{"type":"Point","coordinates":[6.83108,51.20682]}},{"type":"Feature","properties":{"kind":"accessible","label":"Innenstadt","detail":"1 Stellplatz"},"geometry":{"type":"Point","coordinates":[6.79328,51.22357]}},{"type":"Feature","properties":{"kind":"accessible","label":"Oberlandesgericht","detail":"1 Stellplatz"},"geometry":{"type":"Point","coordinates":[6.77337,51.23849]}},{"type":"Feature","properties":{"kind":"accessible","label":"Betreutes Wohnen","detail":"1 Stellplatz"},"geometry":{"type":"Point","coordinates":[6.82463,51.18653]}},{"type":"Feature","properties":{"kind":"accessible","label":"Innenstadt","detail":"1 Stellplatz"},"geometry":{"type":"Point","coordinates":[6.7892,51.22625]}},{"type":"Feature","properties":{"kind":"accessible","label":"Arztpraxis","detail":"1 Stellplatz · Mo.-Fr. 9:00-19:00"},"geometry":{"type":"Point","coordinates":[6.81744,51.23374]}},{"type":"Feature","properties":{"kind":"accessible","label":"DAA Nordrhein","detail":"2 Stellplätze · Mo.-Fr. 6:00-17:00"},"geometry":{"type":"Point","coordinates":[6.82023,51.21301]}},{"type":"Feature","properties":{"kind":"accessible","label":"Einkaufsbereich","detail":"2 Stellplätze"},"geometry":{"type":"Point","coordinates":[6.78725,51.22635]}},{"type":"Feature","properties":{"kind":"accessible","label":"Einkaufsbereich","detail":"1 Stellplatz · werktags 9:00-20:00"},"geometry":{"type":"Point","coordinates":[6.78762,51.22627]}},{"type":"Feature","properties":{"kind":"accessible","label":"Kindertagesstätte","detail":"2 Stellplätze · Mo.-Fr. 8:00-18:00"},"geometry":{"type":"Point","coordinates":[6.80865,51.22923]}},{"type":"Feature","properties":{"kind":"accessible","label":"Pflegedienst","detail":"1 Stellplatz · Mo.-So. 8:00-22:00"},"geometry":{"type":"Point","coordinates":[6.79743,51.21387]}},{"type":"Feature","properties":{"kind":"accessible","label":"Therapiezentrum / Arztpraxis","detail":"1 Stellplatz"},"geometry":{"type":"Point","coordinates":[6.76595,51.21413]}},{"type":"Feature","properties":{"kind":"accessible","label":"Hbf","detail":"1 Stellplatz"},"geometry":{"type":"Point","coordinates":[6.79789,51.22014]}},{"type":"Feature","properties":{"kind":"accessible","label":"Opernhaus","detail":"2 Stellplätze"},"geometry":{"type":"Point","coordinates":[6.77766,51.22705]}},{"type":"Feature","properties":{"kind":"accessible","label":"Arztpraxis","detail":"1 Stellplatz · Mo.-Fr. 8:00-18:00"},"geometry":{"type":"Point","coordinates":[6.74992,51.23169]}},{"type":"Feature","properties":{"kind":"accessible","label":"Arztpraxen und Physiotherapie","detail":"1 Stellplatz · Mo.-Fr. 8:00-19:00"},"geometry":{"type":"Point","coordinates":[6.75906,51.23174]}},{"type":"Feature","properties":{"kind":"accessible","label":"Arztpraxen","detail":"1 Stellplatz"},"geometry":{"type":"Point","coordinates":[6.76059,51.23175]}},{"type":"Feature","properties":{"kind":"accessible","label":"Kammerspiele","detail":"2 Stellplätze · Mo.-So. 19:00-23:00"},"geometry":{"type":"Point","coordinates":[6.78032,51.21759]}},{"type":"Feature","properties":{"kind":"accessible","label":"Deutsche Bundesbank","detail":"1 Stellplatz · Mo.-Fr. 8:00-17:00"},"geometry":{"type":"Point","coordinates":[6.78355,51.22453]}},{"type":"Feature","properties":{"kind":"accessible","label":"Verwaltungsgebäude","detail":"1 Stellplatz · Mo.-Fr. 7:00-16:00"},"geometry":{"type":"Point","coordinates":[6.77771,51.2445]}},{"type":"Feature","properties":{"kind":"accessible","label":"Städtische Einrichtung","detail":"2 Stellplätze · Mo.-Fr. 7:00-17:00"},"geometry":{"type":"Point","coordinates":[6.80336,51.22073]}},{"type":"Feature","properties":{"kind":"accessible","label":"Altstadt","detail":"4 Stellplätze"},"geometry":{"type":"Point","coordinates":[6.77263,51.22714]}},{"type":"Feature","properties":{"kind":"accessible","label":"Einrichtung Hilfe für Behinderte","detail":"1 Stellplatz"},"geometry":{"type":"Point","coordinates":[6.80219,51.25302]}},{"type":"Feature","properties":{"kind":"accessible","label":"öffentl. Verwaltung","detail":"1 Stellplatz"},"geometry":{"type":"Point","coordinates":[6.80993,51.26179]}},{"type":"Feature","properties":{"kind":"accessible","label":"Arztpraxen / Einkaufsbereich","detail":"1 Stellplatz"},"geometry":{"type":"Point","coordinates":[6.85996,51.23708]}},{"type":"Feature","properties":{"kind":"accessible","label":"Arztpraxen","detail":"1 Stellplatz"},"geometry":{"type":"Point","coordinates":[6.8967,51.14884]}},{"type":"Feature","properties":{"kind":"accessible","label":"Massagepraxis","detail":"1 Stellplatz"},"geometry":{"type":"Point","coordinates":[6.75236,51.23888]}},{"type":"Feature","properties":{"kind":"accessible","label":"Stadtteilzentrum","detail":"1 Stellplatz · Mo.-Fr. 8:00-18:00"},"geometry":{"type":"Point","coordinates":[6.72216,51.23244]}},{"type":"Feature","properties":{"kind":"accessible","label":"Orthopädietechnik","detail":"1 Stellplatz"},"geometry":{"type":"Point","coordinates":[6.7785,51.23599]}},{"type":"Feature","properties":{"kind":"accessible","label":"Einkaufsstraße","detail":"1 Stellplatz"},"geometry":{"type":"Point","coordinates":[6.77996,51.23887]}},{"type":"Feature","properties":{"kind":"accessible","label":"Wohnanlage für Behinderte","detail":"2 Stellplätze"},"geometry":{"type":"Point","coordinates":[6.79638,51.21082]}},{"type":"Feature","properties":{"kind":"accessible","label":"Tonhalle","detail":"3 Stellplätze"},"geometry":{"type":"Point","coordinates":[6.77398,51.23214]}},{"type":"Feature","properties":{"kind":"accessible","label":"Kirche","detail":"1 Stellplatz · So. 10:00-13:00"},"geometry":{"type":"Point","coordinates":[6.89148,51.14664]}},{"type":"Feature","properties":{"kind":"accessible","label":"Arztpraxis","detail":"1 Stellplatz · Mo.-Fr. 8:00-13:00"},"geometry":{"type":"Point","coordinates":[6.84812,51.24139]}},{"type":"Feature","properties":{"kind":"accessible","label":"Friedhof","detail":"1 Stellplatz"},"geometry":{"type":"Point","coordinates":[6.72021,51.2365]}},{"type":"Feature","properties":{"kind":"accessible","label":"Ärztehaus / Massagepraxis","detail":"2 Stellplätze · Mo.-Fr. 8:00-18:00"},"geometry":{"type":"Point","coordinates":[6.72023,51.23328]}},{"type":"Feature","properties":{"kind":"accessible","label":"Arztpraxis","detail":"1 Stellplatz · werktags 7:00-19:00"},"geometry":{"type":"Point","coordinates":[6.79603,51.2299]}},{"type":"Feature","properties":{"kind":"accessible","label":"Physiotherapie","detail":"1 Stellplatz · Mo.-Fr. 7:30-21:00"},"geometry":{"type":"Point","coordinates":[6.80504,51.23473]}},{"type":"Feature","properties":{"kind":"accessible","label":"Innenstadt","detail":"1 Stellplatz"},"geometry":{"type":"Point","coordinates":[6.77264,51.21972]}},{"type":"Feature","properties":{"kind":"accessible","label":"Einkaufsbereich /Markt","detail":"1 Stellplatz · Mo.-Fr. 9:00-18:00, Sa. 9:00-16:00"},"geometry":{"type":"Point","coordinates":[6.87196,51.1636]}},{"type":"Feature","properties":{"kind":"accessible","label":"Claudius-Heim","detail":"1 Stellplatz"},"geometry":{"type":"Point","coordinates":[6.87213,51.18031]}},{"type":"Feature","properties":{"kind":"accessible","label":"Innenstadt / Physiotherapie","detail":"1 Stellplatz"},"geometry":{"type":"Point","coordinates":[6.78632,51.22297]}},{"type":"Feature","properties":{"kind":"accessible","label":"Praxis für Ergotherapie","detail":"1 Stellplatz · Mo.-Fr. 9:00-19:00"},"geometry":{"type":"Point","coordinates":[6.78155,51.23398]}},{"type":"Feature","properties":{"kind":"accessible","label":"Rheinbad","detail":"4 Stellplätze"},"geometry":{"type":"Point","coordinates":[6.73338,51.26613]}},{"type":"Feature","properties":{"kind":"accessible","label":"Therapiezentrum \"Die Eule\"","detail":"1 Stellplatz · Mo.-Fr. 8:00-18:00"},"geometry":{"type":"Point","coordinates":[6.75319,51.25987]}},{"type":"Feature","properties":{"kind":"accessible","label":"Orthopädietechnik","detail":"1 Stellplatz · Mo.-Fr. 9:00-18:00"},"geometry":{"type":"Point","coordinates":[6.7778,51.25031]}},{"type":"Feature","properties":{"kind":"accessible","label":"Ärztekammer Nordrhein","detail":"2 Stellplätze"},"geometry":{"type":"Point","coordinates":[6.76444,51.25153]}},{"type":"Feature","properties":{"kind":"accessible","label":"Friedhof","detail":"2 Stellplätze"},"geometry":{"type":"Point","coordinates":[6.77464,51.26287]}},{"type":"Feature","properties":{"kind":"accessible","label":"Tonhalle / Innenstadt","detail":"5 Stellplätze"},"geometry":{"type":"Point","coordinates":[6.77028,51.23687]}},{"type":"Feature","properties":{"kind":"accessible","label":"Einkaufsbereich","detail":"2 Stellplätze"},"geometry":{"type":"Point","coordinates":[6.76322,51.24963]}},{"type":"Feature","properties":{"kind":"accessible","label":"Arztpraxis","detail":"1 Stellplatz · Mo., Di., Do. 8:00-18:00; Mi., Fr. 8:00-14:00"},"geometry":{"type":"Point","coordinates":[6.80091,51.23384]}},{"type":"Feature","properties":{"kind":"accessible","label":"Freizeitpark Ulenbergstraße","detail":"2 Stellplätze"},"geometry":{"type":"Point","coordinates":[6.77383,51.19608]}},{"type":"Feature","properties":{"kind":"accessible","label":"Universität","detail":"28 Stellplätze"},"geometry":{"type":"Point","coordinates":[6.79191,51.19367]}},{"type":"Feature","properties":{"kind":"accessible","label":"Arztpraxis Mecklenburger Weg","detail":"1 Stellplatz · werktags"},"geometry":{"type":"Point","coordinates":[6.78294,51.27417]}},{"type":"Feature","properties":{"kind":"accessible","label":"Einkaufsbereich Benrath","detail":"1 Stellplatz"},"geometry":{"type":"Point","coordinates":[6.87447,51.16027]}},{"type":"Feature","properties":{"kind":"accessible","label":"Einkaufsbereich Benrath","detail":"2 Stellplätze"},"geometry":{"type":"Point","coordinates":[6.8746,51.16186]}},{"type":"Feature","properties":{"kind":"accessible","label":"Orangerie","detail":"4 Stellplätze"},"geometry":{"type":"Point","coordinates":[6.87185,51.15783]}},{"type":"Feature","properties":{"kind":"accessible","label":"Krankenhaus","detail":"1 Stellplatz"},"geometry":{"type":"Point","coordinates":[6.87128,51.15247]}},{"type":"Feature","properties":{"kind":"accessible","label":"Kirche","detail":"2 Stellplätze"},"geometry":{"type":"Point","coordinates":[6.86788,51.1497]}},{"type":"Feature","properties":{"kind":"accessible","label":"Ärztehaus","detail":"1 Stellplatz · Mo.-Fr. 7:00-18:00"},"geometry":{"type":"Point","coordinates":[6.77836,51.23721]}},{"type":"Feature","properties":{"kind":"accessible","label":"Arztpraxis","detail":"1 Stellplatz · Mo.-Fr. 7:00-18:00"},"geometry":{"type":"Point","coordinates":[6.77826,51.23725]}},{"type":"Feature","properties":{"kind":"accessible","label":"Verwaltungsgebäude","detail":"1 Stellplatz · Mo.-Fr. 9:00-18:00"},"geometry":{"type":"Point","coordinates":[6.77708,51.23696]}},{"type":"Feature","properties":{"kind":"accessible","label":"Arztpraxis","detail":"1 Stellplatz · Mo.-Fr. 8:00-18:00"},"geometry":{"type":"Point","coordinates":[6.85766,51.20748]}},{"type":"Feature","properties":{"kind":"accessible","label":"Einkaufsbereich","detail":"1 Stellplatz · Mo.-Fr. 9:00-20:00, Sa. 8:00-14:00"},"geometry":{"type":"Point","coordinates":[6.86206,51.2117]}},{"type":"Feature","properties":{"kind":"accessible","label":"Betreutes Wohnen","detail":"1 Stellplatz"},"geometry":{"type":"Point","coordinates":[6.86013,51.20982]}},{"type":"Feature","properties":{"kind":"accessible","label":"Arztpraxis","detail":"1 Stellplatz · Mo.-Fr. 7:00-18:00"},"geometry":{"type":"Point","coordinates":[6.75881,51.21175]}},{"type":"Feature","properties":{"kind":"accessible","label":"Grimmke-Haus AWO","detail":"2 Stellplätze · Mo.-Fr. 7:00-17:00"},"geometry":{"type":"Point","coordinates":[6.73184,51.24121]}},{"type":"Feature","properties":{"kind":"accessible","label":"Orthopädietechnik","detail":"1 Stellplatz · Mo., Di., Do., Fr. 9:00-18:00, Mi. 9:00-13:00"},"geometry":{"type":"Point","coordinates":[6.83734,51.17152]}},{"type":"Feature","properties":{"kind":"accessible","label":"Sanitätshaus","detail":"1 Stellplatz · Mo.-Fr. 7:00-19:00"},"geometry":{"type":"Point","coordinates":[6.81337,51.2627]}},{"type":"Feature","properties":{"kind":"accessible","label":"Einkaufsbereich","detail":"1 Stellplatz"},"geometry":{"type":"Point","coordinates":[6.81167,51.26224]}},{"type":"Feature","properties":{"kind":"accessible","label":"Einkaufszentrum","detail":"1 Stellplatz"},"geometry":{"type":"Point","coordinates":[6.87243,51.165]}},{"type":"Feature","properties":{"kind":"accessible","label":"Sozialamt / Jugendamt","detail":"2 Stellplätze · Mo.-Fr. 7:00-17:00"},"geometry":{"type":"Point","coordinates":[6.79502,51.21781]}},{"type":"Feature","properties":{"kind":"accessible","label":"Sozialamt / Jugendamt","detail":"2 Stellplätze · Mo.-Fr. 7:00-17:00"},"geometry":{"type":"Point","coordinates":[6.79477,51.21786]}},{"type":"Feature","properties":{"kind":"accessible","label":"Worringer Platz","detail":"1 Stellplatz"},"geometry":{"type":"Point","coordinates":[6.79497,51.22418]}},{"type":"Feature","properties":{"kind":"accessible","label":"Fernbusbahnhof","detail":"1 Stellplatz"},"geometry":{"type":"Point","coordinates":[6.79503,51.22205]}},{"type":"Feature","properties":{"kind":"accessible","label":"Hauptbahnhof / Kinocenter","detail":"2 Stellplätze"},"geometry":{"type":"Point","coordinates":[6.79457,51.2223]}},{"type":"Feature","properties":{"kind":"accessible","label":"Diakonie","detail":"1 Stellplatz · Mo.-Fr. 9:00-18:00"},"geometry":{"type":"Point","coordinates":[6.74348,51.29877]}},{"type":"Feature","properties":{"kind":"accessible","label":"Diakonie","detail":"1 Stellplatz"},"geometry":{"type":"Point","coordinates":[6.74509,51.29867]}},{"type":"Feature","properties":{"kind":"accessible","label":"Südpark","detail":"2 Stellplätze"},"geometry":{"type":"Point","coordinates":[6.81026,51.19515]}},{"type":"Feature","properties":{"kind":"accessible","label":"Medienhafen","detail":"2 Stellplätze"},"geometry":{"type":"Point","coordinates":[6.75158,51.21348]}},{"type":"Feature","properties":{"kind":"accessible","label":"Pressehaus","detail":"2 Stellplätze · Mo.-Fr. 7:00-19:00"},"geometry":{"type":"Point","coordinates":[6.69909,51.23384]}},{"type":"Feature","properties":{"kind":"accessible","label":"Waldparkplätze Aaper Wald","detail":"1 Stellplatz"},"geometry":{"type":"Point","coordinates":[6.83681,51.25462]}},{"type":"Feature","properties":{"kind":"accessible","label":"Dorfkern","detail":"1 Stellplatz"},"geometry":{"type":"Point","coordinates":[6.73912,51.20413]}},{"type":"Feature","properties":{"kind":"accessible","label":"Nosthoffenstraße","detail":"1 Stellplatz"},"geometry":{"type":"Point","coordinates":[6.83032,51.17942]}},{"type":"Feature","properties":{"kind":"accessible","label":"Physiopraxis","detail":"1 Stellplatz · Mo.-Fr. 8:00-18:00"},"geometry":{"type":"Point","coordinates":[6.80717,51.17205]}},{"type":"Feature","properties":{"kind":"accessible","label":"Arztpraxis","detail":"1 Stellplatz · Mo.-Fr. 7:30-20:00"},"geometry":{"type":"Point","coordinates":[6.82284,51.23885]}},{"type":"Feature","properties":{"kind":"accessible","label":"Altentagespflege","detail":"1 Stellplatz · Mo.-Fr. 7:00-17:00"},"geometry":{"type":"Point","coordinates":[6.7906,51.22637]}},{"type":"Feature","properties":{"kind":"accessible","label":"Tagespflege","detail":"2 Stellplätze"},"geometry":{"type":"Point","coordinates":[6.81885,51.24715]}},{"type":"Feature","properties":{"kind":"accessible","label":"Arztpraxis","detail":"1 Stellplatz · Mo.-Fr. 8:00-18:00"},"geometry":{"type":"Point","coordinates":[6.86655,51.15357]}},{"type":"Feature","properties":{"kind":"accessible","label":"Ergotherapie","detail":"2 Stellplätze · Mo.-Fr. 8:00-15:00"},"geometry":{"type":"Point","coordinates":[6.78051,51.32336]}},{"type":"Feature","properties":{"kind":"accessible","label":"Gemeinde","detail":"1 Stellplatz"},"geometry":{"type":"Point","coordinates":[6.77923,51.24316]}},{"type":"Feature","properties":{"kind":"accessible","label":"Innenstadt, vor Parkhaus Kaufhof/Kö","detail":"1 Stellplatz"},"geometry":{"type":"Point","coordinates":[6.77715,51.22606]}},{"type":"Feature","properties":{"kind":"accessible","label":"Innenstadt","detail":"1 Stellplatz"},"geometry":{"type":"Point","coordinates":[6.79627,51.2288]}},{"type":"Feature","properties":{"kind":"accessible","label":"Ergotherapie Praxis","detail":"1 Stellplatz"},"geometry":{"type":"Point","coordinates":[6.83194,51.21011]}},{"type":"Feature","properties":{"kind":"accessible","label":"Bürgerbüro","detail":"2 Stellplätze · Mo.-Fr. 7:30-18:00"},"geometry":{"type":"Point","coordinates":[6.83202,51.1759]}},{"type":"Feature","properties":{"kind":"accessible","label":"Seniorenwohnheim","detail":"2 Stellplätze"},"geometry":{"type":"Point","coordinates":[6.77294,51.21392]}},{"type":"Feature","properties":{"kind":"accessible","label":"Sozialverband","detail":"2 Stellplätze"},"geometry":{"type":"Point","coordinates":[6.77418,51.21404]}},{"type":"Feature","properties":{"kind":"accessible","label":"VDK Landes-Vorst.","detail":"2 Stellplätze"},"geometry":{"type":"Point","coordinates":[6.77466,51.21403]}},{"type":"Feature","properties":{"kind":"accessible","label":"Altstadt","detail":"1 Stellplatz"},"geometry":{"type":"Point","coordinates":[6.77425,51.2218]}},{"type":"Feature","properties":{"kind":"accessible","label":"Arztpraxen, Friedhof","detail":"1 Stellplatz · werktags 8:00-18:00"},"geometry":{"type":"Point","coordinates":[6.89798,51.20426]}},{"type":"Feature","properties":{"kind":"accessible","label":"Arztpraxen, Friedhof","detail":"1 Stellplatz · werktags 8:00-18:00"},"geometry":{"type":"Point","coordinates":[6.89567,51.20407]}},{"type":"Feature","properties":{"kind":"accessible","label":"ASG-Bildungsforum","detail":"1 Stellplatz"},"geometry":{"type":"Point","coordinates":[6.80047,51.22624]}},{"type":"Feature","properties":{"kind":"accessible","label":"Arztpraxis","detail":"1 Stellplatz"},"geometry":{"type":"Point","coordinates":[6.80283,51.22572]}},{"type":"Feature","properties":{"kind":"accessible","label":"Diakonie","detail":"2 Stellplätze · Mo.-Fr. 8:00-18:00"},"geometry":{"type":"Point","coordinates":[6.80615,51.22558]}},{"type":"Feature","properties":{"kind":"accessible","label":"Kirche","detail":"2 Stellplätze · Mo.-So. 8:00-13:00"},"geometry":{"type":"Point","coordinates":[6.86311,51.23756]}},{"type":"Feature","properties":{"kind":"accessible","label":"Praxis für Physiotherapie","detail":"1 Stellplatz"},"geometry":{"type":"Point","coordinates":[6.76263,51.21147]}},{"type":"Feature","properties":{"kind":"accessible","label":"Münstercenter","detail":"2 Stellplätze · Mo.-Fr. 8:00-18:00"},"geometry":{"type":"Point","coordinates":[6.78562,51.24513]}},{"type":"Feature","properties":{"kind":"accessible","label":"Schauspielhaus / Hofgarten","detail":"2 Stellplätze"},"geometry":{"type":"Point","coordinates":[6.78535,51.22864]}},{"type":"Feature","properties":{"kind":"accessible","label":"Dialysezentrum Jacobistraße","detail":"1 Stellplatz"},"geometry":{"type":"Point","coordinates":[6.78672,51.22862]}},{"type":"Feature","properties":{"kind":"accessible","label":"Arztpraxis","detail":"1 Stellplatz · Mo.-Fr. 8:00-19:00"},"geometry":{"type":"Point","coordinates":[6.78151,51.2456]}},{"type":"Feature","properties":{"kind":"accessible","label":"Ärztehaus","detail":"1 Stellplatz"},"geometry":{"type":"Point","coordinates":[6.78922,51.21932]}},{"type":"Feature","properties":{"kind":"accessible","label":"Einkaufsbereich","detail":"2 Stellplätze · Mo.-So. 8:00-17:00"},"geometry":{"type":"Point","coordinates":[6.79064,51.21956]}},{"type":"Feature","properties":{"kind":"accessible","label":"Finanzamt D/ME","detail":"1 Stellplatz · Mo.-So. 8:00-17:00"},"geometry":{"type":"Point","coordinates":[6.78134,51.21904]}},{"type":"Feature","properties":{"kind":"accessible","label":"allgemeiner Bedarf","detail":"1 Stellplatz · Mo.-Fr. 6:00-15:00"},"geometry":{"type":"Point","coordinates":[6.80543,51.23128]}},{"type":"Feature","properties":{"kind":"accessible","label":"Arztpraxen","detail":"1 Stellplatz · Mo.-Fr. 8:00-18:00"},"geometry":{"type":"Point","coordinates":[6.80804,51.23164]}},{"type":"Feature","properties":{"kind":"accessible","label":"Arztpraxis","detail":"1 Stellplatz"},"geometry":{"type":"Point","coordinates":[6.81122,51.23255]}},{"type":"Feature","properties":{"kind":"accessible","label":"Arztpraxis","detail":"1 Stellplatz · Mo.-Fr. 12:00-17:00"},"geometry":{"type":"Point","coordinates":[6.81678,51.23367]}},{"type":"Feature","properties":{"kind":"accessible","label":"Strandbad Nord","detail":"4 Stellplätze"},"geometry":{"type":"Point","coordinates":[6.89535,51.19761]}},{"type":"Feature","properties":{"kind":"accessible","label":"Lebenshilfe","detail":"1 Stellplatz · Mo.-Fr.  9:00-19:00"},"geometry":{"type":"Point","coordinates":[6.80247,51.24364]}},{"type":"Feature","properties":{"kind":"accessible","label":"Innenstadt / Worringer Platz","detail":"1 Stellplatz"},"geometry":{"type":"Point","coordinates":[6.7967,51.22515]}},{"type":"Feature","properties":{"kind":"accessible","label":"Arztpraxis","detail":"1 Stellplatz · Mo.-Fr. 8:00-12:00"},"geometry":{"type":"Point","coordinates":[6.80655,51.22969]}},{"type":"Feature","properties":{"kind":"accessible","label":"Orthopädie Schuhtechnik","detail":"1 Stellplatz · Mo.-Fr. 9:00-18:00"},"geometry":{"type":"Point","coordinates":[6.80911,51.23041]}},{"type":"Feature","properties":{"kind":"accessible","label":"LVA","detail":"3 Stellplätze · Mo.-Fr. 7:00-14:00"},"geometry":{"type":"Point","coordinates":[6.77781,51.21826]}},{"type":"Feature","properties":{"kind":"accessible","label":"Einkaufszentrum","detail":"1 Stellplatz"},"geometry":{"type":"Point","coordinates":[6.79865,51.23775]}},{"type":"Feature","properties":{"kind":"accessible","label":"Kindertagesstätte","detail":"1 Stellplatz · Mo.-Fr. 7:00-16:00"},"geometry":{"type":"Point","coordinates":[6.78237,51.27482]}},{"type":"Feature","properties":{"kind":"accessible","label":"Flughafen / Bahnhof","detail":"2 Stellplätze"},"geometry":{"type":"Point","coordinates":[6.78801,51.2908]}},{"type":"Feature","properties":{"kind":"accessible","label":"Begegnungsstätte Diakonie","detail":"1 Stellplatz"},"geometry":{"type":"Point","coordinates":[6.70535,51.23318]}},{"type":"Feature","properties":{"kind":"accessible","label":"Arztpraxis","detail":"1 Stellplatz · Mo.-Fr. 7:00-19:00"},"geometry":{"type":"Point","coordinates":[6.74157,51.30091]}},{"type":"Feature","properties":{"kind":"accessible","label":"Einkaufszentrum","detail":"1 Stellplatz"},"geometry":{"type":"Point","coordinates":[6.74023,51.29199]}},{"type":"Feature","properties":{"kind":"accessible","label":"Ärzte, Einkaufszentrum","detail":"1 Stellplatz"},"geometry":{"type":"Point","coordinates":[6.86504,51.18165]}},{"type":"Feature","properties":{"kind":"accessible","label":"Krankenhaus Elbroich","detail":"2 Stellplätze"},"geometry":{"type":"Point","coordinates":[6.82416,51.17689]}},{"type":"Feature","properties":{"kind":"accessible","label":"Krankenhaus","detail":"2 Stellplätze"},"geometry":{"type":"Point","coordinates":[6.72813,51.23143]}},{"type":"Feature","properties":{"kind":"accessible","label":"Strandbad Süd","detail":"4 Stellplätze"},"geometry":{"type":"Point","coordinates":[6.8792,51.19408]}},{"type":"Feature","properties":{"kind":"accessible","label":"Einkaufsbereich","detail":"2 Stellplätze · Mo.-Fr. 9:00-18:00, Sa. 9:00-14:00"},"geometry":{"type":"Point","coordinates":[6.834,51.17593]}},{"type":"Feature","properties":{"kind":"accessible","label":"Nordfriedhof","detail":"2 Stellplätze"},"geometry":{"type":"Point","coordinates":[6.77133,51.25379]}},{"type":"Feature","properties":{"kind":"accessible","label":"Seniorenwohnheim / Einkaufsbereich","detail":"1 Stellplatz"},"geometry":{"type":"Point","coordinates":[6.8636,51.23484]}},{"type":"Feature","properties":{"kind":"accessible","label":"Einkaufszentrum, Friedhof","detail":"1 Stellplatz"},"geometry":{"type":"Point","coordinates":[6.89529,51.20486]}},{"type":"Feature","properties":{"kind":"accessible","label":"Einkaufsbereich","detail":"1 Stellplatz · Mo.-Fr. 7:00-19:00"},"geometry":{"type":"Point","coordinates":[6.87124,51.26843]}},{"type":"Feature","properties":{"kind":"accessible","label":"Betreutes Wohnen","detail":"1 Stellplatz"},"geometry":{"type":"Point","coordinates":[6.83609,51.1948]}},{"type":"Feature","properties":{"kind":"accessible","label":"Kastanienhöfe","detail":"1 Stellplatz · werktags 9:00-20:00"},"geometry":{"type":"Point","coordinates":[6.83162,51.20597]}},{"type":"Feature","properties":{"kind":"accessible","label":"Krankenhaus / Seniorenwohnheim","detail":"1 Stellplatz"},"geometry":{"type":"Point","coordinates":[6.82505,51.26631]}},{"type":"Feature","properties":{"kind":"accessible","label":"Krankenhaus","detail":"1 Stellplatz"},"geometry":{"type":"Point","coordinates":[6.82531,51.26658]}},{"type":"Feature","properties":{"kind":"accessible","label":"Einkaufszentrum","detail":"1 Stellplatz"},"geometry":{"type":"Point","coordinates":[6.73585,51.30131]}},{"type":"Feature","properties":{"kind":"accessible","label":"Apollo-Varieté","detail":"3 Stellplätze"},"geometry":{"type":"Point","coordinates":[6.76575,51.21946]}},{"type":"Feature","properties":{"kind":"accessible","label":"Technisches Rathaus","detail":"2 Stellplätze"},"geometry":{"type":"Point","coordinates":[6.78587,51.20372]}},{"type":"Feature","properties":{"kind":"accessible","label":"Ärztehaus","detail":"1 Stellplatz"},"geometry":{"type":"Point","coordinates":[6.79029,51.23408]}},{"type":"Feature","properties":{"kind":"accessible","label":"Bahnhof","detail":"7 Stellplätze"},"geometry":{"type":"Point","coordinates":[6.87876,51.16189]}},{"type":"Feature","properties":{"kind":"accessible","label":"Innenstadt, Kö","detail":"1 Stellplatz"},"geometry":{"type":"Point","coordinates":[6.7799,51.21981]}},{"type":"Feature","properties":{"kind":"accessible","label":"Praxis für Physiotherapie","detail":"1 Stellplatz · Mo.-Do. 7:00-19:00, Fr. 7:00-13:00"},"geometry":{"type":"Point","coordinates":[6.77171,51.22152]}},{"type":"Feature","properties":{"kind":"accessible","label":"Haus der Kirche","detail":"1 Stellplatz · Mo.-Fr. 9:00-20:00"},"geometry":{"type":"Point","coordinates":[6.77354,51.22165]}},{"type":"Feature","properties":{"kind":"accessible","label":"DDA","detail":"1 Stellplatz · Mo.-So. 7:00-19:00"},"geometry":{"type":"Point","coordinates":[6.79192,51.22353]}},{"type":"Feature","properties":{"kind":"accessible","label":"Orthopädietechnik","detail":"1 Stellplatz"},"geometry":{"type":"Point","coordinates":[6.85819,51.23711]}},{"type":"Feature","properties":{"kind":"accessible","label":"Einkaufsbereich","detail":"1 Stellplatz"},"geometry":{"type":"Point","coordinates":[6.85177,51.2378]}},{"type":"Feature","properties":{"kind":"accessible","label":"Rathaus Benrath","detail":"2 Stellplätze"},"geometry":{"type":"Point","coordinates":[6.85946,51.16383]}},{"type":"Feature","properties":{"kind":"accessible","label":"Stadtmuseum","detail":"2 Stellplätze"},"geometry":{"type":"Point","coordinates":[6.76997,51.22222]}},{"type":"Feature","properties":{"kind":"accessible","label":"Praxis für Physiotherapie","detail":"1 Stellplatz · Mo.-Do. 8:00-18:00, Fr. 8:00-14:00"},"geometry":{"type":"Point","coordinates":[6.78359,51.22626]}},{"type":"Feature","properties":{"kind":"accessible","label":"Krankenkasse","detail":"2 Stellplätze · Mo.-Fr. 8:00-17:00"},"geometry":{"type":"Point","coordinates":[6.78245,51.22042]}},{"type":"Feature","properties":{"kind":"accessible","label":"Praxis für Physiotherapie","detail":"1 Stellplatz · Mo.-So. 8:00-19:00"},"geometry":{"type":"Point","coordinates":[6.77797,51.21057]}},{"type":"Feature","properties":{"kind":"accessible","label":"Praxis für Physiotherapie","detail":"2 Stellplätze · Mo.-Fr. 9:00-19:00"},"geometry":{"type":"Point","coordinates":[6.76798,51.21078]}},{"type":"Feature","properties":{"kind":"accessible","label":"Kulturinstitute","detail":"4 Stellplätze"},"geometry":{"type":"Point","coordinates":[6.77274,51.22238]}},{"type":"Feature","properties":{"kind":"accessible","label":"Gerhart-Hauptmann-Haus","detail":"1 Stellplatz"},"geometry":{"type":"Point","coordinates":[6.78915,51.22108]}},{"type":"Feature","properties":{"kind":"accessible","label":"Radiologiepraxen / Dialysepraxis","detail":"5 Stellplätze · Mo.-Fr. 6:00-21:00, Sa. 6:00-15:00"},"geometry":{"type":"Point","coordinates":[6.79049,51.22031]}},{"type":"Feature","properties":{"kind":"accessible","label":"Altstadt","detail":"2 Stellplätze"},"geometry":{"type":"Point","coordinates":[6.77473,51.22317]}},{"type":"Feature","properties":{"kind":"accessible","label":"Orthopädietechnik","detail":"1 Stellplatz · Mo.-Fr. 8:00-18:00"},"geometry":{"type":"Point","coordinates":[6.78334,51.23941]}},{"type":"Feature","properties":{"kind":"accessible","label":"Schadowarkaden","detail":"4 Stellplätze"},"geometry":{"type":"Point","coordinates":[6.78036,51.2252]}},{"type":"Feature","properties":{"kind":"accessible","label":"Innenstadt","detail":"1 Stellplatz"},"geometry":{"type":"Point","coordinates":[6.78636,51.23403]}},{"type":"Feature","properties":{"kind":"accessible","label":"Post","detail":"1 Stellplatz · Mo.-So. 8:00-19:00"},"geometry":{"type":"Point","coordinates":[6.83578,51.17438]}},{"type":"Feature","properties":{"kind":"accessible","label":"Sanitätshaus","detail":"2 Stellplätze"},"geometry":{"type":"Point","coordinates":[6.87176,51.16384]}},{"type":"Feature","properties":{"kind":"accessible","label":"Einkaufsbereich / Arztpraxis","detail":"1 Stellplatz"},"geometry":{"type":"Point","coordinates":[6.80189,51.24002]}},{"type":"Feature","properties":{"kind":"accessible","label":"Technisches Rathaus","detail":"2 Stellplätze"},"geometry":{"type":"Point","coordinates":[6.78717,51.20255]}},{"type":"Feature","properties":{"kind":"accessible","label":"Umweltamt","detail":"2 Stellplätze · Mo.-Fr. 7:00-16:00"},"geometry":{"type":"Point","coordinates":[6.78676,51.2033]}},{"type":"Feature","properties":{"kind":"accessible","label":"Orthopädietechnik","detail":"1 Stellplatz"},"geometry":{"type":"Point","coordinates":[6.77771,51.20761]}},{"type":"Feature","properties":{"kind":"accessible","label":"Gesundheitsamt","detail":"1 Stellplatz · Mo.-Fr. 8:00-18:00"},"geometry":{"type":"Point","coordinates":[6.75951,51.23251]}},{"type":"Feature","properties":{"kind":"accessible","label":"Verwaltungsgebäude / Burgplatz","detail":"2 Stellplätze"},"geometry":{"type":"Point","coordinates":[6.77148,51.22668]}},{"type":"Feature","properties":{"kind":"accessible","label":"Kirche","detail":"2 Stellplätze"},"geometry":{"type":"Point","coordinates":[6.82191,51.1894]}},{"type":"Feature","properties":{"kind":"accessible","label":"Praxis für Physiotherapie","detail":"1 Stellplatz"},"geometry":{"type":"Point","coordinates":[6.82162,51.18851]}},{"type":"Feature","properties":{"kind":"accessible","label":"Einkaufszentrum, Markt","detail":"2 Stellplätze"},"geometry":{"type":"Point","coordinates":[6.87312,51.1641]}},{"type":"Feature","properties":{"kind":"accessible","label":"Diakonie","detail":"1 Stellplatz · Mo.-So. 8:00-18:00"},"geometry":{"type":"Point","coordinates":[6.87206,51.16601]}},{"type":"Feature","properties":{"kind":"accessible","label":"Westfalenstraße 46","detail":"1 Stellplatz"},"geometry":{"type":"Point","coordinates":[6.81545,51.26294]}},{"type":"Feature","properties":{"kind":"accessible","label":"Orthopädiegeschäft","detail":"1 Stellplatz · Mo.-Fr. 9:00-19:00"},"geometry":{"type":"Point","coordinates":[6.78292,51.2127]}},{"type":"Feature","properties":{"kind":"accessible","label":"Verwaltungsnebenstelle","detail":"1 Stellplatz · Mo.-Fr. 8:00-12:00"},"geometry":{"type":"Point","coordinates":[6.8172,51.23086]}},{"type":"Feature","properties":{"kind":"accessible","label":"Kirche","detail":"1 Stellplatz"},"geometry":{"type":"Point","coordinates":[6.81166,51.23083]}},{"type":"Feature","properties":{"kind":"accessible","label":"Betreutes Wohnen / Arztpraxis","detail":"1 Stellplatz · Sa. 17:00-19:00, So. 18:00-20:00"},"geometry":{"type":"Point","coordinates":[6.81237,51.22868]}},{"type":"Feature","properties":{"kind":"accessible","label":"Fashion-House","detail":"1 Stellplatz · Mo.-So. 8:00-18:00"},"geometry":{"type":"Point","coordinates":[6.76292,51.26073]}},{"type":"Feature","properties":{"kind":"accessible","label":"Marktplatz","detail":"1 Stellplatz"},"geometry":{"type":"Point","coordinates":[6.79461,51.28284]}},{"type":"Feature","properties":{"kind":"accessible","label":"Einkaufsbereich","detail":"1 Stellplatz"},"geometry":{"type":"Point","coordinates":[6.75299,51.23061]}},{"type":"Feature","properties":{"kind":"accessible","label":"Einkaufsstraße","detail":"1 Stellplatz · Mo.-Fr. 7:30-16:30"},"geometry":{"type":"Point","coordinates":[6.85799,51.23583]}},{"type":"Feature","properties":{"kind":"accessible","label":"Einkaufszentrum","detail":"1 Stellplatz · Mo.-Fr. 9:00-22:00"},"geometry":{"type":"Point","coordinates":[6.78164,51.236]}},{"type":"Feature","properties":{"kind":"accessible","label":"Physiotherapie","detail":"1 Stellplatz · Mo.-Fr. 8:00-20:00"},"geometry":{"type":"Point","coordinates":[6.7853,51.23239]}},{"type":"Feature","properties":{"kind":"accessible","label":"Praxis für Physiotherapie","detail":"1 Stellplatz · Mo.-Fr. 8:00-20:00"},"geometry":{"type":"Point","coordinates":[6.76529,51.21418]}},{"type":"Feature","properties":{"kind":"accessible","label":"Club 68","detail":"2 Stellplätze"},"geometry":{"type":"Point","coordinates":[6.78651,51.23496]}},{"type":"Feature","properties":{"kind":"accessible","label":"Club 68","detail":"1 Stellplatz"},"geometry":{"type":"Point","coordinates":[6.78651,51.23496]}},{"type":"Feature","properties":{"kind":"accessible","label":"Arztpraxis / allg. Bedarf","detail":"1 Stellplatz"},"geometry":{"type":"Point","coordinates":[6.8024,51.21667]}},{"type":"Feature","properties":{"kind":"accessible","label":"Arztpraxis","detail":"1 Stellplatz · Mo.-Fr. 7:00-18:00"},"geometry":{"type":"Point","coordinates":[6.77506,51.21126]}},{"type":"Feature","properties":{"kind":"accessible","label":"S-Bahnhof / Einkaufsbereich","detail":"3 Stellplätze"},"geometry":{"type":"Point","coordinates":[6.83757,51.20281]}},{"type":"Feature","properties":{"kind":"accessible","label":"öffentlicher Parkplatz","detail":"1 Stellplatz"},"geometry":{"type":"Point","coordinates":[6.73911,51.24315]}},{"type":"Feature","properties":{"kind":"accessible","label":"Ärztehaus","detail":"3 Stellplätze"},"geometry":{"type":"Point","coordinates":[6.89416,51.14181]}},{"type":"Feature","properties":{"kind":"accessible","label":"Jugendberufshilfe","detail":"1 Stellplatz"},"geometry":{"type":"Point","coordinates":[6.8006,51.20952]}},{"type":"Feature","properties":{"kind":"accessible","label":"Verwaltungsgebäude","detail":"1 Stellplatz · Mo.-Fr. 7:00-18:00"},"geometry":{"type":"Point","coordinates":[6.80953,51.22075]}},{"type":"Feature","properties":{"kind":"accessible","label":"Einkaufsbereich","detail":"2 Stellplätze · Mo.-So. 8:30-20:00"},"geometry":{"type":"Point","coordinates":[6.80543,51.22194]}},{"type":"Feature","properties":{"kind":"accessible","label":"B8-Center","detail":"1 Stellplatz"},"geometry":{"type":"Point","coordinates":[6.8095,51.22073]}},{"type":"Feature","properties":{"kind":"accessible","label":"Ambulantes Reha-Zentrum","detail":"2 Stellplätze · Mo.-Fr. 8:00-16:00"},"geometry":{"type":"Point","coordinates":[6.78262,51.21798]}},{"type":"Feature","properties":{"kind":"accessible","label":"Beratungsstelle","detail":"1 Stellplatz"},"geometry":{"type":"Point","coordinates":[6.76482,51.20615]}},{"type":"Feature","properties":{"kind":"accessible","label":"Arztpraxis","detail":"1 Stellplatz · Mo.-Fr. 8:00-18:00"},"geometry":{"type":"Point","coordinates":[6.73544,51.30248]}},{"type":"Feature","properties":{"kind":"accessible","label":"Diakonie","detail":"1 Stellplatz"},"geometry":{"type":"Point","coordinates":[6.73627,51.30242]}},{"type":"Feature","properties":{"kind":"accessible","label":"Stadtbücherei","detail":"2 Stellplätze"},"geometry":{"type":"Point","coordinates":[6.89748,51.1462]}},{"type":"Feature","properties":{"kind":"accessible","label":"Polizeiwache","detail":"2 Stellplätze"},"geometry":{"type":"Point","coordinates":[6.89909,51.14397]}},{"type":"Feature","properties":{"kind":"accessible","label":"Friedenstraße 67 a","detail":"1 Stellplatz"},"geometry":{"type":"Point","coordinates":[6.7664,51.21078]}},{"type":"Feature","properties":{"kind":"accessible","label":"Friedhof / Einkaufsbereich","detail":"2 Stellplätze"},"geometry":{"type":"Point","coordinates":[6.87573,51.16335]}},{"type":"Feature","properties":{"kind":"accessible","label":"Stadtmitte","detail":"1 Stellplatz"},"geometry":{"type":"Point","coordinates":[6.78844,51.22218]}},{"type":"Feature","properties":{"kind":"accessible","label":"Golzheimer Klinik","detail":"2 Stellplätze"},"geometry":{"type":"Point","coordinates":[6.76002,51.25354]}},{"type":"Feature","properties":{"kind":"accessible","label":"Sanitätshaus","detail":"1 Stellplatz"},"geometry":{"type":"Point","coordinates":[6.77725,51.20916]}},{"type":"Feature","properties":{"kind":"accessible","label":"Kirche St. Antonius","detail":"1 Stellplatz"},"geometry":{"type":"Point","coordinates":[6.75368,51.23084]}},{"type":"Feature","properties":{"kind":"accessible","label":"Freizeitstätte","detail":"1 Stellplatz"},"geometry":{"type":"Point","coordinates":[6.89853,51.14468]}},{"type":"Feature","properties":{"kind":"accessible","label":"Einkaufszentrum","detail":"1 Stellplatz"},"geometry":{"type":"Point","coordinates":[6.87216,51.17532]}},{"type":"Feature","properties":{"kind":"accessible","label":"Kirche","detail":"1 Stellplatz"},"geometry":{"type":"Point","coordinates":[6.78129,51.20438]}},{"type":"Feature","properties":{"kind":"accessible","label":"Studienhaus","detail":"3 Stellplätze"},"geometry":{"type":"Point","coordinates":[6.76596,51.21552]}},{"type":"Feature","properties":{"kind":"accessible","label":"Ministerium","detail":"2 Stellplätze · Mo.-So. 8:00-17:00"},"geometry":{"type":"Point","coordinates":[6.77466,51.21411]}},{"type":"Feature","properties":{"kind":"accessible","label":"Friedhof","detail":"2 Stellplätze · Mo.-So. 9:00-17:00"},"geometry":{"type":"Point","coordinates":[6.73193,51.27796]}},{"type":"Feature","properties":{"kind":"accessible","label":"Geschäfte","detail":"1 Stellplatz"},"geometry":{"type":"Point","coordinates":[6.82231,51.18406]}},{"type":"Feature","properties":{"kind":"accessible","label":"Ärztehaus, Apotheke","detail":"2 Stellplätze · Mo.-Fr. 7:00-19:00"},"geometry":{"type":"Point","coordinates":[6.8012,51.23117]}},{"type":"Feature","properties":{"kind":"accessible","label":"Bücherei/Zentrum Plus","detail":"1 Stellplatz"},"geometry":{"type":"Point","coordinates":[6.77371,51.2723]}},{"type":"Feature","properties":{"kind":"accessible","label":"Postfiliale","detail":"1 Stellplatz"},"geometry":{"type":"Point","coordinates":[6.77459,51.26722]}},{"type":"Feature","properties":{"kind":"accessible","label":"Einkaufszentrum N","detail":"1 Stellplatz · Mo.-Fr. 8:30-18:30"},"geometry":{"type":"Point","coordinates":[6.77373,51.27138]}},{"type":"Feature","properties":{"kind":"accessible","label":"Seniorenheim","detail":"1 Stellplatz"},"geometry":{"type":"Point","coordinates":[6.85446,51.22832]}},{"type":"Feature","properties":{"kind":"accessible","label":"Apotheke, Ärzte","detail":"1 Stellplatz"},"geometry":{"type":"Point","coordinates":[6.84368,51.19975]}},{"type":"Feature","properties":{"kind":"accessible","label":"Seniorenheim","detail":"1 Stellplatz"},"geometry":{"type":"Point","coordinates":[6.85612,51.22674]}},{"type":"Feature","properties":{"kind":"accessible","label":"Seniorenheim","detail":"1 Stellplatz"},"geometry":{"type":"Point","coordinates":[6.85596,51.22702]}},{"type":"Feature","properties":{"kind":"accessible","label":"Poststraße 24","detail":"1 Stellplatz · Mo.-Fr. 9:00-18:00"},"geometry":{"type":"Point","coordinates":[6.77151,51.22004]}},{"type":"Feature","properties":{"kind":"accessible","label":"Friedrich-Ebert-Straße 42","detail":"1 Stellplatz"},"geometry":{"type":"Point","coordinates":[6.79016,51.22145]}},{"type":"Feature","properties":{"kind":"accessible","label":"Praxis für Physiotherapie","detail":"1 Stellplatz"},"geometry":{"type":"Point","coordinates":[6.78662,51.24572]}},{"type":"Feature","properties":{"kind":"accessible","label":"Arztpraxen","detail":"1 Stellplatz · Mo.-Fr. 8:00-20:00, Sa. 8:00-13:00"},"geometry":{"type":"Point","coordinates":[6.89613,51.15015]}},{"type":"Feature","properties":{"kind":"accessible","label":"Ärztehaus","detail":"1 Stellplatz · Mo.-Fr. 7:00-20:00, Sa. 8:00-12:00"},"geometry":{"type":"Point","coordinates":[6.78819,51.22532]}},{"type":"Feature","properties":{"kind":"accessible","label":"Praxis für Physiotherapie","detail":"1 Stellplatz · werktags 7:00-18:00"},"geometry":{"type":"Point","coordinates":[6.76063,51.20668]}},{"type":"Feature","properties":{"kind":"accessible","label":"IHK","detail":"2 Stellplätze · Mo.-Sa. 7:30-17:00"},"geometry":{"type":"Point","coordinates":[6.7625,51.21001]}},{"type":"Feature","properties":{"kind":"accessible","label":"Ärztehaus","detail":"1 Stellplatz · Mo.-Fr. 9:00-18:00, Sa. 9:00-16:00"},"geometry":{"type":"Point","coordinates":[6.78743,51.24441]}},{"type":"Feature","properties":{"kind":"accessible","label":"Toulouser Allee 27","detail":"1 Stellplatz · werktags 7:00-22:00"},"geometry":{"type":"Point","coordinates":[6.79611,51.23564]}},{"type":"Feature","properties":{"kind":"accessible","label":"Golzheimer Straße 130","detail":"1 Stellplatz · Mo.-Fr. 8:00-18:00"},"geometry":{"type":"Point","coordinates":[6.78283,51.24532]}},{"type":"Feature","properties":{"kind":"accessible","label":"Münsterstraße 110","detail":"1 Stellplatz · Mo.-Fr. 9:00-18:00, Sa. 9:00-16:00"},"geometry":{"type":"Point","coordinates":[6.78863,51.24519]}},{"type":"Feature","properties":{"kind":"accessible","label":"Einkaufszentrum - Parkplatz","detail":"2 Stellplätze"},"geometry":{"type":"Point","coordinates":[6.90839,51.13188]}},{"type":"Feature","properties":{"kind":"accessible","label":"Postshop","detail":"werktags 8:00-18:00"},"geometry":{"type":"Point","coordinates":[6.8568,51.17843]}},{"type":"Feature","properties":{"kind":"accessible","label":"Achillesstraße 1","detail":"1 Stellplatz"},"geometry":{"type":"Point","coordinates":[6.75767,51.23135]}},{"type":"Feature","properties":{"kind":"accessible","label":"Reuterkaserne / Ecke Ritterstraße","detail":"4 Stellplätze"},"geometry":{"type":"Point","coordinates":[6.77143,51.22938]}},{"type":"Feature","properties":{"kind":"accessible","label":"Altstadt","detail":"2 Stellplätze"},"geometry":{"type":"Point","coordinates":[6.77425,51.22271]}},{"type":"Feature","properties":{"kind":"accessible","label":"Physiopraxis","detail":"1 Stellplatz · Mo.-Fr. 8:00-16:00"},"geometry":{"type":"Point","coordinates":[6.81069,51.21266]}},{"type":"Feature","properties":{"kind":"accessible","label":"Westfalenstraße 49","detail":"1 Stellplatz"},"geometry":{"type":"Point","coordinates":[6.81578,51.26288]}},{"type":"Feature","properties":{"kind":"park_and_ride","label":"P+R Südfriedhof","detail":"Linie 709, 723, 893"},"geometry":{"type":"Point","coordinates":[6.75587,51.20038]}},{"type":"Feature","properties":{"kind":"park_and_ride","label":"P+R Staufenplatz","detail":"Linien U73, U83, 709, M1, M2, 730, 733, 894, NE4, NE5 · Kostenloses Parken mit Parkscheibe – Höchstparkdauer 24 Stunden"},"geometry":{"type":"Point","coordinates":[6.82932,51.24233]}},{"type":"Feature","properties":{"kind":"park_and_ride","label":"P+R Benrath S","detail":"Linien RE1, RE5, S6, S68, SB59, M1, U72, U83, 730, 778, 779, 784, 788, 789, 815, 817, NE7"},"geometry":{"type":"Point","coordinates":[6.87776,51.16298]}},{"type":"Feature","properties":{"kind":"park_and_ride","label":"P+R Eller S","detail":"Linien S1, M1, 722, 730, 735, 736, 891, NE6"},"geometry":{"type":"Point","coordinates":[6.85281,51.20359]}},{"type":"Feature","properties":{"kind":"park_and_ride","label":"P+R Eller Süd S","detail":"Linien S6, 724, 731, 732, 735, NE6"},"geometry":{"type":"Point","coordinates":[6.83635,51.19845]}},{"type":"Feature","properties":{"kind":"park_and_ride","label":"P+R Garath S (Westseite)","detail":"Linien S6, S68, SB57, 778, 779, 789"},"geometry":{"type":"Point","coordinates":[6.89809,51.14266]}},{"type":"Feature","properties":{"kind":"park_and_ride","label":"P+R Hellerhof S","detail":"Linien S6, S68, SB57, 788, 789"},"geometry":{"type":"Point","coordinates":[6.90893,51.13146]}},{"type":"Feature","properties":{"kind":"park_and_ride","label":"P+R Südpark","detail":"Linie U72, U73, U79, SB53, SB57, 723, 727, 731, 735, 827, 893, NE7"},"geometry":{"type":"Point","coordinates":[6.8015,51.19443]}},{"type":"Feature","properties":{"kind":"park_and_ride","label":"P+R Dominikus-Krankenhaus","detail":"Linien U75, M2, 805, 833, 862 und 863"},"geometry":{"type":"Point","coordinates":[6.72924,51.23362]}},{"type":"Feature","properties":{"kind":"park_and_ride","label":"P+R Wittlaer (Süd)","detail":"Linie U79, 760"},"geometry":{"type":"Point","coordinates":[6.74418,51.31816]}},{"type":"Feature","properties":{"kind":"park_and_ride","label":"P+R Gerresheim Krankenhaus","detail":"Linien U83, 709, 725, 733, 738, 781, NE5"},"geometry":{"type":"Point","coordinates":[6.85388,51.24519]}},{"type":"Feature","properties":{"kind":"park_and_ride","label":"P+R Ickerswarder Straße","detail":"Linien SB57, M3, 735, NE7"},"geometry":{"type":"Point","coordinates":[6.81061,51.1766]}},{"type":"Feature","properties":{"kind":"park_and_ride","label":"P+R Benrath S  (Tellerringstraße)","detail":"Linien RE1, RE5, S6, S68, SB59, M1, U72, U83, 730, 778, 779, 784, 788, 789, 815, 817, NE7"},"geometry":{"type":"Point","coordinates":[6.8798,51.16202]}},{"type":"Feature","properties":{"kind":"park_and_ride","label":"P+R Berghausen S","detail":"Linie S6, S68, 777, 787, 795"},"geometry":{"type":"Point","coordinates":[6.92245,51.1181]}},{"type":"Feature","properties":{"kind":"park_and_ride","label":"P+R Haus Meer","detail":"Linie U70, U74, U76, 829, 830, 831, 839, 071"},"geometry":{"type":"Point","coordinates":[6.66859,51.26636]}},{"type":"Feature","properties":{"kind":"park_and_ride","label":"P+R Ratingen Ost S","detail":"Linie S6, O15, O16, 749, 757, 759, 760, 761, 771, 773, DL1"},"geometry":{"type":"Point","coordinates":[6.8625,51.29404]}},{"type":"Feature","properties":{"kind":"park_and_ride","label":"P+R Hilden Süd S","detail":"Linie S1, 741, 781, 782, 785, DL4, DL5"},"geometry":{"type":"Point","coordinates":[6.94015,51.16277]}},{"type":"Feature","properties":{"kind":"park_and_ride","label":"P+R Ratingen-Hösel S","detail":"Linie S6, 751, 770, 773, DL1"},"geometry":{"type":"Point","coordinates":[6.89281,51.34105]}},{"type":"Feature","properties":{"kind":"park_and_ride","label":"P+R Erkrath S","detail":"Linie S8, S68, O5, O6, 734, 743, DL4, Bürgerbus"},"geometry":{"type":"Point","coordinates":[6.90236,51.2208]}},{"type":"Feature","properties":{"kind":"park_and_ride","label":"P+R Hochdahl S","detail":"Linie S8, S68, O5, 741"},"geometry":{"type":"Point","coordinates":[6.94514,51.21901]}},{"type":"Feature","properties":{"kind":"park_and_ride","label":"P+R Millrath S","detail":"Linie S8, S68, O5, O6"},"geometry":{"type":"Point","coordinates":[6.96563,51.21697]}},{"type":"Feature","properties":{"kind":"park_and_ride","label":"P+R Gruiten S","detail":"Linie S8, S68, RB48, O1, 641, 742"},"geometry":{"type":"Point","coordinates":[7.00939,51.21486]}},{"type":"Feature","properties":{"kind":"park_and_ride","label":"P+R Rheinpark-Center S","detail":"Linie S8, S11, S28, 842, 874"},"geometry":{"type":"Point","coordinates":[6.71484,51.20623]}},{"type":"Feature","properties":{"kind":"park_and_ride","label":"P+R Langenfeld S","detail":"Linie S6, S68, 785, 790, 791, NE13, VRS231, VRS254"},"geometry":{"type":"Point","coordinates":[6.93757,51.10183]}},{"type":"Feature","properties":{"kind":"park_and_ride","label":"P+R Am Kaiser S","detail":"Linie S8, S11, S28, U75, 829, 830, 833, 864"},"geometry":{"type":"Point","coordinates":[6.69775,51.22131]}},{"type":"Feature","properties":{"kind":"park_and_ride","label":"P+R Hilden S","detail":"Linie S1, O3, 783, 784"},"geometry":{"type":"Point","coordinates":[6.92022,51.16694]}},{"type":"Feature","properties":{"kind":"park_and_ride","label":"P+R Neanderthal S","detail":"Linie S28, O12"},"geometry":{"type":"Point","coordinates":[6.95394,51.22806]}},{"type":"Feature","properties":{"kind":"park_and_ride","label":"P+R Stadtwald S","detail":"Linie S28, O10, O11, O13, SB68, 742, 745, 746, 749, DL6"},"geometry":{"type":"Point","coordinates":[6.98712,51.25072]}},{"type":"Feature","properties":{"kind":"park_and_ride","label":"P+R Wuppertal-Vohwinkel S","detail":"Linien RE4, RE13, S8, S68, RB 48, 784"},"geometry":{"type":"Point","coordinates":[7.07392,51.23399]}},{"type":"Feature","properties":{"kind":"park_and_ride","label":"P+R Am Schönenkamp / Further Straße","detail":"Linien M1, 730 und 785"},"geometry":{"type":"Point","coordinates":[6.86026,51.18861]}},{"type":"Feature","properties":{"kind":"park_and_ride","label":"P+R Duisburg-Kesselsberg","detail":"Linie U79"},"geometry":{"type":"Point","coordinates":[6.74576,51.3571]}},{"type":"Feature","properties":{"kind":"park_and_ride","label":"P+R Duisburg-Münchener Straße","detail":"Linie U79"},"geometry":{"type":"Point","coordinates":[6.76572,51.38416]}},{"type":"Feature","properties":{"kind":"park_and_ride","label":"P+R Krefeld-Dießem","detail":"Linie U76"},"geometry":{"type":"Point","coordinates":[6.57841,51.32673]}},{"type":"Feature","properties":{"kind":"park_and_ride","label":"P+R Krefeld-Fischeln","detail":"Linie U76"},"geometry":{"type":"Point","coordinates":[6.59711,51.30508]}},{"type":"Feature","properties":{"kind":"park_and_ride","label":"P+R Krefeld-Grundend","detail":"Linie U76"},"geometry":{"type":"Point","coordinates":[6.59711,51.30508]}},{"type":"Feature","properties":{"kind":"park_and_ride","label":"P+R Krefeld-Königshof","detail":"Linie U76"},"geometry":{"type":"Point","coordinates":[6.58938,51.31602]}},{"type":"Feature","properties":{"kind":"park_and_ride","label":"P+R Krefeld-Oppum Bf","detail":"Linie RE10"},"geometry":{"type":"Point","coordinates":[6.61041,51.32999]}},{"type":"Feature","properties":{"kind":"park_and_ride","label":"P+R Bovert","detail":"Linie U76"},"geometry":{"type":"Point","coordinates":[6.65134,51.26693]}},{"type":"Feature","properties":{"kind":"park_and_ride","label":"P+R Hoterheide","detail":"Linie U76"},"geometry":{"type":"Point","coordinates":[6.62747,51.27524]}},{"type":"Feature","properties":{"kind":"park_and_ride","label":"P+R Osterath Bf","detail":"Linie RE10"},"geometry":{"type":"Point","coordinates":[6.62649,51.26874]}},{"type":"Feature","properties":{"kind":"park_and_ride","label":"P+R Allerheiligen S","detail":"Linie S11, SB53, 841"},"geometry":{"type":"Point","coordinates":[6.75825,51.14226]}},{"type":"Feature","properties":{"kind":"park_and_ride","label":"P+R Hamm S","detail":"Linien S8, S11, S28, 706, 732"},"geometry":{"type":"Point","coordinates":[6.73977,51.21029]}},{"type":"Feature","properties":{"kind":"park_and_ride","label":"Provinzial P+R","detail":"Linie U71, U74, U77, U79, U83, SB50, 723, 727, 780, 782, 885, 817"},"geometry":{"type":"Point","coordinates":[6.81247,51.19397]}},{"type":"Feature","properties":{"kind":"park_and_ride","label":"P+R Angermund S","detail":"Linien S1 und 751"},"geometry":{"type":"Point","coordinates":[6.78147,51.33046]}},{"type":"Feature","properties":{"kind":"park_and_ride","label":"P+R Wittlaer (Nord)","detail":"Linie U79, 760"},"geometry":{"type":"Point","coordinates":[6.74432,51.3187]}},{"type":"Feature","properties":{"kind":"park_and_ride","label":"P+R Eller Süd S (Westseite)","detail":"Linien S6, 724, 731, 732, 735, NE6"},"geometry":{"type":"Point","coordinates":[6.83576,51.19793]}},{"type":"Feature","properties":{"kind":"park_and_ride","label":"P+R Garath S (Ostseite)","detail":"Linien S6, S68, SB57, 778, 779, 789"},"geometry":{"type":"Point","coordinates":[6.89771,51.14434]}},{"type":"Feature","properties":{"kind":"park_and_ride","label":"P+R Rath S","detail":"S6, U71, 701, 812, NE3"},"geometry":{"type":"Point","coordinates":[6.82063,51.26386]}}]}