{"type":"FeatureCollection","features":[{"type":"Feature","properties":{},"geometry":{"type":"Polygon","coordinates":[[[6.78405,51.2863],[6.78476,51.2871],[6.7854,51.28772],[6.78623,51.2884],[6.78666,51.2887],[6.78755,51.28927],[6.78791,51.28947],[6.78831,51.28965],[6.78925,51.29005],[6.78972,51.2902],[6.79028,51.29035],[6.79146,51.29061],[6.79286,51.29078],[6.79343,51.29082],[6.79421,51.29083],[6.79504,51.2908],[6.79584,51.29074],[6.797,51.29057],[6.79736,51.29045],[6.79791,51.29022],[6.79817,51.29004],[6.79884,51.28952],[6.7992,51.28932],[6.79948,51.28921],[6.79993,51.28911],[6.80034,51.28907],[6.80085,51.28907],[6.80103,51.28904],[6.80131,51.2889],[6.80162,51.28871],[6.80194,51.28847],[6.80265,51.28786],[6.80342,51.2871],[6.80374,51.28671],[6.80384,51.28655],[6.80391,51.28505],[6.80398,51.28435],[6.80402,51.2834],[6.80403,51.2829],[6.80399,51.28244],[6.80391,51.28189],[6.8037,51.2811],[6.80359,51.28077],[6.80346,51.2805],[6.80336,51.28036],[6.80326,51.2801],[6.80248,51.27902],[6.80218,51.27867],[6.80178,51.27824],[6.80149,51.27796],[6.80105,51.27757],[6.80062,51.27724],[6.80013,51.2769],[6.79931,51.2764],[6.79903,51.27626],[6.79861,51.27617],[6.79845,51.27617],[6.79835,51.27617],[6.79788,51.27629],[6.79767,51.27631],[6.79747,51.27631],[6.79732,51.27628],[6.79702,51.27616],[6.79686,51.27608],[6.79677,51.27601],[6.79664,51.27589],[6.79656,51.27577],[6.79653,51.2757],[6.79643,51.27555],[6.79631,51.27504],[6.79816,51.27494],[6.80008,51.2748],[6.80188,51.27466],[6.80643,51.27434],[6.80666,51.27426],[6.80705,51.27415],[6.80752,51.27243],[6.80992,51.2712],[6.81144,51.27032],[6.81422,51.26861],[6.81447,51.2685],[6.81471,51.26842],[6.81505,51.26836],[6.81527,51.26833],[6.8156,51.26832],[6.81599,51.26835],[6.81647,51.26843],[6.81678,51.26852],[6.81697,51.2686],[6.81726,51.26874],[6.81769,51.26899],[6.81795,51.2691],[6.81816,51.26917],[6.81845,51.26925],[6.81938,51.26934],[6.82037,51.26949],[6.821,51.26962],[6.82398,51.27032],[6.82419,51.27038],[6.82439,51.27051],[6.82451,51.27061],[6.82461,51.27077],[6.8247,51.27102],[6.82478,51.27116],[6.82488,51.27122],[6.825,51.27125],[6.82512,51.27124],[6.82525,51.27139],[6.82599,51.27248],[6.82633,51.2729],[6.82713,51.27375],[6.82748,51.27418],[6.82777,51.27464],[6.82794,51.27495],[6.82814,51.27543],[6.82833,51.27584],[6.82984,51.2786],[6.83019,51.27908],[6.83055,51.27954],[6.83112,51.28039],[6.83215,51.28003],[6.83116,51.27839],[6.83168,51.27845],[6.83438,51.27692],[6.83476,51.27715],[6.83542,51.27726],[6.83606,51.27723],[6.83612,51.27696],[6.83603,51.27641],[6.83563,51.27607],[6.83525,51.27566],[6.83515,51.27549],[6.83506,51.27528],[6.83482,51.27455],[6.83448,51.27389],[6.83437,51.27376],[6.83427,51.27369],[6.834,51.27353],[6.83247,51.2725],[6.83068,51.27062],[6.83045,51.27035],[6.82806,51.26717],[6.82696,51.26565],[6.8266,51.26528],[6.82644,51.26522],[6.8261,51.265],[6.82499,51.26346],[6.82449,51.26239],[6.82406,51.26184],[6.82385,51.26153],[6.82351,51.26099],[6.82341,51.26075],[6.82339,51.26064],[6.82346,51.26037],[6.82343,51.26004],[6.82352,51.25902],[6.82359,51.25854],[6.82361,51.25847],[6.8241,51.25774],[6.8243,51.25731],[6.82454,51.25671],[6.82466,51.25632],[6.82474,51.2559],[6.82479,51.25549],[6.8248,51.2551],[6.82477,51.25438],[6.82449,51.25283],[6.82419,51.25167],[6.8242,51.25154],[6.82424,51.25138],[6.82435,51.25112],[6.82464,51.25074],[6.82524,51.24978],[6.82545,51.24936],[6.826,51.24795],[6.82613,51.24772],[6.82626,51.24755],[6.82991,51.24433],[6.83045,51.24382],[6.8306,51.24366],[6.83079,51.24332],[6.83082,51.243],[6.83079,51.24285],[6.8303,51.24173],[6.83031,51.24166],[6.83038,51.24161],[6.83135,51.24134],[6.83271,51.24099],[6.83289,51.24092],[6.83422,51.24022],[6.83629,51.23923],[6.8365,51.23915],[6.83695,51.23903],[6.83718,51.23902],[6.83738,51.23906],[6.83769,51.23921],[6.83912,51.24007],[6.83943,51.24022],[6.84074,51.24058],[6.84189,51.24083],[6.84221,51.24085],[6.84253,51.24084],[6.84273,51.24078],[6.84334,51.24052],[6.8447,51.2399],[6.84545,51.23964],[6.8462,51.23942],[6.85074,51.2382],[6.8531,51.23754],[6.85388,51.23734],[6.85634,51.23713],[6.85918,51.23714],[6.85941,51.23709],[6.85986,51.23687],[6.86054,51.2369],[6.86216,51.23702],[6.86211,51.23671],[6.86213,51.23645],[6.86316,51.23647],[6.86328,51.23614],[6.86344,51.23596],[6.86395,51.23513],[6.86403,51.23506],[6.86414,51.23503],[6.86454,51.235],[6.8651,51.23485],[6.86569,51.23461],[6.86606,51.2344],[6.86613,51.23434],[6.86618,51.23426],[6.86621,51.23417],[6.86619,51.23397],[6.866,51.23262],[6.86582,51.23171],[6.86569,51.23091],[6.86559,51.23018],[6.86554,51.23002],[6.86518,51.22932],[6.86511,51.22898],[6.86511,51.22883],[6.86555,51.22627],[6.86555,51.22614],[6.86552,51.22602],[6.86541,51.22573],[6.86538,51.2255],[6.86535,51.22491],[6.86536,51.22482],[6.86543,51.22465],[6.86569,51.22422],[6.86575,51.22411],[6.8658,51.22408],[6.86588,51.22408],[6.86675,51.22431],[6.8671,51.22439],[6.87175,51.22499],[6.87207,51.22418],[6.87329,51.22426],[6.8733,51.22415],[6.87294,51.22379],[6.87216,51.2229],[6.87198,51.22264],[6.87266,51.22261],[6.87339,51.22214],[6.87325,51.22192],[6.87323,51.22179],[6.87325,51.22174],[6.87336,51.22164],[6.8738,51.22149],[6.87384,51.22142],[6.87379,51.22122],[6.8738,51.22116],[6.87385,51.22097],[6.87384,51.22084],[6.87382,51.22076],[6.8737,51.22064],[6.87363,51.22047],[6.87369,51.22046],[6.87362,51.2203],[6.87326,51.22017],[6.87317,51.21994],[6.8733,51.21995],[6.87695,51.21609],[6.87727,51.21581],[6.86919,51.2151],[6.86846,51.21489],[6.86779,51.21535],[6.86612,51.21495],[6.86658,51.21307],[6.86732,51.21283],[6.86751,51.21245],[6.86712,51.21179],[6.86706,51.21152],[6.86754,51.21098],[6.86775,51.21041],[6.86804,51.21],[6.8678,51.20968],[6.86771,51.20946],[6.86733,51.209],[6.8665,51.20808],[6.86629,51.20794],[6.86597,51.20765],[6.86563,51.20744],[6.86459,51.20686],[6.86409,51.20662],[6.86378,51.20645],[6.8633,51.20599],[6.8632,51.20572],[6.86287,51.20537],[6.86267,51.20522],[6.85822,51.20504],[6.85567,51.20498],[6.85531,51.20515],[6.85409,51.20447],[6.85226,51.20354],[6.85531,51.20223],[6.85689,51.20175],[6.85908,51.20101],[6.8622,51.19992],[6.86261,51.19981],[6.86273,51.19974],[6.86279,51.19969],[6.86337,51.1994],[6.86374,51.19918],[6.86415,51.19882],[6.86444,51.19842],[6.86484,51.19799],[6.86524,51.19769],[6.8657,51.19744],[6.86646,51.19712],[6.86774,51.19666],[6.86808,51.1966],[6.87048,51.19621],[6.87067,51.19616],[6.87092,51.19609],[6.87115,51.196],[6.87273,51.19523],[6.87357,51.19481],[6.87386,51.19469],[6.87754,51.19365],[6.87818,51.1935],[6.87873,51.19332],[6.87948,51.19326],[6.87991,51.19315],[6.88084,51.1928],[6.88132,51.19252],[6.88185,51.19217],[6.88096,51.19161],[6.88193,51.19108],[6.8829,51.19043],[6.87836,51.19023],[6.87617,51.19019],[6.87366,51.19016],[6.87333,51.19018],[6.87307,51.19021],[6.87253,51.19031],[6.87202,51.19049],[6.87166,51.1907],[6.87142,51.19091],[6.87121,51.19105],[6.871,51.19116],[6.8708,51.19126],[6.87053,51.19134],[6.8702,51.1914],[6.86972,51.19139],[6.86945,51.19134],[6.86919,51.19124],[6.86893,51.19109],[6.8687,51.19092],[6.86841,51.19075],[6.86808,51.19059],[6.86762,51.19041],[6.86719,51.19032],[6.86682,51.19027],[6.8665,51.19025],[6.86281,51.19037],[6.8625,51.19036],[6.86108,51.1904],[6.86025,51.19037],[6.85761,51.19043],[6.85506,51.19053],[6.85341,51.19052],[6.85204,51.19047],[6.84921,51.19033],[6.8476,51.1902],[6.84604,51.1901],[6.84408,51.19007],[6.84395,51.1908],[6.84384,51.19096],[6.84368,51.19109],[6.84347,51.19117],[6.84318,51.19123],[6.84305,51.19123],[6.84283,51.19119],[6.84259,51.19112],[6.84216,51.19091],[6.84113,51.19037],[6.84088,51.19027],[6.84072,51.19023],[6.84036,51.19019],[6.83997,51.19019],[6.83915,51.19022],[6.83919,51.18945],[6.83913,51.18876],[6.83912,51.18845],[6.83972,51.18842],[6.84079,51.18829],[6.84144,51.18823],[6.84213,51.1882],[6.84317,51.1882],[6.84382,51.18823],[6.84389,51.18818],[6.8439,51.18813],[6.84389,51.18808],[6.84368,51.18787],[6.84322,51.1875],[6.84291,51.18719],[6.8429,51.18697],[6.8428,51.18679],[6.84259,51.18659],[6.84243,51.18646],[6.84149,51.18546],[6.84023,51.18407],[6.83892,51.18269],[6.83881,51.18262],[6.83858,51.18253],[6.83772,51.18231],[6.83755,51.18229],[6.83735,51.18229],[6.8372,51.18232],[6.83706,51.18238],[6.8359,51.18289],[6.83575,51.18289],[6.83567,51.18287],[6.83562,51.18284],[6.83558,51.18276],[6.83496,51.17951],[6.83472,51.17835],[6.83482,51.1768],[6.83529,51.17681],[6.83553,51.1767],[6.83658,51.17675],[6.83663,51.17672],[6.83666,51.17666],[6.83677,51.17566],[6.83786,51.1756],[6.83794,51.17556],[6.83797,51.1755],[6.83795,51.17538],[6.83771,51.17539],[6.8376,51.17542],[6.83719,51.17544],[6.83708,51.17513],[6.83684,51.17512],[6.83673,51.17444],[6.83644,51.17369],[6.83634,51.17369],[6.83588,51.17376],[6.83582,51.17331],[6.83683,51.17257],[6.83777,51.17186],[6.8384,51.17143],[6.83936,51.1709],[6.83779,51.16998],[6.83716,51.16972],[6.83668,51.16956],[6.83606,51.16944],[6.83564,51.16939],[6.83457,51.16914],[6.8332,51.16885],[6.83243,51.16871],[6.8315,51.16862],[6.82995,51.16856],[6.82869,51.1686],[6.82806,51.16866],[6.82725,51.1688],[6.8266,51.16893],[6.82582,51.16913],[6.82509,51.16934],[6.82391,51.16973],[6.82299,51.17],[6.82063,51.17047],[6.8195,51.17075],[6.81898,51.17092],[6.81835,51.17117],[6.81765,51.17146],[6.81665,51.17191],[6.816,51.17222],[6.8149,51.1728],[6.81351,51.17357],[6.81168,51.17471],[6.8099,51.17598],[6.80809,51.17745],[6.80741,51.17806],[6.80706,51.17844],[6.80588,51.17943],[6.80467,51.18037],[6.80371,51.18104],[6.80329,51.18144],[6.80237,51.18226],[6.80194,51.18254],[6.80139,51.1828],[6.79953,51.18359],[6.79886,51.18385],[6.79508,51.18555],[6.79378,51.1862],[6.79216,51.18705],[6.79139,51.1875],[6.79061,51.18804],[6.79012,51.1884],[6.78819,51.19],[6.78692,51.191],[6.78636,51.1914],[6.78607,51.19158],[6.78554,51.19185],[6.78519,51.19198],[6.7846,51.19214],[6.78417,51.19222],[6.78387,51.19224],[6.7832,51.19226],[6.78271,51.19222],[6.78234,51.19217],[6.78198,51.1921],[6.78167,51.19202],[6.7809,51.1918],[6.77971,51.19142],[6.77902,51.19116],[6.7784,51.19086],[6.77767,51.19045],[6.77715,51.19011],[6.77672,51.18974],[6.77648,51.18951],[6.77619,51.1892],[6.77595,51.18891],[6.77563,51.18838],[6.77542,51.18777],[6.77526,51.18712],[6.77339,51.18681],[6.77109,51.18635],[6.76972,51.18605],[6.76856,51.18574],[6.76748,51.18532],[6.76699,51.18516],[6.76666,51.18507],[6.76498,51.18471],[6.76454,51.18463],[6.76412,51.1846],[6.76261,51.18457],[6.75841,51.18433],[6.75838,51.18444],[6.75843,51.18452],[6.75913,51.18505],[6.75912,51.18512],[6.75893,51.18518],[6.7588,51.18518],[6.75749,51.18544],[6.75734,51.18552],[6.76044,51.18789],[6.76099,51.18982],[6.76443,51.19051],[6.76445,51.19058],[6.76429,51.19066],[6.76441,51.19081],[6.76498,51.19124],[6.76466,51.19157],[6.76445,51.19176],[6.76406,51.19204],[6.764,51.19202],[6.76333,51.19364],[6.76313,51.19361],[6.76229,51.19565],[6.76136,51.19626],[6.76131,51.19625],[6.7604,51.19635],[6.76032,51.19634],[6.76009,51.19712],[6.76002,51.19744],[6.75987,51.19784],[6.75977,51.19803],[6.75955,51.19838],[6.75878,51.19957],[6.75859,51.19983],[6.75838,51.20005],[6.75826,51.20013],[6.75763,51.20046],[6.75755,51.20053],[6.75752,51.20059],[6.7575,51.20069],[6.75749,51.20105],[6.75626,51.2011],[6.75723,51.2048],[6.75783,51.20699],[6.75767,51.20731],[6.75761,51.20734],[6.75757,51.20738],[6.75754,51.20742],[6.75754,51.20749],[6.75797,51.20844],[6.75838,51.20942],[6.7589,51.21058],[6.75496,51.21129],[6.75201,51.21186],[6.75088,51.21213],[6.75092,51.21241],[6.7509,51.21248],[6.75086,51.21253],[6.75072,51.21264],[6.74983,51.21283],[6.74967,51.21289],[6.74794,51.21326],[6.74826,51.21369],[6.74844,51.2139],[6.74862,51.21408],[6.74874,51.21415],[6.7491,51.2145],[6.7493,51.21466],[6.75013,51.21526],[6.7511,51.21587],[6.75114,51.21592],[6.75121,51.21605],[6.75125,51.21607],[6.75928,51.21835],[6.75966,51.21844],[6.76059,51.21863],[6.76223,51.21894],[6.76283,51.21909],[6.76417,51.21949],[6.76495,51.21981],[6.76024,51.22372],[6.75995,51.22392],[6.7597,51.22407],[6.75855,51.22467],[6.7583,51.22488],[6.75815,51.22505],[6.75804,51.22523],[6.75801,51.22534],[6.75787,51.2254],[6.75739,51.22556],[6.75706,51.22566],[6.75634,51.2258],[6.75585,51.22587],[6.75379,51.22608],[6.75173,51.22633],[6.75021,51.22658],[6.74831,51.22698],[6.7472,51.22726],[6.74622,51.22752],[6.74502,51.22789],[6.74341,51.22842],[6.74195,51.22895],[6.74051,51.22955],[6.73955,51.22996],[6.73868,51.2303],[6.7377,51.23064],[6.73695,51.23083],[6.73624,51.23087],[6.73525,51.23109],[6.73366,51.23128],[6.73311,51.23131],[6.73247,51.23134],[6.73172,51.23133],[6.73126,51.23131],[6.72997,51.23121],[6.72951,51.23115],[6.72868,51.23101],[6.7274,51.23072],[6.72698,51.23058],[6.72642,51.2303],[6.72598,51.23011],[6.72463,51.22964],[6.72369,51.22929],[6.72299,51.229],[6.7219,51.22848],[6.72126,51.22811],[6.72012,51.22733],[6.71956,51.22732],[6.71818,51.22737],[6.7179,51.22744],[6.71749,51.2276],[6.71501,51.22836],[6.71293,51.22897],[6.71094,51.23104],[6.70906,51.22888],[6.70871,51.22897],[6.7083,51.22902],[6.70796,51.22903],[6.7074,51.229],[6.70679,51.2289],[6.70642,51.22878],[6.70581,51.2285],[6.70185,51.22533],[6.70107,51.22466],[6.6988,51.22464],[6.69878,51.22494],[6.69333,51.22495],[6.6935,51.22566],[6.69352,51.22581],[6.69349,51.22595],[6.69343,51.22609],[6.69334,51.22621],[6.69315,51.22642],[6.69298,51.22671],[6.69255,51.22653],[6.69117,51.22891],[6.68874,51.22952],[6.69071,51.23085],[6.69242,51.23174],[6.6947,51.23286],[6.69493,51.233],[6.69475,51.23324],[6.6961,51.23386],[6.69668,51.23398],[6.6977,51.2343],[6.69859,51.23463],[6.699,51.23511],[6.70109,51.23465],[6.70202,51.23443],[6.70395,51.23418],[6.70611,51.23402],[6.7073,51.23387],[6.70765,51.23427],[6.70639,51.23469],[6.70386,51.23563],[6.70374,51.2357],[6.70364,51.23578],[6.70355,51.23589],[6.70276,51.23587],[6.70275,51.2358],[6.70269,51.23573],[6.70254,51.23567],[6.70235,51.23564],[6.70079,51.23565],[6.70267,51.23622],[6.70336,51.23651],[6.70406,51.23683],[6.70432,51.23694],[6.70404,51.23724],[6.70588,51.23787],[6.70616,51.2376],[6.70806,51.23839],[6.70827,51.23849],[6.70883,51.23887],[6.70902,51.23897],[6.70915,51.23916],[6.71024,51.23972],[6.71043,51.23986],[6.71078,51.24021],[6.71094,51.24042],[6.71104,51.24077],[6.71123,51.24068],[6.71186,51.24131],[6.71197,51.24125],[6.71346,51.24271],[6.71684,51.24473],[6.71601,51.24525],[6.71622,51.24535],[6.71642,51.24566],[6.71782,51.24649],[6.71945,51.248],[6.72135,51.25012],[6.72099,51.25025],[6.7202,51.25049],[6.72047,51.25078],[6.72054,51.25088],[6.72089,51.25119],[6.72199,51.2521],[6.72218,51.25209],[6.72334,51.25317],[6.72842,51.25177],[6.72855,51.25177],[6.72905,51.25193],[6.73151,51.25127],[6.73188,51.25116],[6.73237,51.25096],[6.7331,51.25071],[6.73474,51.25025],[6.73691,51.2496],[6.73741,51.2495],[6.7383,51.24939],[6.73863,51.24932],[6.7394,51.24911],[6.73952,51.24904],[6.73954,51.24898],[6.73948,51.2489],[6.73953,51.24887],[6.73974,51.2488],[6.73954,51.24852],[6.74126,51.24805],[6.74331,51.24746],[6.74383,51.24729],[6.74434,51.24711],[6.74507,51.2468],[6.74542,51.24663],[6.74779,51.24542],[6.74882,51.24485],[6.75181,51.24285],[6.76078,51.24802],[6.76195,51.24867],[6.76158,51.2489],[6.76134,51.24901],[6.76097,51.24916],[6.75801,51.25056],[6.75774,51.25068],[6.75733,51.25082],[6.75594,51.25123],[6.75263,51.25214],[6.75115,51.25252],[6.7446,51.2543],[6.74436,51.25439],[6.74403,51.25453],[6.74371,51.25473],[6.74349,51.25483],[6.74313,51.25496],[6.74293,51.25501],[6.74311,51.2552],[6.7432,51.25534],[6.74324,51.25545],[6.74325,51.25556],[6.74324,51.25567],[6.7427,51.25733],[6.74265,51.2576],[6.74279,51.25791],[6.74291,51.2581],[6.74305,51.25827],[6.74339,51.25855],[6.74388,51.2588],[6.74401,51.25883],[6.74948,51.25953],[6.74863,51.26223],[6.74834,51.26308],[6.74805,51.26378],[6.74742,51.26482],[6.74079,51.26292],[6.74048,51.26281],[6.74015,51.26265],[6.73964,51.26311],[6.73929,51.2635],[6.73946,51.26358],[6.73941,51.26371],[6.73821,51.26485],[6.73809,51.26493],[6.73749,51.26516],[6.73668,51.2653],[6.73609,51.26515],[6.73503,51.26451],[6.73477,51.26442],[6.73461,51.26448],[6.73453,51.26449],[6.73449,51.26451],[6.73219,51.26624],[6.73218,51.26627],[6.73222,51.26631],[6.73269,51.26638],[6.7339,51.26664],[6.73548,51.26692],[6.73689,51.26722],[6.73839,51.26762],[6.73956,51.26796],[6.73993,51.26847],[6.74053,51.26907],[6.74164,51.26915],[6.74299,51.26929],[6.74441,51.26954],[6.74559,51.26985],[6.74738,51.27038],[6.74926,51.27092],[6.74996,51.27108],[6.75137,51.27135],[6.75288,51.27152],[6.75415,51.27158],[6.75508,51.27159],[6.75606,51.27157],[6.75773,51.27142],[6.75993,51.27125],[6.76067,51.27122],[6.76155,51.27119],[6.76259,51.27121],[6.76365,51.27126],[6.76497,51.27141],[6.76662,51.27173],[6.76723,51.27188],[6.76839,51.27221],[6.76975,51.2727],[6.77043,51.27301],[6.77112,51.27335],[6.77263,51.27423],[6.77322,51.27467],[6.77479,51.27597],[6.7768,51.27778],[6.77773,51.2788],[6.77915,51.28045],[6.78107,51.28279],[6.78226,51.28419],[6.78324,51.28541],[6.78405,51.2863]]]}}]}