{"type":"FeatureCollection","features":[{"type":"Feature","properties":{"zone":"Immermannstraße (O)","district":"Stadtmitte","rawHours":"werktags, 9 bis 22 Uhr; Werktags 09:00 - 22:00","rawFee":"","note":null,"windows":[{"weekdays":[1,2,3,4,5,6],"fromMinute":540,"toMinute":1320}],"fee":{"kind":"unknown"},"unmodelledRules":[],"sourceDefect":"Die Stadt nennt an den Parkscheinautomaten dieses Gebiets einen Tarif. Er wird hier nicht angezeigt, weil für diesen Datensatz keine offene Lizenz belegt ist.","spaces":null,"maxStayMinutes":null,"maxStay":"2h","maxStayShare":1,"maxStayValues":["2h"],"chargingPoints":0,"carsharing":0},"geometry":{"type":"MultiPolygon","coordinates":[[[[6.78834,51.21953],[6.79065,51.22107],[6.79182,51.22061],[6.79117,51.22008],[6.79102,51.21993],[6.78846,51.2195],[6.78834,51.21953]]],[[[6.79085,51.22117],[6.79174,51.22177],[6.79207,51.22171],[6.79221,51.22171],[6.79281,51.22166],[6.79291,51.22163],[6.79301,51.22159],[6.79224,51.22096],[6.79194,51.22076],[6.79196,51.22076],[6.79085,51.22117]]],[[[6.78233,51.22293],[6.78201,51.22137],[6.78177,51.21981],[6.78169,51.21905],[6.78164,51.21902],[6.77939,51.21909],[6.7795,51.2229],[6.77948,51.22297],[6.78233,51.22293]]],[[[6.78298,51.22311],[6.78326,51.22403],[6.7834,51.22462],[6.78352,51.22488],[6.78355,51.22509],[6.78361,51.22514],[6.78365,51.22526],[6.78369,51.22527],[6.78413,51.22521],[6.78413,51.22519],[6.78441,51.22514],[6.78507,51.22485],[6.7872,51.22383],[6.78645,51.22286],[6.78589,51.22304],[6.7851,51.22308],[6.78298,51.22311]]],[[[6.7839,51.21895],[6.7844,51.21979],[6.78655,51.22266],[6.79036,51.22123],[6.78894,51.22029],[6.78768,51.21948],[6.78736,51.21933],[6.78552,51.21904],[6.7839,51.21895]]],[[[6.78266,51.22405],[6.7824,51.2231],[6.77947,51.2231],[6.77951,51.22347],[6.77954,51.22439],[6.78115,51.22437],[6.78159,51.22465],[6.7818,51.22445],[6.78237,51.2241],[6.78245,51.22407],[6.78255,51.22405],[6.78263,51.22406],[6.78269,51.22408],[6.78266,51.22405]]],[[[6.78197,51.21901],[6.7829,51.22291],[6.78445,51.22288],[6.78565,51.2229],[6.7861,51.22281],[6.78637,51.22274],[6.78421,51.21989],[6.78371,51.21895],[6.78197,51.21901]]],[[[6.79122,51.22191],[6.79048,51.22132],[6.78671,51.2228],[6.78733,51.22377],[6.7907,51.22215],[6.79122,51.22191]]]]}},{"type":"Feature","properties":{"zone":"Klosterstraße (L)","district":"Stadtmitte","rawHours":"werktags, 9 bis 22 Uhr; Werktags 09:00 - 22:00","rawFee":"","note":null,"windows":[{"weekdays":[1,2,3,4,5,6],"fromMinute":540,"toMinute":1320}],"fee":{"kind":"unknown"},"unmodelledRules":[],"sourceDefect":"Die Stadt nennt an den Parkscheinautomaten dieses Gebiets einen Tarif. Er wird hier nicht angezeigt, weil für diesen Datensatz keine offene Lizenz belegt ist.","spaces":null,"maxStayMinutes":null,"maxStay":"2h","maxStayShare":1,"maxStayValues":["2h"],"chargingPoints":0,"carsharing":0},"geometry":{"type":"MultiPolygon","coordinates":[[[[6.79876,51.22632],[6.79862,51.22659],[6.79857,51.22681],[6.79798,51.22805],[6.79791,51.22827],[6.79758,51.2291],[6.79741,51.22959],[6.79519,51.22925],[6.79247,51.22859],[6.79199,51.22844],[6.79271,51.22782],[6.79521,51.22518],[6.79525,51.22519],[6.79567,51.22475],[6.79576,51.22476],[6.79592,51.22492],[6.79639,51.22499],[6.79748,51.22551],[6.79843,51.22605],[6.79848,51.2262],[6.79876,51.22632]]],[[[6.79538,51.22448],[6.79235,51.22767],[6.7916,51.22832],[6.79082,51.22807],[6.7904,51.22802],[6.79004,51.22794],[6.78896,51.22656],[6.78854,51.22525],[6.78834,51.22472],[6.78829,51.22463],[6.78782,51.22416],[6.78801,51.22411],[6.7884,51.22396],[6.78825,51.22384],[6.78907,51.22344],[6.78911,51.22347],[6.7894,51.22333],[6.7897,51.22319],[6.78966,51.22316],[6.7917,51.22218],[6.79223,51.22261],[6.79407,51.22373],[6.79537,51.22446],[6.79538,51.22448]]],[[[6.78839,51.22581],[6.78839,51.22585],[6.78826,51.22607],[6.78787,51.22655],[6.7873,51.22753],[6.78657,51.22736],[6.78618,51.22735],[6.78493,51.22693],[6.78342,51.22646],[6.78389,51.22577],[6.78522,51.22529],[6.78752,51.22419],[6.78787,51.22458],[6.78802,51.2248],[6.7881,51.22495],[6.78839,51.22581]]]]}},{"type":"Feature","properties":{"zone":"Hauptbahnhof - Ost (HO)","district":"Oberbilk","rawHours":"werktags, 9 bis 20 Uhr; Werktags 09:00 - 20:00; Werktags 09:00 - 22:00","rawFee":"","note":null,"windows":[{"weekdays":[1,2,3,4,5,6],"fromMinute":540,"toMinute":1200},{"weekdays":[1,2,3,4,5,6],"fromMinute":540,"toMinute":1320}],"fee":{"kind":"unknown"},"unmodelledRules":[],"sourceDefect":"Die Stadt nennt an den Parkscheinautomaten dieses Gebiets einen Tarif. Er wird hier nicht angezeigt, weil für diesen Datensatz keine offene Lizenz belegt ist.","spaces":null,"maxStayMinutes":null,"maxStay":"2h","maxStayShare":0.091,"maxStayValues":["2h"],"chargingPoints":0,"carsharing":0},"geometry":{"type":"MultiPolygon","coordinates":[[[[6.80328,51.21617],[6.80195,51.21757],[6.80197,51.21758],[6.8019,51.21765],[6.80188,51.21765],[6.80142,51.21813],[6.80088,51.2187],[6.80089,51.21871],[6.80082,51.21878],[6.80081,51.21878],[6.80055,51.21907],[6.80054,51.21906],[6.79933,51.22033],[6.79934,51.22033],[6.79927,51.22041],[6.79926,51.22041],[6.7979,51.22183],[6.79725,51.22125],[6.79691,51.22099],[6.79791,51.22053],[6.79829,51.22037],[6.79759,51.2198],[6.79748,51.21968],[6.79704,51.21932],[6.79788,51.21894],[6.79719,51.21839],[6.79709,51.21839],[6.79698,51.2183],[6.79699,51.21826],[6.79704,51.21824],[6.79591,51.21738],[6.79481,51.21742],[6.79325,51.21721],[6.79321,51.21699],[6.80054,51.21492],[6.80066,51.21494],[6.80114,51.21516],[6.80151,51.21528],[6.80242,51.21573],[6.80275,51.21599],[6.80315,51.21609],[6.80313,51.21611],[6.80328,51.21617]]],[[[6.80245,51.21891],[6.80095,51.22048],[6.80209,51.22092],[6.80158,51.22142],[6.8006,51.22105],[6.79911,51.221],[6.79945,51.2206],[6.79941,51.22059],[6.80043,51.21953],[6.80071,51.21922],[6.8007,51.21922],[6.80073,51.21919],[6.80074,51.21919],[6.80086,51.21907],[6.80084,51.21906],[6.80087,51.21903],[6.80089,51.21904],[6.80097,51.21896],[6.80095,51.21895],[6.80098,51.21892],[6.801,51.21893],[6.80138,51.21852],[6.80245,51.21891]]]]}},{"type":"Feature","properties":{"zone":"Altstadt (A)","district":"Carlstadt","rawHours":"werktags, 9 bis 22 Uhr; Werktags 09:00 - 22:00","rawFee":"","note":null,"windows":[{"weekdays":[1,2,3,4,5,6],"fromMinute":540,"toMinute":1320}],"fee":{"kind":"unknown"},"unmodelledRules":[],"sourceDefect":"Die Stadt nennt an den Parkscheinautomaten dieses Gebiets einen Tarif. Er wird hier nicht angezeigt, weil für diesen Datensatz keine offene Lizenz belegt ist.","spaces":null,"maxStayMinutes":null,"maxStay":"2h","maxStayShare":1,"maxStayValues":["2h"],"chargingPoints":0,"carsharing":0},"geometry":{"type":"Polygon","coordinates":[[[6.77543,51.22298],[6.77541,51.22226],[6.77542,51.22226],[6.77542,51.22208],[6.7754,51.22208],[6.7753,51.21918],[6.77191,51.21923],[6.77146,51.21905],[6.77125,51.21887],[6.77116,51.21884],[6.7711,51.21885],[6.77066,51.21899],[6.77034,51.21906],[6.76977,51.21913],[6.76848,51.21915],[6.76752,51.21901],[6.7678,51.21928],[6.76837,51.22033],[6.76745,51.22053],[6.76783,51.22121],[6.76799,51.22142],[6.76968,51.22403],[6.76986,51.22428],[6.77113,51.22376],[6.772,51.22343],[6.77199,51.22313],[6.7728,51.22312],[6.77281,51.22375],[6.77289,51.22383],[6.77299,51.22383],[6.77296,51.22303],[6.77431,51.22303],[6.7743,51.22322],[6.77544,51.22321],[6.77543,51.22298]]]}},{"type":"Feature","properties":{"zone":"Lessingplatz (LP)","district":"Oberbilk","rawHours":"werktags, 9 bis 20 Uhr; Werktags 09:00 - 20:00","rawFee":"","note":null,"windows":[{"weekdays":[1,2,3,4,5,6],"fromMinute":540,"toMinute":1200}],"fee":{"kind":"unknown"},"unmodelledRules":[],"sourceDefect":"Die Stadt nennt an den Parkscheinautomaten dieses Gebiets einen Tarif. Er wird hier nicht angezeigt, weil für diesen Datensatz keine offene Lizenz belegt ist.","spaces":null,"maxStayMinutes":null,"maxStay":null,"maxStayShare":0,"maxStayValues":[],"chargingPoints":0,"carsharing":0},"geometry":{"type":"MultiPolygon","coordinates":[[[[6.79263,51.21168],[6.79066,51.21284],[6.7907,51.21493],[6.79073,51.21549],[6.79079,51.21586],[6.7909,51.21606],[6.79168,51.21666],[6.79207,51.21705],[6.79228,51.21704],[6.80052,51.21472],[6.80025,51.21449],[6.79996,51.21427],[6.79994,51.21427],[6.79613,51.21144],[6.79579,51.21123],[6.79336,51.21148],[6.79292,51.21149],[6.79263,51.21168]]],[[[6.79117,51.21115],[6.79296,51.21122],[6.79376,51.21118],[6.79557,51.21102],[6.79359,51.2095],[6.79334,51.2096],[6.79253,51.21003],[6.79205,51.21034],[6.79168,51.21063],[6.79119,51.2111],[6.79117,51.21112],[6.79117,51.21115]]],[[[6.79066,51.21258],[6.79266,51.21143],[6.79253,51.21139],[6.79104,51.21132],[6.79097,51.21145],[6.79077,51.21194],[6.7907,51.21224],[6.79069,51.21224],[6.79066,51.21258]]]]}},{"type":"Feature","properties":{"zone":"Unterbilk (R)","district":"Unterbilk","rawHours":"werktags, 9 bis 20 Uhr / teils 9 bis 22 Uhr; Werktags 09:00 - 20:00; Werktags 09:00 - 22:00","rawFee":"","note":null,"windows":[{"weekdays":[1,2,3,4,5,6],"fromMinute":540,"toMinute":1200},{"weekdays":[1,2,3,4,5,6],"fromMinute":540,"toMinute":1320}],"fee":{"kind":"unknown"},"unmodelledRules":["teils 9 bis 22 Uhr"],"sourceDefect":"Die Stadt nennt an den Parkscheinautomaten dieses Gebiets einen Tarif. Er wird hier nicht angezeigt, weil für diesen Datensatz keine offene Lizenz belegt ist.","spaces":null,"maxStayMinutes":null,"maxStay":"2h","maxStayShare":0.192,"maxStayValues":["2h"],"chargingPoints":0,"carsharing":0},"geometry":{"type":"MultiPolygon","coordinates":[[[[6.77593,51.20948],[6.7757,51.20973],[6.77569,51.20977],[6.77557,51.20994],[6.77537,51.21008],[6.77524,51.21023],[6.77512,51.21045],[6.7751,51.21053],[6.7751,51.21061],[6.77421,51.21061],[6.77101,51.2107],[6.76647,51.21093],[6.76483,51.21136],[6.76328,51.21134],[6.76326,51.21145],[6.76318,51.21151],[6.76328,51.21165],[6.76318,51.21169],[6.76363,51.21222],[6.7638,51.21219],[6.76434,51.21167],[6.76496,51.21144],[6.76658,51.21102],[6.77373,51.21073],[6.77459,51.21075],[6.77507,51.2108],[6.7752,51.2154],[6.77518,51.21607],[6.77525,51.21848],[6.77528,51.21851],[6.77529,51.21877],[6.77531,51.21877],[6.77531,51.2188],[6.77529,51.2188],[6.77529,51.21889],[6.77526,51.2189],[6.77226,51.21897],[6.77092,51.21869],[6.77052,51.21884],[6.77002,51.21897],[6.76951,51.21903],[6.76871,51.21903],[6.76846,51.21899],[6.76812,51.2189],[6.76781,51.21875],[6.76684,51.21795],[6.76563,51.21846],[6.76563,51.21848],[6.76556,51.21851],[6.76543,51.21852],[6.7653,51.21849],[6.76355,51.21693],[6.7635,51.2167],[6.76447,51.21628],[6.7645,51.21625],[6.76451,51.21622],[6.76446,51.21616],[6.76486,51.21598],[6.76429,51.21569],[6.76393,51.21536],[6.76391,51.21455],[6.76381,51.2128],[6.76385,51.21265],[6.76373,51.21262],[6.76366,51.21284],[6.76376,51.21459],[6.76366,51.21522],[6.76351,51.21524],[6.76348,51.21521],[6.76349,51.21523],[6.76346,51.21525],[6.76317,51.21531],[6.76248,51.21556],[6.76174,51.21569],[6.76122,51.21584],[6.76057,51.21643],[6.76047,51.21648],[6.76036,51.2165],[6.76026,51.21649],[6.7589,51.216],[6.75874,51.21593],[6.7585,51.21606],[6.75818,51.21591],[6.75764,51.21571],[6.75736,51.21558],[6.75702,51.21536],[6.75698,51.21537],[6.75591,51.21464],[6.75493,51.21429],[6.75498,51.21423],[6.75167,51.21302],[6.75175,51.21275],[6.75206,51.21277],[6.75522,51.21212],[6.75729,51.21218],[6.75927,51.21196],[6.75936,51.21213],[6.75981,51.2121],[6.76302,51.21166],[6.76297,51.21134],[6.76296,51.21135],[6.76292,51.2109],[6.76285,51.2109],[6.76285,51.21079],[6.76221,51.21001],[6.76241,51.20993],[6.76267,51.20992],[6.76299,51.20993],[6.763,51.20986],[6.76381,51.20971],[6.764,51.20972],[6.76513,51.2094],[6.76516,51.20941],[6.7653,51.20937],[6.76568,51.20922],[6.76583,51.20912],[6.76592,51.20908],[6.76597,51.20908],[6.76602,51.20904],[6.76623,51.20895],[6.76662,51.2088],[6.76665,51.20881],[6.76731,51.20856],[6.76742,51.20853],[6.76762,51.20864],[6.76797,51.20838],[6.76834,51.2083],[6.76836,51.20826],[6.7684,51.20824],[6.76951,51.20846],[6.77583,51.20939],[6.77593,51.20948]]]]}},{"type":"Feature","properties":{"zone":"Friedrichstadt (N)","district":"Friedrichstadt","rawHours":"werktags, 9 bis 20 Uhr; Werktags 09:00 - 20:00; Werktags 09:00 - 22:00","rawFee":"","note":null,"windows":[{"weekdays":[1,2,3,4,5,6],"fromMinute":540,"toMinute":1200},{"weekdays":[1,2,3,4,5,6],"fromMinute":540,"toMinute":1320}],"fee":{"kind":"unknown"},"unmodelledRules":[],"sourceDefect":"Die Stadt nennt an den Parkscheinautomaten dieses Gebiets einen Tarif. Er wird hier nicht angezeigt, weil für diesen Datensatz keine offene Lizenz belegt ist.","spaces":null,"maxStayMinutes":null,"maxStay":"2h","maxStayShare":0.032,"maxStayValues":["2h"],"chargingPoints":0,"carsharing":0},"geometry":{"type":"MultiPolygon","coordinates":[[[[6.78112,51.21088],[6.77927,51.21054],[6.77758,51.21087],[6.77679,51.21084],[6.77684,51.21214],[6.77693,51.21557],[6.7786,51.21556],[6.77874,51.21558],[6.78209,51.21553],[6.78253,51.21534],[6.78252,51.21405],[6.78253,51.21272],[6.7825,51.21107],[6.78112,51.21088]]],[[[6.78745,51.21123],[6.7829,51.21114],[6.78289,51.2123],[6.78287,51.21237],[6.78288,51.21269],[6.78285,51.21279],[6.78291,51.21549],[6.78516,51.21546],[6.78548,51.21529],[6.78558,51.21535],[6.7851,51.21565],[6.78293,51.21566],[6.78293,51.21692],[6.78236,51.21729],[6.78236,51.21592],[6.78202,51.21565],[6.7788,51.21568],[6.77864,51.21572],[6.77692,51.21574],[6.77694,51.21572],[6.77703,51.21826],[6.77707,51.21826],[6.77709,51.21867],[6.77781,51.21887],[6.78341,51.21869],[6.78384,51.21866],[6.78561,51.21877],[6.79003,51.21949],[6.79012,51.21944],[6.79026,51.21945],[6.79021,51.21843],[6.79018,51.2183],[6.79016,51.21789],[6.78993,51.21686],[6.78985,51.21544],[6.78983,51.21416],[6.78968,51.2134],[6.78958,51.21317],[6.7895,51.21305],[6.78931,51.21277],[6.78913,51.21257],[6.78878,51.21224],[6.78828,51.21181],[6.78759,51.21134],[6.78745,51.21123]]],[[[6.78286,51.21095],[6.78594,51.21107],[6.7873,51.2111],[6.78706,51.21093],[6.78599,51.21023],[6.78573,51.21009],[6.78531,51.2099],[6.78508,51.20981],[6.78506,51.20975],[6.78456,51.20959],[6.78392,51.20942],[6.78284,51.20927],[6.78286,51.20956],[6.78286,51.21095]]],[[[6.77678,51.2107],[6.77749,51.21073],[6.77926,51.2104],[6.78065,51.21067],[6.78248,51.21092],[6.78248,51.2104],[6.78252,51.21022],[6.7825,51.20952],[6.78239,51.20921],[6.78108,51.20899],[6.78027,51.20883],[6.78028,51.20881],[6.78008,51.20878],[6.78003,51.20887],[6.77773,51.20848],[6.77774,51.20844],[6.7775,51.20841],[6.77736,51.20872],[6.77725,51.20906],[6.77678,51.2107]]]]}},{"type":"Feature","properties":{"zone":"Oberkassel - Ost (OK)","district":"Oberkassel","rawHours":"werktags, 9 bis 20 Uhr","rawFee":"","note":null,"windows":[{"weekdays":[1,2,3,4,5,6],"fromMinute":540,"toMinute":1200}],"fee":{"kind":"unknown"},"unmodelledRules":[],"sourceDefect":null,"spaces":null,"maxStayMinutes":null,"maxStay":null,"maxStayShare":0,"maxStayValues":[],"chargingPoints":0,"carsharing":0},"geometry":{"type":"Polygon","coordinates":[[[6.75614,51.23139],[6.76124,51.23143],[6.76252,51.23143],[6.76251,51.23115],[6.76254,51.23048],[6.76254,51.23007],[6.76243,51.22961],[6.76219,51.22906],[6.76139,51.22809],[6.76092,51.22769],[6.76049,51.22742],[6.76005,51.22719],[6.75942,51.2269],[6.75876,51.22662],[6.75853,51.22654],[6.75832,51.22634],[6.75771,51.22622],[6.75768,51.22618],[6.7573,51.22613],[6.75662,51.2261],[6.75591,51.22612],[6.75499,51.2262],[6.75398,51.22635],[6.75199,51.22672],[6.75218,51.22688],[6.75295,51.22761],[6.75305,51.2278],[6.75439,51.22841],[6.75439,51.22845],[6.75449,51.22858],[6.75455,51.22859],[6.75513,51.22913],[6.7553,51.22922],[6.75541,51.22921],[6.7555,51.22926],[6.75576,51.22969],[6.75613,51.23047],[6.75615,51.23055],[6.75614,51.23139]]]}},{"type":"Feature","properties":{"zone":"Niederkassel (NK)","district":"Oberkassel","rawHours":"werktags, 9 bis 20 Uhr; Werktags 09:00 - 20:00","rawFee":"","note":null,"windows":[{"weekdays":[1,2,3,4,5,6],"fromMinute":540,"toMinute":1200}],"fee":{"kind":"unknown"},"unmodelledRules":[],"sourceDefect":"Die Stadt nennt an den Parkscheinautomaten dieses Gebiets einen Tarif. Er wird hier nicht angezeigt, weil für diesen Datensatz keine offene Lizenz belegt ist.","spaces":null,"maxStayMinutes":null,"maxStay":null,"maxStayShare":0,"maxStayValues":[],"chargingPoints":0,"carsharing":0},"geometry":{"type":"Polygon","coordinates":[[[6.75476,51.23561],[6.75499,51.23564],[6.75526,51.23475],[6.75533,51.23476],[6.75639,51.23488],[6.757,51.23497],[6.75729,51.23503],[6.75794,51.2352],[6.75902,51.23556],[6.75951,51.23576],[6.75949,51.23579],[6.76044,51.23619],[6.76059,51.23624],[6.76131,51.23528],[6.76173,51.23463],[6.76189,51.23428],[6.76206,51.23383],[6.76227,51.23302],[6.76238,51.23284],[6.7623,51.2326],[6.76232,51.23176],[6.76097,51.23173],[6.75679,51.23171],[6.75468,51.23168],[6.75026,51.23164],[6.74838,51.23164],[6.74824,51.23171],[6.7495,51.2333],[6.74967,51.23345],[6.75017,51.23378],[6.75148,51.23471],[6.75151,51.2347],[6.75156,51.2347],[6.75185,51.23486],[6.75187,51.23491],[6.75183,51.23501],[6.75291,51.23524],[6.75465,51.23556],[6.75467,51.23557],[6.75466,51.23559],[6.75476,51.23561]]]}},{"type":"Feature","properties":{"zone":"Oberkassel - West (Z)","district":"Oberkassel","rawHours":"werktags, 9 bis 20 Uhr; Werktags 09:00 - 20:00","rawFee":"","note":null,"windows":[{"weekdays":[1,2,3,4,5,6],"fromMinute":540,"toMinute":1200}],"fee":{"kind":"unknown"},"unmodelledRules":[],"sourceDefect":"Die Stadt nennt an den Parkscheinautomaten dieses Gebiets einen Tarif. Er wird hier nicht angezeigt, weil für diesen Datensatz keine offene Lizenz belegt ist.","spaces":null,"maxStayMinutes":null,"maxStay":null,"maxStayShare":0,"maxStayValues":[],"chargingPoints":0,"carsharing":0},"geometry":{"type":"Polygon","coordinates":[[[6.7395,51.23007],[6.73967,51.23021],[6.73968,51.23027],[6.73979,51.23032],[6.74011,51.23038],[6.74031,51.23038],[6.74175,51.23006],[6.74229,51.23],[6.74265,51.22994],[6.74406,51.22961],[6.74423,51.22967],[6.74439,51.22981],[6.747,51.23104],[6.74739,51.23107],[6.7479,51.23134],[6.75168,51.23137],[6.75195,51.23135],[6.75221,51.23135],[6.75221,51.23137],[6.75228,51.23137],[6.75231,51.23135],[6.75293,51.23135],[6.75374,51.23136],[6.75387,51.23138],[6.75614,51.23139],[6.75615,51.23055],[6.75613,51.23047],[6.75576,51.22969],[6.7555,51.22926],[6.75541,51.22921],[6.7553,51.22922],[6.75513,51.22913],[6.75455,51.22859],[6.75449,51.22858],[6.75439,51.22845],[6.75439,51.22841],[6.75305,51.2278],[6.75295,51.22761],[6.75218,51.22688],[6.75199,51.22672],[6.74441,51.22817],[6.74013,51.2298],[6.7395,51.23007]]]}},{"type":"Feature","properties":{"zone":"Schanzenstraße (SC)","district":"Oberkassel","rawHours":"werktags, 9 bis 20 Uhr; Werktags 09:00 - 20:00","rawFee":"","note":null,"windows":[{"weekdays":[1,2,3,4,5,6],"fromMinute":540,"toMinute":1200}],"fee":{"kind":"unknown"},"unmodelledRules":[],"sourceDefect":"Die Stadt nennt an den Parkscheinautomaten dieses Gebiets einen Tarif. Er wird hier nicht angezeigt, weil für diesen Datensatz keine offene Lizenz belegt ist.","spaces":null,"maxStayMinutes":null,"maxStay":null,"maxStayShare":0,"maxStayValues":[],"chargingPoints":0,"carsharing":0},"geometry":{"type":"Polygon","coordinates":[[[6.74694,51.23117],[6.74448,51.22997],[6.74421,51.22992],[6.7438,51.22994],[6.74036,51.23073],[6.73918,51.23102],[6.73869,51.23113],[6.73825,51.23121],[6.73502,51.23195],[6.73446,51.23268],[6.73431,51.23294],[6.73418,51.23326],[6.73561,51.23376],[6.7357,51.23389],[6.73601,51.23425],[6.73532,51.2345],[6.73482,51.23476],[6.73461,51.23494],[6.73489,51.23535],[6.73866,51.23407],[6.73858,51.23403],[6.74051,51.23336],[6.74581,51.23162],[6.74586,51.23158],[6.74702,51.23121],[6.74694,51.23117]]]}},{"type":"Feature","properties":{"zone":"Blücherstraße (S)","district":"Pempelfort","rawHours":"werktags, 9 bis 20 Uhr; Werktags 09:00 - 20:00","rawFee":"","note":null,"windows":[{"weekdays":[1,2,3,4,5,6],"fromMinute":540,"toMinute":1200}],"fee":{"kind":"unknown"},"unmodelledRules":[],"sourceDefect":"Die Stadt nennt an den Parkscheinautomaten dieses Gebiets einen Tarif. Er wird hier nicht angezeigt, weil für diesen Datensatz keine offene Lizenz belegt ist.","spaces":null,"maxStayMinutes":null,"maxStay":null,"maxStayShare":0,"maxStayValues":[],"chargingPoints":0,"carsharing":0},"geometry":{"type":"Polygon","coordinates":[[[6.78783,51.24294],[6.78779,51.24315],[6.78741,51.24365],[6.7874,51.24368],[6.78715,51.2439],[6.78681,51.24379],[6.78507,51.24277],[6.78463,51.24248],[6.78361,51.24246],[6.78274,51.24238],[6.78208,51.24228],[6.78165,51.24217],[6.78031,51.24171],[6.77776,51.2409],[6.77594,51.24031],[6.77612,51.24012],[6.77678,51.23959],[6.77789,51.2387],[6.7787,51.2381],[6.77922,51.23754],[6.77932,51.23754],[6.78001,51.23897],[6.78195,51.24064],[6.78208,51.24059],[6.78018,51.23891],[6.77968,51.23793],[6.77941,51.23724],[6.77998,51.23698],[6.78039,51.23677],[6.78302,51.23502],[6.78488,51.23356],[6.78537,51.23323],[6.78585,51.23298],[6.7864,51.23274],[6.78691,51.23258],[6.78772,51.23236],[6.78793,51.23264],[6.78815,51.23286],[6.78806,51.2331],[6.78799,51.2345],[6.78798,51.2345],[6.78797,51.23466],[6.78798,51.23466],[6.78794,51.23574],[6.7879,51.23603],[6.78781,51.23629],[6.78767,51.23654],[6.78749,51.23678],[6.7875,51.2368],[6.78738,51.23694],[6.78728,51.23729],[6.78723,51.23754],[6.78716,51.23806],[6.78695,51.24086],[6.78781,51.24277],[6.78783,51.24294]]]}},{"type":"Feature","properties":{"zone":"Altstadt - Nord (K)","district":"Altstadt","rawHours":"werktags, 9 bis 22 Uhr; Werktags 09:00 - 22:00","rawFee":"","note":null,"windows":[{"weekdays":[1,2,3,4,5,6],"fromMinute":540,"toMinute":1320}],"fee":{"kind":"unknown"},"unmodelledRules":[],"sourceDefect":"Die Stadt nennt an den Parkscheinautomaten dieses Gebiets einen Tarif. Er wird hier nicht angezeigt, weil für diesen Datensatz keine offene Lizenz belegt ist.","spaces":null,"maxStayMinutes":null,"maxStay":"2h","maxStayShare":1,"maxStayValues":["2h"],"chargingPoints":0,"carsharing":0},"geometry":{"type":"Polygon","coordinates":[[[6.77233,51.22709],[6.77217,51.22725],[6.77337,51.22751],[6.77324,51.22774],[6.77327,51.22775],[6.77317,51.22782],[6.77314,51.22792],[6.77348,51.228],[6.77298,51.22885],[6.77301,51.22897],[6.77293,51.22913],[6.77264,51.22936],[6.77138,51.22903],[6.77129,51.22914],[6.7713,51.22929],[6.77209,51.23019],[6.77264,51.23096],[6.77271,51.23109],[6.77282,51.2311],[6.77332,51.23106],[6.77472,51.23088],[6.77502,51.23086],[6.77535,51.23087],[6.7759,51.23095],[6.77613,51.23094],[6.77632,51.2308],[6.77655,51.23059],[6.77661,51.23049],[6.77664,51.23037],[6.77667,51.23033],[6.77665,51.23032],[6.77668,51.23025],[6.77668,51.23019],[6.77661,51.22784],[6.77534,51.22779],[6.77496,51.22773],[6.77366,51.22739],[6.77233,51.22709]]]}},{"type":"Feature","properties":{"zone":"Ahnfeldstraße (AS)","district":"Düsseltal","rawHours":"werktags, 9 bis 20 Uhr; Werktags 09:00 - 20:00","rawFee":"","note":null,"windows":[{"weekdays":[1,2,3,4,5,6],"fromMinute":540,"toMinute":1200}],"fee":{"kind":"unknown"},"unmodelledRules":[],"sourceDefect":"Die Stadt nennt an den Parkscheinautomaten dieses Gebiets einen Tarif. Er wird hier nicht angezeigt, weil für diesen Datensatz keine offene Lizenz belegt ist.","spaces":null,"maxStayMinutes":null,"maxStay":null,"maxStayShare":0,"maxStayValues":[],"chargingPoints":0,"carsharing":0},"geometry":{"type":"Polygon","coordinates":[[[6.79652,51.24352],[6.79847,51.24385],[6.80147,51.24337],[6.8018,51.24183],[6.80214,51.23988],[6.80227,51.23896],[6.80215,51.23892],[6.80186,51.23868],[6.79983,51.23849],[6.79816,51.23718],[6.79732,51.24148],[6.79635,51.24347],[6.79652,51.24352]]]}},{"type":"Feature","properties":{"zone":"Inselstraße (J)","district":"Pempelfort","rawHours":"werktags, 9 bis 20 Uhr; Werktags 09:00 - 20:00","rawFee":"","note":null,"windows":[{"weekdays":[1,2,3,4,5,6],"fromMinute":540,"toMinute":1200}],"fee":{"kind":"unknown"},"unmodelledRules":[],"sourceDefect":"Die Stadt nennt an den Parkscheinautomaten dieses Gebiets einen Tarif. Er wird hier nicht angezeigt, weil für diesen Datensatz keine offene Lizenz belegt ist.","spaces":null,"maxStayMinutes":null,"maxStay":null,"maxStayShare":0,"maxStayValues":[],"chargingPoints":0,"carsharing":0},"geometry":{"type":"Polygon","coordinates":[[[6.7735,51.23404],[6.77492,51.23446],[6.77489,51.23449],[6.77669,51.23501],[6.77673,51.23496],[6.77761,51.23522],[6.77767,51.23509],[6.77782,51.23488],[6.77789,51.2349],[6.77804,51.23464],[6.77811,51.23465],[6.7791,51.23299],[6.77811,51.23278],[6.77355,51.23391],[6.7735,51.23404]]]}},{"type":"Feature","properties":{"zone":"Feldstraße (H)","district":"Pempelfort","rawHours":"werktags, 9 bis 20 Uhr; Werktags 09:00 - 20:00","rawFee":"","note":null,"windows":[{"weekdays":[1,2,3,4,5,6],"fromMinute":540,"toMinute":1200}],"fee":{"kind":"unknown"},"unmodelledRules":[],"sourceDefect":"Die Stadt nennt an den Parkscheinautomaten dieses Gebiets einen Tarif. Er wird hier nicht angezeigt, weil für diesen Datensatz keine offene Lizenz belegt ist.","spaces":null,"maxStayMinutes":null,"maxStay":null,"maxStayShare":0,"maxStayValues":[],"chargingPoints":0,"carsharing":0},"geometry":{"type":"Polygon","coordinates":[[[6.78685,51.23091],[6.78665,51.23167],[6.78662,51.23191],[6.78699,51.23243],[6.78647,51.23258],[6.78617,51.23269],[6.78567,51.23291],[6.78535,51.23308],[6.78469,51.23351],[6.78451,51.23346],[6.78442,51.2336],[6.78271,51.23495],[6.78009,51.23668],[6.77931,51.23704],[6.77926,51.23703],[6.7784,51.23521],[6.77838,51.23512],[6.77839,51.23503],[6.7812,51.23027],[6.78223,51.23034],[6.78293,51.23042],[6.7868,51.23087],[6.78685,51.23091]]]}},{"type":"Feature","properties":{"zone":"Hermannplatz (HP)","district":"Flingern Nord","rawHours":"werktags, 9 bis 20 Uhr; Werktags 09:00 - 20:00","rawFee":"","note":null,"windows":[{"weekdays":[1,2,3,4,5,6],"fromMinute":540,"toMinute":1200}],"fee":{"kind":"unknown"},"unmodelledRules":[],"sourceDefect":"Die Stadt nennt an den Parkscheinautomaten dieses Gebiets einen Tarif. Er wird hier nicht angezeigt, weil für diesen Datensatz keine offene Lizenz belegt ist.","spaces":null,"maxStayMinutes":null,"maxStay":null,"maxStayShare":0,"maxStayValues":[],"chargingPoints":0,"carsharing":0},"geometry":{"type":"Polygon","coordinates":[[[6.81129,51.22658],[6.80791,51.22648],[6.80622,51.22645],[6.8055,51.22646],[6.80521,51.22649],[6.80292,51.22643],[6.8022,51.22651],[6.80171,51.22659],[6.80133,51.2267],[6.80054,51.22696],[6.80016,51.22715],[6.79999,51.2272],[6.79889,51.22801],[6.79874,51.22819],[6.79856,51.22852],[6.79839,51.22895],[6.7982,51.22935],[6.79807,51.22978],[6.79841,51.22981],[6.80667,51.23121],[6.80708,51.23128],[6.80846,51.23163],[6.80869,51.23164],[6.80924,51.23068],[6.80797,51.2302],[6.80806,51.23013],[6.8093,51.2306],[6.81107,51.22757],[6.81121,51.22729],[6.811,51.22719],[6.80447,51.227],[6.80358,51.22707],[6.80258,51.22726],[6.80158,51.22755],[6.80149,51.22743],[6.80242,51.22713],[6.80347,51.22694],[6.80419,51.22687],[6.80805,51.22697],[6.81094,51.22702],[6.81129,51.22697],[6.81129,51.22658]]]}},{"type":"Feature","properties":{"zone":"Schillerplatz (SP)","district":"Düsseltal","rawHours":"werktags, 9 bis 20 Uhr; Werktags 09:00 - 20:00","rawFee":"","note":null,"windows":[{"weekdays":[1,2,3,4,5,6],"fromMinute":540,"toMinute":1200}],"fee":{"kind":"unknown"},"unmodelledRules":[],"sourceDefect":"Die Stadt nennt an den Parkscheinautomaten dieses Gebiets einen Tarif. Er wird hier nicht angezeigt, weil für diesen Datensatz keine offene Lizenz belegt ist.","spaces":null,"maxStayMinutes":null,"maxStay":null,"maxStayShare":0,"maxStayValues":[],"chargingPoints":0,"carsharing":0},"geometry":{"type":"Polygon","coordinates":[[[6.80236,51.23858],[6.80277,51.2381],[6.80402,51.23711],[6.80523,51.23621],[6.80672,51.23506],[6.80715,51.23461],[6.80808,51.23334],[6.8085,51.2327],[6.8085,51.2326],[6.80864,51.23235],[6.8087,51.23211],[6.80857,51.23199],[6.80672,51.23158],[6.80476,51.23123],[6.80283,51.23092],[6.80111,51.23062],[6.79795,51.23011],[6.79782,51.23053],[6.7976,51.23136],[6.79743,51.23266],[6.79737,51.23362],[6.79728,51.23449],[6.79725,51.23497],[6.79725,51.23574],[6.79728,51.2362],[6.79766,51.23624],[6.79783,51.23658],[6.7984,51.23713],[6.79882,51.23749],[6.79946,51.23797],[6.79997,51.23829],[6.80009,51.23835],[6.80061,51.23839],[6.80236,51.23858]]]}},{"type":"Feature","properties":{"zone":"Venloer Straße (G)","district":"Pempelfort","rawHours":"werktags, 9 bis 20 Uhr; Werktags 09:00 - 20:00","rawFee":"","note":null,"windows":[{"weekdays":[1,2,3,4,5,6],"fromMinute":540,"toMinute":1200}],"fee":{"kind":"unknown"},"unmodelledRules":[],"sourceDefect":"Die Stadt nennt an den Parkscheinautomaten dieses Gebiets einen Tarif. Er wird hier nicht angezeigt, weil für diesen Datensatz keine offene Lizenz belegt ist.","spaces":null,"maxStayMinutes":null,"maxStay":null,"maxStayShare":0,"maxStayValues":[],"chargingPoints":0,"carsharing":0},"geometry":{"type":"Polygon","coordinates":[[[6.77499,51.2399],[6.77564,51.24008],[6.77604,51.24021],[6.77612,51.24012],[6.77789,51.2387],[6.7787,51.2381],[6.77919,51.23761],[6.77925,51.23751],[6.77825,51.23541],[6.77808,51.23536],[6.77782,51.23558],[6.77732,51.23626],[6.77691,51.23697],[6.77676,51.23715],[6.77499,51.2399]]]}},{"type":"Feature","properties":{"zone":"Pempelforter Straße (P)","district":"Pempelfort","rawHours":"werktags, 9 bis 22 Uhr; Werktags 09:00 - 22:00; Werktags 09:00 - 20:00","rawFee":"","note":null,"windows":[{"weekdays":[1,2,3,4,5,6],"fromMinute":540,"toMinute":1320},{"weekdays":[1,2,3,4,5,6],"fromMinute":540,"toMinute":1200}],"fee":{"kind":"unknown"},"unmodelledRules":[],"sourceDefect":"Die Stadt nennt an den Parkscheinautomaten dieses Gebiets einen Tarif. Er wird hier nicht angezeigt, weil für diesen Datensatz keine offene Lizenz belegt ist.","spaces":null,"maxStayMinutes":null,"maxStay":"2h","maxStayShare":0.889,"maxStayValues":["2h"],"chargingPoints":0,"carsharing":0},"geometry":{"type":"Polygon","coordinates":[[[6.78415,51.22883],[6.78746,51.2287],[6.78745,51.2293],[6.78744,51.22959],[6.78733,51.23034],[6.78719,51.23094],[6.78722,51.23095],[6.78718,51.23115],[6.78717,51.23128],[6.78718,51.23132],[6.78735,51.23156],[6.78728,51.23174],[6.78755,51.23211],[6.78847,51.23186],[6.78914,51.2317],[6.78989,51.23146],[6.79071,51.2301],[6.7917,51.2287],[6.79134,51.22854],[6.79083,51.22838],[6.79045,51.22831],[6.79017,51.22827],[6.78977,51.22825],[6.78913,51.22828],[6.78888,51.22828],[6.78867,51.22825],[6.7879,51.22806],[6.78749,51.22805],[6.78715,51.22788],[6.78661,51.22774],[6.78428,51.22697],[6.78406,51.22724],[6.78405,51.22731],[6.78403,51.22731],[6.78405,51.22735],[6.78405,51.22758],[6.78409,51.22779],[6.78415,51.22883]]]}},{"type":"Feature","properties":{"zone":"Derendorfer Straße (W)","district":"Pempelfort","rawHours":"werktags, 9 bis 20 Uhr; Werktags 09:00 - 20:00","rawFee":"","note":null,"windows":[{"weekdays":[1,2,3,4,5,6],"fromMinute":540,"toMinute":1200}],"fee":{"kind":"unknown"},"unmodelledRules":[],"sourceDefect":"Die Stadt nennt an den Parkscheinautomaten dieses Gebiets einen Tarif. Er wird hier nicht angezeigt, weil für diesen Datensatz keine offene Lizenz belegt ist.","spaces":null,"maxStayMinutes":null,"maxStay":null,"maxStayShare":0,"maxStayValues":[],"chargingPoints":0,"carsharing":0},"geometry":{"type":"Polygon","coordinates":[[[6.79642,51.2314],[6.79656,51.23155],[6.79624,51.2366],[6.79553,51.23655],[6.79544,51.23658],[6.79539,51.23666],[6.79538,51.2367],[6.7954,51.23675],[6.7948,51.24309],[6.79456,51.24359],[6.79386,51.24352],[6.79325,51.2438],[6.79268,51.2465],[6.79073,51.24576],[6.7898,51.24546],[6.7892,51.24524],[6.78908,51.24516],[6.78848,51.24469],[6.78797,51.24434],[6.78727,51.24401],[6.78731,51.24398],[6.78715,51.2439],[6.78681,51.24379],[6.78705,51.24365],[6.78725,51.24338],[6.78743,51.24298],[6.78738,51.24293],[6.78735,51.24259],[6.7867,51.24116],[6.78662,51.24091],[6.78663,51.2408],[6.78639,51.23972],[6.78642,51.23882],[6.78637,51.23781],[6.78637,51.23754],[6.78643,51.23727],[6.78655,51.23701],[6.78664,51.23689],[6.78697,51.23653],[6.78706,51.23641],[6.78721,51.23614],[6.78727,51.23596],[6.7873,51.23578],[6.78742,51.23303],[6.7887,51.23219],[6.78924,51.23194],[6.79038,51.23262],[6.79047,51.23257],[6.78938,51.23186],[6.78975,51.23176],[6.78995,51.23135],[6.79071,51.2301],[6.7917,51.2287],[6.79173,51.22869],[6.79228,51.22886],[6.79428,51.22933],[6.79551,51.22958],[6.79565,51.22996],[6.79576,51.22998],[6.79579,51.23004],[6.7959,51.23014],[6.79585,51.23037],[6.7957,51.23044],[6.7958,51.23067],[6.79593,51.2309],[6.79602,51.23099],[6.79631,51.23121],[6.7964,51.23134],[6.79642,51.2314]]]}},{"type":"Feature","properties":{"zone":"Gerresheimer Straße (GS)","district":"Flingern Süd","rawHours":"werktags, 9 bis 20 Uhr; Werktags 09:00 - 20:00","rawFee":"","note":null,"windows":[{"weekdays":[1,2,3,4,5,6],"fromMinute":540,"toMinute":1200}],"fee":{"kind":"unknown"},"unmodelledRules":[],"sourceDefect":"Die Stadt nennt an den Parkscheinautomaten dieses Gebiets einen Tarif. Er wird hier nicht angezeigt, weil für diesen Datensatz keine offene Lizenz belegt ist.","spaces":null,"maxStayMinutes":null,"maxStay":null,"maxStayShare":0,"maxStayValues":[],"chargingPoints":0,"carsharing":0},"geometry":{"type":"MultiPolygon","coordinates":[[[[6.80878,51.22104],[6.81038,51.2227],[6.81056,51.22324],[6.81092,51.22456],[6.81094,51.22455],[6.81121,51.22544],[6.81126,51.22617],[6.81128,51.22619],[6.81057,51.22619],[6.80807,51.22616],[6.80555,51.22616],[6.80555,51.22611],[6.80291,51.22605],[6.80194,51.22601],[6.79961,51.22658],[6.79918,51.22633],[6.80013,51.22538],[6.80098,51.22443],[6.80147,51.22391],[6.80061,51.22338],[6.80219,51.22199],[6.80302,51.22217],[6.80624,51.22174],[6.80843,51.22083],[6.80878,51.22104]]],[[[6.81083,51.22261],[6.80923,51.22087],[6.81052,51.2203],[6.81248,51.22238],[6.81083,51.22261]]]]}},{"type":"Feature","properties":{"zone":"Moorenplatz (MP)","district":"Bilk","rawHours":"montags bis sonntags, 24 Stunden","rawFee":"","note":null,"windows":[{"weekdays":[0,1,2,3,4,5,6],"fromMinute":0,"toMinute":1440}],"fee":{"kind":"unknown"},"unmodelledRules":[],"sourceDefect":null,"spaces":null,"maxStayMinutes":null,"maxStay":null,"maxStayShare":0,"maxStayValues":[],"chargingPoints":0,"carsharing":0},"geometry":{"type":"Polygon","coordinates":[[[6.79375,51.19838],[6.78958,51.2003],[6.7894,51.20035],[6.78794,51.20102],[6.78777,51.20114],[6.78762,51.20129],[6.78731,51.2018],[6.78701,51.20216],[6.78806,51.20273],[6.78839,51.20295],[6.78866,51.20288],[6.78961,51.20273],[6.79089,51.20259],[6.7922,51.20253],[6.79285,51.20252],[6.79365,51.20254],[6.79464,51.20231],[6.79462,51.20231],[6.79467,51.20216],[6.79472,51.20116],[6.79502,51.19984],[6.795,51.19978],[6.79438,51.19902],[6.79434,51.19894],[6.79431,51.19881],[6.79398,51.19834],[6.79396,51.19829],[6.79375,51.19838]]]}},{"type":"Feature","properties":{"zone":"Feuerbachstraße (FB)","district":"Bilk","rawHours":"werktags, 9 bis 20 Uhr; Werktags 09:00 - 20:00","rawFee":"","note":null,"windows":[{"weekdays":[1,2,3,4,5,6],"fromMinute":540,"toMinute":1200}],"fee":{"kind":"unknown"},"unmodelledRules":[],"sourceDefect":"Die Stadt nennt an den Parkscheinautomaten dieses Gebiets einen Tarif. Er wird hier nicht angezeigt, weil für diesen Datensatz keine offene Lizenz belegt ist.","spaces":null,"maxStayMinutes":null,"maxStay":null,"maxStayShare":0,"maxStayValues":[],"chargingPoints":0,"carsharing":0},"geometry":{"type":"Polygon","coordinates":[[[6.78795,51.21111],[6.78831,51.21107],[6.78883,51.20975],[6.78899,51.20924],[6.78931,51.20796],[6.79015,51.20787],[6.79063,51.2076],[6.78672,51.20521],[6.78429,51.20397],[6.78414,51.20405],[6.78388,51.20479],[6.78379,51.20508],[6.78355,51.20559],[6.78322,51.20614],[6.78301,51.20674],[6.78299,51.20729],[6.78283,51.20895],[6.78333,51.20902],[6.7843,51.20923],[6.78509,51.20947],[6.78549,51.20962],[6.78625,51.20997],[6.78795,51.21111]],[[6.78544,51.20907],[6.7867,51.20947],[6.78733,51.20899],[6.78744,51.20883],[6.78739,51.20869],[6.78769,51.20853],[6.78802,51.20783],[6.78778,51.20779],[6.78749,51.20845],[6.78729,51.20852],[6.78724,51.20862],[6.78663,51.20851],[6.78654,51.20847],[6.78588,51.20834],[6.78582,51.20847],[6.78637,51.20857],[6.78644,51.20861],[6.78625,51.20901],[6.78646,51.20905],[6.78664,51.20867],[6.78717,51.20875],[6.78717,51.2089],[6.78665,51.20929],[6.78556,51.20891],[6.78544,51.20907]]]}},{"type":"Feature","properties":{"zone":"Neuwerker-, Viersener Straße (NV)","district":"Heerdt","rawHours":"werktags, 9 bis 20 Uhr","rawFee":"","note":null,"windows":[{"weekdays":[1,2,3,4,5,6],"fromMinute":540,"toMinute":1200}],"fee":{"kind":"unknown"},"unmodelledRules":[],"sourceDefect":null,"spaces":null,"maxStayMinutes":null,"maxStay":null,"maxStayShare":0,"maxStayValues":[],"chargingPoints":0,"carsharing":0},"geometry":{"type":"Polygon","coordinates":[[[6.72746,51.23635],[6.72969,51.2368],[6.73007,51.23614],[6.73121,51.23468],[6.7305,51.23459],[6.72986,51.23455],[6.72751,51.23458],[6.72749,51.23587],[6.72746,51.23635]]]}},{"type":"Feature","properties":{"zone":"Reeser Platz (RP)","district":"Golzheim","rawHours":"werktags, 9 bis 20 Uhr; Werktags 09:00 - 20:00","rawFee":"","note":null,"windows":[{"weekdays":[1,2,3,4,5,6],"fromMinute":540,"toMinute":1200}],"fee":{"kind":"unknown"},"unmodelledRules":[],"sourceDefect":"Die Stadt nennt an den Parkscheinautomaten dieses Gebiets einen Tarif. Er wird hier nicht angezeigt, weil für diesen Datensatz keine offene Lizenz belegt ist.","spaces":null,"maxStayMinutes":null,"maxStay":null,"maxStayShare":0,"maxStayValues":[],"chargingPoints":0,"carsharing":0},"geometry":{"type":"Polygon","coordinates":[[[6.76369,51.24956],[6.7635,51.24969],[6.7635,51.24972],[6.76363,51.24978],[6.76212,51.25079],[6.75915,51.25254],[6.75794,51.25126],[6.75912,51.25073],[6.76094,51.24978],[6.76238,51.249],[6.76262,51.24899],[6.76369,51.24956]]]}},{"type":"Feature","properties":{"zone":"Münsterstraße (MÜ)","district":"Düsseltal","rawHours":"werktags, 9 bis 20 Uhr; Werktags 09:00 - 20:00","rawFee":"","note":null,"windows":[{"weekdays":[1,2,3,4,5,6],"fromMinute":540,"toMinute":1200}],"fee":{"kind":"unknown"},"unmodelledRules":[],"sourceDefect":"Die Stadt nennt an den Parkscheinautomaten dieses Gebiets einen Tarif. Er wird hier nicht angezeigt, weil für diesen Datensatz keine offene Lizenz belegt ist.","spaces":null,"maxStayMinutes":null,"maxStay":null,"maxStayShare":0,"maxStayValues":[],"chargingPoints":0,"carsharing":0},"geometry":{"type":"MultiPolygon","coordinates":[[[[6.80166,51.24861],[6.80121,51.24862],[6.79915,51.24816],[6.79945,51.24758],[6.79889,51.24747],[6.79789,51.24731],[6.79753,51.24792],[6.79718,51.2483],[6.79488,51.24731],[6.79492,51.2472],[6.79503,51.24699],[6.79563,51.24516],[6.79563,51.24511],[6.79571,51.24489],[6.79709,51.24534],[6.79822,51.24429],[6.79881,51.244],[6.8014,51.24356],[6.80146,51.24359],[6.80157,51.24551],[6.80152,51.24571],[6.80153,51.24587],[6.80133,51.24587],[6.80133,51.24584],[6.80058,51.2457],[6.79915,51.24531],[6.79788,51.24663],[6.79988,51.24701],[6.80141,51.24708],[6.8016,51.24707],[6.80163,51.24754],[6.80166,51.24861]]],[[[6.79736,51.24865],[6.79684,51.24945],[6.79682,51.25044],[6.79392,51.25058],[6.79404,51.25012],[6.794,51.25012],[6.79403,51.25001],[6.7948,51.24755],[6.79736,51.24865]]]]}},{"type":"Feature","properties":{"zone":"Derendorf (Q)","district":"Derendorf","rawHours":"werktags, 9 bis 20 Uhr; Werktags 09:00 - 20:00","rawFee":"","note":null,"windows":[{"weekdays":[1,2,3,4,5,6],"fromMinute":540,"toMinute":1200}],"fee":{"kind":"unknown"},"unmodelledRules":[],"sourceDefect":"Die Stadt nennt an den Parkscheinautomaten dieses Gebiets einen Tarif. Er wird hier nicht angezeigt, weil für diesen Datensatz keine offene Lizenz belegt ist.","spaces":null,"maxStayMinutes":null,"maxStay":null,"maxStayShare":0,"maxStayValues":[],"chargingPoints":0,"carsharing":0},"geometry":{"type":"Polygon","coordinates":[[[6.79265,51.24867],[6.79238,51.25031],[6.78965,51.24971],[6.7892,51.25041],[6.78857,51.25111],[6.78767,51.25167],[6.7875,51.25165],[6.78711,51.25187],[6.78683,51.25208],[6.78662,51.25231],[6.78653,51.25245],[6.78644,51.25266],[6.78632,51.2531],[6.78626,51.2534],[6.78624,51.25369],[6.78588,51.25373],[6.78298,51.25383],[6.7821,51.25381],[6.78126,51.25377],[6.78065,51.25372],[6.7738,51.25325],[6.77372,51.25323],[6.77336,51.25317],[6.77307,51.2531],[6.77281,51.25301],[6.77263,51.25291],[6.77251,51.25279],[6.77243,51.25267],[6.7723,51.25217],[6.7788,51.24608],[6.77895,51.24614],[6.77939,51.24564],[6.77969,51.24526],[6.78207,51.24243],[6.78339,51.24257],[6.78421,51.2426],[6.78428,51.24268],[6.78655,51.24401],[6.78789,51.24469],[6.78819,51.24489],[6.78879,51.24537],[6.78894,51.24546],[6.78961,51.2457],[6.78964,51.24574],[6.78989,51.24582],[6.78931,51.24675],[6.78953,51.24794],[6.79265,51.24867]]]}},{"type":"Feature","properties":{"zone":"Daimler (B)","district":"Derendorf","rawHours":"werktags, 9 bis 20 Uhr; Werktags 09:00 - 20:00","rawFee":"","note":null,"windows":[{"weekdays":[1,2,3,4,5,6],"fromMinute":540,"toMinute":1200}],"fee":{"kind":"unknown"},"unmodelledRules":[],"sourceDefect":"Die Stadt nennt an den Parkscheinautomaten dieses Gebiets einen Tarif. Er wird hier nicht angezeigt, weil für diesen Datensatz keine offene Lizenz belegt ist.","spaces":null,"maxStayMinutes":null,"maxStay":null,"maxStayShare":0,"maxStayValues":[],"chargingPoints":0,"carsharing":0},"geometry":{"type":"MultiPolygon","coordinates":[[[[6.78629,51.25409],[6.78619,51.25461],[6.78616,51.2549],[6.78401,51.25497],[6.78397,51.25499],[6.78399,51.25558],[6.78402,51.2556],[6.7844,51.2556],[6.78441,51.25568],[6.78397,51.25569],[6.78394,51.25571],[6.78396,51.25643],[6.78399,51.25645],[6.78442,51.25645],[6.78442,51.25654],[6.784,51.25654],[6.78397,51.25656],[6.78398,51.2571],[6.78396,51.25717],[6.78389,51.25725],[6.78285,51.25807],[6.78263,51.25829],[6.78017,51.25708],[6.78005,51.2571],[6.78027,51.25467],[6.78029,51.25465],[6.78032,51.25465],[6.78038,51.2541],[6.78041,51.25407],[6.78044,51.25406],[6.78155,51.25415],[6.78297,51.25418],[6.784,51.25418],[6.78482,51.25416],[6.78568,51.25413],[6.78629,51.25409]]],[[[6.7799,51.25475],[6.77976,51.25635],[6.77971,51.25675],[6.77968,51.25675],[6.77917,51.25648],[6.77919,51.25647],[6.77894,51.25629],[6.7775,51.25557],[6.77669,51.25527],[6.77624,51.25515],[6.7755,51.25501],[6.77495,51.25486],[6.77247,51.25384],[6.77239,51.25376],[6.77243,51.25356],[6.77263,51.25358],[6.77264,51.25352],[6.7729,51.25354],[6.77289,51.25355],[6.77972,51.25403],[6.77972,51.25406],[6.77992,51.25407],[6.77986,51.25475],[6.7799,51.25475]]]]}},{"type":"Feature","properties":{"zone":"Golzheimer Platz (GP)","district":"Golzheim","rawHours":"werktags, 9 bis 20 Uhr; Werktags 09:00 - 20:00","rawFee":"","note":null,"windows":[{"weekdays":[1,2,3,4,5,6],"fromMinute":540,"toMinute":1200}],"fee":{"kind":"unknown"},"unmodelledRules":[],"sourceDefect":"Die Stadt nennt an den Parkscheinautomaten dieses Gebiets einen Tarif. Er wird hier nicht angezeigt, weil für diesen Datensatz keine offene Lizenz belegt ist.","spaces":null,"maxStayMinutes":null,"maxStay":null,"maxStayShare":0,"maxStayValues":[],"chargingPoints":0,"carsharing":0},"geometry":{"type":"Polygon","coordinates":[[[6.77169,51.24342],[6.77162,51.24346],[6.77165,51.24349],[6.77157,51.24354],[6.77159,51.24355],[6.7712,51.24383],[6.77123,51.24385],[6.77108,51.24394],[6.77106,51.24393],[6.77067,51.24421],[6.77011,51.24457],[6.76657,51.24777],[6.76585,51.24887],[6.76516,51.24953],[6.76472,51.24989],[6.76356,51.24931],[6.76232,51.24864],[6.76377,51.2479],[6.76501,51.24719],[6.76569,51.24676],[6.76624,51.24639],[6.76737,51.24556],[6.7679,51.24512],[6.76836,51.24471],[6.76871,51.24439],[6.76918,51.24392],[6.76982,51.2432],[6.77002,51.24295],[6.77054,51.24221],[6.77058,51.24217],[6.77072,51.24213],[6.77082,51.24215],[6.77088,51.24219],[6.77101,51.24242],[6.77169,51.24342]]]}},{"type":"Feature","properties":{"zone":"Golzheim - Rolandstraße (C)","district":"Golzheim","rawHours":"werktags, 9 bis 20 Uhr; Werktags 09:00 - 20:00","rawFee":"","note":null,"windows":[{"weekdays":[1,2,3,4,5,6],"fromMinute":540,"toMinute":1200}],"fee":{"kind":"unknown"},"unmodelledRules":[],"sourceDefect":"Die Stadt nennt an den Parkscheinautomaten dieses Gebiets einen Tarif. Er wird hier nicht angezeigt, weil für diesen Datensatz keine offene Lizenz belegt ist.","spaces":null,"maxStayMinutes":null,"maxStay":null,"maxStayShare":0,"maxStayValues":[],"chargingPoints":0,"carsharing":0},"geometry":{"type":"Polygon","coordinates":[[[6.78201,51.24251],[6.78192,51.24269],[6.7812,51.2436],[6.78047,51.24447],[6.77975,51.24537],[6.77909,51.24615],[6.77843,51.24674],[6.77624,51.24885],[6.7728,51.25206],[6.77264,51.25191],[6.77879,51.2461],[6.77868,51.24603],[6.77464,51.24472],[6.77444,51.24505],[6.77417,51.24497],[6.77443,51.24465],[6.77266,51.24408],[6.77259,51.24407],[6.7727,51.24309],[6.77324,51.2426],[6.77372,51.24179],[6.77441,51.24044],[6.77454,51.24024],[6.77476,51.24],[6.77547,51.24019],[6.78197,51.24234],[6.78201,51.24251]]]}},{"type":"Feature","properties":{"zone":"Christophstraße (CH)","district":"Bilk","rawHours":"montags bis sonntags, 24 Stunden","rawFee":"","note":null,"windows":[{"weekdays":[0,1,2,3,4,5,6],"fromMinute":0,"toMinute":1440}],"fee":{"kind":"unknown"},"unmodelledRules":[],"sourceDefect":null,"spaces":null,"maxStayMinutes":null,"maxStay":null,"maxStayShare":0,"maxStayValues":[],"chargingPoints":0,"carsharing":0},"geometry":{"type":"MultiPolygon","coordinates":[[[[6.79961,51.19531],[6.79951,51.19539],[6.79938,51.19546],[6.79914,51.19548],[6.79935,51.19592],[6.7976,51.19644],[6.79745,51.19652],[6.79721,51.1966],[6.79643,51.19681],[6.7962,51.19649],[6.79608,51.19645],[6.79621,51.19615],[6.79638,51.19618],[6.79647,51.19601],[6.79648,51.19575],[6.79644,51.19437],[6.79645,51.19423],[6.79641,51.19421],[6.79484,51.19412],[6.79479,51.19414],[6.79472,51.19414],[6.79473,51.19393],[6.79487,51.19394],[6.79487,51.19401],[6.79491,51.19403],[6.79644,51.19411],[6.79646,51.1941],[6.79659,51.1934],[6.79692,51.19258],[6.798,51.19276],[6.79798,51.19283],[6.79832,51.19292],[6.79862,51.19306],[6.7988,51.19321],[6.79893,51.19337],[6.799,51.1935],[6.79896,51.19356],[6.79889,51.19396],[6.7989,51.1945],[6.79892,51.1945],[6.79898,51.19459],[6.79961,51.19531]]],[[[6.80017,51.19005],[6.80005,51.19042],[6.80008,51.19043],[6.79999,51.19074],[6.8,51.19074],[6.79997,51.19079],[6.79991,51.19102],[6.79983,51.191],[6.7996,51.19163],[6.79975,51.19165],[6.79969,51.1919],[6.79967,51.19211],[6.79954,51.19226],[6.79948,51.19239],[6.79944,51.19254],[6.79946,51.19264],[6.7994,51.19283],[6.79921,51.19283],[6.79899,51.19271],[6.79874,51.1926],[6.79846,51.19251],[6.79812,51.19242],[6.79731,51.19235],[6.797,51.19238],[6.79731,51.1916],[6.79741,51.19113],[6.79661,51.19107],[6.79677,51.19095],[6.79743,51.19099],[6.7977,51.1894],[6.79769,51.18935],[6.79773,51.1893],[6.79785,51.18926],[6.79999,51.18974],[6.79991,51.18999],[6.80017,51.19005]]]]}},{"type":"Feature","properties":{"zone":"Wersten - Düsseldörfchen (Y)","district":"Wersten","rawHours":"montags bis freitags, 9 bis 15 Uhr","rawFee":"","note":null,"windows":[{"weekdays":[1,2,3,4,5],"fromMinute":540,"toMinute":900}],"fee":{"kind":"unknown"},"unmodelledRules":[],"sourceDefect":null,"spaces":null,"maxStayMinutes":null,"maxStay":null,"maxStayShare":0,"maxStayValues":[],"chargingPoints":0,"carsharing":0},"geometry":{"type":"Polygon","coordinates":[[[6.81001,51.19723],[6.81172,51.19761],[6.81198,51.19764],[6.81237,51.1969],[6.81329,51.19533],[6.81415,51.19391],[6.81218,51.19353],[6.81033,51.19393],[6.80986,51.19476],[6.80994,51.19478],[6.80973,51.19515],[6.80972,51.19575],[6.80977,51.19575],[6.80977,51.1959],[6.80984,51.1959],[6.80983,51.19606],[6.80991,51.19606],[6.8099,51.19639],[6.80994,51.19642],[6.80994,51.19677],[6.80999,51.19677],[6.80999,51.19706],[6.81002,51.19706],[6.81001,51.19723]]]}},{"type":"Feature","properties":{"zone":"Moorenstraße (MS)","district":"Bilk","rawHours":"montags bis sonntags, 24 Stunden","rawFee":"","note":null,"windows":[{"weekdays":[0,1,2,3,4,5,6],"fromMinute":0,"toMinute":1440}],"fee":{"kind":"unknown"},"unmodelledRules":[],"sourceDefect":null,"spaces":null,"maxStayMinutes":null,"maxStay":null,"maxStayShare":0,"maxStayValues":[],"chargingPoints":0,"carsharing":0},"geometry":{"type":"Polygon","coordinates":[[[6.78946,51.19927],[6.78768,51.19887],[6.78764,51.19888],[6.78752,51.1988],[6.78623,51.19848],[6.78497,51.1984],[6.78414,51.1984],[6.7829,51.19843],[6.78291,51.19891],[6.78286,51.19894],[6.78288,51.19905],[6.78327,51.19955],[6.78329,51.19955],[6.78396,51.20003],[6.78553,51.2003],[6.7856,51.2011],[6.78589,51.20127],[6.78612,51.20145],[6.78961,51.19985],[6.78957,51.19957],[6.78957,51.1993],[6.78946,51.19927]]]}},{"type":"Feature","properties":{"zone":"Lichtenbroich (LB)","district":"Unterrath","rawHours":"sonntags, 10 bis 17 Uhr","rawFee":"","note":null,"windows":[{"weekdays":[0],"fromMinute":600,"toMinute":1020}],"fee":{"kind":"unknown"},"unmodelledRules":[],"sourceDefect":null,"spaces":null,"maxStayMinutes":null,"maxStay":null,"maxStayShare":0,"maxStayValues":[],"chargingPoints":0,"carsharing":0},"geometry":{"type":"Polygon","coordinates":[[[6.7898,51.27966],[6.78956,51.28093],[6.79309,51.28123],[6.79351,51.28128],[6.79445,51.28149],[6.79448,51.28138],[6.79453,51.2808],[6.79465,51.27981],[6.79425,51.27979],[6.79175,51.27958],[6.79034,51.27947],[6.7898,51.27966]]]}},{"type":"Feature","properties":{"zone":"Unterrath - Ost (D)","district":"Unterrath","rawHours":"montags bis sonntags, 11 bis 15 Uhr","rawFee":"","note":null,"windows":[{"weekdays":[0,1,2,3,4,5,6],"fromMinute":660,"toMinute":900}],"fee":{"kind":"unknown"},"unmodelledRules":[],"sourceDefect":null,"spaces":null,"maxStayMinutes":null,"maxStay":null,"maxStayShare":0,"maxStayValues":[],"chargingPoints":0,"carsharing":0},"geometry":{"type":"Polygon","coordinates":[[[6.77407,51.27196],[6.77819,51.27258],[6.78142,51.27344],[6.78269,51.27417],[6.78283,51.27416],[6.78302,51.2744],[6.78317,51.27449],[6.78347,51.27461],[6.78416,51.27496],[6.78556,51.27577],[6.78649,51.27622],[6.78692,51.27638],[6.78735,51.27648],[6.78798,51.27656],[6.78851,51.2766],[6.78852,51.27648],[6.78861,51.27593],[6.78871,51.27493],[6.78873,51.27491],[6.78855,51.27459],[6.78877,51.27454],[6.78894,51.27297],[6.7895,51.26852],[6.79001,51.26433],[6.79015,51.2636],[6.78936,51.26357],[6.78937,51.26354],[6.78927,51.26354],[6.78929,51.26336],[6.78865,51.26339],[6.78867,51.26336],[6.78866,51.26313],[6.78869,51.26313],[6.78867,51.26307],[6.78868,51.26303],[6.78874,51.263],[6.78869,51.2628],[6.78821,51.26293],[6.78459,51.26304],[6.77958,51.2629],[6.77915,51.26287],[6.77749,51.26264],[6.77678,51.26262],[6.77636,51.26259],[6.77619,51.26255],[6.77598,51.2626],[6.77582,51.26298],[6.77555,51.26375],[6.77463,51.26659],[6.77452,51.267],[6.77407,51.26932],[6.77407,51.26956],[6.7741,51.26997],[6.77409,51.27033],[6.77403,51.27059],[6.77396,51.27082],[6.77387,51.27132],[6.77387,51.27194],[6.77407,51.27196]]]}},{"type":"Feature","properties":{"zone":"Stockum - Blumenviertel (U)","district":"Stockum","rawHours":"montags bis sonntags, 11 bis 15 Uhr","rawFee":"","note":null,"windows":[{"weekdays":[0,1,2,3,4,5,6],"fromMinute":660,"toMinute":900}],"fee":{"kind":"unknown"},"unmodelledRules":[],"sourceDefect":null,"spaces":null,"maxStayMinutes":null,"maxStay":null,"maxStayShare":0,"maxStayValues":[],"chargingPoints":0,"carsharing":0},"geometry":{"type":"Polygon","coordinates":[[[6.74947,51.26178],[6.75255,51.26216],[6.75277,51.26216],[6.75333,51.26223],[6.75408,51.25992],[6.75305,51.25984],[6.75174,51.25983],[6.74956,51.25956],[6.74888,51.26171],[6.74947,51.26178]]]}},{"type":"Feature","properties":{"zone":"Kanzlerstraße (T)","district":"Rath","rawHours":"montags bis freitags, 9 bis 15 Uhr","rawFee":"","note":null,"windows":[{"weekdays":[1,2,3,4,5],"fromMinute":540,"toMinute":900}],"fee":{"kind":"unknown"},"unmodelledRules":[],"sourceDefect":null,"spaces":null,"maxStayMinutes":null,"maxStay":null,"maxStayShare":0,"maxStayValues":[],"chargingPoints":0,"carsharing":0},"geometry":{"type":"Polygon","coordinates":[[[6.8255,51.26546],[6.8261,51.26513],[6.82609,51.26501],[6.82558,51.2643],[6.82535,51.26399],[6.82474,51.26302],[6.82448,51.26244],[6.82435,51.26223],[6.8239,51.26163],[6.82367,51.26157],[6.82225,51.26137],[6.82222,51.26135],[6.82223,51.26132],[6.82206,51.2613],[6.8216,51.26251],[6.82155,51.26269],[6.82155,51.2628],[6.82323,51.26388],[6.82326,51.26393],[6.82382,51.2643],[6.8255,51.26546]]]}},{"type":"Feature","properties":{"zone":"Unterrath - West (E)","district":"Unterrath","rawHours":"montags bis sonntags, 8 bis 18 Uhr","rawFee":"","note":null,"windows":[{"weekdays":[0,1,2,3,4,5,6],"fromMinute":480,"toMinute":1080}],"fee":{"kind":"unknown"},"unmodelledRules":[],"sourceDefect":null,"spaces":null,"maxStayMinutes":null,"maxStay":null,"maxStayShare":0,"maxStayValues":[],"chargingPoints":0,"carsharing":0},"geometry":{"type":"Polygon","coordinates":[[[6.76006,51.27056],[6.7602,51.27071],[6.76031,51.27079],[6.76045,51.27085],[6.76069,51.27091],[6.76091,51.27092],[6.76099,51.27089],[6.76131,51.27092],[6.76249,51.27089],[6.76249,51.27094],[6.76254,51.27096],[6.76372,51.27104],[6.76484,51.27118],[6.76568,51.27126],[6.76623,51.27122],[6.76653,51.27123],[6.76901,51.27109],[6.76937,51.27108],[6.76973,51.2711],[6.77058,51.27119],[6.77334,51.2718],[6.77358,51.27181],[6.77372,51.27057],[6.77378,51.27057],[6.77379,51.27048],[6.77385,51.27048],[6.77386,51.27044],[6.77388,51.27044],[6.77391,51.26985],[6.77387,51.26931],[6.77434,51.26707],[6.77436,51.26696],[6.77432,51.26696],[6.77544,51.26352],[6.77537,51.26351],[6.77552,51.26307],[6.77546,51.26306],[6.77557,51.26274],[6.77517,51.26277],[6.7745,51.26277],[6.77399,51.26275],[6.77356,51.2627],[6.77278,51.26256],[6.77246,51.26247],[6.77215,51.26231],[6.7719,51.26216],[6.77166,51.26205],[6.77039,51.26166],[6.76976,51.26153],[6.76921,51.26137],[6.7666,51.26045],[6.76342,51.25927],[6.76322,51.25925],[6.76305,51.25946],[6.76288,51.2598],[6.76257,51.26048],[6.76253,51.26066],[6.76254,51.2607],[6.7626,51.26078],[6.7628,51.26089],[6.76286,51.2609],[6.763,51.26087],[6.76314,51.26171],[6.76186,51.26566],[6.76182,51.26571],[6.76169,51.26572],[6.76158,51.26575],[6.76152,51.26579],[6.76149,51.26584],[6.76056,51.26873],[6.76057,51.26875],[6.7606,51.26876],[6.7606,51.26878],[6.7605,51.26908],[6.7604,51.26923],[6.76005,51.27031],[6.76003,51.27046],[6.76006,51.27056]]]}},{"type":"Feature","properties":{"zone":"Flughafen (F)","district":"Unterrath","rawHours":"montags bis sonntags, 1 bis 15 Uhr","rawFee":"","note":null,"windows":[{"weekdays":[0,1,2,3,4,5,6],"fromMinute":60,"toMinute":900}],"fee":{"kind":"unknown"},"unmodelledRules":[],"sourceDefect":null,"spaces":null,"maxStayMinutes":null,"maxStay":null,"maxStayShare":0,"maxStayValues":[],"chargingPoints":0,"carsharing":0},"geometry":{"type":"Polygon","coordinates":[[[6.78653,51.2771],[6.78666,51.27687],[6.78664,51.2768],[6.78658,51.27673],[6.78629,51.2766],[6.78628,51.27658],[6.78597,51.27641],[6.78505,51.27581],[6.78472,51.27564],[6.78272,51.2745],[6.78256,51.27438],[6.78137,51.2737],[6.78101,51.27354],[6.77964,51.27319],[6.77935,51.27364],[6.77956,51.27556],[6.78044,51.2758],[6.78038,51.27586],[6.77943,51.27562],[6.77916,51.2737],[6.77948,51.27314],[6.77831,51.27283],[6.77768,51.27271],[6.77536,51.27236],[6.77484,51.27232],[6.77419,51.27222],[6.77357,51.27203],[6.77323,51.27192],[6.77296,51.27185],[6.77266,51.27179],[6.77265,51.27181],[6.77073,51.27139],[6.77007,51.27129],[6.76964,51.27126],[6.7692,51.27124],[6.76799,51.2713],[6.76774,51.27193],[6.76853,51.27211],[6.76925,51.2724],[6.76926,51.27244],[6.7693,51.27247],[6.76952,51.27257],[6.77163,51.27299],[6.77165,51.27301],[6.77165,51.27303],[6.77142,51.27348],[6.7721,51.27389],[6.77276,51.27406],[6.77177,51.275],[6.77097,51.27618],[6.77128,51.27623],[6.77206,51.27522],[6.77209,51.27502],[6.77259,51.27448],[6.77317,51.27404],[6.77382,51.27421],[6.77377,51.27429],[6.77461,51.27449],[6.77489,51.27461],[6.77498,51.2747],[6.77521,51.27475],[6.77549,51.27471],[6.7756,51.2745],[6.77567,51.27447],[6.77644,51.27448],[6.77735,51.27433],[6.779,51.27588],[6.78004,51.27622],[6.77958,51.27676],[6.77975,51.27685],[6.77847,51.27832],[6.78091,51.28016],[6.78169,51.28015],[6.78243,51.2802],[6.78274,51.28024],[6.78451,51.28055],[6.78784,51.28065],[6.78789,51.28044],[6.78733,51.28047],[6.78438,51.28039],[6.78296,51.28018],[6.78313,51.28006],[6.78338,51.2798],[6.7836,51.27962],[6.78386,51.27947],[6.78421,51.27931],[6.78488,51.27904],[6.78516,51.27889],[6.78535,51.27876],[6.78557,51.27857],[6.78582,51.2783],[6.78653,51.2771]]]}},{"type":"Feature","properties":{"zone":"Unterrath (UR)","district":"Unterrath","rawHours":"montags bis sonntags, 11 bis 15 Uhr","rawFee":"","note":null,"windows":[{"weekdays":[0,1,2,3,4,5,6],"fromMinute":660,"toMinute":900}],"fee":{"kind":"unknown"},"unmodelledRules":[],"sourceDefect":null,"spaces":null,"maxStayMinutes":null,"maxStay":null,"maxStayShare":0,"maxStayValues":[],"chargingPoints":0,"carsharing":0},"geometry":{"type":"Polygon","coordinates":[[[6.7913,51.26593],[6.79338,51.26649],[6.79366,51.26656],[6.7943,51.26664],[6.79459,51.26549],[6.79487,51.26394],[6.79498,51.26347],[6.79497,51.26327],[6.794,51.26306],[6.79356,51.26298],[6.79292,51.26289],[6.79251,51.26328],[6.7924,51.26348],[6.79232,51.26351],[6.79197,51.26391],[6.79179,51.26416],[6.79151,51.26461],[6.79141,51.26485],[6.79134,51.26512],[6.79129,51.26552],[6.79131,51.26573],[6.7913,51.26593]]]}},{"type":"Feature","properties":{"zone":"Henkelgebiet (M)","district":"Holthausen","rawHours":"montags bis sonntags, 10 bis 17 Uhr","rawFee":"","note":null,"windows":[{"weekdays":[0,1,2,3,4,5,6],"fromMinute":600,"toMinute":1020}],"fee":{"kind":"unknown"},"unmodelledRules":[],"sourceDefect":null,"spaces":null,"maxStayMinutes":null,"maxStay":null,"maxStayShare":0,"maxStayValues":[],"chargingPoints":0,"carsharing":0},"geometry":{"type":"Polygon","coordinates":[[[6.828,51.17918],[6.83495,51.18018],[6.83486,51.17987],[6.83457,51.17843],[6.83475,51.17846],[6.83476,51.17791],[6.83483,51.17682],[6.83554,51.17681],[6.83561,51.17574],[6.83566,51.17569],[6.83574,51.17567],[6.8362,51.17569],[6.83665,51.17566],[6.83664,51.17549],[6.83632,51.1755],[6.83541,51.17545],[6.83464,51.17535],[6.83462,51.1753],[6.83581,51.17451],[6.83597,51.17423],[6.83585,51.1735],[6.83584,51.17341],[6.83592,51.17329],[6.83541,51.17367],[6.83555,51.17373],[6.83554,51.17374],[6.83558,51.17379],[6.83563,51.17392],[6.83565,51.17402],[6.83564,51.17415],[6.83557,51.17428],[6.83508,51.17467],[6.8351,51.17467],[6.8349,51.17479],[6.83491,51.17479],[6.83459,51.17502],[6.83428,51.1752],[6.83412,51.17524],[6.83413,51.17526],[6.83393,51.17555],[6.83373,51.17556],[6.83368,51.17554],[6.83292,51.17571],[6.83277,51.17578],[6.83264,51.17589],[6.83255,51.17602],[6.83172,51.17654],[6.8313,51.17686],[6.82956,51.17803],[6.828,51.17918]]]}},{"type":"Feature","properties":{"zone":"Hasselsstraße (X)","district":"Hassels","rawHours":"m bis fr, 8 bis 18 Uhr, sa 8 bis 14 Uhr","rawFee":"","note":null,"windows":[{"weekdays":[1,2,3,4,5],"fromMinute":480,"toMinute":1080},{"weekdays":[6],"fromMinute":480,"toMinute":840}],"fee":{"kind":"unknown"},"unmodelledRules":[],"sourceDefect":null,"spaces":null,"maxStayMinutes":null,"maxStay":null,"maxStayShare":0,"maxStayValues":[],"chargingPoints":0,"carsharing":0},"geometry":{"type":"Polygon","coordinates":[[[6.87197,51.17653],[6.87205,51.17664],[6.87401,51.17825],[6.87419,51.17836],[6.87395,51.17839],[6.87376,51.17825],[6.87179,51.17663],[6.87197,51.17653]]]}},{"type":"Feature","properties":{"zone":"Kaiserswerth (V)","district":"Kaiserswerth","rawHours":"montags bis sonntags, 7 bis 20 Uhr; Täglich 07:00 - 20:00","rawFee":"","note":null,"windows":[{"weekdays":[0,1,2,3,4,5,6],"fromMinute":420,"toMinute":1200}],"fee":{"kind":"unknown"},"unmodelledRules":[],"sourceDefect":"Die Stadt nennt an den Parkscheinautomaten dieses Gebiets einen Tarif. Er wird hier nicht angezeigt, weil für diesen Datensatz keine offene Lizenz belegt ist.","spaces":null,"maxStayMinutes":null,"maxStay":null,"maxStayShare":0,"maxStayValues":[],"chargingPoints":0,"carsharing":0},"geometry":{"type":"MultiPolygon","coordinates":[[[[6.73675,51.29734],[6.73665,51.29741],[6.73599,51.29768],[6.73568,51.29742],[6.73517,51.29695],[6.7356,51.29667],[6.73593,51.29653],[6.73675,51.29729],[6.73675,51.29734]]],[[[6.73916,51.30148],[6.73911,51.30145],[6.73912,51.30143],[6.73911,51.30142],[6.73873,51.30125],[6.73858,51.30121],[6.73852,51.30116],[6.7383,51.30116],[6.73827,51.30115],[6.73777,51.30126],[6.73773,51.30128],[6.73773,51.30131],[6.73757,51.30134],[6.73759,51.30137],[6.73702,51.30146],[6.73707,51.30157],[6.73749,51.30211],[6.73541,51.30261],[6.73537,51.30258],[6.73478,51.30271],[6.73471,51.30274],[6.7345,51.30236],[6.73435,51.30202],[6.73429,51.30179],[6.73427,51.30164],[6.73428,51.30145],[6.73554,51.30137],[6.73554,51.30138],[6.73562,51.30137],[6.73564,51.30138],[6.73589,51.30135],[6.73568,51.30103],[6.73557,51.30094],[6.73555,51.30094],[6.73538,51.30084],[6.73539,51.30083],[6.73487,51.30054],[6.73482,51.30053],[6.73465,51.30041],[6.73466,51.3004],[6.73435,51.30019],[6.73411,51.29997],[6.73406,51.29988],[6.73401,51.29971],[6.73396,51.29959],[6.73342,51.29864],[6.73335,51.29856],[6.73426,51.29832],[6.73448,51.29831],[6.73448,51.29836],[6.73434,51.29835],[6.73428,51.29836],[6.73349,51.29858],[6.73395,51.29933],[6.73417,51.29973],[6.73525,51.29938],[6.73542,51.29966],[6.73672,51.30079],[6.7367,51.3008],[6.73676,51.30084],[6.73677,51.30083],[6.73728,51.30128],[6.73754,51.30114],[6.73763,51.30112],[6.73769,51.30114],[6.7378,51.3011],[6.73781,51.30112],[6.73797,51.30109],[6.73802,51.30106],[6.73821,51.30101],[6.73821,51.30071],[6.73823,51.30051],[6.73829,51.30052],[6.73831,51.3005],[6.73836,51.30049],[6.73845,51.3004],[6.73849,51.30039],[6.73857,51.30033],[6.73875,51.30015],[6.73878,51.3001],[6.73879,51.30004],[6.73904,51.30093],[6.73916,51.30148]]]]}}]}