{"type":"FeatureCollection","features":[{"type":"Feature","properties":{"name":"Innenstadt"},"geometry":{"type":"Polygon","coordinates":[[[11.39512,47.27327],[11.3956,47.27311],[11.40038,47.2729],[11.39984,47.27019],[11.40328,47.27018],[11.40232,47.26859],[11.40171,47.26639],[11.40239,47.26626],[11.40295,47.2656],[11.40489,47.26462],[11.40451,47.26333],[11.4029,47.26198],[11.4026,47.26152],[11.40226,47.26057],[11.40224,47.2593],[11.40186,47.25831],[11.40015,47.25865],[11.39936,47.26173],[11.3996,47.26307],[11.38363,47.26161],[11.38286,47.26096],[11.38115,47.26178],[11.38301,47.26393],[11.38449,47.26513],[11.38736,47.2668],[11.39039,47.26825],[11.39144,47.26898],[11.39409,47.27191],[11.39512,47.27327]]]}},{"type":"Feature","properties":{"name":"Mariahilf - St. Nikolaus"},"geometry":{"type":"Polygon","coordinates":[[[11.38639,47.26762],[11.38766,47.26795],[11.38658,47.26962],[11.38758,47.27001],[11.38786,47.26972],[11.38849,47.26995],[11.38832,47.27011],[11.38916,47.27065],[11.39079,47.27268],[11.39003,47.27294],[11.39179,47.27408],[11.39186,47.27498],[11.39297,47.27546],[11.39356,47.2761],[11.39603,47.27784],[11.39617,47.27817],[11.39714,47.27831],[11.39774,47.27787],[11.39921,47.27868],[11.39966,47.27837],[11.39883,47.27777],[11.39704,47.2759],[11.39409,47.27191],[11.39144,47.26898],[11.39039,47.26825],[11.38617,47.26613],[11.38525,47.26683],[11.38639,47.26762]]]}},{"type":"Feature","properties":{"name":"Dreiheiligen - Schlachthof"},"geometry":{"type":"Polygon","coordinates":[[[11.40171,47.26639],[11.40251,47.26902],[11.40356,47.27047],[11.40747,47.27331],[11.41556,47.27882],[11.41948,47.27805],[11.41907,47.27772],[11.41764,47.27792],[11.41654,47.27757],[11.41304,47.27478],[11.41257,47.27371],[11.41221,47.27337],[11.40877,47.27197],[11.40853,47.27164],[11.40846,47.2707],[11.40795,47.26969],[11.40611,47.26828],[11.40544,47.26728],[11.40512,47.2663],[11.40489,47.26462],[11.40295,47.2656],[11.40239,47.26626],[11.40171,47.26639]]]}},{"type":"Feature","properties":{"name":"Saggen"},"geometry":{"type":"Polygon","coordinates":[[[11.39966,47.27837],[11.40096,47.2791],[11.40348,47.28009],[11.40451,47.28027],[11.40771,47.2804],[11.41556,47.27882],[11.40747,47.27331],[11.40311,47.27013],[11.39984,47.27019],[11.40038,47.2729],[11.3956,47.27311],[11.39512,47.27327],[11.39704,47.2759],[11.39883,47.27777],[11.39966,47.27837]]]}},{"type":"Feature","properties":{"name":"Wilten"},"geometry":{"type":"Polygon","coordinates":[[[11.39936,47.26173],[11.40017,47.25862],[11.40107,47.25856],[11.40186,47.25831],[11.40172,47.25759],[11.40194,47.25711],[11.4039,47.25583],[11.40445,47.25514],[11.4046,47.25448],[11.40381,47.25273],[11.40253,47.2511],[11.40263,47.25003],[11.40284,47.24971],[11.40431,47.24928],[11.40527,47.24971],[11.40467,47.25021],[11.40479,47.25085],[11.40525,47.25148],[11.40652,47.25155],[11.40669,47.25185],[11.40764,47.25156],[11.40832,47.25005],[11.40827,47.24969],[11.40788,47.24924],[11.40681,47.24918],[11.40661,47.24929],[11.40659,47.24912],[11.40718,47.24855],[11.40744,47.24757],[11.40814,47.24675],[11.40806,47.24577],[11.40748,47.2455],[11.40701,47.24551],[11.40519,47.24616],[11.40462,47.24545],[11.4045,47.24506],[11.40386,47.24436],[11.40527,47.24305],[11.40387,47.24195],[11.40059,47.24016],[11.4001,47.23957],[11.39977,47.2396],[11.39985,47.24051],[11.40006,47.24083],[11.3997,47.24089],[11.39923,47.24082],[11.39856,47.24029],[11.39794,47.24011],[11.39671,47.23997],[11.39624,47.23974],[11.39451,47.23938],[11.39222,47.24118],[11.39217,47.24133],[11.39296,47.24211],[11.39324,47.24277],[11.38922,47.2443],[11.38801,47.24513],[11.38727,47.2454],[11.38691,47.24581],[11.38304,47.24679],[11.38166,47.24664],[11.38109,47.24681],[11.38122,47.25354],[11.38108,47.25407],[11.3807,47.25426],[11.3809,47.25461],[11.38074,47.25503],[11.37743,47.25421],[11.37425,47.25298],[11.37097,47.25243],[11.36882,47.25236],[11.36882,47.25292],[11.37123,47.2532],[11.37249,47.25363],[11.37416,47.25461],[11.37684,47.25715],[11.38115,47.26178],[11.38286,47.26096],[11.38363,47.26161],[11.3996,47.26307],[11.39936,47.26173]]]}},{"type":"Feature","properties":{"name":"Sieglanger - Mentlberg"},"geometry":{"type":"Polygon","coordinates":[[[11.38121,47.25334],[11.38109,47.24681],[11.37981,47.24666],[11.37858,47.24631],[11.37705,47.24643],[11.37543,47.24626],[11.37311,47.24577],[11.37204,47.24573],[11.37139,47.24533],[11.37022,47.24513],[11.3698,47.24466],[11.36766,47.24423],[11.36726,47.24365],[11.36651,47.24375],[11.36574,47.24342],[11.36213,47.24287],[11.36166,47.24284],[11.3611,47.24383],[11.36132,47.24415],[11.36066,47.24429],[11.36029,47.24416],[11.35966,47.24355],[11.35882,47.24336],[11.35772,47.24339],[11.35727,47.24377],[11.35761,47.24442],[11.35606,47.24463],[11.35558,47.24433],[11.35446,47.24416],[11.35396,47.2438],[11.35438,47.24338],[11.35375,47.24281],[11.35452,47.24242],[11.35206,47.24205],[11.35176,47.24173],[11.35143,47.24162],[11.34996,47.24182],[11.34893,47.24149],[11.34653,47.2415],[11.34585,47.24273],[11.3455,47.24284],[11.34682,47.24531],[11.34679,47.24579],[11.34744,47.24635],[11.34781,47.24646],[11.34771,47.24721],[11.34878,47.24788],[11.35054,47.24831],[11.35159,47.24893],[11.35209,47.25001],[11.35169,47.25011],[11.3508,47.24987],[11.34812,47.24973],[11.34384,47.25037],[11.34305,47.25066],[11.34352,47.25135],[11.34351,47.25264],[11.34648,47.25314],[11.35142,47.2546],[11.35528,47.25509],[11.35836,47.25494],[11.36005,47.25468],[11.36699,47.25311],[11.36882,47.25292],[11.36882,47.25236],[11.37097,47.25243],[11.37425,47.25298],[11.37743,47.25421],[11.38074,47.25503],[11.3809,47.25461],[11.3807,47.25426],[11.38108,47.25407],[11.38121,47.25334]]]}},{"type":"Feature","properties":{"name":"Pradl"},"geometry":{"type":"Polygon","coordinates":[[[11.40183,47.25824],[11.40224,47.2593],[11.40226,47.26057],[11.4026,47.26152],[11.4029,47.26198],[11.40466,47.26361],[11.40512,47.2663],[11.40544,47.26728],[11.40611,47.26828],[11.40795,47.26969],[11.40846,47.2707],[11.40858,47.27177],[11.40895,47.27211],[11.41221,47.27337],[11.41257,47.27371],[11.41304,47.27478],[11.4145,47.27592],[11.41512,47.27554],[11.41526,47.27497],[11.41592,47.27386],[11.41651,47.27354],[11.41602,47.27313],[11.41512,47.27163],[11.41435,47.27132],[11.41505,47.27012],[11.41548,47.26901],[11.42283,47.26574],[11.42384,47.26487],[11.42365,47.26461],[11.42367,47.2643],[11.42204,47.26528],[11.41742,47.26386],[11.41986,47.26067],[11.42236,47.25777],[11.41459,47.25557],[11.4151,47.25416],[11.41546,47.25418],[11.41606,47.25277],[11.41672,47.25017],[11.41755,47.2481],[11.41527,47.24828],[11.41403,47.24866],[11.41163,47.24801],[11.41015,47.24781],[11.40814,47.24675],[11.40744,47.24757],[11.40718,47.24855],[11.40659,47.24912],[11.40661,47.24929],[11.40681,47.24918],[11.40788,47.24924],[11.40827,47.24969],[11.40832,47.25005],[11.40764,47.25156],[11.40669,47.25185],[11.40652,47.25155],[11.40525,47.25148],[11.40479,47.25085],[11.40467,47.25021],[11.40527,47.24971],[11.40431,47.24928],[11.40284,47.24971],[11.40263,47.25003],[11.40253,47.2511],[11.40381,47.25273],[11.4046,47.25448],[11.40436,47.25535],[11.4041,47.25567],[11.40194,47.25711],[11.40172,47.25759],[11.40183,47.25824]]]}},{"type":"Feature","properties":{"name":"Reichenau"},"geometry":{"type":"Polygon","coordinates":[[[11.41948,47.27805],[11.42334,47.27697],[11.42909,47.27471],[11.42732,47.27144],[11.42653,47.26971],[11.42628,47.2687],[11.42384,47.26487],[11.42283,47.26574],[11.41557,47.26893],[11.41435,47.27132],[11.41512,47.27163],[11.41602,47.27313],[11.41651,47.27354],[11.41592,47.27386],[11.41526,47.27497],[11.41512,47.27554],[11.4145,47.27592],[11.41593,47.27716],[11.41705,47.27783],[11.41764,47.27792],[11.41907,47.27772],[11.41948,47.27805]]]}},{"type":"Feature","properties":{"name":"Höttinger Au"},"geometry":{"type":"Polygon","coordinates":[[[11.38649,47.26885],[11.38663,47.26864],[11.3871,47.26879],[11.38766,47.26795],[11.38635,47.26765],[11.38525,47.26683],[11.38617,47.26613],[11.38449,47.26513],[11.38301,47.26393],[11.3789,47.2593],[11.37416,47.25461],[11.37249,47.25363],[11.37031,47.25301],[11.36804,47.25294],[11.36005,47.25468],[11.35836,47.25494],[11.35528,47.25509],[11.35142,47.2546],[11.34648,47.25314],[11.34351,47.25264],[11.34357,47.25215],[11.34217,47.25206],[11.34053,47.25221],[11.33872,47.25253],[11.33704,47.25357],[11.33393,47.25512],[11.33082,47.25722],[11.32795,47.25944],[11.32858,47.25981],[11.32818,47.26009],[11.32801,47.26056],[11.32887,47.26142],[11.32929,47.26171],[11.33058,47.262],[11.33189,47.26177],[11.33404,47.26183],[11.36329,47.26392],[11.36607,47.2643],[11.36656,47.26469],[11.36799,47.26527],[11.36891,47.26533],[11.3706,47.26592],[11.3725,47.26625],[11.38187,47.26653],[11.38438,47.26743],[11.3856,47.26841],[11.38649,47.26885]]]}},{"type":"Feature","properties":{"name":"Hötting West"},"geometry":{"type":"Polygon","coordinates":[[[11.34398,47.29265],[11.35337,47.28616],[11.36423,47.28649],[11.3642,47.28492],[11.36457,47.28384],[11.37217,47.27717],[11.37198,47.27675],[11.37304,47.27646],[11.37463,47.2763],[11.3747,47.27606],[11.37413,47.27547],[11.37516,47.27509],[11.37461,47.27455],[11.37253,47.27358],[11.37148,47.27326],[11.3708,47.27337],[11.3705,47.27359],[11.37024,47.27353],[11.3699,47.2722],[11.36988,47.27034],[11.37037,47.26981],[11.3716,47.26908],[11.37265,47.26886],[11.37307,47.26838],[11.37231,47.26829],[11.37298,47.26792],[11.37329,47.26738],[11.37333,47.26711],[11.3731,47.26672],[11.37239,47.26622],[11.3706,47.26592],[11.36879,47.26531],[11.36799,47.26527],[11.36656,47.26469],[11.36607,47.2643],[11.36302,47.26389],[11.33315,47.26178],[11.33189,47.26177],[11.33058,47.262],[11.32929,47.26171],[11.32887,47.26142],[11.32801,47.26056],[11.32818,47.26009],[11.32858,47.25981],[11.32795,47.25944],[11.32589,47.26123],[11.32402,47.26381],[11.32284,47.26457],[11.32132,47.265],[11.31954,47.26521],[11.31313,47.26517],[11.30518,47.26443],[11.30509,47.26699],[11.3035,47.26832],[11.30165,47.27039],[11.30193,47.27188],[11.30342,47.27546],[11.30421,47.27832],[11.30412,47.27973],[11.30369,47.27994],[11.30226,47.28138],[11.30355,47.28272],[11.30549,47.28695],[11.30582,47.28846],[11.30572,47.29054],[11.31422,47.28752],[11.31931,47.2851],[11.34398,47.29265]]]}},{"type":"Feature","properties":{"name":"Hungerburg"},"geometry":{"type":"Polygon","coordinates":[[[11.35809,47.35986],[11.36065,47.35935],[11.36164,47.35951],[11.36369,47.35846],[11.36438,47.3577],[11.36541,47.35732],[11.36606,47.35727],[11.36639,47.35702],[11.36693,47.35722],[11.36773,47.35678],[11.36948,47.35676],[11.37016,47.35646],[11.37066,47.35684],[11.37124,47.35665],[11.37263,47.35576],[11.37386,47.35545],[11.37483,47.35546],[11.37566,47.35499],[11.37616,47.35519],[11.38011,47.34714],[11.38436,47.332],[11.38667,47.3083],[11.38822,47.30509],[11.39,47.30327],[11.38899,47.30249],[11.39038,47.30186],[11.39109,47.30102],[11.39209,47.29893],[11.39298,47.29828],[11.39164,47.29782],[11.39078,47.29799],[11.39235,47.29612],[11.3931,47.29553],[11.39433,47.29372],[11.3969,47.29429],[11.39843,47.29208],[11.40014,47.29022],[11.40083,47.28886],[11.40205,47.28739],[11.40334,47.28801],[11.40428,47.28776],[11.40367,47.28739],[11.40364,47.28719],[11.40339,47.28717],[11.40298,47.28679],[11.40207,47.28652],[11.40142,47.28584],[11.39908,47.28451],[11.39771,47.28415],[11.39669,47.28339],[11.39625,47.28288],[11.39539,47.28258],[11.39468,47.28196],[11.3936,47.28148],[11.39325,47.28141],[11.39331,47.28187],[11.39288,47.282],[11.39259,47.28183],[11.3925,47.28129],[11.39132,47.28126],[11.39041,47.28172],[11.38854,47.28214],[11.38417,47.28095],[11.38367,47.28066],[11.38353,47.28035],[11.38394,47.27962],[11.38383,47.2795],[11.38331,47.27922],[11.38231,47.27948],[11.38176,47.27944],[11.38232,47.27837],[11.38196,47.27835],[11.38187,47.27757],[11.38115,47.27746],[11.38031,47.27659],[11.37971,47.27646],[11.3791,47.27724],[11.37712,47.27807],[11.37661,47.27814],[11.37543,47.27907],[11.37538,47.27931],[11.37582,47.27995],[11.37583,47.28022],[11.37496,47.28045],[11.37426,47.28109],[11.3741,47.28204],[11.37365,47.28292],[11.37244,47.28413],[11.37164,47.28534],[11.37134,47.2877],[11.36872,47.29039],[11.368,47.29086],[11.36644,47.29137],[11.36604,47.29203],[11.3652,47.29258],[11.36433,47.29284],[11.3619,47.29436],[11.36092,47.29472],[11.35767,47.29683],[11.31931,47.2851],[11.31422,47.28752],[11.30572,47.29054],[11.30611,47.29193],[11.30751,47.29373],[11.31078,47.29619],[11.32372,47.30262],[11.32821,47.30758],[11.33048,47.30968],[11.33597,47.31358],[11.33271,47.31537],[11.33231,47.31644],[11.33243,47.31755],[11.33659,47.31968],[11.33749,47.32054],[11.33768,47.32132],[11.33798,47.32163],[11.33905,47.32202],[11.33859,47.32245],[11.33863,47.32313],[11.33769,47.32531],[11.33675,47.32697],[11.33677,47.32948],[11.33488,47.33505],[11.33353,47.3409],[11.33125,47.34271],[11.33319,47.34243],[11.33411,47.34201],[11.33508,47.34125],[11.33504,47.34079],[11.33602,47.34045],[11.33621,47.33995],[11.33701,47.33975],[11.33734,47.33938],[11.33878,47.33963],[11.33932,47.34183],[11.34256,47.34795],[11.34645,47.35256],[11.34894,47.35425],[11.35032,47.35482],[11.35067,47.35477],[11.35135,47.35498],[11.35244,47.3556],[11.35333,47.35572],[11.35382,47.35611],[11.35553,47.35693],[11.35614,47.35766],[11.35652,47.35908],[11.35776,47.36012],[11.35809,47.35986]]]}},{"type":"Feature","properties":{"name":"Mühlau"},"geometry":{"type":"Polygon","coordinates":[[[11.40807,47.29134],[11.40836,47.29124],[11.40912,47.29015],[11.41006,47.29037],[11.41089,47.28998],[11.41513,47.29016],[11.41674,47.28961],[11.41722,47.28984],[11.41765,47.28896],[11.41753,47.28865],[11.41847,47.28873],[11.41894,47.28858],[11.41872,47.288],[11.42015,47.28729],[11.42049,47.28605],[11.41976,47.28598],[11.41962,47.28568],[11.42,47.28469],[11.4193,47.28433],[11.41824,47.28421],[11.41795,47.28375],[11.4172,47.28346],[11.41711,47.28326],[11.41824,47.28292],[11.4197,47.28307],[11.41978,47.28255],[11.42011,47.28205],[11.41969,47.282],[11.41968,47.28184],[11.41812,47.28179],[11.4194,47.28087],[11.41922,47.28082],[11.4198,47.2798],[11.41755,47.2797],[11.41654,47.27934],[11.41569,47.27879],[11.40771,47.2804],[11.40451,47.28027],[11.40348,47.28009],[11.40147,47.27932],[11.40073,47.28024],[11.40039,47.28115],[11.40049,47.28184],[11.40019,47.28245],[11.40035,47.28276],[11.39913,47.28455],[11.40142,47.28584],[11.40207,47.28652],[11.40298,47.28679],[11.40339,47.28717],[11.40366,47.2872],[11.40367,47.28739],[11.40428,47.28776],[11.40334,47.28801],[11.40453,47.28828],[11.40557,47.28886],[11.40576,47.28966],[11.40654,47.29004],[11.40726,47.29077],[11.40744,47.29165],[11.40807,47.29134]]]}},{"type":"Feature","properties":{"name":"Gewerbegebiet Mühlau / Arzl"},"geometry":{"type":"Polygon","coordinates":[[[11.4317,47.27917],[11.44412,47.2786],[11.44395,47.27799],[11.44563,47.27421],[11.44304,47.27383],[11.43905,47.27414],[11.43883,47.27606],[11.43846,47.27601],[11.43829,47.27628],[11.43258,47.27564],[11.43264,47.27547],[11.43152,47.27529],[11.43091,47.27503],[11.43021,47.2743],[11.42334,47.27697],[11.41948,47.27805],[11.41569,47.27879],[11.41714,47.27959],[11.41848,47.27983],[11.4317,47.27917]]]}},{"type":"Feature","properties":{"name":"Arzl"},"geometry":{"type":"Polygon","coordinates":[[[11.3828,47.35634],[11.38546,47.3549],[11.38615,47.35469],[11.38666,47.35406],[11.38848,47.35315],[11.38869,47.35281],[11.39019,47.35155],[11.39049,47.35163],[11.39151,47.35105],[11.39288,47.35097],[11.39311,47.35115],[11.39376,47.35124],[11.39431,47.35101],[11.39633,47.35118],[11.39747,47.35093],[11.40014,47.3511],[11.40171,47.35086],[11.40291,47.35108],[11.4036,47.35156],[11.40432,47.35149],[11.40562,47.3517],[11.40592,47.35158],[11.40626,47.35187],[11.40792,47.35207],[11.41123,47.35131],[11.41155,47.35109],[11.41244,47.35118],[11.41292,47.35094],[11.41386,47.35088],[11.41426,47.35044],[11.4163,47.34931],[11.41832,47.34791],[11.41943,47.34823],[11.42047,47.34822],[11.42228,47.34773],[11.42469,47.34733],[11.42572,47.34731],[11.42717,47.34667],[11.42741,47.34639],[11.42731,47.34614],[11.42758,47.34456],[11.42738,47.34425],[11.42753,47.34397],[11.42722,47.34371],[11.42674,47.33123],[11.42607,47.32056],[11.42405,47.3198],[11.41695,47.31879],[11.40716,47.3187],[11.40517,47.31661],[11.40336,47.31574],[11.40085,47.31573],[11.39969,47.31525],[11.41143,47.30458],[11.41137,47.30449],[11.41184,47.30403],[11.41367,47.3031],[11.4143,47.30038],[11.41473,47.29714],[11.41531,47.29607],[11.41606,47.29551],[11.41623,47.29458],[11.41695,47.29444],[11.41854,47.29455],[11.41949,47.29479],[11.41942,47.29541],[11.41968,47.29571],[11.42047,47.29566],[11.42189,47.29601],[11.42373,47.29595],[11.42436,47.29574],[11.42456,47.29539],[11.4255,47.29531],[11.42836,47.2952],[11.43055,47.2954],[11.43409,47.29545],[11.43499,47.29451],[11.43493,47.29408],[11.43449,47.29378],[11.43218,47.2933],[11.43552,47.29231],[11.43613,47.29189],[11.43663,47.29103],[11.43717,47.29072],[11.43941,47.29065],[11.44063,47.28886],[11.442,47.2878],[11.4431,47.28775],[11.44374,47.28693],[11.44603,47.28746],[11.44652,47.28686],[11.44617,47.28675],[11.44675,47.28592],[11.44792,47.28634],[11.44936,47.28449],[11.44902,47.28432],[11.44962,47.28332],[11.4492,47.28319],[11.44949,47.28261],[11.44769,47.2823],[11.44789,47.28167],[11.44768,47.28162],[11.44865,47.27962],[11.44568,47.27888],[11.44413,47.27884],[11.44412,47.2786],[11.41983,47.27977],[11.41922,47.28082],[11.4194,47.28087],[11.41812,47.28179],[11.41968,47.28184],[11.41969,47.282],[11.42011,47.28205],[11.41978,47.28255],[11.4197,47.28307],[11.41824,47.28292],[11.41711,47.28326],[11.4172,47.28346],[11.41795,47.28375],[11.41824,47.28421],[11.4193,47.28433],[11.42,47.28469],[11.41962,47.28568],[11.41976,47.28598],[11.42049,47.28605],[11.42034,47.28693],[11.42015,47.28729],[11.41872,47.288],[11.41894,47.28858],[11.41847,47.28873],[11.41753,47.28865],[11.41765,47.28896],[11.41722,47.28984],[11.41674,47.28961],[11.41513,47.29016],[11.41089,47.28998],[11.41006,47.29037],[11.40912,47.29015],[11.40836,47.29124],[11.40744,47.29165],[11.40726,47.29077],[11.40654,47.29004],[11.40576,47.28966],[11.40557,47.28886],[11.40453,47.28828],[11.40319,47.28797],[11.40205,47.28739],[11.40083,47.28886],[11.40014,47.29022],[11.39843,47.29208],[11.3969,47.29429],[11.39433,47.29372],[11.3931,47.29553],[11.39235,47.29612],[11.39078,47.29799],[11.39164,47.29782],[11.39298,47.29828],[11.39209,47.29893],[11.39109,47.30102],[11.39038,47.30186],[11.38899,47.30249],[11.39,47.30327],[11.38822,47.30509],[11.38667,47.3083],[11.38436,47.332],[11.38011,47.34714],[11.37616,47.35519],[11.37696,47.35546],[11.37816,47.35521],[11.37831,47.35542],[11.37995,47.35549],[11.38111,47.35597],[11.38195,47.3562],[11.38261,47.35619],[11.3828,47.35634]]]}},{"type":"Feature","properties":{"name":"Olympisches Dorf"},"geometry":{"type":"Polygon","coordinates":[[[11.43434,47.27276],[11.43021,47.2743],[11.43091,47.27503],[11.43152,47.27529],[11.43264,47.27547],[11.43258,47.27564],[11.43829,47.27628],[11.43846,47.27601],[11.43883,47.27606],[11.43905,47.27414],[11.44304,47.27383],[11.44563,47.27421],[11.44721,47.27035],[11.44795,47.26899],[11.44741,47.26793],[11.44157,47.26983],[11.43434,47.27276]]]}},{"type":"Feature","properties":{"name":"Amras"},"geometry":{"type":"Polygon","coordinates":[[[11.43116,47.24685],[11.42823,47.24715],[11.42491,47.24719],[11.41894,47.24757],[11.41868,47.24792],[11.41755,47.2481],[11.41672,47.25017],[11.41606,47.25277],[11.41546,47.25418],[11.4151,47.25416],[11.41459,47.25557],[11.42236,47.25777],[11.41986,47.26067],[11.41742,47.26386],[11.42204,47.26528],[11.42367,47.2643],[11.42368,47.26471],[11.42463,47.26608],[11.426,47.26514],[11.42746,47.2632],[11.43048,47.26374],[11.43411,47.26368],[11.43556,47.26329],[11.43782,47.26212],[11.43838,47.26171],[11.43885,47.26107],[11.44118,47.26145],[11.45186,47.26238],[11.4523,47.26248],[11.45214,47.26291],[11.45274,47.26342],[11.45402,47.26249],[11.45453,47.26271],[11.4555,47.26359],[11.45595,47.26314],[11.45572,47.26182],[11.45488,47.26011],[11.45432,47.25982],[11.45369,47.25998],[11.45219,47.25946],[11.45081,47.25874],[11.44823,47.25835],[11.44627,47.25835],[11.44507,47.25803],[11.44376,47.25801],[11.44289,47.25778],[11.44115,47.25696],[11.441,47.25643],[11.44125,47.25618],[11.44112,47.25602],[11.44145,47.25571],[11.44121,47.25578],[11.44061,47.25553],[11.43915,47.25485],[11.43843,47.25432],[11.43788,47.2543],[11.43757,47.25409],[11.43793,47.25328],[11.43649,47.2527],[11.43583,47.2531],[11.43411,47.25339],[11.43236,47.25224],[11.43192,47.25283],[11.43044,47.25261],[11.43023,47.25246],[11.42984,47.25262],[11.42914,47.25234],[11.42908,47.25223],[11.43088,47.2512],[11.43101,47.25086],[11.4307,47.25035],[11.43162,47.24914],[11.43222,47.24893],[11.43223,47.24828],[11.43192,47.24702],[11.43116,47.24685]]]}},{"type":"Feature","properties":{"name":"Gewerbegebiet Roßau"},"geometry":{"type":"Polygon","coordinates":[[[11.4287,47.27399],[11.42909,47.27471],[11.43815,47.27131],[11.44157,47.26983],[11.44741,47.26793],[11.44992,47.26727],[11.45129,47.26714],[11.45302,47.26736],[11.45274,47.26342],[11.45214,47.26291],[11.4523,47.26248],[11.45186,47.26238],[11.44118,47.26145],[11.43885,47.26107],[11.43838,47.26171],[11.43782,47.26212],[11.43556,47.26329],[11.43411,47.26368],[11.43048,47.26374],[11.42746,47.2632],[11.426,47.26514],[11.42463,47.26608],[11.42628,47.2687],[11.42659,47.26987],[11.4287,47.27399]]]}},{"type":"Feature","properties":{"name":"Vill"},"geometry":{"type":"Polygon","coordinates":[[[11.40986,47.24579],[11.41048,47.24406],[11.41029,47.24317],[11.41082,47.24243],[11.41115,47.23994],[11.41143,47.23931],[11.41138,47.23872],[11.41323,47.23866],[11.4135,47.23893],[11.41356,47.23861],[11.41388,47.23831],[11.41423,47.23839],[11.41506,47.2391],[11.41574,47.23881],[11.416,47.23842],[11.41463,47.2378],[11.41338,47.23674],[11.41195,47.23631],[11.41199,47.23618],[11.41053,47.23547],[11.40963,47.23483],[11.40949,47.23444],[11.40832,47.23471],[11.40699,47.23531],[11.4071,47.23482],[11.40755,47.23418],[11.40558,47.23364],[11.4045,47.23426],[11.40424,47.2346],[11.4036,47.23346],[11.40357,47.2331],[11.4028,47.23327],[11.40287,47.23282],[11.40255,47.23262],[11.40205,47.23259],[11.40195,47.23241],[11.40219,47.23208],[11.40109,47.23188],[11.40146,47.23131],[11.40141,47.23113],[11.40033,47.23103],[11.40013,47.23148],[11.3993,47.23154],[11.39913,47.23132],[11.39939,47.23103],[11.39953,47.2292],[11.40013,47.22803],[11.4,47.22691],[11.40086,47.22511],[11.40082,47.22447],[11.40225,47.22438],[11.40397,47.22293],[11.40392,47.22186],[11.40457,47.2194],[11.40408,47.21865],[11.4042,47.21769],[11.40472,47.21749],[11.40473,47.21735],[11.40373,47.21647],[11.40319,47.21618],[11.40261,47.21613],[11.4021,47.21577],[11.40084,47.2153],[11.39976,47.2154],[11.39799,47.21624],[11.39747,47.21605],[11.3976,47.21565],[11.39827,47.21493],[11.39816,47.21479],[11.39835,47.21421],[11.39825,47.2129],[11.39837,47.2127],[11.39764,47.21257],[11.39743,47.21237],[11.39622,47.2124],[11.3956,47.21258],[11.39535,47.21288],[11.39455,47.21235],[11.39427,47.21269],[11.39377,47.21282],[11.39351,47.21227],[11.39289,47.21208],[11.39043,47.21337],[11.39024,47.2136],[11.3902,47.21345],[11.39,47.21417],[11.39011,47.21478],[11.38874,47.2159],[11.38951,47.21636],[11.38947,47.21682],[11.38895,47.21786],[11.389,47.218],[11.39061,47.21952],[11.39073,47.22042],[11.39042,47.22074],[11.38927,47.22133],[11.38908,47.22166],[11.38915,47.22216],[11.38887,47.22305],[11.38886,47.22403],[11.38803,47.22501],[11.38789,47.22535],[11.38801,47.22591],[11.38785,47.22671],[11.38732,47.22718],[11.38746,47.22764],[11.38816,47.2277],[11.38874,47.22833],[11.38887,47.22898],[11.38877,47.22971],[11.39031,47.23188],[11.39026,47.23237],[11.38913,47.23405],[11.38891,47.23594],[11.38857,47.23659],[11.38867,47.23683],[11.38968,47.23789],[11.39132,47.23825],[11.39294,47.23816],[11.39364,47.23788],[11.39458,47.23802],[11.39492,47.23816],[11.39494,47.23856],[11.39451,47.23938],[11.39856,47.24029],[11.3994,47.24086],[11.40006,47.24083],[11.39985,47.24051],[11.39977,47.2396],[11.4001,47.23957],[11.40059,47.24016],[11.40387,47.24195],[11.40527,47.24305],[11.40386,47.24436],[11.4045,47.24506],[11.40462,47.24545],[11.40519,47.24616],[11.40701,47.24551],[11.40748,47.2455],[11.40806,47.24577],[11.40814,47.24675],[11.41015,47.24781],[11.41163,47.24801],[11.41403,47.24866],[11.41459,47.24851],[11.41399,47.24803],[11.40987,47.24703],[11.40955,47.24679],[11.40986,47.24579]]]}},{"type":"Feature","properties":{"name":"Igls"},"geometry":{"type":"Polygon","coordinates":[[[11.41995,47.21522],[11.41952,47.21522],[11.41841,47.21486],[11.41786,47.21507],[11.41795,47.21584],[11.41765,47.21647],[11.41598,47.21847],[11.41492,47.2191],[11.41455,47.2192],[11.41404,47.21902],[11.41008,47.22009],[11.40808,47.22124],[11.40745,47.22136],[11.40662,47.22136],[11.40617,47.22113],[11.40597,47.22074],[11.40588,47.21991],[11.40649,47.21953],[11.40641,47.21925],[11.40591,47.21885],[11.40547,47.21819],[11.40486,47.21797],[11.40472,47.21749],[11.4042,47.21769],[11.40408,47.21865],[11.40457,47.2194],[11.40392,47.22186],[11.40397,47.22293],[11.40225,47.22438],[11.40082,47.22447],[11.40086,47.22511],[11.4,47.22691],[11.40013,47.22803],[11.39952,47.22925],[11.39939,47.23103],[11.39913,47.23132],[11.3993,47.23154],[11.40013,47.23148],[11.40033,47.23103],[11.40141,47.23113],[11.40146,47.23131],[11.40109,47.23188],[11.40219,47.23208],[11.40195,47.23241],[11.40205,47.23259],[11.40255,47.23262],[11.40287,47.23282],[11.4028,47.23327],[11.40357,47.2331],[11.4036,47.23346],[11.40424,47.2346],[11.4045,47.23426],[11.40558,47.23364],[11.40755,47.23418],[11.4071,47.23482],[11.40699,47.23531],[11.40832,47.23471],[11.40949,47.23444],[11.40963,47.23483],[11.41053,47.23547],[11.41199,47.23618],[11.41195,47.23631],[11.41338,47.23674],[11.41463,47.2378],[11.416,47.23842],[11.41574,47.23881],[11.41506,47.2391],[11.41423,47.23839],[11.41388,47.23831],[11.41356,47.23861],[11.41361,47.23906],[11.41434,47.23927],[11.41484,47.23966],[11.41573,47.23965],[11.41634,47.2393],[11.418,47.23946],[11.41866,47.23936],[11.41872,47.23919],[11.41793,47.23919],[11.41907,47.23732],[11.41807,47.23704],[11.41885,47.23609],[11.41924,47.23548],[11.41912,47.23544],[11.41944,47.2351],[11.4208,47.23511],[11.42136,47.23538],[11.422,47.23545],[11.42368,47.2352],[11.42425,47.23482],[11.42433,47.23445],[11.4249,47.23414],[11.42541,47.23172],[11.42639,47.23024],[11.42724,47.22799],[11.42809,47.22767],[11.42826,47.22716],[11.42873,47.2267],[11.43001,47.22646],[11.43082,47.22604],[11.43183,47.22652],[11.43208,47.22638],[11.4326,47.2265],[11.43385,47.22578],[11.43477,47.2256],[11.43492,47.22534],[11.43474,47.22456],[11.43551,47.22405],[11.43719,47.22382],[11.43802,47.22353],[11.43836,47.22323],[11.43884,47.22331],[11.43966,47.2231],[11.442,47.22185],[11.44216,47.22155],[11.44262,47.22159],[11.44797,47.21786],[11.44995,47.21626],[11.45253,47.21484],[11.45396,47.21302],[11.45063,47.2127],[11.44857,47.21129],[11.44736,47.21078],[11.44631,47.21118],[11.4434,47.21165],[11.44041,47.21294],[11.4391,47.21317],[11.4372,47.21426],[11.43615,47.21447],[11.43488,47.21421],[11.43428,47.21443],[11.43263,47.21386],[11.43176,47.21395],[11.43078,47.21317],[11.42778,47.21565],[11.42795,47.21626],[11.42778,47.21675],[11.42587,47.21764],[11.42553,47.21814],[11.4255,47.21871],[11.42297,47.21958],[11.41995,47.21522]]]}},{"type":"Feature","properties":{"name":"Hötting"},"geometry":{"type":"Polygon","coordinates":[[[11.3714,47.28663],[11.37164,47.28534],[11.37244,47.28413],[11.37365,47.28292],[11.3741,47.28204],[11.37426,47.28109],[11.37496,47.28045],[11.37583,47.28022],[11.37582,47.27995],[11.37538,47.27931],[11.37543,47.27907],[11.37661,47.27814],[11.37712,47.27807],[11.3791,47.27724],[11.37971,47.27646],[11.38031,47.27659],[11.38115,47.27746],[11.38187,47.27757],[11.38196,47.27835],[11.38232,47.27837],[11.38176,47.27944],[11.38231,47.27948],[11.38331,47.27922],[11.38383,47.2795],[11.38394,47.27962],[11.38353,47.28035],[11.38367,47.28066],[11.38417,47.28095],[11.38854,47.28214],[11.39041,47.28172],[11.39132,47.28126],[11.3925,47.28129],[11.39259,47.28183],[11.39288,47.282],[11.39331,47.28187],[11.39325,47.28141],[11.3936,47.28148],[11.39468,47.28196],[11.39539,47.28258],[11.39625,47.28288],[11.39669,47.28339],[11.39771,47.28415],[11.39913,47.28455],[11.40035,47.28276],[11.40019,47.28245],[11.40049,47.28184],[11.40039,47.28115],[11.40073,47.28024],[11.40147,47.27932],[11.39966,47.27837],[11.39921,47.27868],[11.39774,47.27787],[11.39714,47.27831],[11.39617,47.27817],[11.39603,47.27784],[11.39356,47.2761],[11.39297,47.27546],[11.39186,47.27498],[11.39179,47.27408],[11.39003,47.27294],[11.39079,47.27268],[11.38916,47.27065],[11.38832,47.27011],[11.38849,47.26995],[11.38786,47.26972],[11.38758,47.27001],[11.38658,47.26962],[11.3871,47.26879],[11.38663,47.26864],[11.38649,47.26885],[11.38603,47.26868],[11.38438,47.26743],[11.38156,47.26647],[11.37254,47.26619],[11.37322,47.26687],[11.37333,47.26722],[11.37298,47.26792],[11.37231,47.26829],[11.37307,47.26838],[11.37265,47.26886],[11.37183,47.26897],[11.37052,47.26971],[11.36988,47.27034],[11.3699,47.2722],[11.37017,47.27336],[11.3705,47.27359],[11.37128,47.27323],[11.37243,47.27354],[11.37434,47.27436],[11.37516,47.27509],[11.37413,47.27547],[11.3747,47.27606],[11.37455,47.27636],[11.37304,47.27646],[11.37198,47.27675],[11.37217,47.27717],[11.36457,47.28384],[11.3642,47.28492],[11.36423,47.28649],[11.35337,47.28616],[11.34398,47.29265],[11.35767,47.29683],[11.36092,47.29472],[11.3619,47.29436],[11.36433,47.29284],[11.3652,47.29258],[11.36604,47.29203],[11.36644,47.29137],[11.368,47.29086],[11.36872,47.29039],[11.37134,47.2877],[11.3714,47.28663]]]}}]}