{"type":"FeatureCollection","features":[{"type":"Feature","properties":{"zone":"132","district":"Hötting","rawHours":"täglich von 9-19 Uhr","rawFee":"EUR 0.50 erste halbe Stunde, danach gleicher Tarif in EUR 0.10 - Schritten, ab 4. Stunde EUR 1 je halbe Stunde in EUR 0.10 - Schritten (auch dann, wenn Parkvorgang über abgabenfreie Zeit hinaus fortgesetzt wird)","note":"Parkstraße kostenpflichtig (täglich) — bis zur 3. Stunde 1,00 €/h, ab der 4. Stunde 2,00 €/h","windows":[{"weekdays":[0,1,2,3,4,5,6],"fromMinute":540,"toMinute":1140}],"fee":{"kind":"range","minCentsPerHour":100,"maxCentsPerHour":200},"unmodelledRules":[],"sourceDefect":null,"spaces":null,"maxStayMinutes":null,"maxStay":null,"maxStayShare":0,"maxStayValues":[],"chargingPoints":0,"carsharing":0},"geometry":{"type":"Polygon","coordinates":[[[11.39887,47.28101],[11.399,47.28122],[11.3989,47.28142],[11.39889,47.28145],[11.39893,47.2815],[11.39901,47.28156],[11.39931,47.28164],[11.39934,47.28157],[11.3994,47.28158],[11.39936,47.28149],[11.39936,47.28127],[11.39938,47.28119],[11.39947,47.28103],[11.39949,47.28093],[11.39946,47.28084],[11.3994,47.28076],[11.3993,47.2807],[11.39919,47.28066],[11.399,47.28063],[11.39894,47.28067],[11.39887,47.28066],[11.39833,47.28051],[11.398,47.28048],[11.39786,47.28043],[11.39779,47.28038],[11.39775,47.28031],[11.39773,47.2801],[11.39768,47.27998],[11.39724,47.27946],[11.39705,47.27933],[11.39653,47.27908],[11.39651,47.2791],[11.39643,47.27905],[11.39638,47.27907],[11.39653,47.27915],[11.39701,47.27937],[11.39723,47.27952],[11.39761,47.28],[11.39765,47.28014],[11.39764,47.28023],[11.39766,47.28033],[11.3977,47.2804],[11.39776,47.28046],[11.39795,47.28053],[11.39832,47.28056],[11.39874,47.28069],[11.39871,47.2807],[11.39862,47.28085],[11.3988,47.28094],[11.39871,47.281],[11.39871,47.28105],[11.39877,47.28118],[11.39874,47.28126],[11.39868,47.28128],[11.39865,47.28128],[11.39866,47.28113],[11.3986,47.28112],[11.3986,47.28111],[11.3984,47.28109],[11.39839,47.28112],[11.39837,47.28114],[11.39816,47.28113],[11.39815,47.28117],[11.39816,47.28117],[11.39808,47.28129],[11.39852,47.2814],[11.39858,47.28135],[11.39868,47.28135],[11.39876,47.28131],[11.39884,47.28122],[11.39885,47.28119],[11.3988,47.28104],[11.39883,47.281],[11.39887,47.28101]],[[11.39893,47.281],[11.3989,47.28094],[11.39896,47.28083],[11.39897,47.28071],[11.399,47.28076],[11.39919,47.2808],[11.39925,47.28084],[11.39929,47.28089],[11.3993,47.28094],[11.39929,47.281],[11.39917,47.28119],[11.39915,47.28126],[11.39917,47.28136],[11.39916,47.28145],[11.39912,47.28153],[11.39921,47.28151],[11.39921,47.28153],[11.39915,47.28154],[11.39908,47.28152],[11.39902,47.28149],[11.39898,47.28145],[11.39897,47.28143],[11.39899,47.28135],[11.39908,47.28117],[11.39904,47.28108],[11.39893,47.281]]]}},{"type":"Feature","properties":{"zone":"133","district":"Hötting West","rawHours":"täglich von 9-19 Uhr","rawFee":"EUR 1.10 erste halbe Stunde, danach gleicher Tarif in EUR 0.10 - Schritten, jedoch höchstens EUR 9 pro Kalendertag","note":"Parkstraße kostenpflichtig (täglich) — höchstens 9,00 € je Kalendertag","windows":[{"weekdays":[0,1,2,3,4,5,6],"fromMinute":540,"toMinute":1140}],"fee":{"kind":"exact","centsPerHour":220},"unmodelledRules":[],"sourceDefect":null,"spaces":null,"maxStayMinutes":null,"maxStay":null,"maxStayShare":0,"maxStayValues":[],"chargingPoints":0,"carsharing":0},"geometry":{"type":"Polygon","coordinates":[[[11.32278,47.2664],[11.32275,47.2664],[11.32266,47.26652],[11.32202,47.26744],[11.32214,47.26741],[11.32221,47.26734],[11.32281,47.26648],[11.32282,47.26646],[11.32278,47.2664]]]}},{"type":"Feature","properties":{"zone":"134","district":"Pradl","rawHours":"täglich (1.5. bis 31.8.) bzw. werktags Mo-Fr (1.9. bis 30.4.) von 9-19 Uhr","rawFee":"EUR 1.10 erste halbe Stunde, danach gleicher Tarif in EUR 0.10 - Schritten, jedoch höchstens EUR 9 pro Kalendertag","note":"Parkstraße kostenpflichtig (werktags/täglich) — höchstens 9,00 € je Kalendertag","windows":[{"weekdays":[0,1,2,3,4,5,6],"fromMinute":540,"toMinute":1140}],"fee":{"kind":"exact","centsPerHour":220},"unmodelledRules":["täglich (1.5. bis 31.8.) bzw. werktags Mo-Fr (1.9. bis 30.4.) von 9-19 Uhr"],"sourceDefect":null,"spaces":null,"maxStayMinutes":null,"maxStay":null,"maxStayShare":0,"maxStayValues":[],"chargingPoints":0,"carsharing":0},"geometry":{"type":"Polygon","coordinates":[[[11.40967,47.26205],[11.40973,47.2619],[11.41033,47.26083],[11.41043,47.26064],[11.4106,47.26037],[11.41063,47.26023],[11.41107,47.25946],[11.41111,47.25947],[11.41119,47.25934],[11.41121,47.25919],[11.41132,47.25899],[11.41129,47.2589],[11.41149,47.25883],[11.41159,47.25881],[11.41176,47.25854],[11.4121,47.25795],[11.41217,47.25794],[11.41217,47.25787],[11.41216,47.25785],[11.41265,47.25698],[11.41262,47.25695],[11.41262,47.25689],[11.41273,47.25659],[11.41274,47.25644],[11.41313,47.25529],[11.41311,47.25529],[11.41326,47.25484],[11.41337,47.25451],[11.4135,47.25424],[11.41221,47.25404],[11.41206,47.25408],[11.41188,47.25411],[11.41155,47.25409],[11.40909,47.2536],[11.40677,47.25322],[11.40536,47.25297],[11.40448,47.25274],[11.404,47.25259],[11.40406,47.25268],[11.4041,47.2528],[11.40419,47.25285],[11.40425,47.253],[11.40427,47.25301],[11.40433,47.25312],[11.40474,47.25403],[11.40485,47.25432],[11.4049,47.25454],[11.40488,47.25478],[11.40479,47.25505],[11.40462,47.25541],[11.4043,47.25592],[11.40408,47.25641],[11.40396,47.25686],[11.40391,47.25714],[11.40389,47.25747],[11.40392,47.25776],[11.40396,47.25788],[11.40422,47.25916],[11.40425,47.25947],[11.40448,47.26085],[11.40451,47.26085],[11.40455,47.26099],[11.40464,47.2611],[11.40477,47.26119],[11.40487,47.26123],[11.40512,47.26129],[11.40522,47.26135],[11.40526,47.26143],[11.40528,47.26166],[11.40536,47.26166],[11.40536,47.26159],[11.40542,47.26159],[11.40545,47.26146],[11.40551,47.2614],[11.40561,47.26136],[11.40569,47.26136],[11.40579,47.26137],[11.40589,47.26141],[11.40679,47.26157],[11.40696,47.26157],[11.407,47.2616],[11.407,47.26163],[11.40711,47.26165],[11.40716,47.26162],[11.40722,47.26161],[11.40732,47.26165],[11.40767,47.26171],[11.40769,47.26168],[11.40846,47.26179],[11.40847,47.26179],[11.40846,47.26182],[11.40851,47.26184],[11.40855,47.26189],[11.40856,47.26192],[11.40853,47.26198],[11.40867,47.26201],[11.40871,47.26192],[11.40885,47.26195],[11.40889,47.26192],[11.40897,47.26191],[11.40903,47.26191],[11.40909,47.26195],[11.40967,47.26205]]]}},{"type":"Feature","properties":{"zone":"135","district":"Amras","rawHours":"täglich von 9-19 Uhr","rawFee":"EUR 1.10 erste halbe Stunde, danach gleicher Tarif in EUR 0.10 - Schritten, jedoch höchstens EUR 9 pro Kalendertag","note":"Parkstraße kostenpflichtig (täglich) — höchstens 9,00 € je Kalendertag","windows":[{"weekdays":[0,1,2,3,4,5,6],"fromMinute":540,"toMinute":1140}],"fee":{"kind":"exact","centsPerHour":220},"unmodelledRules":[],"sourceDefect":null,"spaces":null,"maxStayMinutes":null,"maxStay":null,"maxStayShare":0,"maxStayValues":[],"chargingPoints":0,"carsharing":0},"geometry":{"type":"Polygon","coordinates":[[[11.43333,47.25564],[11.4329,47.25559],[11.43291,47.25556],[11.43306,47.25558],[11.43312,47.25543],[11.43312,47.25534],[11.43302,47.25534],[11.43302,47.25536],[11.43293,47.25536],[11.43275,47.25534],[11.43241,47.25532],[11.43223,47.25524],[11.43222,47.25526],[11.43212,47.25522],[11.4321,47.25525],[11.43193,47.25529],[11.43185,47.25534],[11.43193,47.2554],[11.43198,47.2555],[11.43196,47.25549],[11.43195,47.25551],[11.43153,47.25562],[11.43133,47.25567],[11.43113,47.25568],[11.43023,47.25566],[11.43023,47.25571],[11.4312,47.25575],[11.43208,47.25556],[11.43235,47.25555],[11.43282,47.25563],[11.43303,47.25567],[11.43304,47.25566],[11.4336,47.25574],[11.43361,47.25604],[11.43365,47.25604],[11.43364,47.25611],[11.43378,47.25612],[11.43378,47.25614],[11.4341,47.25615],[11.43412,47.25595],[11.43449,47.25587],[11.43459,47.25576],[11.43436,47.25565],[11.43437,47.25563],[11.43415,47.25548],[11.43407,47.25554],[11.43397,47.25548],[11.43387,47.25554],[11.43389,47.25556],[11.43393,47.25555],[11.43396,47.25557],[11.4336,47.25568],[11.43333,47.25564]]]}},{"type":"Feature","properties":{"zone":"136","district":"Hungerburg","rawHours":"täglich von 9-19 Uhr","rawFee":"EUR 1.10 erste halbe Stunde, danach gleicher Tarif in EUR 0.10 - Schritten, jedoch höchstens EUR 9 pro Kalendertag","note":"Parkstraße kostenpflichtig (täglich) — höchstens 9,00 € je Kalendertag","windows":[{"weekdays":[0,1,2,3,4,5,6],"fromMinute":540,"toMinute":1140}],"fee":{"kind":"exact","centsPerHour":220},"unmodelledRules":[],"sourceDefect":null,"spaces":null,"maxStayMinutes":null,"maxStay":null,"maxStayShare":0,"maxStayValues":[],"chargingPoints":0,"carsharing":0},"geometry":{"type":"Polygon","coordinates":[[[11.40155,47.28738],[11.40186,47.28733],[11.402,47.28736],[11.40232,47.2875],[11.40271,47.28778],[11.40281,47.28784],[11.40306,47.28793],[11.40342,47.28801],[11.40348,47.28798],[11.40362,47.28798],[11.40391,47.28777],[11.40407,47.28775],[11.40433,47.28776],[11.40427,47.28774],[11.40392,47.28751],[11.40376,47.28745],[11.40369,47.2874],[11.40365,47.28734],[11.40367,47.28725],[11.40364,47.28719],[11.40351,47.28718],[11.40338,47.28716],[11.40339,47.28715],[11.40347,47.28716],[11.40357,47.28714],[11.40369,47.28716],[11.40376,47.28721],[11.4038,47.28729],[11.40389,47.28734],[11.40391,47.28733],[11.40388,47.28729],[11.40386,47.28715],[11.40384,47.28711],[11.40365,47.287],[11.4035,47.28689],[11.4035,47.28686],[11.40355,47.28683],[11.40352,47.28681],[11.40342,47.28684],[11.40325,47.2868],[11.40309,47.28672],[11.40291,47.28654],[11.40275,47.28652],[11.40264,47.28649],[11.40217,47.28627],[11.40204,47.28613],[11.40194,47.28595],[11.40182,47.28579],[11.40172,47.28569],[11.40157,47.28558],[11.40134,47.28547],[11.4012,47.28528],[11.40113,47.28522],[11.40103,47.28518],[11.40081,47.28515],[11.40069,47.28512],[11.40051,47.28502],[11.40029,47.28495],[11.40018,47.28487],[11.39939,47.28469],[11.39928,47.28464],[11.3991,47.28451],[11.39904,47.28448],[11.39863,47.28443],[11.39807,47.28423],[11.39771,47.28412],[11.39745,47.28393],[11.39718,47.28379],[11.39708,47.28367],[11.39678,47.28344],[11.39653,47.28331],[11.39649,47.28327],[11.39629,47.28294],[11.39601,47.28274],[11.39596,47.28265],[11.39593,47.28265],[11.39585,47.28267],[11.39564,47.28267],[11.39535,47.28255],[11.39513,47.28241],[11.39508,47.28235],[11.39492,47.28227],[11.39485,47.28222],[11.39476,47.28211],[11.39467,47.28196],[11.39454,47.2819],[11.39438,47.2819],[11.39341,47.28142],[11.39327,47.28137],[11.39333,47.28147],[11.39339,47.28161],[11.39341,47.28172],[11.3934,47.2818],[11.39336,47.28189],[11.39331,47.28194],[11.39318,47.28201],[11.39306,47.28204],[11.39287,47.28203],[11.39276,47.282],[11.39266,47.28195],[11.39255,47.28186],[11.39251,47.28174],[11.39256,47.28142],[11.39254,47.28136],[11.39244,47.28131],[11.3923,47.28127],[11.39185,47.28125],[11.39141,47.28128],[11.39119,47.28134],[11.39098,47.28143],[11.39059,47.28168],[11.39037,47.28176],[11.39012,47.28182],[11.39007,47.28177],[11.3899,47.28176],[11.38928,47.28187],[11.38921,47.2819],[11.38901,47.28208],[11.38885,47.28212],[11.38864,47.28213],[11.38795,47.28208],[11.38741,47.28196],[11.38681,47.28192],[11.38662,47.28196],[11.38623,47.28212],[11.38614,47.28213],[11.38585,47.28207],[11.38581,47.28205],[11.38578,47.28201],[11.38578,47.2818],[11.3857,47.28153],[11.38571,47.28145],[11.38579,47.28125],[11.38523,47.28107],[11.38487,47.28098],[11.38446,47.2808],[11.38051,47.28082],[11.38026,47.28086],[11.38021,47.28081],[11.38026,47.28071],[11.38023,47.28063],[11.37999,47.28045],[11.37877,47.28057],[11.37712,47.28134],[11.37657,47.28141],[11.37709,47.28206],[11.37712,47.28212],[11.37731,47.28218],[11.37734,47.28221],[11.37746,47.2824],[11.37747,47.28244],[11.37745,47.28255],[11.37748,47.28263],[11.37756,47.28274],[11.37786,47.2829],[11.37795,47.28287],[11.37778,47.28309],[11.37773,47.28312],[11.37742,47.28346],[11.37734,47.28359],[11.37731,47.28373],[11.37792,47.28384],[11.3783,47.28386],[11.37988,47.28414],[11.3798,47.28429],[11.37979,47.28438],[11.37985,47.28454],[11.37999,47.28475],[11.38012,47.28487],[11.38071,47.28529],[11.38115,47.28552],[11.38147,47.28575],[11.38152,47.28585],[11.38167,47.2863],[11.3817,47.28635],[11.39736,47.28791],[11.39784,47.2874],[11.39808,47.28753],[11.39835,47.28761],[11.39865,47.28775],[11.3991,47.28817],[11.39917,47.28826],[11.39923,47.28839],[11.40077,47.28751],[11.40116,47.28743],[11.40155,47.28738]],[[11.39547,47.28502],[11.39535,47.285],[11.39532,47.28502],[11.39522,47.28498],[11.39512,47.28497],[11.39508,47.28499],[11.39496,47.28493],[11.39488,47.28486],[11.39478,47.28487],[11.39465,47.28485],[11.3946,47.28486],[11.39458,47.28486],[11.39454,47.28481],[11.39455,47.28476],[11.39463,47.28463],[11.39481,47.28441],[11.39483,47.28431],[11.39498,47.28416],[11.39502,47.28414],[11.39503,47.2841],[11.39502,47.28408],[11.39566,47.2845],[11.39596,47.28465],[11.39578,47.28491],[11.39556,47.28502],[11.39547,47.28502]]]}},{"type":"Feature","properties":{"zone":"137","district":"Hötting West","rawHours":"täglich von 9-19 Uhr","rawFee":"EUR 1.10 erste halbe Stunde, danach gleicher Tarif in EUR 0.10 - Schritten, jedoch höchstens EUR 9 pro Kalendertag","note":"Parkstraße kostenpflichtig (täglich) — höchstens 9,00 € je Kalendertag","windows":[{"weekdays":[0,1,2,3,4,5,6],"fromMinute":540,"toMinute":1140}],"fee":{"kind":"exact","centsPerHour":220},"unmodelledRules":[],"sourceDefect":null,"spaces":null,"maxStayMinutes":null,"maxStay":null,"maxStayShare":0,"maxStayValues":[],"chargingPoints":0,"carsharing":0},"geometry":{"type":"MultiPolygon","coordinates":[[[[11.32474,47.26514],[11.32487,47.26481],[11.3248,47.26482],[11.32476,47.26491],[11.32468,47.26514],[11.32473,47.26513],[11.32474,47.26514]]],[[[11.32487,47.26506],[11.32486,47.26505],[11.3248,47.26522],[11.32485,47.26525],[11.32491,47.26508],[11.32487,47.26506]]]]}},{"type":"Feature","properties":{"zone":"138","district":"Wilten","rawHours":"werktags Mo-Fr von 9-19 Uhr","rawFee":"EUR 1.10 erste halbe Stunde, danach gleicher Tarif in EUR 0.10 - Schritten","note":"Kurzparkzone 180 min kostenpflichtig","windows":[{"weekdays":[1,2,3,4,5],"fromMinute":540,"toMinute":1140}],"fee":{"kind":"exact","centsPerHour":220},"unmodelledRules":[],"sourceDefect":null,"spaces":null,"maxStayMinutes":180,"maxStay":null,"maxStayShare":0,"maxStayValues":[],"chargingPoints":0,"carsharing":0},"geometry":{"type":"Polygon","coordinates":[[[11.38576,47.26342],[11.3858,47.26339],[11.38594,47.26351],[11.38602,47.26346],[11.38658,47.26383],[11.38662,47.26383],[11.38705,47.26353],[11.38718,47.26351],[11.38736,47.26353],[11.38865,47.26385],[11.38872,47.26385],[11.38875,47.26383],[11.38876,47.2638],[11.38874,47.26376],[11.38915,47.26231],[11.38919,47.26228],[11.38921,47.26223],[11.3892,47.2622],[11.38915,47.26217],[11.38903,47.26219],[11.38763,47.262],[11.38765,47.26192],[11.38769,47.26191],[11.38771,47.26188],[11.38771,47.26185],[11.38769,47.26183],[11.38792,47.26041],[11.38794,47.26038],[11.38791,47.26034],[11.38787,47.26033],[11.38783,47.26034],[11.38704,47.26031],[11.38681,47.26034],[11.38677,47.26037],[11.38676,47.26044],[11.38662,47.26044],[11.3866,47.26039],[11.38656,47.26038],[11.38646,47.26039],[11.38646,47.26034],[11.38659,47.26034],[11.38659,47.26031],[11.38672,47.26029],[11.38673,47.26027],[11.38674,47.26022],[11.38672,47.2602],[11.38683,47.25904],[11.3868,47.25904],[11.38683,47.25881],[11.38696,47.2573],[11.387,47.2573],[11.38697,47.25719],[11.38694,47.25715],[11.38689,47.25712],[11.38682,47.25712],[11.38629,47.25717],[11.38626,47.25702],[11.38575,47.25706],[11.38573,47.25698],[11.38536,47.25702],[11.38513,47.25701],[11.38439,47.25708],[11.38431,47.25707],[11.38413,47.25707],[11.38409,47.25712],[11.38403,47.25714],[11.38344,47.25719],[11.38319,47.25718],[11.38297,47.25709],[11.38286,47.2572],[11.38271,47.25724],[11.38278,47.25734],[11.38269,47.25737],[11.38271,47.25741],[11.38271,47.25745],[11.38266,47.2575],[11.38154,47.25811],[11.38056,47.25861],[11.38048,47.25863],[11.3804,47.25862],[11.38034,47.25859],[11.38019,47.25846],[11.38012,47.2585],[11.38,47.25839],[11.37993,47.25842],[11.38017,47.25865],[11.38018,47.2587],[11.38017,47.25874],[11.38013,47.25878],[11.37983,47.25892],[11.37971,47.259],[11.37953,47.25908],[11.37974,47.2593],[11.37988,47.25943],[11.3799,47.25943],[11.3801,47.2597],[11.38136,47.26124],[11.38135,47.26129],[11.38138,47.26132],[11.38145,47.26135],[11.38161,47.26155],[11.38179,47.26175],[11.38226,47.26234],[11.3823,47.26233],[11.3825,47.26278],[11.38269,47.26301],[11.3831,47.26346],[11.38333,47.26369],[11.38385,47.26416],[11.38439,47.26459],[11.38466,47.26479],[11.38469,47.26479],[11.38499,47.26499],[11.38525,47.26475],[11.38637,47.26397],[11.38635,47.26392],[11.38576,47.26342]]]}},{"type":"Feature","properties":{"zone":"139","district":"Pradl","rawHours":"werktags Mo-Fr von 9-19 Uhr","rawFee":"EUR 1.10 erste halbe Stunde, danach gleicher Tarif in EUR 0.10 - Schritten","note":"Kurzparkzone 180 min kostenpflichtig","windows":[{"weekdays":[1,2,3,4,5],"fromMinute":540,"toMinute":1140}],"fee":{"kind":"exact","centsPerHour":220},"unmodelledRules":[],"sourceDefect":null,"spaces":null,"maxStayMinutes":180,"maxStay":null,"maxStayShare":0,"maxStayValues":[],"chargingPoints":0,"carsharing":0},"geometry":{"type":"Polygon","coordinates":[[[11.40948,47.27208],[11.40954,47.27202],[11.40965,47.27199],[11.41042,47.27153],[11.41052,47.27141],[11.41053,47.27142],[11.41057,47.27131],[11.41064,47.27132],[11.41092,47.27051],[11.41096,47.27031],[11.41094,47.27027],[11.41089,47.27023],[11.41057,47.27008],[11.4106,47.27005],[11.41027,47.26992],[11.41032,47.26987],[11.41086,47.27008],[11.41094,47.27009],[11.41104,47.27008],[11.41111,47.27001],[11.41127,47.26967],[11.41144,47.26921],[11.41148,47.2692],[11.41167,47.26866],[11.41165,47.26864],[11.41167,47.26855],[11.41152,47.26851],[11.41154,47.26844],[11.41165,47.26844],[11.41169,47.26841],[11.4117,47.26839],[11.41168,47.26838],[11.41213,47.2674],[11.41215,47.26729],[11.41215,47.26709],[11.41218,47.26709],[11.41215,47.26704],[11.41202,47.26701],[11.41206,47.26694],[11.41214,47.26695],[11.41222,47.26692],[11.41224,47.26689],[11.41222,47.26688],[11.41268,47.2663],[11.41271,47.26631],[11.41302,47.26591],[11.41349,47.26534],[11.41352,47.26528],[11.41352,47.26525],[11.41349,47.26521],[11.41344,47.26517],[11.41348,47.26513],[11.41333,47.26507],[11.41337,47.26503],[11.41357,47.2651],[11.41368,47.26509],[11.41375,47.26505],[11.41374,47.26503],[11.41379,47.26495],[11.41516,47.26327],[11.41514,47.26326],[11.41514,47.26323],[11.4151,47.26322],[11.41518,47.26314],[11.41525,47.26315],[11.41528,47.26314],[11.41586,47.2623],[11.41588,47.2622],[11.41586,47.26213],[11.41581,47.26204],[11.41577,47.26203],[11.41322,47.26259],[11.41316,47.26262],[11.41311,47.26266],[11.41308,47.26271],[11.4131,47.26275],[11.41305,47.26281],[11.41297,47.26279],[11.41292,47.26282],[11.41281,47.26279],[11.41282,47.26272],[11.41277,47.26266],[11.41268,47.26264],[11.41259,47.26265],[11.41144,47.26281],[11.41128,47.26287],[11.41116,47.26296],[11.41105,47.26292],[11.41099,47.263],[11.41086,47.26296],[11.41083,47.26291],[11.4108,47.26289],[11.41066,47.26291],[11.41065,47.26286],[11.41082,47.26283],[11.4108,47.26278],[11.41085,47.26275],[11.41089,47.26271],[11.4109,47.26267],[11.41088,47.26264],[11.41096,47.26242],[11.41099,47.26238],[11.411,47.26234],[11.41098,47.26229],[11.41093,47.26226],[11.41087,47.26225],[11.41081,47.26226],[11.40909,47.26195],[11.40901,47.26191],[11.40891,47.26192],[11.40885,47.26195],[11.40871,47.26192],[11.40867,47.26201],[11.40853,47.26198],[11.40856,47.26192],[11.40855,47.26189],[11.40851,47.26184],[11.40846,47.26182],[11.40847,47.26179],[11.40846,47.26179],[11.40769,47.26168],[11.40767,47.26171],[11.40732,47.26165],[11.40722,47.26161],[11.40716,47.26162],[11.40711,47.26165],[11.407,47.26163],[11.407,47.2616],[11.40696,47.26157],[11.40679,47.26157],[11.40589,47.26141],[11.40579,47.26137],[11.40569,47.26136],[11.40561,47.26136],[11.40551,47.2614],[11.40545,47.26146],[11.40542,47.26159],[11.40536,47.26159],[11.40536,47.26166],[11.40528,47.26166],[11.40526,47.26143],[11.40522,47.26135],[11.40512,47.26129],[11.40487,47.26123],[11.40473,47.26117],[11.40458,47.26104],[11.40453,47.26095],[11.40451,47.26085],[11.40448,47.26085],[11.4045,47.26097],[11.40456,47.26151],[11.40454,47.26151],[11.40455,47.26169],[11.40461,47.26213],[11.40459,47.26217],[11.40461,47.26221],[11.40463,47.26235],[11.40461,47.26243],[11.40468,47.2629],[11.40483,47.26361],[11.40491,47.26382],[11.40497,47.26403],[11.40504,47.26439],[11.40509,47.26471],[11.40508,47.26471],[11.4052,47.26537],[11.40535,47.26639],[11.40541,47.26666],[11.40543,47.26668],[11.40547,47.26679],[11.40546,47.26682],[11.40563,47.26724],[11.40586,47.26761],[11.40618,47.26806],[11.40628,47.26816],[11.40647,47.26836],[11.40679,47.26865],[11.40723,47.269],[11.40731,47.26909],[11.40787,47.26951],[11.40818,47.2698],[11.40829,47.26986],[11.40841,47.27],[11.40847,47.27009],[11.40858,47.27032],[11.40862,47.2705],[11.40866,47.27052],[11.40873,47.27068],[11.40872,47.27081],[11.40874,47.27088],[11.40868,47.27137],[11.4087,47.27153],[11.40875,47.27164],[11.40885,47.27179],[11.40902,47.27195],[11.40901,47.27197],[11.40909,47.27202],[11.40921,47.27208],[11.40946,47.27214],[11.40949,47.27212],[11.40948,47.27208]]]}},{"type":"Feature","properties":{"zone":"140","district":"Dreiheiligen - Schlachthof","rawHours":"werktags Mo-Fr von 9-19 Uhr","rawFee":"EUR 1.10 erste halbe Stunde, danach gleicher Tarif in EUR 0.10 - Schritten","note":"Kurzparkzone 180 min kostenpflichtig","windows":[{"weekdays":[1,2,3,4,5],"fromMinute":540,"toMinute":1140}],"fee":{"kind":"exact","centsPerHour":220},"unmodelledRules":[],"sourceDefect":null,"spaces":null,"maxStayMinutes":180,"maxStay":null,"maxStayShare":0,"maxStayValues":[],"chargingPoints":0,"carsharing":0},"geometry":{"type":"Polygon","coordinates":[[[11.4087,47.27246],[11.40885,47.2724],[11.40893,47.27243],[11.40902,47.27241],[11.4092,47.27232],[11.40886,47.27218],[11.40846,47.27193],[11.4084,47.27176],[11.4083,47.27157],[11.40826,47.27131],[11.40824,47.27086],[11.40803,47.27016],[11.40776,47.26985],[11.40745,47.26959],[11.40738,47.2695],[11.40706,47.26922],[11.40651,47.26887],[11.40613,47.26853],[11.40584,47.26821],[11.40562,47.2679],[11.40556,47.26784],[11.4053,47.26743],[11.40519,47.26724],[11.40514,47.26708],[11.40516,47.26706],[11.40517,47.26703],[11.40512,47.26694],[11.40503,47.26683],[11.40505,47.26682],[11.40499,47.26658],[11.4049,47.26647],[11.40465,47.26483],[11.40473,47.2648],[11.40468,47.26451],[11.40467,47.26451],[11.40465,47.26431],[11.40418,47.26435],[11.40381,47.26457],[11.4036,47.26387],[11.40347,47.264],[11.40348,47.264],[11.40296,47.26463],[11.40225,47.26577],[11.40228,47.26583],[11.40222,47.26599],[11.4022,47.2661],[11.40241,47.26614],[11.40237,47.26625],[11.40234,47.26627],[11.4023,47.26629],[11.40211,47.26632],[11.40216,47.26694],[11.40264,47.26865],[11.40272,47.26887],[11.4029,47.26925],[11.40317,47.26967],[11.40348,47.27006],[11.40379,47.27037],[11.40402,47.27057],[11.40443,47.27089],[11.40615,47.27207],[11.4061,47.2721],[11.40753,47.27309],[11.40789,47.27298],[11.40812,47.27288],[11.40853,47.27263],[11.40859,47.27262],[11.40867,47.27257],[11.4087,47.27253],[11.4087,47.27246]]]}},{"type":"Feature","properties":{"zone":"141","district":"Hötting","rawHours":"werktags Mo-Fr von 9-19 Uhr","rawFee":"EUR 1.10 erste halbe Stunde, danach gleicher Tarif in EUR 0.10 - Schritten","note":"Kurzparkzone 180 min kostenpflichtig","windows":[{"weekdays":[1,2,3,4,5],"fromMinute":540,"toMinute":1140}],"fee":{"kind":"exact","centsPerHour":220},"unmodelledRules":[],"sourceDefect":null,"spaces":null,"maxStayMinutes":180,"maxStay":null,"maxStayShare":0,"maxStayValues":[],"chargingPoints":0,"carsharing":0},"geometry":{"type":"Polygon","coordinates":[[[11.38111,47.27456],[11.38114,47.27456],[11.38115,47.27453],[11.38133,47.27414],[11.38134,47.27408],[11.38133,47.27403],[11.38129,47.27397],[11.38152,47.27383],[11.38155,47.27355],[11.38165,47.27349],[11.38199,47.27324],[11.38215,47.27333],[11.38223,47.27327],[11.38237,47.27309],[11.38258,47.27295],[11.38318,47.27277],[11.38351,47.2727],[11.38386,47.2727],[11.38394,47.27268],[11.38393,47.27266],[11.38395,47.27264],[11.38404,47.27262],[11.38411,47.27246],[11.38417,47.2724],[11.38433,47.27239],[11.3845,47.27243],[11.38453,47.27236],[11.38479,47.27242],[11.3849,47.27242],[11.38498,47.27241],[11.38519,47.27223],[11.38553,47.27185],[11.38559,47.27181],[11.38582,47.27175],[11.38593,47.27183],[11.38592,47.27184],[11.38601,47.27192],[11.3862,47.27191],[11.38627,47.27193],[11.38629,47.27192],[11.38643,47.27191],[11.38652,47.27188],[11.38641,47.27162],[11.38685,47.27147],[11.38689,47.2715],[11.38696,47.27148],[11.38694,47.27144],[11.38696,47.27141],[11.387,47.2714],[11.38704,47.27141],[11.38705,47.27133],[11.38655,47.27131],[11.38654,47.27129],[11.38661,47.27117],[11.38676,47.27107],[11.38659,47.27102],[11.38651,47.27098],[11.38652,47.27097],[11.38641,47.27093],[11.38633,47.27103],[11.38615,47.27099],[11.38625,47.2708],[11.38613,47.27077],[11.38597,47.27102],[11.38592,47.27101],[11.38593,47.27099],[11.38583,47.27097],[11.38577,47.27108],[11.38546,47.27103],[11.38536,47.27112],[11.38524,47.2711],[11.38515,47.27121],[11.38448,47.27117],[11.38392,47.2711],[11.38365,47.27102],[11.38342,47.27092],[11.38341,47.2709],[11.38343,47.27087],[11.38337,47.27084],[11.38331,47.27087],[11.38326,47.27086],[11.3824,47.27054],[11.38225,47.27048],[11.38188,47.27026],[11.38186,47.27022],[11.38186,47.27004],[11.38193,47.26992],[11.38275,47.26892],[11.38282,47.26888],[11.3829,47.26888],[11.38295,47.2688],[11.38282,47.26874],[11.38279,47.26875],[11.38275,47.26873],[11.38266,47.26844],[11.38253,47.2683],[11.38241,47.26818],[11.38233,47.26813],[11.38199,47.26796],[11.38183,47.26793],[11.38182,47.26794],[11.38143,47.26779],[11.38089,47.26761],[11.38084,47.26758],[11.38084,47.26753],[11.38142,47.26655],[11.38148,47.26651],[11.38157,47.2665],[11.38159,47.26645],[11.38198,47.26652],[11.38233,47.26661],[11.38284,47.26677],[11.38326,47.26693],[11.38365,47.26633],[11.3835,47.26629],[11.38356,47.26619],[11.38314,47.26613],[11.38314,47.26602],[11.3833,47.26602],[11.38343,47.26599],[11.38393,47.26566],[11.38411,47.26556],[11.38413,47.26557],[11.38428,47.26548],[11.38398,47.26527],[11.38398,47.26524],[11.38341,47.2648],[11.3829,47.26437],[11.38219,47.26368],[11.38177,47.2632],[11.38145,47.26281],[11.38099,47.26246],[11.38098,47.26242],[11.38089,47.26229],[11.38028,47.26156],[11.38015,47.26142],[11.38011,47.26135],[11.37997,47.26125],[11.37973,47.26097],[11.3797,47.26087],[11.37962,47.26083],[11.37957,47.26079],[11.37944,47.26063],[11.37944,47.26057],[11.37942,47.26053],[11.37931,47.26047],[11.37917,47.26028],[11.37914,47.26022],[11.37912,47.26014],[11.37905,47.2601],[11.37882,47.25978],[11.37855,47.25949],[11.3782,47.25966],[11.37812,47.25967],[11.37806,47.25966],[11.37744,47.25942],[11.37739,47.25948],[11.37727,47.25943],[11.37721,47.2595],[11.37777,47.25974],[11.37783,47.2598],[11.37783,47.25985],[11.37779,47.2599],[11.37745,47.26013],[11.37679,47.26064],[11.37658,47.26082],[11.37634,47.26107],[11.3763,47.26108],[11.37625,47.26107],[11.37606,47.26094],[11.37601,47.26097],[11.3762,47.2611],[11.37621,47.26116],[11.37598,47.26149],[11.37585,47.26179],[11.37554,47.26239],[11.37511,47.26312],[11.37505,47.26317],[11.37497,47.26317],[11.37494,47.26322],[11.37471,47.26316],[11.37468,47.26321],[11.37491,47.26328],[11.37495,47.26331],[11.37497,47.26335],[11.37497,47.2634],[11.37486,47.26366],[11.37485,47.26378],[11.37485,47.26392],[11.37481,47.26397],[11.37484,47.26425],[11.37499,47.2647],[11.37503,47.26473],[11.37502,47.26482],[11.37499,47.26486],[11.37473,47.26484],[11.37432,47.26485],[11.37432,47.26503],[11.37428,47.26503],[11.37428,47.26509],[11.37669,47.26506],[11.3771,47.26508],[11.37751,47.26512],[11.37745,47.26537],[11.37734,47.26562],[11.37729,47.26565],[11.37706,47.26595],[11.37704,47.26631],[11.37342,47.26619],[11.37335,47.26616],[11.3728,47.26614],[11.3728,47.26617],[11.37274,47.26617],[11.37274,47.26621],[11.37266,47.26621],[11.37264,47.26624],[11.37265,47.26627],[11.37301,47.26657],[11.37314,47.26671],[11.37328,47.26689],[11.37337,47.2671],[11.37337,47.26725],[11.37329,47.26745],[11.37306,47.26784],[11.37305,47.26795],[11.37302,47.26798],[11.37299,47.26801],[11.37263,47.26811],[11.37257,47.26814],[11.37253,47.26818],[11.37252,47.26821],[11.37254,47.26825],[11.37259,47.26828],[11.37267,47.26829],[11.37266,47.26833],[11.37251,47.26831],[11.37245,47.26861],[11.37238,47.2686],[11.37232,47.26884],[11.37216,47.26909],[11.37255,47.26914],[11.37258,47.269],[11.37271,47.26909],[11.37285,47.26922],[11.37288,47.26928],[11.37288,47.26944],[11.37327,47.26954],[11.37362,47.26958],[11.37485,47.26946],[11.37523,47.26948],[11.37546,47.26925],[11.37579,47.26955],[11.37589,47.26966],[11.3759,47.26973],[11.37594,47.26978],[11.37626,47.26999],[11.37631,47.27001],[11.37656,47.27003],[11.377,47.2701],[11.3773,47.27019],[11.37775,47.27036],[11.37761,47.27046],[11.3776,47.2705],[11.37755,47.2708],[11.3777,47.27094],[11.37776,47.27123],[11.37788,47.27133],[11.37804,47.27139],[11.37903,47.27161],[11.37934,47.2717],[11.37946,47.27168],[11.37984,47.27186],[11.3802,47.27219],[11.37993,47.27235],[11.38063,47.27256],[11.38082,47.27257],[11.38097,47.27255],[11.38098,47.27257],[11.38084,47.2726],[11.38081,47.27286],[11.38066,47.27315],[11.38067,47.27329],[11.38057,47.27332],[11.38047,47.27341],[11.38048,47.27361],[11.38039,47.27373],[11.38034,47.27389],[11.38035,47.2741],[11.38029,47.27437],[11.3803,47.27442],[11.38041,47.27444],[11.38051,47.27448],[11.38055,47.27453],[11.38081,47.27454],[11.38093,47.27462],[11.38107,47.27466],[11.38111,47.27456]]]}},{"type":"Feature","properties":{"zone":"142","district":"Saggen","rawHours":"werktags Mo-Fr von 9-19 Uhr","rawFee":"EUR 1.10 erste halbe Stunde, danach gleicher Tarif in EUR 0.10 - Schritten","note":"Kurzparkzone 180 min kostenpflichtig","windows":[{"weekdays":[1,2,3,4,5],"fromMinute":540,"toMinute":1140}],"fee":{"kind":"exact","centsPerHour":220},"unmodelledRules":[],"sourceDefect":null,"spaces":null,"maxStayMinutes":180,"maxStay":null,"maxStayShare":0,"maxStayValues":[],"chargingPoints":0,"carsharing":0},"geometry":{"type":"Polygon","coordinates":[[[11.40039,47.27722],[11.40044,47.27719],[11.40054,47.27725],[11.4006,47.2772],[11.40073,47.27722],[11.40079,47.2772],[11.40083,47.27716],[11.40093,47.2768],[11.40096,47.2766],[11.40097,47.27625],[11.40088,47.27586],[11.40104,47.27584],[11.40108,47.27604],[11.40114,47.27607],[11.40497,47.27566],[11.40505,47.27554],[11.4052,47.27546],[11.40521,47.27542],[11.40539,47.27541],[11.40545,47.27546],[11.40556,47.2755],[11.40562,47.27549],[11.40666,47.2748],[11.40667,47.27476],[11.40675,47.27475],[11.40671,47.27459],[11.40679,47.27458],[11.40691,47.27462],[11.40694,47.27461],[11.40806,47.27387],[11.40808,47.27384],[11.40807,47.27381],[11.40728,47.27326],[11.40721,47.27325],[11.40707,47.27326],[11.40706,47.27323],[11.40697,47.27324],[11.40695,47.27319],[11.40708,47.27317],[11.40729,47.27303],[11.40591,47.27207],[11.40577,47.27217],[11.40569,47.27212],[11.40564,47.27215],[11.40563,47.27221],[11.40559,47.27225],[11.40547,47.27229],[11.40495,47.27234],[11.40495,47.27228],[11.40487,47.27228],[11.40483,47.27234],[11.40477,47.27236],[11.4047,47.27235],[11.40281,47.27258],[11.40271,47.27251],[11.4026,47.27247],[11.40242,47.27249],[11.40238,47.27252],[11.40232,47.27257],[11.40228,47.27265],[11.40224,47.27266],[11.40218,47.27265],[11.40074,47.27282],[11.4007,47.27285],[11.40052,47.27287],[11.40042,47.27284],[11.40038,47.27275],[11.40028,47.27276],[11.40028,47.27286],[11.40025,47.27289],[11.40021,47.2729],[11.40015,47.2729],[11.40015,47.27287],[11.39599,47.27308],[11.39591,47.27305],[11.39586,47.27295],[11.39578,47.27296],[11.39571,47.27267],[11.39566,47.27268],[11.39569,47.27287],[11.39576,47.27309],[11.39558,47.27314],[11.39705,47.27509],[11.39714,47.27526],[11.39719,47.2754],[11.39726,47.27542],[11.39747,47.27572],[11.39775,47.27605],[11.39784,47.27618],[11.39788,47.27617],[11.3982,47.27647],[11.39844,47.27675],[11.39867,47.27698],[11.39895,47.27724],[11.39933,47.27756],[11.40002,47.27807],[11.40019,47.27794],[11.40026,47.27785],[11.40071,47.2775],[11.40033,47.27727],[11.40039,47.27722]]]}},{"type":"Feature","properties":{"zone":"143","district":"Innenstadt","rawHours":"werktags Mo-Fr von 9-21 Uhr und Sa von 9-13 Uhr","rawFee":"EUR 1.10 erste halbe Stunde, danach gleicher Tarif in EUR 0.10 - Schritten","note":"Kurzparkzone 90 min kostenpflichtig","windows":[{"weekdays":[1,2,3,4,5],"fromMinute":540,"toMinute":1260},{"weekdays":[6],"fromMinute":540,"toMinute":780}],"fee":{"kind":"exact","centsPerHour":220},"unmodelledRules":[],"sourceDefect":null,"spaces":null,"maxStayMinutes":90,"maxStay":null,"maxStayShare":0,"maxStayValues":[],"chargingPoints":0,"carsharing":0},"geometry":{"type":"Polygon","coordinates":[[[11.39566,47.27268],[11.39571,47.27267],[11.39578,47.27296],[11.39586,47.27295],[11.39591,47.27305],[11.39599,47.27308],[11.40015,47.27287],[11.40015,47.2729],[11.40021,47.2729],[11.40025,47.27289],[11.40028,47.27286],[11.40028,47.27276],[11.40038,47.27275],[11.40042,47.27284],[11.40052,47.27287],[11.4007,47.27285],[11.40074,47.27282],[11.40218,47.27265],[11.40224,47.27266],[11.40228,47.27265],[11.40232,47.27257],[11.40238,47.27252],[11.40242,47.27249],[11.4026,47.27247],[11.40271,47.27251],[11.40281,47.27258],[11.4047,47.27235],[11.40477,47.27236],[11.40483,47.27234],[11.40487,47.27228],[11.40495,47.27228],[11.40495,47.27234],[11.40547,47.27229],[11.40559,47.27225],[11.40563,47.27221],[11.40564,47.27215],[11.40569,47.27212],[11.40577,47.27217],[11.40591,47.27207],[11.40424,47.27092],[11.40388,47.27064],[11.40358,47.27038],[11.4033,47.27008],[11.40292,47.26959],[11.40271,47.26923],[11.4025,47.26874],[11.40195,47.26683],[11.40181,47.26643],[11.40172,47.26622],[11.40169,47.2662],[11.40168,47.26617],[11.4017,47.26615],[11.40142,47.26572],[11.40117,47.26498],[11.40098,47.26462],[11.40041,47.26265],[11.40036,47.26266],[11.39991,47.26111],[11.39987,47.26111],[11.39984,47.26103],[11.39977,47.26099],[11.39979,47.26075],[11.39986,47.26039],[11.39988,47.26003],[11.39994,47.25976],[11.39997,47.25948],[11.40009,47.25925],[11.40013,47.25908],[11.40019,47.25867],[11.40026,47.25841],[11.40047,47.25795],[11.40055,47.2578],[11.40059,47.2578],[11.40074,47.25749],[11.40077,47.25744],[11.40086,47.25741],[11.40092,47.25734],[11.39988,47.25721],[11.3999,47.25714],[11.39946,47.25703],[11.39951,47.25697],[11.39912,47.25684],[11.39913,47.2568],[11.39879,47.25671],[11.39812,47.25643],[11.39804,47.25638],[11.39802,47.25632],[11.39816,47.25602],[11.39804,47.256],[11.39794,47.25618],[11.39782,47.25615],[11.39779,47.25623],[11.39773,47.25626],[11.39728,47.25619],[11.39652,47.25617],[11.39643,47.25614],[11.3964,47.25608],[11.39645,47.25583],[11.39635,47.25582],[11.39628,47.25607],[11.39619,47.25606],[11.39614,47.25614],[11.396,47.2562],[11.39479,47.25614],[11.39477,47.25612],[11.39478,47.25605],[11.39469,47.25604],[11.39468,47.25611],[11.39463,47.25613],[11.3942,47.25612],[11.39249,47.25601],[11.3917,47.25594],[11.39104,47.25594],[11.39073,47.25596],[11.39003,47.2561],[11.38912,47.25632],[11.38859,47.25647],[11.3879,47.25669],[11.38756,47.25678],[11.38741,47.2568],[11.38731,47.25679],[11.38721,47.25674],[11.38717,47.25665],[11.38708,47.25665],[11.38708,47.25673],[11.38699,47.25673],[11.38694,47.25679],[11.38682,47.25683],[11.38573,47.25698],[11.38575,47.25706],[11.38626,47.25702],[11.38629,47.25717],[11.38679,47.25712],[11.38689,47.25712],[11.38695,47.25716],[11.38699,47.25725],[11.387,47.2573],[11.38696,47.2573],[11.38683,47.25881],[11.3868,47.25904],[11.38683,47.25904],[11.38672,47.2602],[11.38674,47.26022],[11.38673,47.26027],[11.38672,47.26029],[11.38659,47.26031],[11.38659,47.26034],[11.38646,47.26034],[11.38646,47.26039],[11.38656,47.26038],[11.3866,47.2604],[11.38662,47.26044],[11.38676,47.26044],[11.38677,47.26037],[11.38681,47.26034],[11.38704,47.26031],[11.38783,47.26034],[11.38787,47.26033],[11.38791,47.26034],[11.38794,47.26038],[11.38792,47.26041],[11.38769,47.26183],[11.38771,47.26185],[11.38771,47.26188],[11.38769,47.26191],[11.38765,47.26192],[11.38763,47.262],[11.38903,47.26219],[11.38914,47.26217],[11.38919,47.26219],[11.38921,47.26222],[11.3892,47.26227],[11.38915,47.26231],[11.38874,47.26376],[11.38876,47.2638],[11.38874,47.26385],[11.38865,47.26385],[11.38736,47.26353],[11.38718,47.26351],[11.38705,47.26353],[11.38662,47.26383],[11.38658,47.26383],[11.38602,47.26346],[11.38594,47.26351],[11.3858,47.26339],[11.38576,47.26342],[11.38635,47.26392],[11.38637,47.26394],[11.38637,47.26397],[11.38525,47.26475],[11.38499,47.26499],[11.38547,47.26532],[11.38616,47.26572],[11.39102,47.2682],[11.39149,47.26848],[11.39176,47.2687],[11.39238,47.26934],[11.39427,47.27143],[11.39558,47.27314],[11.39576,47.27309],[11.39569,47.27287],[11.39566,47.27268]]]}},{"type":"Feature","properties":{"zone":"144","district":"Hötting","rawHours":"werktags Mo-Fr von 9-21 Uhr und Sa von 9-13 Uhr","rawFee":"EUR 1.10 erste halbe Stunde, danach gleicher Tarif in EUR 0.10 - Schritten","note":"Kurzparkzone 90 min kostenpflichtig","windows":[{"weekdays":[1,2,3,4,5],"fromMinute":540,"toMinute":1260},{"weekdays":[6],"fromMinute":540,"toMinute":780}],"fee":{"kind":"exact","centsPerHour":220},"unmodelledRules":[],"sourceDefect":null,"spaces":null,"maxStayMinutes":90,"maxStay":null,"maxStayShare":0,"maxStayValues":[],"chargingPoints":0,"carsharing":0},"geometry":{"type":"Polygon","coordinates":[[[11.3965,47.27906],[11.3964,47.27895],[11.3963,47.2787],[11.39642,47.27869],[11.39648,47.2786],[11.39659,47.27853],[11.39692,47.27838],[11.39724,47.27827],[11.39751,47.27806],[11.39775,47.27783],[11.39783,47.27788],[11.39802,47.27774],[11.39724,47.27681],[11.39721,47.27679],[11.39638,47.2757],[11.3957,47.27484],[11.39572,47.27483],[11.39536,47.27434],[11.39465,47.27347],[11.39474,47.27343],[11.39473,47.27341],[11.39341,47.27171],[11.39291,47.27114],[11.39161,47.26974],[11.39138,47.2695],[11.39106,47.26921],[11.39053,47.26879],[11.38971,47.26831],[11.38897,47.26792],[11.38877,47.26783],[11.38875,47.26784],[11.38756,47.26727],[11.38727,47.26712],[11.38725,47.26709],[11.38711,47.26702],[11.38698,47.26697],[11.38585,47.2664],[11.38486,47.26584],[11.38477,47.2658],[11.38428,47.26548],[11.38413,47.26557],[11.38411,47.26556],[11.38393,47.26566],[11.38343,47.26599],[11.3833,47.26602],[11.38314,47.26602],[11.38314,47.26613],[11.38356,47.26619],[11.3835,47.26629],[11.38365,47.26633],[11.38326,47.26693],[11.38254,47.26667],[11.38198,47.26652],[11.38159,47.26645],[11.38157,47.2665],[11.38148,47.26651],[11.38142,47.26655],[11.38084,47.26752],[11.38084,47.26757],[11.38089,47.26761],[11.38143,47.26779],[11.38182,47.26794],[11.38183,47.26793],[11.38199,47.26796],[11.38233,47.26813],[11.38241,47.26818],[11.38253,47.2683],[11.38265,47.26844],[11.38268,47.26848],[11.38269,47.26856],[11.38275,47.26873],[11.38279,47.26875],[11.38282,47.26874],[11.38295,47.2688],[11.3829,47.26888],[11.38282,47.26888],[11.38275,47.26892],[11.38187,47.27001],[11.38186,47.27005],[11.38186,47.27022],[11.38189,47.27027],[11.3824,47.27054],[11.38326,47.27086],[11.38331,47.27087],[11.38337,47.27084],[11.38343,47.27087],[11.38341,47.2709],[11.38341,47.27092],[11.3837,47.27103],[11.38392,47.2711],[11.38411,47.27113],[11.38448,47.27117],[11.38515,47.27121],[11.38524,47.2711],[11.38536,47.27112],[11.38546,47.27103],[11.38577,47.27108],[11.38583,47.27097],[11.38593,47.27099],[11.38592,47.27101],[11.38597,47.27102],[11.38613,47.27077],[11.38625,47.2708],[11.38615,47.27099],[11.38633,47.27103],[11.38641,47.27093],[11.38652,47.27097],[11.38651,47.27098],[11.38659,47.27102],[11.38676,47.27107],[11.38661,47.27117],[11.38654,47.27129],[11.38655,47.27131],[11.38705,47.27133],[11.38704,47.27141],[11.38698,47.2714],[11.38694,47.27145],[11.38718,47.27172],[11.38725,47.27184],[11.38731,47.27199],[11.38736,47.27224],[11.38734,47.27274],[11.38738,47.2728],[11.38745,47.27284],[11.38754,47.27285],[11.38807,47.27285],[11.38827,47.27288],[11.38855,47.27296],[11.38857,47.27294],[11.38857,47.27283],[11.38859,47.27272],[11.38867,47.27257],[11.38874,47.27248],[11.3888,47.27251],[11.38894,47.27248],[11.38918,47.27246],[11.38935,47.27311],[11.38939,47.2732],[11.38959,47.27345],[11.38982,47.27364],[11.39016,47.27383],[11.38999,47.27426],[11.39034,47.27441],[11.38991,47.27468],[11.39008,47.27486],[11.38959,47.27513],[11.38948,47.27503],[11.38932,47.275],[11.38922,47.27518],[11.38922,47.27525],[11.38927,47.27531],[11.38931,47.27533],[11.38949,47.27533],[11.3896,47.27535],[11.38971,47.27539],[11.38987,47.2755],[11.39028,47.27545],[11.3904,47.27546],[11.39105,47.27539],[11.3911,47.27545],[11.39114,47.27558],[11.39114,47.27567],[11.3911,47.27567],[11.39101,47.27597],[11.3905,47.27652],[11.39045,47.27658],[11.3904,47.27674],[11.39029,47.27682],[11.3906,47.27687],[11.39077,47.27686],[11.39089,47.27688],[11.391,47.27692],[11.39099,47.277],[11.39104,47.27707],[11.39133,47.27721],[11.39145,47.27741],[11.39352,47.27826],[11.39383,47.27779],[11.39393,47.27771],[11.39431,47.27748],[11.39438,47.27747],[11.39443,47.2775],[11.39466,47.27755],[11.39483,47.27756],[11.39578,47.27796],[11.39592,47.27804],[11.39617,47.27825],[11.3962,47.2786],[11.39625,47.27877],[11.39638,47.27907],[11.39643,47.27905],[11.39651,47.2791],[11.39653,47.27908],[11.3965,47.27906]]]}},{"type":"Feature","properties":{"zone":"145","district":"Gewerbegebiet Roßau","rawHours":"täglich von 1-5 Uhr","rawFee":"kostenfrei","note":"Kurzparkzone kostenfrei 180 min 1-5 Uhr","windows":[{"weekdays":[0,1,2,3,4,5,6],"fromMinute":60,"toMinute":300}],"fee":{"kind":"disc"},"unmodelledRules":[],"sourceDefect":null,"spaces":null,"maxStayMinutes":180,"maxStay":null,"maxStayShare":0,"maxStayValues":[],"chargingPoints":0,"carsharing":0},"geometry":{"type":"Polygon","coordinates":[[[11.43558,47.27172],[11.43788,47.27072],[11.43821,47.27056],[11.4401,47.26979],[11.44066,47.26959],[11.44105,47.26943],[11.44137,47.26932],[11.44165,47.26925],[11.44285,47.26887],[11.44292,47.26879],[11.44329,47.2687],[11.44431,47.26835],[11.44495,47.26818],[11.44783,47.26728],[11.44904,47.26698],[11.44988,47.26684],[11.45113,47.26678],[11.45188,47.26677],[11.45235,47.2668],[11.45253,47.26684],[11.45298,47.26691],[11.45276,47.26415],[11.45138,47.2637],[11.45088,47.26347],[11.4507,47.26342],[11.45051,47.26339],[11.45011,47.26337],[11.44985,47.2636],[11.4484,47.26285],[11.44716,47.26238],[11.44697,47.26233],[11.44568,47.26221],[11.4453,47.26229],[11.44512,47.26228],[11.44503,47.26251],[11.44537,47.26267],[11.44375,47.26389],[11.44377,47.26416],[11.44239,47.26427],[11.44152,47.26431],[11.44106,47.26431],[11.44065,47.26434],[11.44059,47.26449],[11.44056,47.26464],[11.43991,47.26452],[11.4399,47.26454],[11.43944,47.26446],[11.4394,47.26443],[11.43927,47.26441],[11.43894,47.26443],[11.43834,47.26439],[11.43824,47.26439],[11.43717,47.2643],[11.43715,47.26428],[11.437,47.264],[11.43697,47.26394],[11.43697,47.26384],[11.43689,47.26384],[11.43663,47.26393],[11.4365,47.26389],[11.43635,47.26389],[11.43547,47.26415],[11.43527,47.26417],[11.43513,47.26415],[11.43502,47.26412],[11.43457,47.26386],[11.43442,47.26382],[11.43426,47.2638],[11.43332,47.26388],[11.43272,47.26388],[11.4306,47.26382],[11.4302,47.26379],[11.42945,47.26371],[11.42868,47.26358],[11.42751,47.26332],[11.42724,47.26324],[11.42541,47.26261],[11.42534,47.2626],[11.42525,47.26263],[11.42505,47.26281],[11.42543,47.26301],[11.42544,47.26313],[11.42549,47.26325],[11.42516,47.26365],[11.4251,47.26376],[11.42468,47.26363],[11.42423,47.26441],[11.42395,47.26467],[11.42379,47.2648],[11.42391,47.26488],[11.42421,47.26498],[11.42416,47.26506],[11.42425,47.26512],[11.42483,47.26539],[11.42508,47.26546],[11.42525,47.26559],[11.42502,47.26574],[11.42479,47.26584],[11.42468,47.26585],[11.42459,47.26582],[11.42438,47.26586],[11.42444,47.26619],[11.42259,47.26722],[11.4225,47.26736],[11.42226,47.26751],[11.4225,47.2676],[11.42269,47.26764],[11.42271,47.26762],[11.42264,47.26755],[11.42261,47.26748],[11.42262,47.26741],[11.42266,47.26734],[11.42274,47.26728],[11.42331,47.26697],[11.42351,47.26736],[11.42413,47.26703],[11.42446,47.26768],[11.42472,47.26762],[11.42473,47.26765],[11.42523,47.26749],[11.42527,47.26756],[11.42554,47.26801],[11.42581,47.26855],[11.42579,47.26861],[11.42551,47.2689],[11.42554,47.26896],[11.42556,47.26901],[11.42555,47.26907],[11.42552,47.26913],[11.42576,47.26932],[11.42585,47.26931],[11.42598,47.26931],[11.42608,47.26933],[11.42615,47.26938],[11.42656,47.26931],[11.42645,47.26899],[11.42646,47.26893],[11.4265,47.26888],[11.4266,47.26884],[11.42724,47.26876],[11.4274,47.26931],[11.42748,47.2694],[11.42758,47.26974],[11.42753,47.26981],[11.42776,47.2705],[11.4276,47.27052],[11.42767,47.27073],[11.4273,47.27078],[11.42716,47.27078],[11.42718,47.27094],[11.42722,47.27091],[11.4273,47.2709],[11.42818,47.27077],[11.42833,47.2712],[11.42804,47.27134],[11.42813,47.2714],[11.42856,47.27182],[11.42876,47.27173],[11.42898,47.27195],[11.42844,47.27221],[11.42894,47.27272],[11.42847,47.27293],[11.42878,47.27316],[11.42892,47.2732],[11.42916,47.27342],[11.42917,47.27347],[11.42977,47.274],[11.4299,47.27398],[11.43011,47.27387],[11.43036,47.27379],[11.4311,47.27349],[11.43146,47.2733],[11.43262,47.27281],[11.43303,47.27266],[11.43316,47.27265],[11.43342,47.27259],[11.43558,47.27172]]]}},{"type":"Feature","properties":{"zone":"146","district":"Gewerbegebiet Mühlau / Arzl","rawHours":"täglich von 1-5 Uhr","rawFee":"kostenfrei","note":"Kurzparkzone kostenfrei 180 min 1-5 Uhr","windows":[{"weekdays":[0,1,2,3,4,5,6],"fromMinute":60,"toMinute":300}],"fee":{"kind":"disc"},"unmodelledRules":[],"sourceDefect":null,"spaces":null,"maxStayMinutes":180,"maxStay":null,"maxStayShare":0,"maxStayValues":[],"chargingPoints":0,"carsharing":0},"geometry":{"type":"Polygon","coordinates":[[[11.43085,47.27547],[11.43021,47.27548],[11.42958,47.27555],[11.42894,47.27565],[11.4283,47.27581],[11.4279,47.27588],[11.42714,47.27615],[11.42637,47.27645],[11.42605,47.27662],[11.42546,47.27684],[11.42487,47.27704],[11.42335,47.27762],[11.42327,47.27768],[11.42318,47.27771],[11.42303,47.27774],[11.42234,47.27796],[11.42121,47.27825],[11.42146,47.27884],[11.42151,47.27892],[11.42168,47.279],[11.42161,47.27913],[11.42176,47.27955],[11.42178,47.2797],[11.44412,47.27859],[11.4441,47.27835],[11.44395,47.27799],[11.44419,47.27755],[11.44424,47.27742],[11.44259,47.27722],[11.44186,47.27711],[11.44165,47.27706],[11.44168,47.27696],[11.44098,47.27683],[11.43621,47.27603],[11.43227,47.27556],[11.43162,47.2755],[11.43085,47.27547]]]}},{"type":"Feature","properties":{"zone":"147","district":"Sieglanger - Mentlberg","rawHours":"werktags Mo-Fr von 9-19 Uhr","rawFee":"EUR 1.10 erste halbe Stunde, danach gleicher Tarif in EUR 0.10 - Schritten, jedoch höchstens EUR 9 pro Kalendertag","note":"Parkstraße kostenpflichtig (werktags) — höchstens 9,00 € je Kalendertag","windows":[{"weekdays":[1,2,3,4,5],"fromMinute":540,"toMinute":1140}],"fee":{"kind":"exact","centsPerHour":220},"unmodelledRules":[],"sourceDefect":null,"spaces":null,"maxStayMinutes":null,"maxStay":null,"maxStayShare":0,"maxStayValues":[],"chargingPoints":0,"carsharing":0},"geometry":{"type":"Polygon","coordinates":[[[11.36266,47.25337],[11.36609,47.25258],[11.36659,47.25245],[11.36686,47.25236],[11.36724,47.2522],[11.36819,47.25169],[11.37032,47.25134],[11.3704,47.25136],[11.37102,47.25166],[11.37151,47.25178],[11.37207,47.252],[11.3724,47.25215],[11.37279,47.25237],[11.37366,47.25274],[11.37403,47.2528],[11.37614,47.25273],[11.37595,47.25217],[11.37496,47.25131],[11.37447,47.2512],[11.37421,47.2508],[11.37469,47.25072],[11.37479,47.2506],[11.37492,47.25036],[11.3751,47.25009],[11.37468,47.24995],[11.37439,47.24988],[11.37425,47.24987],[11.37403,47.24981],[11.37377,47.2497],[11.37359,47.24958],[11.37344,47.24957],[11.37276,47.24933],[11.37237,47.24923],[11.37123,47.249],[11.37099,47.24894],[11.37079,47.24891],[11.37012,47.24878],[11.36975,47.24873],[11.36923,47.24871],[11.36883,47.24872],[11.36858,47.24879],[11.36849,47.24883],[11.36839,47.24891],[11.36834,47.24898],[11.36831,47.24907],[11.36828,47.24927],[11.36831,47.24941],[11.36842,47.24955],[11.36864,47.24975],[11.36911,47.25005],[11.36921,47.25016],[11.36928,47.25022],[11.36929,47.25021],[11.36936,47.25029],[11.36941,47.25037],[11.36939,47.25041],[11.36932,47.25045],[11.36876,47.2506],[11.36832,47.25049],[11.36817,47.25051],[11.36738,47.25048],[11.36647,47.25038],[11.36572,47.25021],[11.36473,47.25013],[11.36475,47.25031],[11.36368,47.25037],[11.36315,47.25045],[11.36257,47.25043],[11.36173,47.25034],[11.35356,47.25029],[11.35359,47.25034],[11.3537,47.25137],[11.3537,47.25148],[11.35365,47.25158],[11.35353,47.25171],[11.35342,47.25177],[11.35329,47.25182],[11.35313,47.25184],[11.35263,47.25183],[11.35229,47.25175],[11.352,47.25174],[11.3519,47.25267],[11.35187,47.25282],[11.35189,47.25327],[11.35187,47.25337],[11.35237,47.25345],[11.3527,47.25345],[11.35273,47.25406],[11.35383,47.25422],[11.3548,47.25431],[11.35555,47.25433],[11.35645,47.25433],[11.35713,47.2543],[11.35824,47.25419],[11.35949,47.25401],[11.36022,47.25388],[11.36174,47.25358],[11.36266,47.25337]]]}},{"type":"Feature","properties":{"zone":"148","district":"Wilten","rawHours":"werktags Mo-Fr von 9-19 Uhr","rawFee":"EUR 1.10 erste halbe Stunde, danach gleicher Tarif in EUR 0.10 - Schritten, jedoch höchstens EUR 9 pro Kalendertag","note":"Parkstraße kostenpflichtig (werktags) — höchstens 9,00 € je Kalendertag","windows":[{"weekdays":[1,2,3,4,5],"fromMinute":540,"toMinute":1140}],"fee":{"kind":"exact","centsPerHour":220},"unmodelledRules":[],"sourceDefect":null,"spaces":null,"maxStayMinutes":null,"maxStay":null,"maxStayShare":0,"maxStayValues":[],"chargingPoints":0,"carsharing":0},"geometry":{"type":"Polygon","coordinates":[[[11.38008,47.25856],[11.37993,47.25842],[11.38,47.25839],[11.38012,47.2585],[11.38019,47.25846],[11.38036,47.2586],[11.38047,47.25863],[11.38056,47.25861],[11.38101,47.25838],[11.38266,47.2575],[11.38271,47.25745],[11.38271,47.25741],[11.38269,47.25737],[11.38278,47.25734],[11.38271,47.25724],[11.38286,47.2572],[11.38297,47.25709],[11.38319,47.25718],[11.38344,47.25719],[11.38403,47.25714],[11.38409,47.25712],[11.38413,47.25707],[11.38431,47.25707],[11.38439,47.25708],[11.38513,47.25701],[11.38536,47.25702],[11.3858,47.25697],[11.38682,47.25683],[11.38694,47.25679],[11.38699,47.25673],[11.38708,47.25673],[11.38708,47.25665],[11.38717,47.25665],[11.38721,47.25674],[11.38729,47.25679],[11.38736,47.2568],[11.38746,47.25679],[11.3879,47.25669],[11.38859,47.25647],[11.38927,47.25628],[11.39048,47.256],[11.39084,47.25595],[11.3917,47.25594],[11.39221,47.256],[11.39449,47.25613],[11.39466,47.25612],[11.39468,47.2561],[11.39469,47.25604],[11.39478,47.25605],[11.39477,47.25612],[11.39479,47.25614],[11.396,47.2562],[11.39614,47.25614],[11.39619,47.25606],[11.39628,47.25607],[11.39635,47.25582],[11.39645,47.25583],[11.3964,47.25608],[11.39643,47.25614],[11.39649,47.25617],[11.39728,47.25619],[11.39772,47.25626],[11.39778,47.25624],[11.39782,47.25615],[11.39794,47.25618],[11.39804,47.256],[11.39816,47.25602],[11.39802,47.25631],[11.39802,47.25635],[11.39805,47.25639],[11.39879,47.25671],[11.39913,47.2568],[11.39912,47.25684],[11.39951,47.25697],[11.39946,47.25703],[11.3999,47.25714],[11.39988,47.25721],[11.40092,47.25734],[11.40096,47.25723],[11.40129,47.25726],[11.40149,47.25668],[11.40178,47.25572],[11.40192,47.2552],[11.40202,47.25468],[11.40206,47.25422],[11.40205,47.25356],[11.40201,47.25229],[11.40197,47.25228],[11.40194,47.25212],[11.40218,47.25213],[11.40257,47.25223],[11.40353,47.25261],[11.4041,47.2528],[11.40406,47.25268],[11.404,47.25259],[11.40293,47.25218],[11.40274,47.25178],[11.40265,47.25143],[11.40254,47.25127],[11.40253,47.25097],[11.40269,47.25002],[11.4026,47.24982],[11.40269,47.24971],[11.40345,47.24953],[11.40411,47.24941],[11.40458,47.2492],[11.40469,47.24902],[11.40481,47.24876],[11.40482,47.24847],[11.40446,47.24804],[11.40389,47.24763],[11.40359,47.24729],[11.40347,47.24706],[11.4035,47.24681],[11.40347,47.24666],[11.40321,47.24644],[11.40294,47.24628],[11.39386,47.24685],[11.39382,47.24688],[11.39375,47.24703],[11.39355,47.24721],[11.39336,47.24733],[11.39315,47.24741],[11.39293,47.24746],[11.39059,47.24785],[11.39035,47.24791],[11.39005,47.24802],[11.38978,47.24816],[11.38951,47.24837],[11.38862,47.2493],[11.38856,47.24939],[11.38854,47.24944],[11.38855,47.24962],[11.38862,47.24973],[11.3888,47.24983],[11.38893,47.24987],[11.38912,47.24989],[11.39095,47.25002],[11.39128,47.25009],[11.39149,47.25017],[11.39169,47.25028],[11.39184,47.25041],[11.39195,47.25057],[11.39197,47.25064],[11.39199,47.25073],[11.392,47.2509],[11.39195,47.25114],[11.39182,47.25132],[11.39163,47.25148],[11.39139,47.2516],[11.39119,47.25166],[11.39067,47.25174],[11.39043,47.25183],[11.38999,47.25195],[11.3898,47.25194],[11.38972,47.25196],[11.3896,47.25201],[11.38954,47.25206],[11.3895,47.25211],[11.3895,47.25217],[11.38955,47.25225],[11.3896,47.25229],[11.38968,47.25231],[11.38976,47.25231],[11.38984,47.25229],[11.39037,47.25201],[11.39058,47.25193],[11.39096,47.25186],[11.3917,47.2518],[11.39192,47.25176],[11.39216,47.2517],[11.39252,47.25155],[11.39357,47.25092],[11.39402,47.25067],[11.39432,47.25055],[11.39457,47.25049],[11.3949,47.25046],[11.39514,47.25046],[11.39535,47.25087],[11.39552,47.25124],[11.39472,47.25144],[11.39407,47.25164],[11.39342,47.25189],[11.39264,47.25223],[11.39119,47.2529],[11.39072,47.25318],[11.39031,47.25337],[11.38989,47.25351],[11.3892,47.25365],[11.38866,47.25371],[11.38802,47.25371],[11.38763,47.25369],[11.38703,47.25361],[11.38527,47.2533],[11.38462,47.25322],[11.38394,47.25319],[11.38335,47.25318],[11.38289,47.25321],[11.38226,47.25328],[11.38069,47.25357],[11.37979,47.25369],[11.37927,47.25374],[11.3788,47.25377],[11.37824,47.25377],[11.37783,47.25375],[11.3766,47.25408],[11.37632,47.25405],[11.37607,47.25408],[11.37582,47.25419],[11.3755,47.25438],[11.3752,47.25448],[11.37493,47.2545],[11.37477,47.25448],[11.37461,47.25444],[11.37513,47.25488],[11.37716,47.2568],[11.37906,47.25854],[11.3793,47.2588],[11.37953,47.25908],[11.37971,47.259],[11.37983,47.25892],[11.38016,47.25876],[11.38018,47.25871],[11.38018,47.25867],[11.38008,47.25856]]]}},{"type":"Feature","properties":{"zone":"149","district":"Hötting West","rawHours":"werktags Mo-Fr von 9-19 Uhr","rawFee":"EUR 1.10 erste halbe Stunde, danach gleicher Tarif in EUR 0.10 - Schritten, jedoch höchstens EUR 9 pro Kalendertag","note":"Parkstraße kostenpflichtig (werktags) — höchstens 9,00 € je Kalendertag","windows":[{"weekdays":[1,2,3,4,5],"fromMinute":540,"toMinute":1140}],"fee":{"kind":"exact","centsPerHour":220},"unmodelledRules":[],"sourceDefect":null,"spaces":null,"maxStayMinutes":null,"maxStay":null,"maxStayShare":0,"maxStayValues":[],"chargingPoints":0,"carsharing":0},"geometry":{"type":"Polygon","coordinates":[[[11.34249,47.26948],[11.34319,47.26953],[11.3436,47.26959],[11.3447,47.26962],[11.34509,47.26961],[11.34536,47.26958],[11.34549,47.26952],[11.34573,47.26939],[11.34599,47.26929],[11.34613,47.26927],[11.34621,47.26929],[11.34631,47.26934],[11.34656,47.26953],[11.3467,47.26956],[11.34679,47.27009],[11.34716,47.27002],[11.34759,47.26991],[11.34904,47.2694],[11.34933,47.26949],[11.34934,47.26978],[11.34927,47.2704],[11.34986,47.2703],[11.34979,47.27066],[11.35023,47.27068],[11.35029,47.27107],[11.35039,47.27106],[11.35071,47.27133],[11.35104,47.27125],[11.35102,47.2714],[11.35084,47.2721],[11.35167,47.27206],[11.35179,47.27204],[11.35232,47.27189],[11.35264,47.27173],[11.35275,47.27163],[11.35278,47.27155],[11.35318,47.27131],[11.35332,47.27132],[11.35339,47.27109],[11.3534,47.27101],[11.35332,47.27087],[11.35327,47.27081],[11.35345,47.27075],[11.35344,47.27045],[11.35319,47.27039],[11.35332,47.27012],[11.35354,47.2701],[11.35393,47.26993],[11.35433,47.26988],[11.35436,47.27002],[11.35458,47.27003],[11.35471,47.26964],[11.35474,47.26943],[11.35484,47.26942],[11.35502,47.26943],[11.35533,47.26951],[11.35556,47.2696],[11.35602,47.26983],[11.35632,47.26994],[11.35678,47.27001],[11.35731,47.26997],[11.35773,47.27069],[11.35816,47.2709],[11.35844,47.27051],[11.35869,47.27031],[11.35881,47.27024],[11.3589,47.27014],[11.35901,47.27008],[11.35905,47.27001],[11.35935,47.27003],[11.35935,47.27007],[11.35917,47.27007],[11.35907,47.27009],[11.35902,47.27012],[11.3588,47.27033],[11.35928,47.27046],[11.3593,47.27054],[11.35985,47.27057],[11.36021,47.27055],[11.36029,47.27045],[11.3605,47.27041],[11.3607,47.27012],[11.36107,47.2701],[11.36156,47.27014],[11.362,47.27014],[11.36247,47.26997],[11.36284,47.26992],[11.36329,47.27019],[11.36394,47.2702],[11.36511,47.27098],[11.36579,47.27098],[11.3659,47.27103],[11.36635,47.27104],[11.36643,47.27106],[11.36659,47.27118],[11.36677,47.27137],[11.36706,47.27178],[11.3672,47.27185],[11.36767,47.27203],[11.36788,47.27218],[11.36792,47.27224],[11.36802,47.27251],[11.36807,47.27256],[11.36815,47.27259],[11.36845,47.27262],[11.37034,47.27364],[11.3704,47.27358],[11.37032,47.27351],[11.37023,47.2734],[11.37013,47.27298],[11.37021,47.273],[11.37097,47.27285],[11.37107,47.27276],[11.37065,47.27252],[11.37048,47.27224],[11.37031,47.27177],[11.3703,47.27167],[11.37035,47.27144],[11.37075,47.27063],[11.37049,47.27038],[11.37042,47.27028],[11.37056,47.2701],[11.37067,47.27],[11.37061,47.26996],[11.37124,47.26959],[11.37148,47.26947],[11.37208,47.26921],[11.37232,47.26884],[11.37238,47.2686],[11.37245,47.26861],[11.37251,47.26831],[11.37266,47.26833],[11.37267,47.26829],[11.37259,47.26828],[11.37254,47.26825],[11.37252,47.26821],[11.37253,47.26818],[11.37257,47.26814],[11.37263,47.26811],[11.37299,47.26801],[11.37302,47.26798],[11.37305,47.26795],[11.37306,47.26784],[11.37326,47.26752],[11.37335,47.26732],[11.37338,47.26718],[11.37337,47.2671],[11.37328,47.2669],[11.37314,47.26671],[11.37301,47.26657],[11.37265,47.26627],[11.37264,47.26624],[11.37266,47.26621],[11.37274,47.26621],[11.37274,47.26617],[11.3728,47.26617],[11.3728,47.26614],[11.37335,47.26616],[11.37342,47.26619],[11.37704,47.26631],[11.37706,47.26595],[11.37729,47.26565],[11.37734,47.26562],[11.37745,47.26537],[11.37751,47.26512],[11.3771,47.26508],[11.37669,47.26506],[11.37428,47.26509],[11.37428,47.26503],[11.37432,47.26503],[11.37432,47.26485],[11.37473,47.26484],[11.37499,47.26486],[11.37502,47.26482],[11.37503,47.26473],[11.37499,47.2647],[11.37484,47.26425],[11.37481,47.26397],[11.37485,47.26392],[11.37485,47.26378],[11.37486,47.26366],[11.37497,47.2634],[11.37497,47.26335],[11.37495,47.26331],[11.37491,47.26328],[11.37468,47.26321],[11.37471,47.26316],[11.37494,47.26322],[11.37497,47.26317],[11.37505,47.26317],[11.37511,47.26312],[11.37554,47.26239],[11.37585,47.26179],[11.37598,47.26149],[11.37621,47.26116],[11.3762,47.2611],[11.37601,47.26097],[11.37606,47.26094],[11.37625,47.26107],[11.3763,47.26108],[11.37634,47.26107],[11.37658,47.26082],[11.37679,47.26064],[11.37745,47.26013],[11.37782,47.25987],[11.37783,47.2598],[11.37777,47.25974],[11.37721,47.2595],[11.37727,47.25943],[11.37739,47.25948],[11.37744,47.25942],[11.37806,47.25966],[11.37812,47.25967],[11.3782,47.25966],[11.37855,47.25949],[11.37806,47.25899],[11.37733,47.25831],[11.37694,47.25804],[11.37654,47.2577],[11.37636,47.25744],[11.37627,47.25736],[11.37625,47.2573],[11.37566,47.25676],[11.37548,47.25663],[11.37537,47.25652],[11.37518,47.2563],[11.37497,47.25615],[11.37429,47.25548],[11.37379,47.25502],[11.37339,47.25469],[11.373,47.25441],[11.37238,47.25407],[11.37205,47.25384],[11.37132,47.25359],[11.37084,47.25346],[11.37044,47.25338],[11.36974,47.25329],[11.36906,47.25325],[11.36828,47.25327],[11.36748,47.25337],[11.36681,47.2535],[11.36502,47.25391],[11.36456,47.25411],[11.36287,47.2545],[11.36142,47.25481],[11.36043,47.255],[11.35953,47.25516],[11.35825,47.25533],[11.35707,47.25543],[11.35576,47.25547],[11.35498,47.25546],[11.35435,47.25542],[11.35418,47.25535],[11.354,47.25534],[11.35395,47.25534],[11.35394,47.25536],[11.35382,47.25537],[11.35383,47.25538],[11.35327,47.25531],[11.35324,47.25583],[11.35323,47.25587],[11.35321,47.25649],[11.35323,47.25649],[11.35319,47.25721],[11.35382,47.25727],[11.35381,47.25775],[11.35373,47.25808],[11.35479,47.25827],[11.35448,47.2596],[11.35778,47.26001],[11.35835,47.26054],[11.35873,47.26043],[11.35954,47.26029],[11.35959,47.26025],[11.35965,47.26025],[11.35974,47.26026],[11.3602,47.26044],[11.36034,47.26051],[11.3608,47.2608],[11.361,47.26097],[11.36121,47.26097],[11.36131,47.26084],[11.36198,47.26096],[11.3619,47.26132],[11.36393,47.26167],[11.36389,47.26209],[11.36499,47.2622],[11.36489,47.26293],[11.36463,47.26289],[11.36459,47.26281],[11.36455,47.26278],[11.36437,47.26279],[11.36242,47.26247],[11.36165,47.26236],[11.36135,47.26363],[11.35243,47.263],[11.35176,47.26299],[11.35117,47.26302],[11.35048,47.263],[11.33983,47.26225],[11.33971,47.26223],[11.33953,47.26214],[11.33943,47.26212],[11.33935,47.26212],[11.33911,47.26218],[11.33892,47.26218],[11.33888,47.26231],[11.33903,47.26235],[11.33912,47.2624],[11.33919,47.26245],[11.33925,47.26255],[11.33928,47.26275],[11.33932,47.26282],[11.33934,47.26462],[11.33935,47.26471],[11.3394,47.2648],[11.33926,47.2648],[11.33868,47.26468],[11.33852,47.26461],[11.33835,47.2647],[11.33839,47.26478],[11.33854,47.26587],[11.33861,47.26603],[11.3387,47.26615],[11.33883,47.26628],[11.339,47.26642],[11.33923,47.26654],[11.33948,47.26663],[11.3417,47.26719],[11.34161,47.26945],[11.34186,47.26942],[11.34208,47.26942],[11.34249,47.26948]]]}},{"type":"Feature","properties":{"zone":"150","district":"Pradl","rawHours":"werktags Mo-Fr von 9-19 Uhr","rawFee":"EUR 1.10 erste halbe Stunde, danach gleicher Tarif in EUR 0.10 - Schritten, jedoch höchstens EUR 9 pro Kalendertag","note":"Parkstraße kostenpflichtig (werktags) — höchstens 9,00 € je Kalendertag","windows":[{"weekdays":[1,2,3,4,5],"fromMinute":540,"toMinute":1140}],"fee":{"kind":"exact","centsPerHour":220},"unmodelledRules":[],"sourceDefect":null,"spaces":null,"maxStayMinutes":null,"maxStay":null,"maxStayShare":0,"maxStayValues":[],"chargingPoints":0,"carsharing":0},"geometry":{"type":"Polygon","coordinates":[[[11.41772,47.27763],[11.41808,47.27762],[11.4188,47.2775],[11.41896,47.2775],[11.41905,47.27745],[11.41966,47.27733],[11.42107,47.27707],[11.42218,47.27675],[11.42277,47.27664],[11.42336,47.27643],[11.42341,47.27635],[11.42374,47.27625],[11.42373,47.27624],[11.42383,47.27619],[11.42385,47.2762],[11.42393,47.27617],[11.42416,47.27603],[11.42423,47.27603],[11.42444,47.27592],[11.42448,47.27592],[11.42464,47.27584],[11.42468,47.27579],[11.42494,47.27567],[11.42591,47.27529],[11.42593,47.2753],[11.42627,47.27518],[11.42664,47.27503],[11.42667,47.27499],[11.42727,47.27482],[11.42776,47.27464],[11.42789,47.27463],[11.42844,47.27446],[11.42882,47.27438],[11.42886,47.27435],[11.42925,47.27422],[11.42944,47.27412],[11.42977,47.274],[11.42917,47.27347],[11.42916,47.27342],[11.42892,47.2732],[11.42878,47.27316],[11.42847,47.27293],[11.42894,47.27272],[11.42844,47.27221],[11.42898,47.27195],[11.42876,47.27173],[11.42856,47.27182],[11.42813,47.2714],[11.42804,47.27134],[11.42833,47.2712],[11.42818,47.27077],[11.4273,47.2709],[11.42722,47.27091],[11.42718,47.27094],[11.42716,47.27078],[11.4273,47.27078],[11.42767,47.27073],[11.4276,47.27052],[11.42776,47.2705],[11.42753,47.26981],[11.42758,47.26974],[11.42748,47.2694],[11.4274,47.26931],[11.42724,47.26876],[11.4266,47.26884],[11.4265,47.26888],[11.42646,47.26893],[11.42645,47.26899],[11.42656,47.26931],[11.42615,47.26938],[11.42608,47.26933],[11.42598,47.26931],[11.42585,47.26931],[11.42576,47.26932],[11.42552,47.26913],[11.42555,47.26907],[11.42556,47.26901],[11.42554,47.26896],[11.42551,47.2689],[11.42579,47.26861],[11.42581,47.26855],[11.42554,47.26801],[11.42527,47.26756],[11.42523,47.26749],[11.42473,47.26765],[11.42472,47.26762],[11.42446,47.26768],[11.42413,47.26703],[11.42351,47.26736],[11.42331,47.26697],[11.42274,47.26728],[11.42266,47.26734],[11.42262,47.26741],[11.42261,47.26748],[11.42264,47.26755],[11.42271,47.26762],[11.42269,47.26764],[11.4225,47.2676],[11.42226,47.26751],[11.4225,47.26736],[11.42259,47.26722],[11.42444,47.26619],[11.42438,47.26586],[11.42459,47.26582],[11.42468,47.26585],[11.42479,47.26584],[11.42502,47.26574],[11.42525,47.26559],[11.42508,47.26546],[11.42483,47.26539],[11.42425,47.26512],[11.42416,47.26506],[11.42421,47.26498],[11.42391,47.26488],[11.42379,47.2648],[11.42395,47.26467],[11.42423,47.26441],[11.42468,47.26363],[11.4251,47.26376],[11.42516,47.26365],[11.42549,47.26325],[11.42544,47.26313],[11.42543,47.26301],[11.42505,47.26281],[11.42508,47.26279],[11.42527,47.26262],[11.42534,47.2626],[11.42541,47.26261],[11.42554,47.26245],[11.4257,47.26251],[11.42585,47.26231],[11.4274,47.26137],[11.42777,47.26106],[11.42779,47.26099],[11.42809,47.26099],[11.42864,47.26103],[11.42892,47.261],[11.42899,47.26098],[11.42888,47.26082],[11.4303,47.26035],[11.4309,47.26011],[11.43143,47.25987],[11.43145,47.25988],[11.43213,47.25979],[11.4321,47.25983],[11.4327,47.25994],[11.43298,47.25997],[11.43328,47.26006],[11.43352,47.26016],[11.43409,47.26048],[11.43423,47.26052],[11.43429,47.26037],[11.43437,47.26023],[11.43476,47.25964],[11.43396,47.25924],[11.43292,47.25875],[11.43181,47.25827],[11.43065,47.25782],[11.42928,47.25733],[11.42582,47.25614],[11.42443,47.25571],[11.42295,47.25531],[11.42272,47.25525],[11.42257,47.25526],[11.42253,47.25525],[11.42253,47.25524],[11.42124,47.25496],[11.42009,47.25475],[11.41925,47.25462],[11.41926,47.2546],[11.41776,47.25454],[11.41686,47.25452],[11.41645,47.25453],[11.41563,47.25459],[11.41508,47.25458],[11.41483,47.25455],[11.41472,47.25452],[11.4146,47.25447],[11.41446,47.25437],[11.4135,47.25424],[11.41337,47.25451],[11.41326,47.25484],[11.41311,47.25529],[11.41313,47.25529],[11.41274,47.25644],[11.41273,47.25659],[11.41262,47.25689],[11.41262,47.25695],[11.41265,47.25698],[11.41216,47.25785],[11.41217,47.25787],[11.41217,47.25794],[11.4121,47.25795],[11.41176,47.25854],[11.41159,47.25881],[11.41149,47.25883],[11.41129,47.2589],[11.41132,47.25899],[11.41121,47.25919],[11.41119,47.25934],[11.41111,47.25947],[11.41107,47.25946],[11.41063,47.26023],[11.4106,47.26037],[11.41043,47.26064],[11.41033,47.26083],[11.40973,47.2619],[11.40967,47.26205],[11.41081,47.26226],[11.41088,47.26225],[11.41097,47.26228],[11.411,47.26232],[11.411,47.26236],[11.41096,47.26242],[11.41088,47.26264],[11.4109,47.26267],[11.41089,47.26271],[11.41085,47.26275],[11.4108,47.26278],[11.41082,47.26283],[11.41065,47.26286],[11.41066,47.26291],[11.4108,47.26289],[11.41083,47.26291],[11.41086,47.26296],[11.41099,47.263],[11.41105,47.26292],[11.41116,47.26296],[11.41128,47.26287],[11.41144,47.26281],[11.41259,47.26265],[11.41268,47.26264],[11.41277,47.26266],[11.41282,47.26272],[11.41281,47.26279],[11.41292,47.26282],[11.41297,47.26279],[11.41305,47.26281],[11.4131,47.26275],[11.41308,47.26271],[11.41311,47.26266],[11.41316,47.26262],[11.41322,47.26259],[11.41577,47.26203],[11.41581,47.26204],[11.41586,47.26213],[11.41588,47.2622],[11.41587,47.26226],[11.41584,47.26233],[11.41528,47.26314],[11.41525,47.26315],[11.41518,47.26314],[11.4151,47.26322],[11.41514,47.26323],[11.41514,47.26326],[11.41516,47.26327],[11.41379,47.26495],[11.41374,47.26503],[11.41375,47.26505],[11.41369,47.26509],[11.4136,47.2651],[11.4135,47.26509],[11.41337,47.26503],[11.41333,47.26507],[11.41348,47.26513],[11.41344,47.26517],[11.41349,47.26521],[11.41352,47.26525],[11.41352,47.26528],[11.41349,47.26534],[11.41302,47.26591],[11.41271,47.26631],[11.41268,47.2663],[11.41222,47.26688],[11.41224,47.26689],[11.41222,47.26692],[11.41214,47.26695],[11.41206,47.26694],[11.41202,47.26701],[11.41215,47.26704],[11.41218,47.26709],[11.41215,47.26709],[11.41215,47.26729],[11.41213,47.2674],[11.41168,47.26838],[11.4117,47.26839],[11.41169,47.26841],[11.41165,47.26844],[11.41154,47.26844],[11.41152,47.26851],[11.41167,47.26855],[11.41165,47.26864],[11.41167,47.26866],[11.41148,47.2692],[11.41144,47.26921],[11.41127,47.26967],[11.41111,47.27001],[11.41104,47.27008],[11.41094,47.27009],[11.41086,47.27008],[11.41032,47.26987],[11.41027,47.26992],[11.4106,47.27005],[11.41057,47.27008],[11.41089,47.27023],[11.41094,47.27027],[11.41096,47.27031],[11.41092,47.27051],[11.41064,47.27132],[11.41057,47.27131],[11.41053,47.27142],[11.41052,47.27141],[11.41042,47.27153],[11.40965,47.27199],[11.40954,47.27202],[11.40948,47.27208],[11.40949,47.27212],[11.40946,47.27214],[11.40967,47.27223],[11.40972,47.27221],[11.40986,47.27226],[11.41047,47.27252],[11.41147,47.27286],[11.41151,47.27282],[11.41159,47.27284],[11.41156,47.27289],[11.41209,47.2731],[11.41211,47.27312],[11.41216,47.27315],[11.41218,47.27314],[11.41226,47.27319],[11.41261,47.2735],[11.41272,47.27364],[11.4127,47.27365],[11.41273,47.2737],[11.4128,47.27374],[11.41291,47.27405],[11.41291,47.27413],[11.41295,47.27418],[11.41297,47.27418],[11.41313,47.27448],[11.41316,47.27451],[11.41317,47.27454],[11.41323,47.27457],[11.41328,47.27461],[11.41355,47.27494],[11.41377,47.27512],[11.41422,47.27542],[11.41483,47.2759],[11.41608,47.27704],[11.41647,47.27733],[11.41664,47.27743],[11.41683,47.27751],[11.41684,47.27755],[11.41689,47.27755],[11.41724,47.27768],[11.41734,47.27774],[11.41758,47.27781],[11.41762,47.27778],[11.41759,47.27774],[11.41761,47.27768],[11.41766,47.27764],[11.41772,47.27763]]]}},{"type":"Feature","properties":{"zone":"151","district":"Saggen","rawHours":"werktags Mo-Fr von 9-19 Uhr","rawFee":"EUR 1.10 erste halbe Stunde, danach gleicher Tarif in EUR 0.10 - Schritten, jedoch höchstens EUR 9 pro Kalendertag","note":"Parkstraße kostenpflichtig (werktags) — höchstens 9,00 € je Kalendertag","windows":[{"weekdays":[1,2,3,4,5],"fromMinute":540,"toMinute":1140}],"fee":{"kind":"exact","centsPerHour":220},"unmodelledRules":[],"sourceDefect":null,"spaces":null,"maxStayMinutes":null,"maxStay":null,"maxStayShare":0,"maxStayValues":[],"chargingPoints":0,"carsharing":0},"geometry":{"type":"Polygon","coordinates":[[[11.40804,47.27992],[11.40818,47.27992],[11.40903,47.27984],[11.41041,47.27951],[11.41106,47.27931],[11.41184,47.27913],[11.41321,47.27884],[11.41362,47.27885],[11.41499,47.27856],[11.4153,47.27847],[11.41537,47.27847],[11.41544,47.27844],[11.41545,47.27843],[11.41606,47.27829],[11.41678,47.27814],[11.41699,47.27812],[11.41704,47.2781],[11.41705,47.27807],[11.41702,47.27804],[11.41692,47.27802],[11.41652,47.27781],[11.41593,47.27745],[11.41569,47.27725],[11.41515,47.27674],[11.41448,47.27617],[11.41372,47.27555],[11.41293,47.27495],[11.41281,47.27483],[11.4127,47.27465],[11.41245,47.27398],[11.41236,47.27382],[11.41237,47.27379],[11.41235,47.27375],[11.41229,47.27366],[11.41202,47.27342],[11.41193,47.27337],[11.4117,47.27327],[11.40933,47.27239],[11.4092,47.27232],[11.40902,47.27241],[11.40893,47.27243],[11.40885,47.2724],[11.4087,47.27246],[11.4087,47.27253],[11.40866,47.27258],[11.40859,47.27262],[11.40853,47.27263],[11.40812,47.27288],[11.40797,47.27295],[11.40753,47.27309],[11.40743,47.27302],[11.40735,47.27308],[11.40729,47.27303],[11.40708,47.27317],[11.40695,47.27319],[11.40697,47.27324],[11.40706,47.27323],[11.40707,47.27326],[11.40721,47.27325],[11.40728,47.27326],[11.40806,47.27379],[11.40807,47.27381],[11.40807,47.27385],[11.40694,47.27461],[11.40691,47.27462],[11.40679,47.27458],[11.40671,47.27459],[11.40675,47.27475],[11.40667,47.27476],[11.40666,47.2748],[11.40562,47.27549],[11.40556,47.2755],[11.40545,47.27546],[11.40539,47.27541],[11.40521,47.27542],[11.4052,47.27546],[11.40505,47.27554],[11.40497,47.27566],[11.40114,47.27607],[11.40108,47.27604],[11.40104,47.27584],[11.40088,47.27586],[11.40097,47.27625],[11.40096,47.2766],[11.40093,47.2768],[11.40083,47.27716],[11.40079,47.2772],[11.40073,47.27722],[11.4006,47.2772],[11.40054,47.27725],[11.40044,47.27719],[11.40033,47.27727],[11.40071,47.2775],[11.40026,47.27785],[11.40019,47.27794],[11.40002,47.27807],[11.40066,47.27845],[11.40114,47.27871],[11.40165,47.27895],[11.40256,47.27932],[11.40336,47.27958],[11.40381,47.27972],[11.40406,47.27978],[11.40475,47.27993],[11.405,47.2799],[11.4056,47.27991],[11.40635,47.27995],[11.40693,47.27996],[11.40804,47.27992]]]}},{"type":"Feature","properties":{"zone":"152","district":"Mühlau","rawHours":"werktags Mo-Fr von 9-19 Uhr","rawFee":"EUR 1.10 erste halbe Stunde, danach gleicher Tarif in EUR 0.10 - Schritten, jedoch höchstens EUR 9 pro Kalendertag","note":"Parkstraße kostenpflichtig (werktags) — höchstens 9,00 € je Kalendertag","windows":[{"weekdays":[1,2,3,4,5],"fromMinute":540,"toMinute":1140}],"fee":{"kind":"exact","centsPerHour":220},"unmodelledRules":[],"sourceDefect":null,"spaces":null,"maxStayMinutes":null,"maxStay":null,"maxStayShare":0,"maxStayValues":[],"chargingPoints":0,"carsharing":0},"geometry":{"type":"Polygon","coordinates":[[[11.41868,47.28927],[11.41673,47.27943],[11.41717,47.2796],[11.41754,47.2797],[11.41824,47.27982],[11.41852,47.27984],[11.41895,47.27984],[11.42178,47.2797],[11.42176,47.27955],[11.42161,47.27913],[11.42168,47.279],[11.42151,47.27892],[11.42146,47.27884],[11.42115,47.2781],[11.41635,47.27912],[11.41613,47.2791],[11.40976,47.28044],[11.40868,47.28064],[11.4078,47.28073],[11.40721,47.28075],[11.4061,47.28076],[11.40538,47.28074],[11.40491,47.28077],[11.4041,47.28067],[11.40393,47.28061],[11.40377,47.28058],[11.40372,47.28059],[11.40347,47.28053],[11.40218,47.28003],[11.40182,47.27987],[11.40146,47.27977],[11.40077,47.27949],[11.40064,47.27942],[11.40037,47.28006],[11.40039,47.28015],[11.39991,47.2822],[11.39973,47.28276],[11.40029,47.28296],[11.40066,47.28243],[11.41089,47.28995],[11.41244,47.29015],[11.41312,47.29015],[11.41352,47.29021],[11.41616,47.29022],[11.41694,47.29059],[11.41824,47.29001],[11.41841,47.28959],[11.41855,47.28948],[11.41867,47.28934],[11.41868,47.28927]]]}}]}