{"type":"FeatureCollection","features":[{"type":"Feature","properties":{"kind":"accessible","label":"Ettlinger Allee 5","detail":"3 Plätze · Behinderten- u. Freizeitsport Karlsruhe;"},"geometry":{"type":"Point","coordinates":[8.4041,48.98864]}},{"type":"Feature","properties":{"kind":"accessible","label":"Daxlander Straße 72","detail":"1 Platz · Stadtwerke Karlsruhe"},"geometry":{"type":"Point","coordinates":[8.34291,49.00735]}},{"type":"Feature","properties":{"kind":"accessible","label":"Pfannkuchstraße 4","detail":"2 Plätze · Regionales Rechenzentrum Karlsruhe"},"geometry":{"type":"Point","coordinates":[8.34455,49.0082]}},{"type":"Feature","properties":{"kind":"accessible","label":"Am Zwinger 5","detail":"1 Platz · Grundbuchamt KA-Durlach"},"geometry":{"type":"Point","coordinates":[8.47078,48.99865]}},{"type":"Feature","properties":{"kind":"accessible","label":"Marstallstraße 2","detail":"1 Platz"},"geometry":{"type":"Point","coordinates":[8.47324,48.99895]}},{"type":"Feature","properties":{"kind":"accessible","label":"Badener Straße 2","detail":"1 Platz · Orthopädie- + Rehatechnik Behm"},"geometry":{"type":"Point","coordinates":[8.47594,48.99916]}},{"type":"Feature","properties":{"kind":"accessible","label":"Westmarkstraße 1","detail":"1 Platz · Volksbank"},"geometry":{"type":"Point","coordinates":[8.46128,48.99292]}},{"type":"Feature","properties":{"kind":"accessible","label":"Raiherwiesenstraße 19","detail":"1 Platz · Apotheke + Volksbank"},"geometry":{"type":"Point","coordinates":[8.45882,48.99748]}},{"type":"Feature","properties":{"kind":"accessible","label":"Niddastraße 6","detail":"1 Platz · Rathaus Grötzingen"},"geometry":{"type":"Point","coordinates":[8.49532,49.00738]}},{"type":"Feature","properties":{"kind":"accessible","label":"Eisenbahnstraße","detail":"2 Plätze · ggü. Hsnr. 38 / Bahnhof Grötzingen"},"geometry":{"type":"Point","coordinates":[8.49354,49.00606]}},{"type":"Feature","properties":{"kind":"accessible","label":"Karl-Jäck-Weg 1","detail":"1 Platz · Friedhof Grötzingen, links vom Eingang"},"geometry":{"type":"Point","coordinates":[8.51126,49.00414]}},{"type":"Feature","properties":{"kind":"accessible","label":"Karl-Jäck-Weg 1","detail":"1 Platz · Friedhof Grötzingen, rechts vom Eingang"},"geometry":{"type":"Point","coordinates":[8.51087,49.00413]}},{"type":"Feature","properties":{"kind":"accessible","label":"Hörgelstraße 13","detail":"1 Platz · PrivatP St.-Margaretha-Kirche"},"geometry":{"type":"Point","coordinates":[8.45436,48.9779]}},{"type":"Feature","properties":{"kind":"accessible","label":"Kirchplatz 4","detail":"1 Platz · Rathaus Hohenwettersbach"},"geometry":{"type":"Point","coordinates":[8.47764,48.96551]}},{"type":"Feature","properties":{"kind":"accessible","label":"Spitalhof 30","detail":"1 Platz · Friedhof Hohenwettersbach"},"geometry":{"type":"Point","coordinates":[8.47217,48.96406]}},{"type":"Feature","properties":{"kind":"accessible","label":"Kleingärtnerweg 9","detail":"1 Platz · Kleingartenanlage Kuhweide"},"geometry":{"type":"Point","coordinates":[8.4546,49.01702]}},{"type":"Feature","properties":{"kind":"accessible","label":"Ehrmannstraße","detail":"1 Platz · ggü. Hsnr. 8 / Institut für Arbeits- und Sozialhygiene"},"geometry":{"type":"Point","coordinates":[8.38174,49.0013]}},{"type":"Feature","properties":{"kind":"accessible","label":"Steinhäuserstraße 22","detail":"2 Plätze · ADAC, Bürgerbüro Süd"},"geometry":{"type":"Point","coordinates":[8.38058,48.99679]}},{"type":"Feature","properties":{"kind":"accessible","label":"Kaiserallee 8 (Innenhof)","detail":"2 Plätze · Bürgerbüro K8"},"geometry":{"type":"Point","coordinates":[8.38283,49.01144]}},{"type":"Feature","properties":{"kind":"accessible","label":"Friedhofweg","detail":"1 Platz · Parkplatz Friedhof"},"geometry":{"type":"Point","coordinates":[8.48077,48.94754]}},{"type":"Feature","properties":{"kind":"accessible","label":"Kaiserstraße 166","detail":"2 Plätze"},"geometry":{"type":"Point","coordinates":[8.39284,49.01013]}},{"type":"Feature","properties":{"kind":"accessible","label":"Douglasstraße","detail":"2 Plätze · Ecke Kaiserstr. 223"},"geometry":{"type":"Point","coordinates":[8.39343,49.00978]}},{"type":"Feature","properties":{"kind":"accessible","label":"Sophienstraße 18","detail":"1 Platz · Orthopädietechnik Weckenmann"},"geometry":{"type":"Point","coordinates":[8.3924,49.00661]}},{"type":"Feature","properties":{"kind":"accessible","label":"Moltkestraße 29","detail":"1 Platz · Haus der Heimat"},"geometry":{"type":"Point","coordinates":[8.38854,49.01459]}},{"type":"Feature","properties":{"kind":"accessible","label":"Kaiserallee 33","detail":"1 Platz · Schiller-Apotheke"},"geometry":{"type":"Point","coordinates":[8.37963,49.0106]}},{"type":"Feature","properties":{"kind":"accessible","label":"Im Stalbühl","detail":"1 Platz"},"geometry":{"type":"Point","coordinates":[8.50653,49.02939]}},{"type":"Feature","properties":{"kind":"accessible","label":"Ettlinger Straße 4","detail":"1 Platz"},"geometry":{"type":"Point","coordinates":[8.40304,49.00195]}},{"type":"Feature","properties":{"kind":"accessible","label":"Ettlinger Straße 3b","detail":"1 Platz"},"geometry":{"type":"Point","coordinates":[8.40327,49.00277]}},{"type":"Feature","properties":{"kind":"accessible","label":"Feldstraße 12","detail":"Behindertenheim"},"geometry":{"type":"Point","coordinates":[8.36007,49.01551]}},{"type":"Feature","properties":{"kind":"accessible","label":"Kriegsstraße","detail":"3 Plätze · KVBW"},"geometry":{"type":"Point","coordinates":[8.41939,49.00456]}},{"type":"Feature","properties":{"kind":"accessible","label":"Hinterm Hauptbahnhof","detail":"2 Plätze"},"geometry":{"type":"Point","coordinates":[8.40198,48.99205]}},{"type":"Feature","properties":{"kind":"accessible","label":"Wiesenstraße","detail":"1 Platz · ggü. Hsnr. 2"},"geometry":{"type":"Point","coordinates":[8.47004,48.95559]}},{"type":"Feature","properties":{"kind":"accessible","label":"Thüringer Straße","detail":"1 Platz · Parkplatz"},"geometry":{"type":"Point","coordinates":[8.47737,48.95308]}},{"type":"Feature","properties":{"kind":"accessible","label":"Waldbronner Straße","detail":"1 Platz · Parkplatz Sportplatz"},"geometry":{"type":"Point","coordinates":[8.47861,48.94434]}},{"type":"Feature","properties":{"kind":"accessible","label":"Bergacker","detail":"1 Platz · Parkplatz Friedhof"},"geometry":{"type":"Point","coordinates":[8.47118,48.95734]}},{"type":"Feature","properties":{"kind":"accessible","label":"Hebelstraße","detail":"2 Plätze · gegenüber Polizei"},"geometry":{"type":"Point","coordinates":[8.40418,49.00816]}},{"type":"Feature","properties":{"kind":"accessible","label":"Wiesenstraße","detail":"1 Platz · Parkplatz Skulpturenpark"},"geometry":{"type":"Point","coordinates":[8.47309,48.95019]}},{"type":"Feature","properties":{"kind":"accessible","label":"Lerchenstraße","detail":"1 Platz · ggü. Hsnr. 14 / Friedhof Mühlburg"},"geometry":{"type":"Point","coordinates":[8.35663,49.01385]}},{"type":"Feature","properties":{"kind":"accessible","label":"Kochstraße 7","detail":"1 Platz · VLW, Bürgerbüro K8"},"geometry":{"type":"Point","coordinates":[8.38201,49.01131]}},{"type":"Feature","properties":{"kind":"accessible","label":"Kochstraße","detail":"1 Platz · Ecke Kaiserallee 8 / VLW, Bürgerbüro K8"},"geometry":{"type":"Point","coordinates":[8.38199,49.01093]}},{"type":"Feature","properties":{"kind":"accessible","label":"Georg-Friedrich-Straße 5","detail":"1 Platz"},"geometry":{"type":"Point","coordinates":[8.42337,49.01041]}},{"type":"Feature","properties":{"kind":"accessible","label":"Frauenalber Straße 2","detail":"1 Platz"},"geometry":{"type":"Point","coordinates":[8.40414,48.96597]}},{"type":"Feature","properties":{"kind":"accessible","label":"Karlstraße 20","detail":"1 Platz · Kunstgliederbau GmbH"},"geometry":{"type":"Point","coordinates":[8.39472,49.00752]}},{"type":"Feature","properties":{"kind":"accessible","label":"Karl-Weysser-Straße 14","detail":"1 Platz · Sanitätshaus"},"geometry":{"type":"Point","coordinates":[8.47658,48.99886]}},{"type":"Feature","properties":{"kind":"accessible","label":"Lachenweg","detail":"1 Platz · ggü. Hsnr. 24 / Kleingartenanlage Reitschulschlag"},"geometry":{"type":"Point","coordinates":[8.45544,49.04255]}},{"type":"Feature","properties":{"kind":"accessible","label":"Baumeisterstraße 2","detail":"1 Platz · Haus der Region"},"geometry":{"type":"Point","coordinates":[8.40391,49.00373]}},{"type":"Feature","properties":{"kind":"accessible","label":"Mühlstraße 6","detail":"1 Platz"},"geometry":{"type":"Point","coordinates":[8.49667,49.00634]}},{"type":"Feature","properties":{"kind":"accessible","label":"Am Sportpark 1","detail":"4 Plätze · Fächerbad"},"geometry":{"type":"Point","coordinates":[8.44466,49.02618]}},{"type":"Feature","properties":{"kind":"accessible","label":"Sophienstraße 268","detail":"1 Platz"},"geometry":{"type":"Point","coordinates":[8.3611,49.01079]}},{"type":"Feature","properties":{"kind":"accessible","label":"Neisser Straße 12","detail":"3 Plätze · Waldstadt-Zentrum"},"geometry":{"type":"Point","coordinates":[8.4443,49.03483]}},{"type":"Feature","properties":{"kind":"accessible","label":"Albtalstraße 2","detail":"1 Platz · Kolpinghaus"},"geometry":{"type":"Point","coordinates":[8.39446,48.99706]}},{"type":"Feature","properties":{"kind":"accessible","label":"Kirchfeldstraße 5a","detail":"1 Platz · Gemeindehaus Waldenserpfarrei"},"geometry":{"type":"Point","coordinates":[8.37177,49.04682]}},{"type":"Feature","properties":{"kind":"accessible","label":"Bismarckstraße 53","detail":"1 Platz · Praxis für Krankengymnastik"},"geometry":{"type":"Point","coordinates":[8.39187,49.01286]}},{"type":"Feature","properties":{"kind":"accessible","label":"Karlstraße 23","detail":"1 Platz"},"geometry":{"type":"Point","coordinates":[8.39497,49.00843]}},{"type":"Feature","properties":{"kind":"accessible","label":"Kaiserstraße 225","detail":"2 Plätze · Sparkasse"},"geometry":{"type":"Point","coordinates":[8.39246,49.01007]}},{"type":"Feature","properties":{"kind":"accessible","label":"Erbprinzenhof","detail":"2 Plätze"},"geometry":{"type":"Point","coordinates":[8.39732,49.00938]}},{"type":"Feature","properties":{"kind":"accessible","label":"Salbeiweg 16","detail":"1 Platz · P an Straba-Haltestelle"},"geometry":{"type":"Point","coordinates":[8.38769,49.03608]}},{"type":"Feature","properties":{"kind":"accessible","label":"Brauerstraße 10","detail":"2 Plätze · Arbeitsamt"},"geometry":{"type":"Point","coordinates":[8.38625,49.00308]}},{"type":"Feature","properties":{"kind":"accessible","label":"Gärtnerstraße","detail":"1 Platz · Parkplatz Festplatz / Schwerbeh.-beauftr. + Beh.-beirat"},"geometry":{"type":"Point","coordinates":[8.46737,48.99765]}},{"type":"Feature","properties":{"kind":"accessible","label":"Amthausstraße","detail":"1 Platz · ggü. Hsnr. 9 / Schwerbeh.-beauftr. + Beh.-beirat"},"geometry":{"type":"Point","coordinates":[8.4715,48.99858]}},{"type":"Feature","properties":{"kind":"accessible","label":"Amalienbadstraße 15","detail":"1 Platz"},"geometry":{"type":"Point","coordinates":[8.46636,48.99856]}},{"type":"Feature","properties":{"kind":"accessible","label":"Pfinztalstraße 71","detail":"1 Platz"},"geometry":{"type":"Point","coordinates":[8.46749,48.99946]}},{"type":"Feature","properties":{"kind":"accessible","label":"Pfinztalstraße 6","detail":"1 Platz"},"geometry":{"type":"Point","coordinates":[8.47524,48.99938]}},{"type":"Feature","properties":{"kind":"accessible","label":"Ochsentor Straße 12","detail":"1 Platz"},"geometry":{"type":"Point","coordinates":[8.47292,49.00001]}},{"type":"Feature","properties":{"kind":"accessible","label":"Zunftstraße 5","detail":"1 Platz · nördl. Altstadtring"},"geometry":{"type":"Point","coordinates":[8.4716,48.99992]}},{"type":"Feature","properties":{"kind":"accessible","label":"Emil-Frommel-Straße 35","detail":"1 Platz · Eingang Hauptfriedhof"},"geometry":{"type":"Point","coordinates":[8.42975,49.01433]}},{"type":"Feature","properties":{"kind":"accessible","label":"Steinhäuserstraße 18","detail":"2 Plätze · Vincentius-Krankenhaus"},"geometry":{"type":"Point","coordinates":[8.38082,48.99931]}},{"type":"Feature","properties":{"kind":"accessible","label":"Sophienstraße 22","detail":"1 Platz · Orthopädieschuhhandwerksgeschäft"},"geometry":{"type":"Point","coordinates":[8.39162,49.00688]}},{"type":"Feature","properties":{"kind":"accessible","label":"Leopoldstraße","detail":"1 Platz · Ecke Kaiserstraße 190 / Arztpraxen"},"geometry":{"type":"Point","coordinates":[8.38982,49.01046]}},{"type":"Feature","properties":{"kind":"accessible","label":"Marstallstraße 18/18A","detail":"1 Platz · OR Durlach"},"geometry":{"type":"Point","coordinates":[8.47317,48.99775]}},{"type":"Feature","properties":{"kind":"accessible","label":"Steinhäuserstraße 18 c","detail":"2 Plätze · Lebenshilfe KA"},"geometry":{"type":"Point","coordinates":[8.38076,48.99839]}},{"type":"Feature","properties":{"kind":"accessible","label":"Herrenstraße 2","detail":"1 Platz · BB-Bank"},"geometry":{"type":"Point","coordinates":[8.40071,49.01086]}},{"type":"Feature","properties":{"kind":"accessible","label":"Benzstraße 9","detail":"1 Platz · SRH Fachschule für Physiotherapie"},"geometry":{"type":"Point","coordinates":[8.36556,49.00104]}},{"type":"Feature","properties":{"kind":"accessible","label":"Reichardtstraße 31","detail":"2 Plätze · Aussichtsterrasse Turmberg"},"geometry":{"type":"Point","coordinates":[8.48555,48.9973]}},{"type":"Feature","properties":{"kind":"accessible","label":"Ettlinger Allee 9","detail":"3 Plätze · Postsportverein"},"geometry":{"type":"Point","coordinates":[8.40425,48.98439]}},{"type":"Feature","properties":{"kind":"accessible","label":"Diakonissenstraße 28","detail":"1 Platz · Krankenhaus"},"geometry":{"type":"Point","coordinates":[8.40887,48.9724]}},{"type":"Feature","properties":{"kind":"accessible","label":"Kußmaulstraße 8","detail":"2 Plätze · Kinderklinik"},"geometry":{"type":"Point","coordinates":[8.37108,49.01901]}},{"type":"Feature","properties":{"kind":"accessible","label":"Nowackanlage 17","detail":"1 Platz · Ärztehaus Nowackanlage 15"},"geometry":{"type":"Point","coordinates":[8.40386,49.0031]}},{"type":"Feature","properties":{"kind":"accessible","label":"Lammstraße","detail":"3 Plätze · Friedrichsplatz"},"geometry":{"type":"Point","coordinates":[8.40179,49.008]}},{"type":"Feature","properties":{"kind":"accessible","label":"Mannheimer Straße 2","detail":"2 Plätze · Sporthalle Rintheim"},"geometry":{"type":"Point","coordinates":[8.44034,49.01155]}},{"type":"Feature","properties":{"kind":"accessible","label":"Unterfeldstraße 12-21","detail":"1 Platz"},"geometry":{"type":"Point","coordinates":[8.37922,49.04726]}},{"type":"Feature","properties":{"kind":"accessible","label":"Zirkel 23","detail":"5 Plätze"},"geometry":{"type":"Point","coordinates":[8.40338,49.01016]}},{"type":"Feature","properties":{"kind":"accessible","label":"Waldstraße","detail":"2 Plätze · vor Amtsgericht KA, Schloßplatz 23"},"geometry":{"type":"Point","coordinates":[8.40032,49.01152]}},{"type":"Feature","properties":{"kind":"accessible","label":"Lorenzstraße 10 ggü","detail":"1 Platz"},"geometry":{"type":"Point","coordinates":[8.38332,49.00348]}},{"type":"Feature","properties":{"kind":"accessible","label":"Schönfeldstraße 1","detail":"1 Platz · Altenclub der AWO"},"geometry":{"type":"Point","coordinates":[8.42311,49.0125]}},{"type":"Feature","properties":{"kind":"accessible","label":"Hirtenweg 21","detail":"1 Platz"},"geometry":{"type":"Point","coordinates":[8.44364,49.01702]}},{"type":"Feature","properties":{"kind":"accessible","label":"Siegfried-Kühn-Straße 2","detail":"1 Platz"},"geometry":{"type":"Point","coordinates":[8.38076,49.00199]}},{"type":"Feature","properties":{"kind":"accessible","label":"Steinhäuserstraße 11","detail":"1 Platz · Landesoberkasse Karlsruhe"},"geometry":{"type":"Point","coordinates":[8.38122,49.00264]}},{"type":"Feature","properties":{"kind":"accessible","label":"Steinhäuserstraße 10","detail":"1 Platz · Südwestliche Bau-Berufsgenossenschaft"},"geometry":{"type":"Point","coordinates":[8.3812,49.00283]}},{"type":"Feature","properties":{"kind":"accessible","label":"Lorenzstraße 19 ggü","detail":"1 Platz · ZKM"},"geometry":{"type":"Point","coordinates":[8.38303,49.00111]}},{"type":"Feature","properties":{"kind":"accessible","label":"Hebelstraße","detail":"4 Plätze · gegenüber Hsnr. 11"},"geometry":{"type":"Point","coordinates":[8.40335,49.00819]}},{"type":"Feature","properties":{"kind":"accessible","label":"Mauerweg 4","detail":"1 Platz · Friedhof"},"geometry":{"type":"Point","coordinates":[8.33933,49.00677]}},{"type":"Feature","properties":{"kind":"accessible","label":"Herrenstraße 25","detail":"3 Plätze"},"geometry":{"type":"Point","coordinates":[8.39793,49.00851]}},{"type":"Feature","properties":{"kind":"accessible","label":"Stephanienstraße 5a","detail":"1 Platz"},"geometry":{"type":"Point","coordinates":[8.39753,49.0125]}},{"type":"Feature","properties":{"kind":"accessible","label":"Stephanienstraße 7","detail":"1 Platz"},"geometry":{"type":"Point","coordinates":[8.39735,49.01246]}},{"type":"Feature","properties":{"kind":"accessible","label":"Karlstraße 29","detail":"1 Platz · versch. Ärzte + Apotheke"},"geometry":{"type":"Point","coordinates":[8.39487,49.00754]}},{"type":"Feature","properties":{"kind":"accessible","label":"Herrenstraße 2","detail":"2 Plätze · BBBank"},"geometry":{"type":"Point","coordinates":[8.40031,49.01051]}},{"type":"Feature","properties":{"kind":"accessible","label":"Waldstraße 25","detail":"2 Plätze"},"geometry":{"type":"Point","coordinates":[8.39862,49.01063]}},{"type":"Feature","properties":{"kind":"accessible","label":"Waldhornstraße","detail":"2 Plätze · Ecke Markgrafenstraße"},"geometry":{"type":"Point","coordinates":[8.41222,49.00803]}},{"type":"Feature","properties":{"kind":"accessible","label":"Zähringerstraße 10","detail":"1 Platz · Studentenzentrum"},"geometry":{"type":"Point","coordinates":[8.41412,49.00848]}},{"type":"Feature","properties":{"kind":"accessible","label":"Dürerstraße 3a","detail":"2 Plätze"},"geometry":{"type":"Point","coordinates":[8.38226,49.04672]}},{"type":"Feature","properties":{"kind":"accessible","label":"Rubensstraße","detail":"2 Plätze · Neureuter Platz / Badnerlandhalle"},"geometry":{"type":"Point","coordinates":[8.3828,49.04432]}},{"type":"Feature","properties":{"kind":"accessible","label":"Rubensstraße 17","detail":"3 Plätze · Neuapostolische Kirche"},"geometry":{"type":"Point","coordinates":[8.38244,49.04389]}},{"type":"Feature","properties":{"kind":"accessible","label":"Hermann-Veit-Straße 7","detail":"2 Plätze · Europahalle"},"geometry":{"type":"Point","coordinates":[8.37785,48.99722]}},{"type":"Feature","properties":{"kind":"accessible","label":"Griesbachstraße 1","detail":"2 Plätze · Landesanstalt für Umweltschutz"},"geometry":{"type":"Point","coordinates":[8.36761,49.00083]}},{"type":"Feature","properties":{"kind":"accessible","label":"Adlerstraße 45","detail":"1 Platz · Orthopädie-Schuhtechnik"},"geometry":{"type":"Point","coordinates":[8.40849,49.00602]}},{"type":"Feature","properties":{"kind":"accessible","label":"Stabelstraße","detail":"1 Platz · ggü. Hsnr. 12 / Oberlandesgericht Karlsruhe"},"geometry":{"type":"Point","coordinates":[8.38451,49.01325]}},{"type":"Feature","properties":{"kind":"accessible","label":"Finterstraße 2","detail":"5 Plätze · Badisches Staatstheater"},"geometry":{"type":"Point","coordinates":[8.40459,49.00462]}},{"type":"Feature","properties":{"kind":"accessible","label":"Bahnhofsplatz 1a","detail":"1 Platz · Hauptbahnhof Karlsruhe"},"geometry":{"type":"Point","coordinates":[8.40125,48.99443]}},{"type":"Feature","properties":{"kind":"accessible","label":"Herrenalber Straße 45","detail":"1 Platz · Postamt"},"geometry":{"type":"Point","coordinates":[8.40476,48.97155]}},{"type":"Feature","properties":{"kind":"accessible","label":"Südendstraße 32","detail":"1 Platz · St.-Vincentius-Krankenhaus"},"geometry":{"type":"Point","coordinates":[8.38861,48.99864]}},{"type":"Feature","properties":{"kind":"accessible","label":"Südendstraße 43","detail":"5 Plätze · u. Krankentransport Dialysezentrum"},"geometry":{"type":"Point","coordinates":[8.38681,48.99867]}},{"type":"Feature","properties":{"kind":"accessible","label":"Südliche Hildapromenade","detail":"3 Plätze · Ecke Kaiserallee / Rathaus West"},"geometry":{"type":"Point","coordinates":[8.38542,49.01104]}},{"type":"Feature","properties":{"kind":"accessible","label":"Bankhof","detail":"3 Plätze"},"geometry":{"type":"Point","coordinates":[8.40097,49.00891]}},{"type":"Feature","properties":{"kind":"accessible","label":"Rhode-Island-Allee","detail":"1 Platz · ggü. Hsnr. 75 / Kirche"},"geometry":{"type":"Point","coordinates":[8.38715,49.02726]}},{"type":"Feature","properties":{"kind":"accessible","label":"Alte Kreisstraße 42","detail":"1 Platz"},"geometry":{"type":"Point","coordinates":[8.38974,49.04407]}},{"type":"Feature","properties":{"kind":"accessible","label":"Hermann-Schneider-Allee 52","detail":"11 Plätze · Rheinstrandbad Rappenwörth"},"geometry":{"type":"Point","coordinates":[8.29501,48.99921]}},{"type":"Feature","properties":{"kind":"accessible","label":"Kronenstraße 13","detail":"2 Plätze · AWO Seniorenzentrum"},"geometry":{"type":"Point","coordinates":[8.40812,49.00975]}},{"type":"Feature","properties":{"kind":"accessible","label":"Ettlinger Straße 4b","detail":"4 Plätze · Tullabad / Gartenhalle"},"geometry":{"type":"Point","coordinates":[8.40257,49.00088]}},{"type":"Feature","properties":{"kind":"accessible","label":"Gritznerstraße","detail":"1 Platz · ggü. Hsnr. 11 / AOK + versch. Fachärzte"},"geometry":{"type":"Point","coordinates":[8.46502,48.99898]}},{"type":"Feature","properties":{"kind":"accessible","label":"Am Sonnenbad","detail":"4 Plätze · Sonnenbad"},"geometry":{"type":"Point","coordinates":[8.3467,49.01307]}},{"type":"Feature","properties":{"kind":"accessible","label":"Hohlohstraße 100","detail":"2 Plätze · Gaststätte Siedlerheim"},"geometry":{"type":"Point","coordinates":[8.35179,48.98976]}},{"type":"Feature","properties":{"kind":"accessible","label":"Amalienstraße 15","detail":"1 Platz · Sanitätshaus"},"geometry":{"type":"Point","coordinates":[8.39534,49.00763]}},{"type":"Feature","properties":{"kind":"accessible","label":"Rheinstraße 34","detail":"1 Platz"},"geometry":{"type":"Point","coordinates":[8.36084,49.01131]}},{"type":"Feature","properties":{"kind":"accessible","label":"Nuitsstraße 4a","detail":"1 Platz · Sanitätshaus Langmann"},"geometry":{"type":"Point","coordinates":[8.3626,49.01115]}},{"type":"Feature","properties":{"kind":"accessible","label":"Adenauerring","detail":"10 Plätze · Wildparkstadion / Birkenparkplatz"},"geometry":{"type":"Point","coordinates":[8.41495,49.02097]}},{"type":"Feature","properties":{"kind":"accessible","label":"Franz-Lust-Straße 30","detail":"1 Platz · Klinik für Herzchirurgie"},"geometry":{"type":"Point","coordinates":[8.37543,49.01825]}},{"type":"Feature","properties":{"kind":"accessible","label":"Franz-Lust-Straße 30","detail":"1 Platz · Klinik für Herzchirurgie"},"geometry":{"type":"Point","coordinates":[8.37551,49.01802]}},{"type":"Feature","properties":{"kind":"accessible","label":"Franz-Lust-Straße","detail":"1 Platz · Ecke Knielinger Allee / Städt. Klinikum"},"geometry":{"type":"Point","coordinates":[8.37518,49.01896]}},{"type":"Feature","properties":{"kind":"accessible","label":"Lötzener Straße 18","detail":"2 Plätze · Waldstadt-Zentrum"},"geometry":{"type":"Point","coordinates":[8.44526,49.03565]}},{"type":"Feature","properties":{"kind":"accessible","label":"Schückstraße 8","detail":"1 Platz"},"geometry":{"type":"Point","coordinates":[8.43298,49.00901]}},{"type":"Feature","properties":{"kind":"accessible","label":"Georg-Scholz-Straße","detail":"2 Plätze"},"geometry":{"type":"Point","coordinates":[8.51006,49.00392]}},{"type":"Feature","properties":{"kind":"accessible","label":"Beiertheimer Allee 2","detail":"2 Plätze · Landratsamt Karlsruhe"},"geometry":{"type":"Point","coordinates":[8.40116,49.00446]}},{"type":"Feature","properties":{"kind":"accessible","label":"Winkler-Dentz-Straße 7 ggü","detail":"1 Platz"},"geometry":{"type":"Point","coordinates":[8.50427,49.00402]}},{"type":"Feature","properties":{"kind":"accessible","label":"Nelkenstraße","detail":"1 Platz · ggü. Hsnr. 27 / Gutenbergplatz"},"geometry":{"type":"Point","coordinates":[8.37606,49.00882]}},{"type":"Feature","properties":{"kind":"accessible","label":"Peter-und-Paul-Platz 1","detail":"1 Platz"},"geometry":{"type":"Point","coordinates":[8.36524,49.01107]}},{"type":"Feature","properties":{"kind":"accessible","label":"Kaiserstraße 182","detail":"1 Platz"},"geometry":{"type":"Point","coordinates":[8.39099,49.01022]}},{"type":"Feature","properties":{"kind":"accessible","label":"Hoffstraße 3","detail":"1 Platz · Anregung des OLG"},"geometry":{"type":"Point","coordinates":[8.38508,49.01263]}},{"type":"Feature","properties":{"kind":"accessible","label":"Zeppelinstraße 52","detail":"1 Platz"},"geometry":{"type":"Point","coordinates":[8.35506,49.00334]}},{"type":"Feature","properties":{"kind":"accessible","label":"Memeler Straße 21","detail":"1 Platz"},"geometry":{"type":"Point","coordinates":[8.45637,48.98814]}},{"type":"Feature","properties":{"kind":"accessible","label":"Karlstraße 45","detail":"1 Platz · Orthopädie-Schuhtechnik"},"geometry":{"type":"Point","coordinates":[8.39476,49.00659]}},{"type":"Feature","properties":{"kind":"accessible","label":"Edgar-von-Gierke-Straße 2","detail":"1 Platz · Eingang Marienkrankenhaus"},"geometry":{"type":"Point","coordinates":[8.37917,49.00143]}},{"type":"Feature","properties":{"kind":"accessible","label":"Engesserstraße 1","detail":"1 Platz · KIT-Campus Süd, Geb. 20.40"},"geometry":{"type":"Point","coordinates":[8.4114,49.01147]}},{"type":"Feature","properties":{"kind":"accessible","label":"Moltkestraße 60","detail":"2 Plätze · Eingang Freydorfstraße"},"geometry":{"type":"Point","coordinates":[8.37927,49.01523]}},{"type":"Feature","properties":{"kind":"accessible","label":"Ettlinger Straße 27","detail":"1 Platz"},"geometry":{"type":"Point","coordinates":[8.40379,48.99877]}},{"type":"Feature","properties":{"kind":"accessible","label":"Röntgenstraße 6","detail":"1 Platz"},"geometry":{"type":"Point","coordinates":[8.38332,49.01169]}},{"type":"Feature","properties":{"kind":"accessible","label":"Sternstraße 3","detail":"3 Plätze"},"geometry":{"type":"Point","coordinates":[8.35508,49.01185]}},{"type":"Feature","properties":{"kind":"accessible","label":"Rheinstraße","detail":"1 Platz · Peter-und-Paul-Platz 1"},"geometry":{"type":"Point","coordinates":[8.36466,49.01131]}},{"type":"Feature","properties":{"kind":"accessible","label":"Rheinstraße 45","detail":"1 Platz"},"geometry":{"type":"Point","coordinates":[8.36093,49.01117]}},{"type":"Feature","properties":{"kind":"accessible","label":"Eichelbergstraße 1 ggü","detail":"1 Platz"},"geometry":{"type":"Point","coordinates":[8.35043,48.9988]}},{"type":"Feature","properties":{"kind":"accessible","label":"Bahnhofplatz","detail":"1 Platz"},"geometry":{"type":"Point","coordinates":[8.39946,48.99396]}},{"type":"Feature","properties":{"kind":"accessible","label":"Kaiserallee 47","detail":"1 Platz"},"geometry":{"type":"Point","coordinates":[8.37844,49.01065]}},{"type":"Feature","properties":{"kind":"accessible","label":"Adlerstraße 14","detail":"1 Platz"},"geometry":{"type":"Point","coordinates":[8.40687,49.00918]}},{"type":"Feature","properties":{"kind":"accessible","label":"Adlerstraße 10","detail":"1 Platz · Bundesverb. Selbsthilfe Körperbehinderter e.V."},"geometry":{"type":"Point","coordinates":[8.40659,49.00974]}},{"type":"Feature","properties":{"kind":"accessible","label":"Bernhard-Lichtenberg-Straße 48","detail":"2 Plätze · Ökumen. Gemeindezentrum"},"geometry":{"type":"Point","coordinates":[8.36342,48.98577]}},{"type":"Feature","properties":{"kind":"accessible","label":"Unterweingartenfeld 4","detail":"2 Plätze · Media-Markt"},"geometry":{"type":"Point","coordinates":[8.37296,48.99219]}},{"type":"Feature","properties":{"kind":"accessible","label":"Mittelschmallen Friedhof","detail":"1 Platz · Friedhof Oberreut;"},"geometry":{"type":"Point","coordinates":[8.36954,48.98979]}},{"type":"Feature","properties":{"kind":"accessible","label":"Försterpfad / Gottl.-Schreber-Weg","detail":"1 Platz · Kleingartenanlage Forstlach"},"geometry":{"type":"Point","coordinates":[8.39322,48.97688]}},{"type":"Feature","properties":{"kind":"accessible","label":"Am Rüppurrer Schloß","detail":"2 Plätze · ggü. Hsnr. 10 / Oberwaldbad"},"geometry":{"type":"Point","coordinates":[8.41018,48.98152]}},{"type":"Feature","properties":{"kind":"accessible","label":"Mühlwiesenweg","detail":"2 Plätze · Freibad Rüppurr"},"geometry":{"type":"Point","coordinates":[8.40233,48.97971]}},{"type":"Feature","properties":{"kind":"accessible","label":"Karlsburgstraße 1","detail":"2 Plätze"},"geometry":{"type":"Point","coordinates":[8.4745,48.9988]}},{"type":"Feature","properties":{"kind":"accessible","label":"Weiherhof 13","detail":"2 Plätze · Weiherhofbad"},"geometry":{"type":"Point","coordinates":[8.47199,48.99741]}},{"type":"Feature","properties":{"kind":"accessible","label":"Alte Weingartener Straße 40","detail":"2 Plätze · Turmbergbad"},"geometry":{"type":"Point","coordinates":[8.48003,49.00422]}},{"type":"Feature","properties":{"kind":"accessible","label":"Schinnrainstraße","detail":"3 Plätze · ggü. Hsnr. 8 / KiGa im Markgrafen-Stift"},"geometry":{"type":"Point","coordinates":[8.45964,48.99877]}},{"type":"Feature","properties":{"kind":"accessible","label":"Zum Bergle 3","detail":"2 Plätze · Bergleshalle"},"geometry":{"type":"Point","coordinates":[8.50915,48.94834]}},{"type":"Feature","properties":{"kind":"accessible","label":"Schäferstraße 26","detail":"1 Platz · VTH Sportzentrum"},"geometry":{"type":"Point","coordinates":[8.46001,49.02767]}},{"type":"Feature","properties":{"kind":"accessible","label":"Julius-Bender-Straße 20","detail":"2 Plätze · HWK GmbH"},"geometry":{"type":"Point","coordinates":[8.4636,49.02742]}},{"type":"Feature","properties":{"kind":"accessible","label":"An der Tagweide 20","detail":"1 Platz · ASV Hagsfeld"},"geometry":{"type":"Point","coordinates":[8.46408,49.02707]}},{"type":"Feature","properties":{"kind":"accessible","label":"Kanalweg","detail":"1 Platz · ggü. Hsnr. 90 / Regulierungsbehörde für Telekomunikation und Post"},"geometry":{"type":"Point","coordinates":[8.39212,49.03052]}},{"type":"Feature","properties":{"kind":"accessible","label":"Alte Friedrichstraße 162","detail":"2 Plätze · Hauptfriedhof Neureut"},"geometry":{"type":"Point","coordinates":[8.38931,49.05706]}},{"type":"Feature","properties":{"kind":"accessible","label":"Neureuter Hauptstraße 254","detail":"1 Platz"},"geometry":{"type":"Point","coordinates":[8.37896,49.05258]}},{"type":"Feature","properties":{"kind":"accessible","label":"Unterfeldstraße","detail":"2 Plätze · Adolf-Ehrmann-Bad"},"geometry":{"type":"Point","coordinates":[8.38538,49.05079]}},{"type":"Feature","properties":{"kind":"accessible","label":"Max-Habermann-Straße 8","detail":"1 Platz · AMSEL-Kontaktgruppe"},"geometry":{"type":"Point","coordinates":[8.36134,48.98615]}},{"type":"Feature","properties":{"kind":"accessible","label":"Durmersheimer Straße 34","detail":"1 Platz · Friedhof Grünwinkel"},"geometry":{"type":"Point","coordinates":[8.35561,49.00541]}},{"type":"Feature","properties":{"kind":"accessible","label":"Hertzstraße","detail":"2 Plätze · Zugang Friedhof Nordwest"},"geometry":{"type":"Point","coordinates":[8.36443,49.03471]}},{"type":"Feature","properties":{"kind":"accessible","label":"Saarlandstraße 85","detail":"1 Platz"},"geometry":{"type":"Point","coordinates":[8.34069,49.03003]}},{"type":"Feature","properties":{"kind":"accessible","label":"Eggensteiner Straße","detail":"1 Platz · Friedhof Knielingen"},"geometry":{"type":"Point","coordinates":[8.33979,49.03444]}},{"type":"Feature","properties":{"kind":"accessible","label":"Erlenweg 2","detail":"2 Plätze · Wohnstift Rüppurr"},"geometry":{"type":"Point","coordinates":[8.40849,48.98229]}},{"type":"Feature","properties":{"kind":"accessible","label":"Diakonissenstraße 28","detail":"1 Platz · Ev. Diakonissenanstalt, Reha - Geriatrie"},"geometry":{"type":"Point","coordinates":[8.41257,48.97246]}},{"type":"Feature","properties":{"kind":"accessible","label":"Karlstraße 87","detail":"1 Platz · Gemeinschaftspraxis Dr. Dietsche"},"geometry":{"type":"Point","coordinates":[8.39397,48.99917]}},{"type":"Feature","properties":{"kind":"accessible","label":"Karlstraße 61","detail":"1 Platz"},"geometry":{"type":"Point","coordinates":[8.39448,49.00313]}},{"type":"Feature","properties":{"kind":"accessible","label":"Kriegsstraße 117","detail":"1 Platz · Allianz"},"geometry":{"type":"Point","coordinates":[8.3823,49.0054]}},{"type":"Feature","properties":{"kind":"accessible","label":"Karlstraße 51-59","detail":"2 Plätze · VdK + Fa. Handicap"},"geometry":{"type":"Point","coordinates":[8.39458,49.00411]}},{"type":"Feature","properties":{"kind":"accessible","label":"Werderstraße 33","detail":"1 Platz · Bürgergesellschaft Südstadt"},"geometry":{"type":"Point","coordinates":[8.40659,49.00156]}},{"type":"Feature","properties":{"kind":"accessible","label":"Luisenstraße 38","detail":"1 Platz · Hotel"},"geometry":{"type":"Point","coordinates":[8.40801,49.00082]}},{"type":"Feature","properties":{"kind":"accessible","label":"Bahnhofstraße","detail":"1 Platz · ggü. Friedrich-Scholl-Platz"},"geometry":{"type":"Point","coordinates":[8.3982,48.99938]}},{"type":"Feature","properties":{"kind":"accessible","label":"Am Stadtgarten","detail":"2 Plätze · gegenüber Schlosshotel"},"geometry":{"type":"Point","coordinates":[8.40184,48.99529]}},{"type":"Feature","properties":{"kind":"accessible","label":"Amalienstraße 91","detail":"1 Platz"},"geometry":{"type":"Point","coordinates":[8.38799,49.01015]}},{"type":"Feature","properties":{"kind":"accessible","label":"Augustenburgstraße","detail":"1 Platz · Schulparkplatz Mo-Fr 7-18h"},"geometry":{"type":"Point","coordinates":[8.49893,49.00419]}},{"type":"Feature","properties":{"kind":"accessible","label":"Killisfeldstraße vor Gebäude Raiherwiesenstraße 21","detail":"1 Platz"},"geometry":{"type":"Point","coordinates":[8.4598,48.99733]}},{"type":"Feature","properties":{"kind":"accessible","label":"Kreisstraße 9659","detail":"2 Plätze · P+R Durlach Bahnhof"},"geometry":{"type":"Point","coordinates":[8.46273,49.0028]}},{"type":"Feature","properties":{"kind":"accessible","label":"Pfeilerweg","detail":"1 Platz · Rathaus Grünwettersbach"},"geometry":{"type":"Point","coordinates":[8.46644,48.95758]}},{"type":"Feature","properties":{"kind":"accessible","label":"Pfeilerweg","detail":"1 Platz · Parkplatz Schwarzwaldverein"},"geometry":{"type":"Point","coordinates":[8.45255,48.95462]}},{"type":"Feature","properties":{"kind":"accessible","label":"Willmar-Schwabe-Straße","detail":"2 Plätze · Durlach Bahnhof"},"geometry":{"type":"Point","coordinates":[8.46285,49.0015]}},{"type":"Feature","properties":{"kind":"accessible","label":"Diakonissenstraße 28","detail":"1 Platz · Krankenhaus"},"geometry":{"type":"Point","coordinates":[8.40996,48.97242]}},{"type":"Feature","properties":{"kind":"accessible","label":"Luisenstraße 7","detail":"1 Platz"},"geometry":{"type":"Point","coordinates":[8.40385,49.0007]}},{"type":"Feature","properties":{"kind":"accessible","label":"Kronenstraße","detail":"1 Platz · Regierungspräsidium Karlsruhe"},"geometry":{"type":"Point","coordinates":[8.40722,49.01073]}},{"type":"Feature","properties":{"kind":"accessible","label":"Heinz-Wackenhut-Weg","detail":"1 Platz · Friedhof"},"geometry":{"type":"Point","coordinates":[8.44985,48.97297]}},{"type":"Feature","properties":{"kind":"accessible","label":"Kaiserstraße 229","detail":"1 Platz · Rewe"},"geometry":{"type":"Point","coordinates":[8.3919,49.0101]}},{"type":"Feature","properties":{"kind":"accessible","label":"Am dm-Platz","detail":"2 Plätze · P+R Untermühlsiedlung"},"geometry":{"type":"Point","coordinates":[8.45398,49.00274]}},{"type":"Feature","properties":{"kind":"accessible","label":"Nördliche Hildapromenade 3","detail":"1 Platz"},"geometry":{"type":"Point","coordinates":[8.38266,49.01301]}},{"type":"Feature","properties":{"kind":"accessible","label":"Durmersheimer Straße 60","detail":"2 Plätze · Arztpraxis"},"geometry":{"type":"Point","coordinates":[8.35557,49.00393]}},{"type":"Feature","properties":{"kind":"accessible","label":"Kleinsteinbacher Straße 14","detail":"1 Platz"},"geometry":{"type":"Point","coordinates":[8.51164,48.95463]}},{"type":"Feature","properties":{"kind":"accessible","label":"Im Stalbühl","detail":"1 Platz"},"geometry":{"type":"Point","coordinates":[8.50533,49.0305]}},{"type":"Feature","properties":{"kind":"accessible","label":"Kußmaulstraße 25","detail":"1 Platz"},"geometry":{"type":"Point","coordinates":[8.37239,49.02041]}},{"type":"Feature","properties":{"kind":"accessible","label":"Augustenburgstraße 11","detail":"1 Platz"},"geometry":{"type":"Point","coordinates":[8.49845,49.00466]}},{"type":"Feature","properties":{"kind":"accessible","label":"St.-Barbara-Weg","detail":"2 Plätze · Seelsorgeeinheit Allerheiligen / St.Konrad"},"geometry":{"type":"Point","coordinates":[8.36626,49.02371]}},{"type":"Feature","properties":{"kind":"accessible","label":"Augustenburgstraße","detail":"1 Platz · Stadtteilbibliothek"},"geometry":{"type":"Point","coordinates":[8.49832,49.00425]}},{"type":"Feature","properties":{"kind":"accessible","label":"Am Wetterbach 72 - 80","detail":"1 Platz"},"geometry":{"type":"Point","coordinates":[8.46805,48.95675]}},{"type":"Feature","properties":{"kind":"accessible","label":"Edgar-von-Gierke-Straße","detail":"2 Plätze · Haupteingang Vidia Klinik"},"geometry":{"type":"Point","coordinates":[8.37939,49.00068]}},{"type":"Feature","properties":{"kind":"accessible","label":"Karlstraße 10","detail":"2 Plätze"},"geometry":{"type":"Point","coordinates":[8.39507,49.01092]}},{"type":"Feature","properties":{"kind":"accessible","label":"Weinbrennerstraße 79a","detail":"1 Platz"},"geometry":{"type":"Point","coordinates":[8.36027,49.01025]}},{"type":"Feature","properties":{"kind":"accessible","label":"Beiertheimer Allee","detail":"1 Platz"},"geometry":{"type":"Point","coordinates":[8.3988,49.00257]}},{"type":"Feature","properties":{"kind":"accessible","label":"Schlossbergstraße","detail":"1 Platz · Freibad"},"geometry":{"type":"Point","coordinates":[8.45428,48.97281]}},{"type":"Feature","properties":{"kind":"accessible","label":"Schlossbergstraße","detail":"1 Platz · Freibad"},"geometry":{"type":"Point","coordinates":[8.45475,48.97222]}},{"type":"Feature","properties":{"kind":"accessible","label":"Bahnhofstraße 6","detail":"1 Platz · Arztpraxen, Physiotherapiepraxis"},"geometry":{"type":"Point","coordinates":[8.39515,49.00032]}},{"type":"Feature","properties":{"kind":"accessible","label":"Karl-Weysser-Straße 4","detail":"1 Platz · Arztpraxen"},"geometry":{"type":"Point","coordinates":[8.47577,48.99816]}},{"type":"Feature","properties":{"kind":"accessible","label":"Kriegsstraße 100","detail":"2 Plätze · Landratsamt"},"geometry":{"type":"Point","coordinates":[8.40517,49.00566]}},{"type":"Feature","properties":{"kind":"accessible","label":"Riefstahlstraße 2","detail":"1 Platz · Christuskirche"},"geometry":{"type":"Point","coordinates":[8.38652,49.0112]}},{"type":"Feature","properties":{"kind":"accessible","label":"Hebelstraße 21","detail":"2 Plätze"},"geometry":{"type":"Point","coordinates":[8.40238,49.00841]}},{"type":"Feature","properties":{"kind":"accessible","label":"Zirkel 28","detail":"2 Plätze"},"geometry":{"type":"Point","coordinates":[8.40343,49.0102]}},{"type":"Feature","properties":{"kind":"accessible","label":"Turmbergstraße 3","detail":"1 Platz"},"geometry":{"type":"Point","coordinates":[8.47795,48.99816]}},{"type":"Feature","properties":{"kind":"accessible","label":"Am Wald 2","detail":"1 Platz"},"geometry":{"type":"Point","coordinates":[8.38794,49.03202]}},{"type":"Feature","properties":{"kind":"accessible","label":"Hinterm Hauptbahnhof","detail":"3 Plätze"},"geometry":{"type":"Point","coordinates":[8.40117,48.99182]}},{"type":"Feature","properties":{"kind":"park_and_ride","label":"Untermühlstraße","detail":null},"geometry":{"type":"Point","coordinates":[8.45428,49.00277]}},{"type":"Feature","properties":{"kind":"park_and_ride","label":"Albert-Braun-Str.","detail":"65 Plätze"},"geometry":{"type":"Point","coordinates":[8.36416,48.98856]}},{"type":"Feature","properties":{"kind":"park_and_ride","label":"Hammäcker","detail":"30 Plätze"},"geometry":{"type":"Point","coordinates":[8.33487,48.99113]}},{"type":"Feature","properties":{"kind":"park_and_ride","label":"Europahalle","detail":"60 Plätze"},"geometry":{"type":"Point","coordinates":[8.3782,48.99694]}},{"type":"Feature","properties":{"kind":"park_and_ride","label":"Thomas-Mann-Str.","detail":"74 Plätze"},"geometry":{"type":"Point","coordinates":[8.33868,48.99807]}},{"type":"Feature","properties":{"kind":"park_and_ride","label":"Kühler Krug","detail":"40 Plätze"},"geometry":{"type":"Point","coordinates":[8.36716,49.0055]}},{"type":"Feature","properties":{"kind":"park_and_ride","label":"Ostring","detail":"50 Plätze"},"geometry":{"type":"Point","coordinates":[8.44006,49.01171]}},{"type":"Feature","properties":{"kind":"park_and_ride","label":"Bahnhof","detail":"25 Plätze"},"geometry":{"type":"Point","coordinates":[8.35131,49.01502]}},{"type":"Feature","properties":{"kind":"park_and_ride","label":"Rheinhafen","detail":"23 Plätze"},"geometry":{"type":"Point","coordinates":[8.34577,49.01576]}},{"type":"Feature","properties":{"kind":"park_and_ride","label":"Fächerbad","detail":"70 Plätze"},"geometry":{"type":"Point","coordinates":[8.44668,49.02576]}},{"type":"Feature","properties":{"kind":"park_and_ride","label":"Bahnhof","detail":"25 Plätze · Neubrunnenstraße"},"geometry":{"type":"Point","coordinates":[8.45377,49.02775]}},{"type":"Feature","properties":{"kind":"park_and_ride","label":"Rheinbergstraße","detail":"35 Plätze"},"geometry":{"type":"Point","coordinates":[8.33587,49.03521]}},{"type":"Feature","properties":{"kind":"park_and_ride","label":"Welschneureuter Str.","detail":"15 Plätze"},"geometry":{"type":"Point","coordinates":[8.3744,49.04455]}},{"type":"Feature","properties":{"kind":"park_and_ride","label":"Bärenweg","detail":"20 Plätze"},"geometry":{"type":"Point","coordinates":[8.37755,49.04605]}},{"type":"Feature","properties":{"kind":"park_and_ride","label":"Adolf-Ehrmann-Bad","detail":"19 Plätze"},"geometry":{"type":"Point","coordinates":[8.38544,49.05084]}},{"type":"Feature","properties":{"kind":"park_and_ride","label":"Bahnhof","detail":"Bruchsaler Straße unter der Brücke"},"geometry":{"type":"Point","coordinates":[8.45457,49.02733]}},{"type":"Feature","properties":{"kind":"park_and_ride","label":"Bahnhof","detail":"50 Plätze"},"geometry":{"type":"Point","coordinates":[8.46294,49.00292]}},{"type":"Feature","properties":{"kind":"park_and_ride","label":"Bahnhof","detail":"38 Plätze"},"geometry":{"type":"Point","coordinates":[8.49401,49.00582]}},{"type":"Feature","properties":{"kind":"park_and_ride","label":"Neureut-Heide","detail":null},"geometry":{"type":"Point","coordinates":[8.3887,49.0376]}}]}