{"type":"FeatureCollection","features":[{"type":"Feature","properties":{"name":"Rellinghausen"},"geometry":{"type":"Polygon","coordinates":[[[7.05331,51.42999],[7.052,51.43046],[7.0506,51.4305],[7.04457,51.42947],[7.04096,51.42861],[7.04033,51.42826],[7.04014,51.42799],[7.04019,51.42749],[7.04061,51.42717],[7.04066,51.4267],[7.04054,51.42652],[7.03925,51.42603],[7.03911,51.42564],[7.03923,51.42515],[7.0406,51.42346],[7.04049,51.42334],[7.04108,51.42312],[7.04101,51.42304],[7.04162,51.42258],[7.04134,51.42242],[7.0415,51.42224],[7.04188,51.42212],[7.04343,51.4226],[7.04447,51.42335],[7.04461,51.4227],[7.04489,51.42232],[7.04708,51.42053],[7.04745,51.4199],[7.04731,51.41979],[7.04917,51.41873],[7.04979,51.41898],[7.05174,51.41766],[7.05222,51.41781],[7.05253,51.41853],[7.05338,51.41889],[7.05362,51.41924],[7.0545,51.4197],[7.05506,51.41978],[7.05542,51.42007],[7.05669,51.42035],[7.05847,51.42043],[7.05899,51.42063],[7.06067,51.41962],[7.06233,51.41887],[7.06506,51.41794],[7.06837,51.42034],[7.06283,51.42273],[7.05808,51.42439],[7.05709,51.42518],[7.05659,51.42653],[7.05675,51.42785],[7.05685,51.42819],[7.05709,51.42814],[7.0572,51.4285],[7.05363,51.42959],[7.05331,51.42999]]]}},{"type":"Feature","properties":{"name":"Huttrop"},"geometry":{"type":"Polygon","coordinates":[[[7.04379,51.45536],[7.0422,51.45584],[7.03925,51.45604],[7.03907,51.45562],[7.0391,51.45497],[7.03815,51.45487],[7.03808,51.45472],[7.03826,51.45427],[7.0346,51.4537],[7.03465,51.45277],[7.03276,51.45082],[7.03458,51.45015],[7.03401,51.44949],[7.03401,51.44838],[7.03373,51.44707],[7.03401,51.44631],[7.03121,51.44567],[7.02797,51.44651],[7.02726,51.44533],[7.02738,51.44364],[7.02755,51.44341],[7.02324,51.44346],[7.02315,51.44173],[7.02329,51.43956],[7.02651,51.43867],[7.02719,51.43804],[7.02927,51.43743],[7.02949,51.4376],[7.02937,51.43771],[7.03005,51.43886],[7.03225,51.44071],[7.0337,51.44227],[7.03508,51.44251],[7.03673,51.44338],[7.03684,51.44439],[7.03844,51.44451],[7.04103,51.4443],[7.0436,51.44371],[7.0447,51.44339],[7.04627,51.44258],[7.04748,51.44223],[7.04848,51.44149],[7.05111,51.44091],[7.05143,51.44094],[7.05138,51.44114],[7.05258,51.442],[7.05278,51.44279],[7.05306,51.44289],[7.05378,51.44227],[7.05473,51.44224],[7.05491,51.44144],[7.05679,51.44111],[7.05708,51.44133],[7.05731,51.44113],[7.05773,51.44132],[7.05752,51.44152],[7.05762,51.44158],[7.05822,51.44156],[7.05778,51.44382],[7.05801,51.44542],[7.05833,51.44559],[7.05956,51.4474],[7.05929,51.44806],[7.06184,51.45011],[7.06034,51.451],[7.06161,51.45181],[7.06089,51.4522],[7.05983,51.45217],[7.05853,51.45255],[7.0587,51.45274],[7.05711,51.45267],[7.05346,51.45295],[7.05085,51.45353],[7.04707,51.45467],[7.04379,51.45536]]]}},{"type":"Feature","properties":{"name":"Frohnhausen"},"geometry":{"type":"Polygon","coordinates":[[[6.95415,51.45751],[6.95337,51.45735],[6.9531,51.45667],[6.95189,51.45488],[6.95174,51.45427],[6.95116,51.45345],[6.95108,51.45328],[6.95125,51.45322],[6.95188,51.45338],[6.95198,51.45345],[6.95186,51.45394],[6.95253,51.45336],[6.95255,51.45298],[6.95209,51.45201],[6.95232,51.45164],[6.95113,51.45088],[6.95046,51.44997],[6.95053,51.44964],[6.95062,51.44946],[6.95192,51.44908],[6.9534,51.44775],[6.95409,51.44641],[6.95495,51.44395],[6.95605,51.44285],[6.95633,51.4423],[6.95716,51.44168],[6.95894,51.43951],[6.95912,51.43934],[6.95954,51.43946],[6.95951,51.43902],[6.96023,51.4386],[6.96125,51.43828],[6.96528,51.43805],[6.97039,51.4374],[6.97321,51.43685],[6.97355,51.43733],[6.97314,51.43747],[6.97411,51.43855],[6.9744,51.43919],[6.97434,51.4395],[6.97384,51.44002],[6.97445,51.44152],[6.97775,51.44352],[6.97805,51.44356],[6.97765,51.44382],[6.97839,51.44392],[6.98146,51.4458],[6.98193,51.44635],[6.982,51.44671],[6.98328,51.44684],[6.98293,51.44856],[6.98306,51.45095],[6.98349,51.45107],[6.98361,51.45089],[6.98761,51.45244],[6.98774,51.45228],[6.98833,51.45306],[6.98173,51.45484],[6.9816,51.45464],[6.98139,51.45469],[6.98136,51.45492],[6.98013,51.45565],[6.97841,51.45636],[6.97557,51.45669],[6.97547,51.4561],[6.97473,51.45617],[6.97462,51.45578],[6.9701,51.45595],[6.96683,51.45575],[6.96702,51.45559],[6.96675,51.45557],[6.96648,51.45575],[6.96369,51.45532],[6.96365,51.45498],[6.96336,51.45493],[6.96328,51.4552],[6.96223,51.45515],[6.96215,51.455],[6.96166,51.4549],[6.95994,51.45472],[6.95982,51.45454],[6.95957,51.45476],[6.95792,51.45509],[6.95679,51.45554],[6.9556,51.45628],[6.95444,51.45753],[6.95415,51.45751]]]}},{"type":"Feature","properties":{"name":"Holsterhausen"},"geometry":{"type":"Polygon","coordinates":[[[6.98876,51.45292],[6.98833,51.45306],[6.98774,51.45228],[6.98761,51.45244],[6.98361,51.45089],[6.98349,51.45107],[6.98306,51.45095],[6.98293,51.44856],[6.98328,51.44684],[6.982,51.44671],[6.98193,51.44635],[6.98146,51.4458],[6.97839,51.44392],[6.97765,51.44382],[6.97805,51.44356],[6.97775,51.44352],[6.97445,51.44152],[6.97384,51.44002],[6.97434,51.4395],[6.9744,51.43919],[6.97411,51.43855],[6.97314,51.43747],[6.97355,51.43733],[6.97321,51.43685],[6.97998,51.43511],[6.98144,51.43461],[6.98312,51.4337],[6.98329,51.43376],[6.98516,51.4329],[6.98721,51.43235],[6.99058,51.43198],[6.99484,51.43215],[6.99479,51.43271],[6.99319,51.433],[6.99501,51.4337],[6.99566,51.43431],[6.99649,51.43662],[6.99639,51.43673],[6.99663,51.43746],[6.99651,51.43783],[6.99598,51.43833],[6.9986,51.43916],[6.99788,51.44003],[6.99801,51.4402],[7.00053,51.44107],[7.00016,51.44179],[7.00074,51.44168],[7.00104,51.44233],[7.00076,51.44262],[7.00101,51.44268],[7.00127,51.44312],[7.00123,51.44338],[7.00147,51.44358],[7.00129,51.44365],[7.00187,51.44417],[7.0023,51.44432],[7.00192,51.44441],[7.00126,51.44529],[7.00151,51.44607],[7.00174,51.44622],[7.00085,51.44665],[7.00059,51.44719],[7.00245,51.44753],[7.00148,51.44861],[7.00057,51.44887],[7.00058,51.44911],[6.99795,51.44957],[6.99801,51.44985],[6.99777,51.4499],[6.99792,51.45065],[6.99915,51.45053],[6.99923,51.4509],[6.99613,51.45129],[6.99163,51.45213],[6.98876,51.45292]]]}},{"type":"Feature","properties":{"name":"Stadtkern"},"geometry":{"type":"Polygon","coordinates":[[[7.01692,51.46314],[7.01505,51.46273],[7.01205,51.46245],[7.01214,51.46239],[7.01165,51.46215],[7.01184,51.46191],[7.01111,51.46142],[7.01132,51.46122],[7.00793,51.45975],[7.00751,51.45937],[7.00682,51.45951],[7.00673,51.45986],[7.00544,51.45978],[7.00487,51.46008],[7.00435,51.46006],[7.00435,51.45973],[7.00294,51.45921],[7.00322,51.45899],[7.00397,51.45888],[7.00497,51.45713],[7.0048,51.45709],[7.00493,51.45689],[7.0058,51.456],[7.00586,51.45578],[7.00617,51.45582],[7.00602,51.45558],[7.00639,51.45555],[7.00727,51.4516],[7.00748,51.45162],[7.00764,51.45057],[7.01312,51.45091],[7.01338,51.45082],[7.01643,51.45122],[7.01604,51.45273],[7.01732,51.453],[7.01734,51.45372],[7.01706,51.45437],[7.01742,51.45456],[7.01702,51.45502],[7.01894,51.45511],[7.01914,51.45543],[7.01891,51.45557],[7.0194,51.45672],[7.01801,51.45685],[7.01647,51.45898],[7.01502,51.45954],[7.01535,51.46072],[7.01729,51.46113],[7.01722,51.46134],[7.01622,51.46118],[7.01583,51.46132],[7.01636,51.46235],[7.0168,51.46246],[7.01669,51.46266],[7.01688,51.4627],[7.01677,51.46292],[7.01692,51.46314]]]}},{"type":"Feature","properties":{"name":"Altendorf"},"geometry":{"type":"Polygon","coordinates":[[[6.97993,51.47119],[6.97978,51.47132],[6.97863,51.47116],[6.97839,51.47094],[6.97844,51.47074],[6.97813,51.47069],[6.97764,51.47008],[6.97555,51.47051],[6.97484,51.46952],[6.97441,51.46998],[6.97395,51.46986],[6.97316,51.47017],[6.9705,51.47076],[6.96983,51.46975],[6.96904,51.46907],[6.96925,51.469],[6.96168,51.46405],[6.96166,51.46384],[6.96155,51.46388],[6.96022,51.46205],[6.95868,51.46044],[6.95907,51.46006],[6.95499,51.4586],[6.95408,51.45806],[6.95432,51.45765],[6.95416,51.4575],[6.95444,51.45753],[6.9556,51.45628],[6.95679,51.45554],[6.95792,51.45509],[6.95957,51.45476],[6.95982,51.45454],[6.95994,51.45472],[6.96166,51.4549],[6.96215,51.455],[6.96223,51.45515],[6.96328,51.4552],[6.96336,51.45493],[6.96365,51.45498],[6.96369,51.45532],[6.96648,51.45575],[6.96675,51.45557],[6.96702,51.45559],[6.96683,51.45575],[6.9701,51.45595],[6.97462,51.45578],[6.97473,51.45617],[6.97547,51.4561],[6.97557,51.45669],[6.97841,51.45636],[6.98013,51.45565],[6.98136,51.45492],[6.98139,51.45469],[6.9816,51.45464],[6.98173,51.45484],[6.98848,51.45304],[6.98904,51.45351],[6.98874,51.45396],[6.98752,51.45402],[6.98458,51.45507],[6.98387,51.45548],[6.98346,51.45599],[6.98321,51.45954],[6.98295,51.45973],[6.98352,51.46062],[6.98205,51.46092],[6.98276,51.46221],[6.9839,51.46209],[6.98454,51.46236],[6.9848,51.46277],[6.98319,51.46544],[6.98316,51.46574],[6.9837,51.4658],[6.98317,51.46582],[6.98371,51.46691],[6.98327,51.46841],[6.98364,51.46906],[6.98389,51.46906],[6.98335,51.46898],[6.97993,51.47119]]]}},{"type":"Feature","properties":{"name":"Nordviertel"},"geometry":{"type":"Polygon","coordinates":[[[7.0071,51.47606],[7.00704,51.47617],[7.00605,51.47577],[6.9978,51.47372],[6.99783,51.47361],[6.99384,51.47253],[6.99176,51.47228],[6.99003,51.47309],[6.98855,51.47354],[6.98874,51.47285],[6.98629,51.47192],[6.98621,51.47206],[6.98555,51.47172],[6.98436,51.47072],[6.98377,51.46993],[6.98335,51.46898],[6.98389,51.46906],[6.98364,51.46906],[6.98327,51.46841],[6.98371,51.46691],[6.98334,51.46621],[6.98942,51.46576],[6.99581,51.46487],[6.99564,51.46453],[6.99781,51.46387],[7.00006,51.4625],[7.00326,51.46179],[7.00355,51.46187],[7.00334,51.46219],[7.004,51.46216],[7.01063,51.46309],[7.01178,51.4623],[7.01217,51.46247],[7.01555,51.46281],[7.01814,51.46339],[7.01858,51.46353],[7.01863,51.46373],[7.02393,51.46482],[7.0254,51.46555],[7.02961,51.46666],[7.03023,51.46632],[7.03027,51.46594],[7.03417,51.46636],[7.03331,51.46723],[7.03204,51.46807],[7.02807,51.46955],[7.02676,51.47027],[7.02664,51.46996],[7.0264,51.47016],[7.02497,51.46971],[7.02294,51.46939],[7.02113,51.47004],[7.01863,51.47007],[7.01828,51.47037],[7.01796,51.47038],[7.01777,51.47079],[7.01749,51.47076],[7.01687,51.47166],[7.01446,51.47313],[7.01403,51.47305],[7.01399,51.47226],[7.01274,51.47234],[7.01272,51.47216],[7.01241,51.47217],[7.01248,51.47274],[7.01189,51.47277],[7.01186,51.47176],[7.01039,51.47248],[7.01029,51.47222],[7.00971,51.47249],[7.00928,51.47243],[7.0094,51.47214],[7.00744,51.47095],[7.00744,51.47075],[7.00691,51.47075],[7.00642,51.47099],[7.00658,51.47205],[7.00636,51.47205],[7.00656,51.47225],[7.00742,51.47489],[7.00738,51.47569],[7.0071,51.47606]]]}},{"type":"Feature","properties":{"name":"Bochold"},"geometry":{"type":"Polygon","coordinates":[[[6.97929,51.48251],[6.9766,51.48329],[6.97481,51.48427],[6.97303,51.48474],[6.97089,51.48282],[6.96899,51.48205],[6.96866,51.48144],[6.96923,51.48083],[6.9691,51.48079],[6.9696,51.48021],[6.96953,51.48002],[6.9671,51.47947],[6.96551,51.47851],[6.9654,51.47817],[6.96551,51.47786],[6.96688,51.47641],[6.96659,51.47627],[6.96415,51.47564],[6.96414,51.47585],[6.96362,51.47578],[6.96398,51.47616],[6.96395,51.47716],[6.96203,51.47719],[6.96018,51.47667],[6.95629,51.47676],[6.95527,51.47692],[6.95412,51.47629],[6.95398,51.47615],[6.95494,51.47551],[6.95619,51.47414],[6.95603,51.47416],[6.95609,51.47359],[6.95574,51.47226],[6.95428,51.4724],[6.95434,51.47187],[6.95376,51.47183],[6.9524,51.47133],[6.95382,51.46904],[6.9525,51.46874],[6.95139,51.46764],[6.95148,51.46759],[6.95056,51.46688],[6.95126,51.46644],[6.95051,51.46599],[6.95134,51.46554],[6.949,51.46377],[6.94882,51.46348],[6.95311,51.46293],[6.95741,51.46286],[6.96024,51.46215],[6.96155,51.46388],[6.96166,51.46384],[6.96168,51.46405],[6.96925,51.469],[6.96904,51.46907],[6.96983,51.46975],[6.9705,51.47076],[6.97316,51.47017],[6.97395,51.46986],[6.97441,51.46998],[6.97484,51.46952],[6.97555,51.47051],[6.97764,51.47008],[6.97813,51.47069],[6.97844,51.47074],[6.97839,51.47094],[6.97863,51.47116],[6.97978,51.47132],[6.98335,51.46898],[6.98377,51.46993],[6.98436,51.47072],[6.98555,51.47172],[6.9888,51.47295],[6.98855,51.47354],[6.98738,51.47402],[6.98565,51.4751],[6.98463,51.47628],[6.98514,51.47661],[6.98442,51.47713],[6.98481,51.47729],[6.98409,51.4779],[6.98388,51.47836],[6.98413,51.4789],[6.98488,51.4789],[6.98471,51.47962],[6.98431,51.47961],[6.98124,51.4821],[6.97964,51.4829],[6.9795,51.48246],[6.97929,51.48251]]]}},{"type":"Feature","properties":{"name":"Rüttenscheid"},"geometry":{"type":"Polygon","coordinates":[[[7.01958,51.44141],[7.01779,51.44222],[7.01659,51.44146],[7.01626,51.44146],[7.01645,51.44121],[7.01507,51.44099],[7.01486,51.44128],[7.01418,51.44121],[7.01389,51.44102],[7.01367,51.44117],[7.01094,51.44125],[7.0066,51.44031],[7.00619,51.44039],[7.00616,51.44026],[7.00016,51.44179],[7.00053,51.44107],[6.99801,51.4402],[6.99788,51.44003],[6.9986,51.43916],[6.99598,51.43833],[6.99651,51.43783],[6.99663,51.43746],[6.99639,51.43673],[6.99649,51.43662],[6.99566,51.43431],[6.99501,51.4337],[6.99319,51.433],[6.99479,51.43271],[6.99484,51.43215],[6.99058,51.43198],[6.98919,51.43205],[6.98739,51.43239],[6.98699,51.43206],[6.98664,51.43216],[6.98592,51.43202],[6.98451,51.43092],[6.98354,51.4306],[6.9831,51.43027],[6.98189,51.42873],[6.98151,51.42796],[6.98158,51.42751],[6.98094,51.42657],[6.98029,51.42619],[6.98625,51.42191],[6.99285,51.42285],[6.99781,51.42305],[6.99779,51.42226],[7.00088,51.42221],[7.00088,51.42198],[7.00125,51.42199],[7.00105,51.42151],[7.00383,51.42001],[7.00406,51.42012],[7.00497,51.41957],[7.00551,51.42011],[7.00566,51.4206],[7.00742,51.42139],[7.00815,51.42098],[7.0101,51.4225],[7.00975,51.42301],[7.01039,51.42342],[7.00886,51.4236],[7.01124,51.42518],[7.01191,51.42541],[7.01209,51.42573],[7.01356,51.42671],[7.01512,51.42745],[7.01502,51.42753],[7.0166,51.42764],[7.01664,51.42836],[7.01823,51.42903],[7.01926,51.43008],[7.02039,51.43051],[7.02157,51.43064],[7.02157,51.43091],[7.02195,51.43104],[7.02263,51.43172],[7.0228,51.43159],[7.02285,51.43225],[7.02325,51.43245],[7.02347,51.43452],[7.02589,51.43598],[7.02908,51.43748],[7.02719,51.43804],[7.02651,51.43867],[7.02275,51.43972],[7.01958,51.44141]]]}},{"type":"Feature","properties":{"name":"Ostviertel"},"geometry":{"type":"Polygon","coordinates":[[[7.03027,51.46596],[7.03023,51.46632],[7.02961,51.46666],[7.0254,51.46555],[7.02393,51.46482],[7.01863,51.46373],[7.01858,51.46353],[7.01693,51.46314],[7.01677,51.46292],[7.01688,51.4627],[7.01669,51.46266],[7.0168,51.46246],[7.01636,51.46235],[7.01583,51.46132],[7.01622,51.46118],[7.01722,51.46134],[7.01729,51.46113],[7.01535,51.46072],[7.01502,51.45954],[7.01647,51.45898],[7.01801,51.45685],[7.0194,51.45672],[7.01891,51.45557],[7.01914,51.45543],[7.01894,51.45511],[7.01702,51.45502],[7.01742,51.45456],[7.01706,51.45437],[7.01734,51.45372],[7.01732,51.45302],[7.01604,51.45273],[7.01636,51.45126],[7.01893,51.45146],[7.02041,51.45101],[7.02096,51.45068],[7.02142,51.45015],[7.02182,51.44893],[7.02217,51.44906],[7.02157,51.45098],[7.02185,51.45231],[7.02224,51.4527],[7.02331,51.45327],[7.02328,51.45341],[7.02356,51.45332],[7.02513,51.45414],[7.02727,51.45464],[7.02721,51.45475],[7.02885,51.45531],[7.03294,51.4564],[7.03418,51.4565],[7.0343,51.45627],[7.0422,51.45584],[7.04313,51.45554],[7.04414,51.45586],[7.04449,51.45612],[7.04457,51.45626],[7.04162,51.45714],[7.04046,51.45774],[7.03936,51.45797],[7.03893,51.45975],[7.03645,51.45955],[7.03694,51.45987],[7.03685,51.45994],[7.0374,51.46073],[7.03774,51.4624],[7.03733,51.46228],[7.03671,51.46354],[7.03476,51.46561],[7.03416,51.46582],[7.03383,51.46623],[7.03027,51.46596]]]}},{"type":"Feature","properties":{"name":"Borbeck-Mitte"},"geometry":{"type":"Polygon","coordinates":[[[6.94898,51.49041],[6.94855,51.49044],[6.94804,51.48944],[6.94718,51.48851],[6.94643,51.48808],[6.94761,51.48609],[6.94712,51.48619],[6.94631,51.48511],[6.94594,51.48508],[6.9456,51.48473],[6.9453,51.48388],[6.9446,51.4832],[6.94464,51.48305],[6.94512,51.48297],[6.94497,51.48257],[6.94439,51.48195],[6.94447,51.48124],[6.94429,51.48096],[6.94401,51.48084],[6.94371,51.48052],[6.94377,51.48038],[6.9434,51.48012],[6.94272,51.48008],[6.94248,51.47965],[6.94202,51.47947],[6.9423,51.47936],[6.94224,51.47902],[6.94171,51.47859],[6.94143,51.47801],[6.94071,51.47736],[6.94056,51.47709],[6.94073,51.47691],[6.93975,51.4761],[6.93932,51.47472],[6.93801,51.47425],[6.9376,51.47428],[6.93516,51.47292],[6.93461,51.47236],[6.93352,51.47196],[6.93215,51.47096],[6.9317,51.46986],[6.93194,51.46939],[6.93182,51.46875],[6.93192,51.46839],[6.93051,51.46755],[6.93001,51.46708],[6.92953,51.4661],[6.93029,51.46577],[6.92939,51.465],[6.9295,51.46493],[6.92933,51.46478],[6.92948,51.46466],[6.93279,51.4625],[6.93402,51.46235],[6.94071,51.46228],[6.94739,51.46338],[6.94882,51.46348],[6.949,51.46377],[6.95134,51.46554],[6.95051,51.46599],[6.95126,51.46644],[6.95056,51.46688],[6.95148,51.46759],[6.95139,51.46764],[6.9525,51.46874],[6.95382,51.46904],[6.9524,51.47133],[6.95376,51.47183],[6.95434,51.47187],[6.95428,51.4724],[6.95574,51.47226],[6.95609,51.47359],[6.95603,51.47416],[6.95619,51.47414],[6.95494,51.47551],[6.95398,51.47615],[6.95395,51.47642],[6.95338,51.47695],[6.95155,51.47998],[6.95595,51.48156],[6.95628,51.48149],[6.95674,51.48172],[6.95695,51.48146],[6.95774,51.48187],[6.95903,51.48213],[6.95781,51.48245],[6.95842,51.48352],[6.96058,51.48335],[6.95856,51.48373],[6.95877,51.48398],[6.95874,51.48431],[6.95737,51.48583],[6.95815,51.48607],[6.95543,51.48838],[6.95503,51.48812],[6.95217,51.48887],[6.9525,51.48947],[6.94898,51.49041]]]}},{"type":"Feature","properties":{"name":"Bergeborbeck"},"geometry":{"type":"Polygon","coordinates":[[[6.97998,51.4993],[6.97995,51.50168],[6.97879,51.50333],[6.97798,51.50419],[6.9782,51.50425],[6.97784,51.50437],[6.97772,51.50466],[6.97794,51.50473],[6.97765,51.50513],[6.97459,51.50447],[6.95539,51.50187],[6.94672,51.49958],[6.94725,51.49934],[6.94609,51.49902],[6.95136,51.4957],[6.95102,51.496],[6.9517,51.49567],[6.95225,51.49517],[6.95154,51.49501],[6.95006,51.49384],[6.95024,51.49334],[6.9496,51.49279],[6.94855,51.49044],[6.94883,51.49048],[6.9525,51.48947],[6.95217,51.48887],[6.95503,51.48812],[6.95543,51.48838],[6.95815,51.48607],[6.95737,51.48583],[6.95874,51.48431],[6.95877,51.48398],[6.95856,51.48373],[6.96058,51.48335],[6.95842,51.48352],[6.95781,51.48245],[6.95903,51.48213],[6.95774,51.48187],[6.95695,51.48146],[6.95674,51.48172],[6.95628,51.48149],[6.95595,51.48156],[6.95155,51.47998],[6.95338,51.47695],[6.95395,51.47642],[6.95398,51.47615],[6.95527,51.47692],[6.95629,51.47676],[6.96018,51.47667],[6.96203,51.47719],[6.96395,51.47716],[6.96398,51.47616],[6.96362,51.47578],[6.96414,51.47585],[6.96415,51.47564],[6.96659,51.47627],[6.96688,51.47641],[6.96551,51.47786],[6.9654,51.47817],[6.96551,51.47851],[6.9671,51.47947],[6.96953,51.48002],[6.9696,51.48021],[6.9691,51.48079],[6.96923,51.48083],[6.96866,51.48144],[6.96899,51.48205],[6.97089,51.48282],[6.97303,51.48474],[6.97481,51.48427],[6.9766,51.48329],[6.9795,51.48246],[6.97964,51.4829],[6.97926,51.48306],[6.97931,51.48459],[6.97917,51.48541],[6.97945,51.48542],[6.97952,51.48639],[6.97988,51.48673],[6.98036,51.48839],[6.98029,51.48947],[6.97905,51.48964],[6.97922,51.48987],[6.97913,51.49206],[6.97875,51.49308],[6.97881,51.49325],[6.97835,51.49339],[6.97876,51.49331],[6.97861,51.49441],[6.98015,51.49443],[6.97998,51.4993]]]}},{"type":"Feature","properties":{"name":"Südviertel"},"geometry":{"type":"Polygon","coordinates":[[[7.01899,51.45145],[7.01338,51.45082],[7.01312,51.45091],[7.00789,51.45064],[7.00001,51.44935],[6.99995,51.4492],[7.00058,51.44911],[7.00057,51.44887],[7.00145,51.44864],[7.00245,51.44753],[7.00059,51.44719],[7.00085,51.44665],[7.00174,51.44622],[7.00151,51.44607],[7.00126,51.44529],[7.00192,51.44441],[7.0023,51.44432],[7.00187,51.44417],[7.00129,51.44365],[7.00147,51.44358],[7.00123,51.44338],[7.00127,51.44312],[7.00101,51.44268],[7.00076,51.44262],[7.00104,51.44233],[7.00074,51.44168],[7.00616,51.44026],[7.00619,51.44039],[7.0066,51.44031],[7.01094,51.44125],[7.01367,51.44117],[7.01389,51.44102],[7.01418,51.44121],[7.01486,51.44128],[7.01507,51.44099],[7.01645,51.44121],[7.01626,51.44146],[7.01659,51.44146],[7.01779,51.44222],[7.01803,51.44222],[7.02329,51.43956],[7.02315,51.44173],[7.02328,51.44249],[7.02323,51.44408],[7.02251,51.4474],[7.02258,51.44764],[7.02217,51.4489],[7.02176,51.44895],[7.02148,51.45006],[7.02086,51.45076],[7.01899,51.45145]]]}},{"type":"Feature","properties":{"name":"Südostviertel"},"geometry":{"type":"Polygon","coordinates":[[[7.03525,51.4562],[7.0343,51.45627],[7.03418,51.4565],[7.03168,51.45615],[7.02843,51.45517],[7.02721,51.45475],[7.02727,51.45464],[7.02513,51.45414],[7.02356,51.45332],[7.02328,51.45341],[7.0233,51.45326],[7.02194,51.45244],[7.02157,51.45134],[7.0216,51.4508],[7.02214,51.44921],[7.02203,51.44889],[7.02217,51.4489],[7.02258,51.44764],[7.02251,51.4474],[7.02312,51.44484],[7.02324,51.44346],[7.02755,51.44341],[7.02738,51.44364],[7.02726,51.44533],[7.02797,51.44651],[7.03121,51.44567],[7.03401,51.44631],[7.03373,51.44707],[7.03401,51.44838],[7.03401,51.44949],[7.03458,51.45015],[7.03276,51.45082],[7.03465,51.45277],[7.0346,51.4537],[7.03826,51.45427],[7.03808,51.45472],[7.03815,51.45487],[7.0391,51.45497],[7.03907,51.45562],[7.03925,51.45604],[7.03525,51.4562]]]}},{"type":"Feature","properties":{"name":"Westviertel"},"geometry":{"type":"Polygon","coordinates":[[[6.98737,51.46592],[6.98324,51.46615],[6.98316,51.46599],[6.98317,51.46582],[6.9837,51.4658],[6.98316,51.46574],[6.98319,51.46544],[6.9848,51.46277],[6.98454,51.46236],[6.9839,51.46209],[6.98276,51.46221],[6.98205,51.46092],[6.98352,51.46062],[6.98295,51.45973],[6.98321,51.45954],[6.98337,51.45624],[6.98396,51.45541],[6.98739,51.45406],[6.98874,51.45396],[6.98904,51.45351],[6.98848,51.45304],[6.98887,51.45289],[6.99163,51.45213],[6.99613,51.45129],[6.99923,51.4509],[6.99915,51.45053],[6.99792,51.45065],[6.99777,51.4499],[6.99801,51.44985],[6.99795,51.44957],[6.99829,51.4495],[6.99996,51.4492],[7.00001,51.44935],[7.00766,51.45058],[7.00748,51.45162],[7.00727,51.4516],[7.00639,51.45555],[7.00602,51.45558],[7.00617,51.45582],[7.00586,51.45578],[7.0058,51.456],[7.00493,51.45689],[7.0048,51.45709],[7.00497,51.45713],[7.00397,51.45888],[7.00322,51.45899],[7.00294,51.45921],[7.00435,51.45973],[7.00435,51.46006],[7.00487,51.46008],[7.00544,51.45978],[7.00673,51.45986],[7.00682,51.45951],[7.00751,51.45937],[7.00793,51.45975],[7.01132,51.46122],[7.01111,51.46142],[7.01184,51.46191],[7.01165,51.46215],[7.01178,51.4623],[7.01063,51.46309],[7.004,51.46216],[7.00334,51.46219],[7.00355,51.46187],[7.00326,51.46179],[7.00225,51.46192],[7.00006,51.4625],[6.99781,51.46387],[6.99564,51.46453],[6.99581,51.46487],[6.99084,51.46559],[6.98737,51.46592]]]}},{"type":"Feature","properties":{"name":"Heisingen"},"geometry":{"type":"Polygon","coordinates":[[[7.06055,51.41969],[7.05899,51.42063],[7.05847,51.42043],[7.05669,51.42035],[7.05542,51.42007],[7.05506,51.41978],[7.0545,51.4197],[7.05385,51.41936],[7.05338,51.41889],[7.05254,51.41855],[7.05216,51.41776],[7.05166,51.41764],[7.04955,51.41646],[7.04882,51.41624],[7.04865,51.416],[7.04748,51.41539],[7.04623,51.41507],[7.04552,51.41458],[7.04433,51.41424],[7.04333,51.4137],[7.04075,51.4129],[7.03842,51.41162],[7.03803,51.41156],[7.03723,51.41098],[7.03723,51.41071],[7.03785,51.40962],[7.0379,51.40864],[7.03764,51.40807],[7.03769,51.40773],[7.03783,51.40769],[7.03775,51.40722],[7.04228,51.40629],[7.04688,51.40429],[7.04708,51.40419],[7.04675,51.40406],[7.05034,51.4022],[7.05184,51.40051],[7.05434,51.39871],[7.05627,51.39692],[7.05727,51.39513],[7.05772,51.39381],[7.05894,51.39184],[7.06259,51.38848],[7.06521,51.38726],[7.06666,51.3869],[7.07024,51.3868],[7.07239,51.38722],[7.0733,51.38765],[7.07382,51.38833],[7.07402,51.38884],[7.0742,51.39152],[7.07477,51.3929],[7.07668,51.39534],[7.07942,51.39784],[7.0811,51.39961],[7.08211,51.40141],[7.0823,51.40208],[7.08216,51.40389],[7.08077,51.40953],[7.0803,51.41004],[7.07813,51.41131],[7.07496,51.41362],[7.07236,51.41745],[7.0705,51.41915],[7.06869,51.42019],[7.06837,51.42034],[7.06506,51.41794],[7.06307,51.41871],[7.06281,51.41866],[7.06055,51.41969]]]}},{"type":"Feature","properties":{"name":"Schuir"},"geometry":{"type":"Polygon","coordinates":[[[6.97954,51.41528],[6.98168,51.41644],[6.98154,51.4165],[6.98168,51.41676],[6.98155,51.41704],[6.97988,51.41843],[6.9795,51.41855],[6.97917,51.41847],[6.97639,51.41659],[6.97505,51.41552],[6.97501,51.41531],[6.97475,51.41543],[6.97448,51.41519],[6.97338,51.41556],[6.9733,51.41515],[6.97276,51.41446],[6.96868,51.41061],[6.96524,51.40792],[6.96214,51.40575],[6.95714,51.40293],[6.95095,51.40008],[6.94515,51.39674],[6.943,51.39522],[6.94372,51.39471],[6.94559,51.39272],[6.94325,51.38932],[6.94366,51.38931],[6.94315,51.38656],[6.94361,51.3865],[6.94327,51.38517],[6.94465,51.38516],[6.95115,51.38131],[6.95186,51.38045],[6.95627,51.38077],[6.9595,51.37954],[6.96087,51.3793],[6.96098,51.37973],[6.96066,51.3802],[6.96045,51.38107],[6.95993,51.38106],[6.95985,51.38153],[6.95954,51.38156],[6.95871,51.38214],[6.95796,51.38192],[6.95787,51.38204],[6.9585,51.38227],[6.95998,51.3821],[6.96127,51.38256],[6.96163,51.38252],[6.96172,51.3823],[6.9623,51.38209],[6.96205,51.38147],[6.96162,51.38119],[6.96153,51.38063],[6.96222,51.37998],[6.963,51.37987],[6.96417,51.38007],[6.96436,51.37997],[6.96476,51.38015],[6.96567,51.37997],[6.96749,51.3809],[6.97333,51.38259],[6.97411,51.3827],[6.97515,51.38241],[6.97717,51.38246],[6.97726,51.38264],[6.97789,51.38275],[6.97866,51.38403],[6.9788,51.38493],[6.98058,51.38518],[6.98153,51.38593],[6.98201,51.38717],[6.98185,51.38836],[6.98213,51.38929],[6.98242,51.38957],[6.98232,51.39106],[6.98291,51.39102],[6.98275,51.39188],[6.98315,51.3928],[6.98271,51.39329],[6.98291,51.39395],[6.9812,51.39533],[6.98182,51.39675],[6.98174,51.39703],[6.982,51.39715],[6.98293,51.39821],[6.98283,51.39845],[6.98193,51.39844],[6.98103,51.39823],[6.98068,51.3985],[6.97954,51.3987],[6.97847,51.39921],[6.97804,51.3995],[6.97802,51.39995],[6.97733,51.40072],[6.97652,51.40119],[6.97571,51.4014],[6.97466,51.40247],[6.97438,51.40247],[6.97404,51.40273],[6.9737,51.40328],[6.97371,51.4035],[6.97393,51.40355],[6.97361,51.40387],[6.97375,51.40411],[6.97331,51.4045],[6.97335,51.40472],[6.97319,51.4048],[6.9734,51.40489],[6.97289,51.40535],[6.97271,51.40657],[6.9735,51.40776],[6.97576,51.40982],[6.97448,51.41037],[6.97988,51.41182],[6.98076,51.41194],[6.98033,51.41218],[6.98054,51.41239],[6.97772,51.41432],[6.97954,51.41528]]]}},{"type":"Feature","properties":{"name":"Altenessen-Nord"},"geometry":{"type":"Polygon","coordinates":[[[7.02488,51.51707],[7.02439,51.51741],[7.0235,51.51706],[7.0234,51.51679],[7.02185,51.51637],[7.00687,51.51311],[7.00277,51.51192],[6.99625,51.51086],[6.99631,51.51071],[6.99418,51.50994],[6.99371,51.50996],[6.99332,51.51023],[6.99254,51.51003],[6.99258,51.50976],[6.99283,51.50968],[6.99275,51.50945],[6.99373,51.5083],[6.99409,51.50739],[6.99408,51.50663],[6.99376,51.50575],[6.99302,51.50479],[6.99354,51.50409],[6.9944,51.5041],[6.99521,51.50391],[6.99576,51.50362],[6.99618,51.50302],[6.99545,51.50003],[6.99552,51.49778],[6.99536,51.49697],[6.99542,51.49654],[6.99649,51.49483],[6.9972,51.4933],[6.99762,51.49195],[6.9979,51.49018],[7.00209,51.49349],[7.00197,51.49367],[7.00253,51.49381],[7.00245,51.49394],[7.00286,51.49403],[7.00537,51.49535],[7.00881,51.49658],[7.01601,51.49789],[7.01981,51.49901],[7.04509,51.51136],[7.04469,51.5115],[7.04328,51.51122],[7.04174,51.51132],[7.04121,51.51229],[7.04096,51.51357],[7.03997,51.51392],[7.038,51.51406],[7.03743,51.51432],[7.03718,51.51462],[7.03744,51.51463],[7.03727,51.51472],[7.0363,51.51476],[7.03245,51.51434],[7.03232,51.51498],[7.03294,51.51503],[7.03336,51.51633],[7.03027,51.51659],[7.02664,51.51715],[7.02488,51.51707]]]}},{"type":"Feature","properties":{"name":"Altenessen-Süd"},"geometry":{"type":"Polygon","coordinates":[[[7.02299,51.49995],[7.0237,51.50037],[7.02355,51.50078],[7.02015,51.49915],[7.01802,51.49839],[7.01466,51.49762],[7.00881,51.49658],[7.00595,51.49561],[7.00286,51.49403],[7.00245,51.49394],[7.00253,51.49381],[7.00197,51.49367],[7.00209,51.49349],[6.9979,51.49018],[6.99798,51.48993],[6.99618,51.48872],[6.99449,51.48785],[6.99407,51.48788],[6.99222,51.48699],[6.98957,51.48613],[6.98971,51.48603],[6.9889,51.48576],[6.98979,51.48377],[6.98862,51.48379],[6.98852,51.48308],[6.98712,51.48283],[6.9871,51.48229],[6.98682,51.48207],[6.98252,51.48117],[6.98431,51.47961],[6.98471,51.47962],[6.98488,51.4789],[6.98413,51.4789],[6.98388,51.47836],[6.98409,51.4779],[6.98481,51.47729],[6.98442,51.47713],[6.98514,51.47661],[6.98463,51.47628],[6.98565,51.4751],[6.98738,51.47402],[6.99003,51.47309],[6.9918,51.47228],[6.99462,51.47268],[6.99783,51.47361],[6.9978,51.47372],[7.00605,51.47577],[7.00704,51.47617],[7.00738,51.47569],[7.00744,51.475],[7.00656,51.47225],[7.00636,51.47205],[7.00658,51.47205],[7.00642,51.47099],[7.00691,51.47075],[7.00744,51.47075],[7.00744,51.47095],[7.0094,51.47214],[7.00928,51.47243],[7.00971,51.47249],[7.01029,51.47222],[7.01039,51.47248],[7.01186,51.47176],[7.01189,51.47277],[7.01248,51.47274],[7.01241,51.47217],[7.01272,51.47216],[7.01274,51.47234],[7.01399,51.47226],[7.01403,51.47305],[7.01444,51.47313],[7.01687,51.47166],[7.01749,51.47076],[7.01777,51.47079],[7.01796,51.47038],[7.01828,51.47037],[7.01855,51.4701],[7.02113,51.47004],[7.02294,51.46939],[7.02428,51.46961],[7.02418,51.47],[7.02446,51.47007],[7.024,51.47076],[7.02322,51.47057],[7.02345,51.47235],[7.02479,51.47516],[7.02508,51.47534],[7.0242,51.47675],[7.02239,51.47808],[7.0227,51.47828],[7.02253,51.47835],[7.02385,51.47914],[7.0228,51.47988],[7.021,51.48186],[7.02078,51.48183],[7.01963,51.48261],[7.02161,51.4843],[7.02268,51.48587],[7.02234,51.48738],[7.02077,51.48982],[7.0236,51.49029],[7.02339,51.49151],[7.02451,51.49164],[7.02415,51.49219],[7.0236,51.49598],[7.025,51.49628],[7.02422,51.49768],[7.02333,51.49989],[7.02299,51.49995]]]}},{"type":"Feature","properties":{"name":"Bredeney"},"geometry":{"type":"Polygon","coordinates":[[[6.99781,51.42303],[6.99285,51.42285],[6.98625,51.42191],[6.98555,51.42242],[6.98276,51.42148],[6.97922,51.41968],[6.97776,51.41885],[6.97411,51.41634],[6.97338,51.41556],[6.97448,51.41519],[6.97475,51.41543],[6.97501,51.41531],[6.97505,51.41552],[6.97639,51.41659],[6.97936,51.41854],[6.97988,51.41843],[6.98167,51.41686],[6.98154,51.4165],[6.98168,51.41644],[6.98156,51.41633],[6.97772,51.41434],[6.98054,51.41239],[6.98033,51.41218],[6.98076,51.41194],[6.97988,51.41182],[6.97448,51.41037],[6.97576,51.40982],[6.9735,51.40776],[6.97271,51.40657],[6.97289,51.40535],[6.9734,51.40489],[6.97319,51.4048],[6.97335,51.40472],[6.97337,51.40442],[6.97372,51.40417],[6.97361,51.40387],[6.97393,51.40355],[6.97371,51.4035],[6.9737,51.40328],[6.97404,51.40273],[6.97438,51.40247],[6.97466,51.40247],[6.97552,51.40153],[6.97622,51.40118],[6.97652,51.40119],[6.97733,51.40072],[6.97802,51.39995],[6.97804,51.3995],[6.97954,51.3987],[6.98037,51.3986],[6.98111,51.39822],[6.98193,51.39844],[6.98283,51.39845],[6.98293,51.39821],[6.98282,51.39801],[6.98174,51.39703],[6.98182,51.39675],[6.9812,51.39533],[6.98291,51.39395],[6.98271,51.39329],[6.98315,51.3928],[6.98275,51.39188],[6.98291,51.39102],[6.98232,51.39106],[6.98247,51.38988],[6.98242,51.38957],[6.982,51.38899],[6.98191,51.38831],[6.98231,51.38822],[6.98634,51.38902],[6.98857,51.38862],[6.98924,51.389],[6.99368,51.38957],[6.99356,51.3897],[6.99383,51.38982],[6.99541,51.39011],[6.99602,51.39091],[6.99702,51.39108],[6.99693,51.39124],[6.99714,51.39209],[6.99761,51.39272],[7.00069,51.39545],[7.00453,51.39965],[7.00682,51.4015],[7.00888,51.40255],[7.00991,51.40291],[7.01751,51.40473],[7.02372,51.40655],[7.02402,51.40642],[7.02743,51.40711],[7.02966,51.40718],[7.0295,51.40744],[7.03085,51.40753],[7.03443,51.40753],[7.03775,51.40722],[7.03783,51.40769],[7.03769,51.40773],[7.03764,51.40807],[7.0379,51.40864],[7.03785,51.40962],[7.03753,51.41026],[7.03472,51.4097],[7.03321,51.40995],[7.03294,51.41047],[7.03106,51.41057],[7.03017,51.41099],[7.0299,51.41152],[7.02885,51.41229],[7.02692,51.41203],[7.02671,51.41263],[7.0276,51.41283],[7.0275,51.41351],[7.02736,51.41362],[7.02803,51.41407],[7.02768,51.41426],[7.0272,51.41384],[7.02571,51.4145],[7.02479,51.41388],[7.02398,51.41355],[7.02277,51.41332],[7.02232,51.41352],[7.02211,51.41391],[7.0227,51.41464],[7.02164,51.41486],[7.02185,51.41519],[7.02154,51.41531],[7.02184,51.41558],[7.02096,51.4159],[7.02045,51.41555],[7.01806,51.41624],[7.01786,51.41657],[7.01765,51.41636],[7.01223,51.41795],[7.00923,51.4172],[7.00785,51.41888],[7.00635,51.41835],[7.00477,51.41973],[7.00406,51.42012],[7.00383,51.42001],[7.00105,51.42151],[7.00125,51.42199],[7.00088,51.42198],[7.00088,51.42221],[6.99779,51.42226],[6.99781,51.42303]]]}},{"type":"Feature","properties":{"name":"Werden"},"geometry":{"type":"Polygon","coordinates":[[[7.01021,51.40016],[7.01062,51.40126],[7.01239,51.40191],[7.01344,51.40285],[7.01419,51.4032],[7.01372,51.40391],[7.00888,51.40255],[7.00682,51.4015],[7.00358,51.39876],[7.002,51.39677],[6.99943,51.39423],[6.99879,51.39386],[6.99761,51.39272],[6.99714,51.39209],[6.99693,51.39124],[6.99702,51.39108],[6.99602,51.39091],[6.99541,51.39011],[6.99383,51.38982],[6.99356,51.3897],[6.99368,51.38957],[6.98924,51.389],[6.98857,51.38862],[6.98634,51.38902],[6.98231,51.38822],[6.98185,51.38836],[6.98204,51.3873],[6.98153,51.38593],[6.98058,51.38518],[6.9788,51.38493],[6.97866,51.38403],[6.97789,51.38275],[6.97726,51.38264],[6.97717,51.38246],[6.97515,51.38241],[6.97411,51.3827],[6.97333,51.38259],[6.96749,51.3809],[6.96567,51.37997],[6.96476,51.38015],[6.96436,51.37997],[6.96417,51.38007],[6.96266,51.37986],[6.96222,51.37998],[6.96153,51.38063],[6.96162,51.38119],[6.96205,51.38147],[6.9623,51.38209],[6.96172,51.3823],[6.96163,51.38252],[6.96127,51.38256],[6.95998,51.3821],[6.95905,51.38228],[6.95802,51.38214],[6.95787,51.38204],[6.95796,51.38192],[6.95871,51.38214],[6.95954,51.38156],[6.95985,51.38153],[6.95993,51.38106],[6.96045,51.38107],[6.96066,51.3802],[6.96098,51.37973],[6.96087,51.3793],[6.95977,51.37946],[6.95852,51.37995],[6.95993,51.3781],[6.96061,51.37783],[6.96117,51.37798],[6.96099,51.37739],[6.95997,51.37674],[6.96114,51.37639],[6.96088,51.37616],[6.96107,51.37613],[6.96052,51.37544],[6.96024,51.37477],[6.9605,51.37394],[6.96118,51.37326],[6.96208,51.37338],[6.96216,51.37368],[6.96309,51.37456],[6.96419,51.37511],[6.97041,51.37662],[6.97191,51.37682],[6.97844,51.37713],[6.98049,51.37741],[6.98223,51.37786],[6.98458,51.37912],[6.98658,51.37977],[6.98903,51.38006],[6.99231,51.38005],[6.99639,51.38033],[6.99764,51.38069],[6.99879,51.38153],[6.99964,51.38109],[7.00025,51.38137],[7.00068,51.38203],[7.00184,51.38324],[7.00303,51.38288],[7.00326,51.38308],[7.00317,51.38359],[7.00335,51.38507],[7.00386,51.38513],[7.00398,51.38523],[7.00387,51.38529],[7.00448,51.38576],[7.00442,51.38558],[7.00471,51.38514],[7.00569,51.38533],[7.00665,51.38462],[7.00666,51.38444],[7.00603,51.38381],[7.00576,51.3833],[7.00569,51.38289],[7.00591,51.38265],[7.00713,51.38343],[7.00752,51.38325],[7.0084,51.38403],[7.00951,51.3836],[7.01056,51.38439],[7.01291,51.38542],[7.01473,51.38538],[7.01472,51.38561],[7.01398,51.38651],[7.01378,51.38734],[7.01396,51.38776],[7.01522,51.38833],[7.01558,51.38885],[7.01586,51.38898],[7.01574,51.38897],[7.01594,51.39032],[7.01351,51.38974],[7.01321,51.39041],[7.01249,51.39036],[7.01219,51.39182],[7.01135,51.39183],[7.01205,51.39268],[7.01348,51.393],[7.01338,51.39338],[7.01349,51.39423],[7.01332,51.39483],[7.01377,51.39483],[7.01376,51.39505],[7.01345,51.39547],[7.01345,51.39648],[7.01244,51.39736],[7.01251,51.39813],[7.01152,51.39987],[7.01231,51.40034],[7.01127,51.40036],[7.01021,51.40016]]]}},{"type":"Feature","properties":{"name":"Bergerhausen"},"geometry":{"type":"Polygon","coordinates":[[[7.04055,51.44437],[7.03854,51.44451],[7.03684,51.44439],[7.03673,51.44338],[7.03501,51.44248],[7.03371,51.44227],[7.03225,51.44071],[7.03005,51.43886],[7.02937,51.43771],[7.02949,51.4376],[7.02927,51.43743],[7.02899,51.43747],[7.02589,51.43598],[7.02347,51.43452],[7.02325,51.43245],[7.02285,51.43225],[7.0228,51.43159],[7.02263,51.43172],[7.02174,51.43098],[7.02429,51.43103],[7.02547,51.43055],[7.02784,51.4305],[7.02913,51.43028],[7.03109,51.42952],[7.03307,51.4298],[7.03607,51.42925],[7.03717,51.4288],[7.03994,51.42845],[7.0418,51.42872],[7.04457,51.42947],[7.04979,51.43028],[7.04989,51.43042],[7.05153,51.43053],[7.05317,51.43012],[7.05363,51.42959],[7.05691,51.42857],[7.05718,51.42979],[7.05768,51.4309],[7.05795,51.43239],[7.05957,51.4356],[7.06022,51.43656],[7.06046,51.43653],[7.06136,51.43752],[7.06259,51.43821],[7.06462,51.43869],[7.06748,51.43878],[7.06808,51.43966],[7.0631,51.44029],[7.06095,51.43958],[7.06007,51.43895],[7.05933,51.43969],[7.0594,51.44055],[7.0581,51.44162],[7.05752,51.44152],[7.05773,51.44132],[7.05731,51.44113],[7.05708,51.44133],[7.05679,51.44111],[7.05491,51.44144],[7.05473,51.44224],[7.05378,51.44227],[7.0533,51.44257],[7.05324,51.44283],[7.05294,51.44288],[7.05278,51.44279],[7.05258,51.442],[7.05138,51.44114],[7.05143,51.44094],[7.05111,51.44091],[7.04848,51.44149],[7.04748,51.44223],[7.04627,51.44258],[7.0447,51.44339],[7.04055,51.44437]]]}},{"type":"Feature","properties":{"name":"Haarzopf"},"geometry":{"type":"Polygon","coordinates":[[[6.96392,51.42734],[6.96229,51.42725],[6.96156,51.42603],[6.96064,51.42569],[6.95719,51.42497],[6.95629,51.42463],[6.95545,51.4239],[6.95437,51.42334],[6.95146,51.42219],[6.9489,51.42032],[6.94715,51.41815],[6.94426,51.41529],[6.94411,51.41504],[6.94445,51.41488],[6.9438,51.41441],[6.94447,51.41384],[6.94427,51.41352],[6.94452,51.4131],[6.94433,51.41258],[6.94505,51.41174],[6.94412,51.4106],[6.94442,51.40987],[6.94417,51.40941],[6.94356,51.40935],[6.94393,51.40852],[6.94472,51.39983],[6.94407,51.39971],[6.93896,51.39747],[6.93887,51.39732],[6.93918,51.39681],[6.9398,51.39616],[6.9423,51.39549],[6.94301,51.39515],[6.94515,51.39674],[6.95095,51.40008],[6.95714,51.40293],[6.96214,51.40575],[6.96524,51.40792],[6.96868,51.41061],[6.97276,51.41446],[6.9733,51.41515],[6.97331,51.41545],[6.97363,51.41593],[6.97639,51.41782],[6.97454,51.41811],[6.9744,51.41872],[6.97477,51.41975],[6.97474,51.42046],[6.97409,51.42149],[6.97356,51.42177],[6.97215,51.42464],[6.9711,51.42535],[6.97098,51.42504],[6.97013,51.42481],[6.96968,51.42445],[6.96934,51.42435],[6.96908,51.42448],[6.96674,51.4234],[6.96588,51.42326],[6.96441,51.42444],[6.96295,51.42527],[6.96361,51.42713],[6.964,51.42727],[6.96392,51.42734]]]}},{"type":"Feature","properties":{"name":"Dellwig"},"geometry":{"type":"Polygon","coordinates":[[[6.94727,51.49824],[6.94609,51.49902],[6.94725,51.49934],[6.94672,51.49958],[6.94298,51.49862],[6.9416,51.4984],[6.93302,51.49765],[6.92861,51.49704],[6.9284,51.49777],[6.91922,51.4965],[6.92002,51.4943],[6.92166,51.49142],[6.91755,51.49023],[6.91396,51.48947],[6.91176,51.48945],[6.91159,51.48932],[6.90222,51.4884],[6.90282,51.48594],[6.89997,51.48576],[6.8999,51.48558],[6.90275,51.48565],[6.90473,51.48606],[6.90954,51.48656],[6.90968,51.48614],[6.90948,51.48605],[6.91014,51.48569],[6.91066,51.48511],[6.91019,51.484],[6.91001,51.48392],[6.91474,51.48153],[6.91525,51.48167],[6.91534,51.48151],[6.9186,51.48005],[6.91791,51.47923],[6.918,51.47862],[6.91994,51.47891],[6.92084,51.47884],[6.92143,51.47965],[6.92209,51.47929],[6.92227,51.47903],[6.92267,51.47894],[6.92304,51.47924],[6.92303,51.47945],[6.92384,51.47982],[6.92375,51.48023],[6.92396,51.48082],[6.92532,51.48183],[6.92595,51.48191],[6.92632,51.48177],[6.92627,51.48053],[6.92649,51.48022],[6.92642,51.47961],[6.92669,51.47903],[6.92652,51.47899],[6.92676,51.47875],[6.92688,51.47825],[6.92707,51.47821],[6.92812,51.4791],[6.92836,51.479],[6.92989,51.48106],[6.93081,51.4815],[6.93114,51.48144],[6.93121,51.48163],[6.93197,51.48188],[6.93247,51.48228],[6.93284,51.48289],[6.93253,51.48299],[6.93239,51.48382],[6.93251,51.48491],[6.93491,51.48566],[6.94272,51.49364],[6.94395,51.49189],[6.94874,51.49354],[6.94918,51.49353],[6.94996,51.49318],[6.95024,51.49334],[6.95002,51.49372],[6.95013,51.49392],[6.95154,51.49501],[6.95225,51.49517],[6.9517,51.49567],[6.95102,51.496],[6.95136,51.4957],[6.94727,51.49824]]]}},{"type":"Feature","properties":{"name":"Fulerum"},"geometry":{"type":"Polygon","coordinates":[[[6.96111,51.43831],[6.9595,51.43903],[6.95903,51.43837],[6.95936,51.43746],[6.95673,51.43698],[6.95742,51.43595],[6.95787,51.43465],[6.95783,51.43326],[6.95581,51.43308],[6.95563,51.43263],[6.9512,51.43185],[6.9524,51.4308],[6.95457,51.42956],[6.95467,51.42936],[6.9544,51.42869],[6.95396,51.42603],[6.95437,51.42533],[6.95406,51.42528],[6.9542,51.42369],[6.95436,51.42335],[6.95545,51.4239],[6.95629,51.42463],[6.95719,51.42497],[6.96064,51.42569],[6.96156,51.42603],[6.96228,51.42725],[6.96381,51.42743],[6.964,51.42727],[6.96365,51.42721],[6.96295,51.42527],[6.96441,51.42444],[6.96588,51.42326],[6.96673,51.42339],[6.96908,51.42448],[6.96934,51.42435],[6.96968,51.42445],[6.97013,51.42481],[6.97098,51.42504],[6.9711,51.42535],[6.97123,51.42531],[6.97105,51.42559],[6.97107,51.42594],[6.9715,51.42707],[6.97098,51.42854],[6.97072,51.42881],[6.97025,51.42876],[6.96997,51.4289],[6.97006,51.42905],[6.96982,51.42955],[6.97006,51.42979],[6.97014,51.43136],[6.97034,51.43166],[6.97022,51.43182],[6.96997,51.43179],[6.96974,51.43214],[6.96985,51.43239],[6.96959,51.433],[6.96998,51.43398],[6.97002,51.4345],[6.97038,51.43489],[6.97042,51.43523],[6.97078,51.43555],[6.97112,51.43554],[6.97149,51.43582],[6.97213,51.43677],[6.97199,51.43692],[6.97222,51.43704],[6.96528,51.43805],[6.96111,51.43831]]]}},{"type":"Feature","properties":{"name":"Bedingrade"},"geometry":{"type":"Polygon","coordinates":[[[6.92662,51.4788],[6.92652,51.47899],[6.92669,51.47903],[6.92642,51.47961],[6.92649,51.48022],[6.92627,51.48053],[6.92632,51.48177],[6.92595,51.48191],[6.92532,51.48183],[6.92396,51.48082],[6.92374,51.47967],[6.92303,51.47945],[6.92304,51.47924],[6.92234,51.47862],[6.92232,51.47823],[6.92094,51.47688],[6.92067,51.47641],[6.92062,51.4758],[6.9197,51.47473],[6.91791,51.47362],[6.91718,51.47362],[6.91648,51.47321],[6.91624,51.47332],[6.9126,51.47295],[6.90488,51.47405],[6.90233,51.47348],[6.90135,51.47374],[6.9004,51.47441],[6.89676,51.4739],[6.89622,51.47397],[6.89527,51.47441],[6.89562,51.47407],[6.89643,51.47375],[6.89763,51.47243],[6.89816,51.47236],[6.89826,51.47266],[6.8988,51.47269],[6.89935,51.4722],[6.89992,51.47136],[6.90087,51.47137],[6.90163,51.47111],[6.90452,51.4697],[6.90566,51.4702],[6.90616,51.47006],[6.90618,51.4698],[6.90637,51.46979],[6.90643,51.46954],[6.90767,51.46949],[6.90784,51.46931],[6.90781,51.46905],[6.90907,51.46892],[6.90909,51.46879],[6.9088,51.46878],[6.90885,51.46861],[6.90942,51.46849],[6.90982,51.46791],[6.91083,51.4675],[6.91202,51.4673],[6.9122,51.46697],[6.91298,51.46695],[6.91396,51.4655],[6.91578,51.4644],[6.91606,51.46314],[6.91659,51.46311],[6.91721,51.46266],[6.91687,51.46193],[6.91694,51.46166],[6.91711,51.46162],[6.91713,51.46126],[6.91665,51.46104],[6.91699,51.46045],[6.91668,51.4602],[6.91665,51.45973],[6.91682,51.45947],[6.91671,51.45927],[6.91697,51.45903],[6.91712,51.45831],[6.91682,51.45702],[6.91703,51.45607],[6.91703,51.45491],[6.9162,51.45372],[6.91613,51.45329],[6.91962,51.45462],[6.92097,51.45458],[6.92392,51.45691],[6.92369,51.45706],[6.9242,51.45744],[6.92447,51.45733],[6.92527,51.45785],[6.92457,51.4583],[6.92526,51.46011],[6.92513,51.46081],[6.92528,51.46112],[6.92601,51.46153],[6.92579,51.46179],[6.92757,51.46304],[6.93029,51.46577],[6.92953,51.4661],[6.93022,51.46731],[6.93192,51.46839],[6.93182,51.46875],[6.93194,51.46939],[6.9317,51.46986],[6.93215,51.47096],[6.93352,51.47196],[6.93461,51.47236],[6.93516,51.47292],[6.93716,51.47404],[6.9376,51.47428],[6.93809,51.47429],[6.9379,51.47443],[6.93827,51.47462],[6.93846,51.47493],[6.9384,51.47581],[6.93788,51.47628],[6.93521,51.47512],[6.93526,51.47501],[6.93455,51.47488],[6.9333,51.47603],[6.93233,51.47556],[6.93102,51.47691],[6.92972,51.47636],[6.92861,51.47723],[6.92882,51.47836],[6.92863,51.4793],[6.92836,51.479],[6.92812,51.4791],[6.92792,51.47896],[6.92707,51.47821],[6.92689,51.47825],[6.92676,51.47875],[6.92662,51.4788]]]}},{"type":"Feature","properties":{"name":"Frintrop"},"geometry":{"type":"Polygon","coordinates":[[[6.90956,51.48631],[6.90954,51.48656],[6.90473,51.48606],[6.90275,51.48565],[6.8999,51.48558],[6.89841,51.48103],[6.89673,51.48127],[6.8948,51.47825],[6.8946,51.47638],[6.89436,51.47625],[6.89527,51.47441],[6.89622,51.47397],[6.89676,51.4739],[6.9004,51.47441],[6.90135,51.47374],[6.90233,51.47348],[6.90488,51.47405],[6.9126,51.47295],[6.91624,51.47332],[6.91648,51.47321],[6.91718,51.47362],[6.91791,51.47362],[6.9197,51.47473],[6.92062,51.4758],[6.92067,51.47641],[6.92094,51.47688],[6.92232,51.47823],[6.92234,51.47862],[6.92267,51.47894],[6.92227,51.47903],[6.92209,51.47929],[6.92143,51.47965],[6.92084,51.47884],[6.91994,51.47891],[6.918,51.47862],[6.91791,51.47923],[6.9186,51.48005],[6.91534,51.48151],[6.91525,51.48167],[6.91474,51.48153],[6.91001,51.48392],[6.91019,51.484],[6.91066,51.48511],[6.91014,51.48569],[6.90948,51.48605],[6.90968,51.48614],[6.90956,51.48631]]]}},{"type":"Feature","properties":{"name":"Kray"},"geometry":{"type":"Polygon","coordinates":[[[7.08943,51.48335],[7.08484,51.48416],[7.08365,51.48404],[7.08345,51.48313],[7.08224,51.48323],[7.08199,51.48309],[7.0779,51.48306],[7.07399,51.4828],[7.07385,51.48345],[7.07279,51.48287],[7.0735,51.4811],[7.07197,51.48052],[7.07356,51.47941],[7.07615,51.47835],[7.07612,51.47812],[7.07578,51.47813],[7.07564,51.47725],[7.07604,51.4762],[7.07585,51.47615],[7.07613,51.47577],[7.07368,51.47508],[7.07461,51.47348],[7.0716,51.47285],[7.06809,51.47297],[7.06857,51.47164],[7.06518,51.47175],[7.06521,51.47158],[7.06432,51.47149],[7.06436,51.47135],[7.0631,51.47122],[7.06317,51.4709],[7.06271,51.47084],[7.06251,51.47085],[7.06211,51.47144],[7.06176,51.47252],[7.06057,51.47241],[7.05976,51.47209],[7.05957,51.47116],[7.05989,51.47113],[7.0604,51.47049],[7.0613,51.47028],[7.06128,51.46951],[7.06149,51.46864],[7.06272,51.46833],[7.06162,51.46822],[7.06159,51.46794],[7.06429,51.46824],[7.0632,51.46782],[7.06313,51.46764],[7.06335,51.46751],[7.0634,51.46699],[7.06302,51.46698],[7.06143,51.46585],[7.06074,51.46513],[7.06175,51.46474],[7.0601,51.46507],[7.05911,51.46489],[7.05761,51.46395],[7.0566,51.46354],[7.05589,51.46293],[7.05481,51.46253],[7.05484,51.46219],[7.05434,51.46182],[7.0545,51.46135],[7.05591,51.46023],[7.05615,51.45898],[7.0565,51.45895],[7.05657,51.45869],[7.05654,51.45853],[7.05523,51.45867],[7.05514,51.45796],[7.05648,51.45781],[7.05671,51.45764],[7.05622,51.45744],[7.05619,51.45724],[7.05581,51.45715],[7.05358,51.45733],[7.05381,51.45428],[7.05585,51.45408],[7.05576,51.45355],[7.05762,51.4532],[7.05763,51.45299],[7.05901,51.4528],[7.06237,51.45303],[7.06472,51.45299],[7.06668,51.45275],[7.07071,51.45183],[7.07116,51.45207],[7.07251,51.45166],[7.07216,51.45212],[7.07226,51.45301],[7.07338,51.45367],[7.07264,51.45412],[7.07339,51.45461],[7.07471,51.45705],[7.07515,51.4572],[7.07776,51.45739],[7.07983,51.45716],[7.07981,51.45684],[7.07999,51.45675],[7.08,51.45655],[7.08027,51.45656],[7.08082,51.45622],[7.08152,51.45664],[7.08181,51.45655],[7.08222,51.45687],[7.0818,51.45727],[7.08272,51.45797],[7.08335,51.4588],[7.08305,51.45888],[7.08362,51.45964],[7.08462,51.46031],[7.08387,51.4611],[7.08207,51.46058],[7.08146,51.46082],[7.09346,51.46521],[7.09148,51.46728],[7.09209,51.46767],[7.09171,51.46802],[7.09133,51.46774],[7.09078,51.46861],[7.09107,51.46875],[7.09072,51.46911],[7.09054,51.46918],[7.08852,51.4685],[7.08899,51.46869],[7.08867,51.46956],[7.08793,51.47051],[7.08705,51.47117],[7.08645,51.47092],[7.08566,51.4714],[7.0967,51.47631],[7.09801,51.47725],[7.10044,51.4796],[7.10191,51.48079],[7.09799,51.48275],[7.09762,51.48252],[7.09726,51.48262],[7.09369,51.48244],[7.09282,51.48228],[7.09239,51.48287],[7.09024,51.48242],[7.08943,51.48335]]]}},{"type":"Feature","properties":{"name":"Stadtwald"},"geometry":{"type":"Polygon","coordinates":[[[7.02444,51.43095],[7.02174,51.43098],[7.02157,51.43091],[7.02157,51.43064],[7.02039,51.43051],[7.01926,51.43008],[7.01823,51.42903],[7.01664,51.42836],[7.0166,51.42764],[7.01502,51.42753],[7.01512,51.42745],[7.01356,51.42671],[7.01209,51.42573],[7.01191,51.42541],[7.01124,51.42518],[7.00886,51.4236],[7.01039,51.42342],[7.00975,51.42301],[7.0101,51.4225],[7.00815,51.42098],[7.00742,51.42139],[7.00566,51.4206],[7.00551,51.42011],[7.00497,51.41957],[7.00635,51.41835],[7.00785,51.41888],[7.00923,51.4172],[7.01223,51.41795],[7.01765,51.41636],[7.01786,51.41657],[7.01806,51.41624],[7.02045,51.41555],[7.02096,51.4159],[7.02184,51.41558],[7.02154,51.41531],[7.02185,51.41519],[7.02164,51.41486],[7.0227,51.41464],[7.02211,51.41391],[7.02232,51.41352],[7.0227,51.41333],[7.02317,51.41331],[7.02398,51.41355],[7.02479,51.41388],[7.02571,51.4145],[7.0272,51.41384],[7.02768,51.41426],[7.02803,51.41407],[7.02736,51.41362],[7.0275,51.41351],[7.0276,51.41283],[7.02671,51.41263],[7.02692,51.41203],[7.02885,51.41229],[7.0299,51.41152],[7.03017,51.41099],[7.03106,51.41057],[7.03294,51.41047],[7.03321,51.40995],[7.03491,51.40968],[7.03753,51.41026],[7.03723,51.41071],[7.03723,51.41098],[7.03803,51.41156],[7.03842,51.41162],[7.04075,51.4129],[7.04333,51.4137],[7.04433,51.41424],[7.04552,51.41458],[7.04623,51.41507],[7.04748,51.41539],[7.04865,51.416],[7.04882,51.41624],[7.04955,51.41646],[7.05174,51.41766],[7.04979,51.41898],[7.04917,51.41873],[7.04731,51.41979],[7.04745,51.4199],[7.04708,51.42053],[7.04489,51.42232],[7.04461,51.4227],[7.04447,51.42335],[7.04343,51.4226],[7.04188,51.42212],[7.04145,51.42229],[7.04134,51.42242],[7.04162,51.42258],[7.04101,51.42304],[7.04108,51.42312],[7.04049,51.42334],[7.0406,51.42346],[7.03945,51.42475],[7.03911,51.42564],[7.03938,51.42614],[7.04054,51.42652],[7.04066,51.4267],[7.04061,51.42717],[7.04023,51.42741],[7.04014,51.42788],[7.04033,51.42826],[7.04065,51.42835],[7.04062,51.42852],[7.03994,51.42845],[7.03717,51.4288],[7.03607,51.42925],[7.03307,51.4298],[7.03109,51.42952],[7.02913,51.43028],[7.02784,51.4305],[7.02548,51.43055],[7.02444,51.43095]]]}},{"type":"Feature","properties":{"name":"Steele"},"geometry":{"type":"Polygon","coordinates":[[[7.07837,51.45731],[7.07687,51.45735],[7.07513,51.4572],[7.07468,51.45702],[7.07339,51.45461],[7.07264,51.45412],[7.07338,51.45367],[7.07226,51.45301],[7.07216,51.45212],[7.07251,51.45166],[7.07116,51.45207],[7.07071,51.45183],[7.06668,51.45275],[7.06472,51.45299],[7.06237,51.45303],[7.05874,51.45278],[7.05853,51.45255],[7.05983,51.45217],[7.06089,51.4522],[7.06161,51.45181],[7.06034,51.451],[7.06184,51.45011],[7.05929,51.44806],[7.05956,51.4474],[7.05833,51.44559],[7.05801,51.44542],[7.05778,51.44382],[7.05824,51.44185],[7.05813,51.44176],[7.0585,51.44121],[7.0594,51.44055],[7.05936,51.43965],[7.06007,51.43895],[7.06095,51.43958],[7.0631,51.44029],[7.06808,51.43966],[7.06891,51.43973],[7.06933,51.44115],[7.06979,51.44177],[7.07038,51.44216],[7.07197,51.44266],[7.07284,51.44284],[7.07802,51.44307],[7.08103,51.44265],[7.08248,51.44363],[7.08274,51.44355],[7.08291,51.44391],[7.08381,51.44437],[7.08471,51.44454],[7.08531,51.44448],[7.08542,51.44469],[7.08635,51.44471],[7.08644,51.445],[7.08687,51.44507],[7.08938,51.44458],[7.09038,51.44459],[7.09101,51.44473],[7.09213,51.44555],[7.09256,51.44626],[7.09308,51.44828],[7.09447,51.44914],[7.09434,51.44934],[7.09396,51.44918],[7.0925,51.45093],[7.09224,51.45107],[7.09195,51.45221],[7.09118,51.45391],[7.09175,51.45402],[7.09159,51.45422],[7.08971,51.45409],[7.08966,51.4539],[7.08791,51.45378],[7.08652,51.4534],[7.08642,51.45357],[7.08473,51.4541],[7.08358,51.45327],[7.08061,51.45273],[7.08049,51.45278],[7.08067,51.45311],[7.08033,51.45308],[7.08055,51.45419],[7.08082,51.45466],[7.08083,51.45622],[7.08027,51.45656],[7.08,51.45655],[7.07999,51.45675],[7.07981,51.45684],[7.07983,51.45716],[7.07837,51.45731]]]}},{"type":"Feature","properties":{"name":"Schonnebeck"},"geometry":{"type":"Polygon","coordinates":[[[7.05162,51.4882],[7.04905,51.48848],[7.0436,51.48375],[7.04353,51.48354],[7.04388,51.48269],[7.04401,51.48181],[7.04553,51.48209],[7.04605,51.48194],[7.04643,51.48071],[7.04706,51.48054],[7.04748,51.48],[7.04633,51.47949],[7.04379,51.47876],[7.04383,51.47857],[7.04658,51.4777],[7.04724,51.47788],[7.04818,51.47783],[7.0516,51.47684],[7.05187,51.47602],[7.05257,51.47533],[7.05425,51.47498],[7.05498,51.47502],[7.057,51.47558],[7.05786,51.47466],[7.05554,51.47313],[7.05567,51.473],[7.05634,51.47362],[7.05669,51.47305],[7.0587,51.47145],[7.05873,51.47115],[7.05946,51.47126],[7.05957,51.47116],[7.05976,51.47209],[7.06057,51.47241],[7.06176,51.47252],[7.06209,51.47148],[7.06251,51.47085],[7.06317,51.4709],[7.0631,51.47122],[7.06521,51.47158],[7.06518,51.47175],[7.06857,51.47164],[7.06809,51.47297],[7.0716,51.47285],[7.07461,51.47348],[7.07368,51.47508],[7.07613,51.47577],[7.07585,51.47615],[7.07604,51.4762],[7.07564,51.47725],[7.07578,51.47813],[7.07612,51.47812],[7.07615,51.47835],[7.07356,51.47941],[7.07197,51.48052],[7.0735,51.4811],[7.07279,51.48287],[7.07385,51.48345],[7.07386,51.48359],[7.07268,51.4852],[7.06816,51.48462],[7.06582,51.48485],[7.06384,51.4853],[7.06425,51.487],[7.06406,51.48816],[7.063,51.48834],[7.061,51.48795],[7.06078,51.48769],[7.06067,51.48805],[7.0593,51.48761],[7.05787,51.48747],[7.05162,51.4882]]]}},{"type":"Feature","properties":{"name":"Katernberg"},"geometry":{"type":"Polygon","coordinates":[[[7.05045,51.5119],[7.05046,51.51202],[7.05023,51.51203],[7.04784,51.51194],[7.04625,51.51173],[7.04536,51.51128],[7.04509,51.51136],[7.02355,51.50078],[7.0237,51.50037],[7.02293,51.49999],[7.02333,51.49989],[7.02422,51.49768],[7.02494,51.49634],[7.02532,51.49617],[7.02516,51.49611],[7.02525,51.496],[7.02546,51.49608],[7.02638,51.49571],[7.02708,51.49623],[7.02896,51.49691],[7.02912,51.49706],[7.02889,51.49719],[7.02917,51.49749],[7.03021,51.49708],[7.03046,51.49718],[7.03095,51.49795],[7.03235,51.49781],[7.03536,51.49803],[7.0344,51.49477],[7.03478,51.49476],[7.03551,51.49377],[7.03472,51.49353],[7.03582,51.49364],[7.03944,51.49466],[7.04116,51.49243],[7.04293,51.49285],[7.04258,51.49257],[7.0446,51.49228],[7.04568,51.4923],[7.04644,51.49177],[7.04708,51.49174],[7.04741,51.49149],[7.04843,51.49114],[7.04915,51.48994],[7.04989,51.48955],[7.04957,51.48912],[7.04825,51.48813],[7.04842,51.48795],[7.04905,51.48848],[7.05787,51.48747],[7.0593,51.48761],[7.06067,51.48805],[7.06078,51.48769],[7.061,51.48795],[7.063,51.48834],[7.06406,51.48816],[7.06425,51.487],[7.06384,51.4853],[7.06582,51.48485],[7.06808,51.48462],[7.07097,51.48497],[7.07093,51.48561],[7.07131,51.48791],[7.0711,51.48933],[7.07312,51.49016],[7.07241,51.4909],[7.07331,51.49121],[7.0731,51.49157],[7.07419,51.49245],[7.07386,51.49278],[7.07377,51.49322],[7.07186,51.49489],[7.07152,51.49475],[7.06701,51.49759],[7.0667,51.49753],[7.06631,51.49777],[7.06091,51.49671],[7.05881,51.49903],[7.0576,51.49856],[7.05731,51.50081],[7.05677,51.50192],[7.05546,51.50344],[7.05435,51.50332],[7.05418,51.50346],[7.05414,51.50431],[7.05444,51.5048],[7.05451,51.50548],[7.05371,51.50561],[7.05215,51.50529],[7.05158,51.50599],[7.0514,51.50678],[7.05057,51.50787],[7.0508,51.50802],[7.0501,51.50904],[7.04992,51.50985],[7.05029,51.50976],[7.05045,51.5119]]]}},{"type":"Feature","properties":{"name":"Gerschede"},"geometry":{"type":"Polygon","coordinates":[[[6.94357,51.49245],[6.94272,51.49364],[6.93491,51.48566],[6.93251,51.48491],[6.93239,51.48382],[6.93253,51.48299],[6.93284,51.48289],[6.93207,51.48193],[6.93121,51.48163],[6.93114,51.48144],[6.93081,51.4815],[6.92989,51.48106],[6.92906,51.48003],[6.92892,51.47983],[6.92905,51.47979],[6.92861,51.47925],[6.92882,51.47836],[6.92862,51.47721],[6.92972,51.47636],[6.93103,51.47691],[6.93233,51.47556],[6.93337,51.47601],[6.93455,51.47488],[6.93526,51.47501],[6.93521,51.47512],[6.93789,51.47628],[6.93837,51.47587],[6.9385,51.47516],[6.93837,51.47472],[6.93792,51.47435],[6.93809,51.47429],[6.93935,51.47474],[6.93975,51.4761],[6.94073,51.47691],[6.94056,51.47709],[6.94071,51.47736],[6.94143,51.47801],[6.94171,51.47859],[6.94224,51.47902],[6.9423,51.47936],[6.94202,51.47947],[6.94248,51.47965],[6.94272,51.48008],[6.9434,51.48012],[6.94364,51.48028],[6.94377,51.48038],[6.94371,51.48052],[6.94443,51.48116],[6.94439,51.48194],[6.94497,51.48257],[6.94512,51.48297],[6.94464,51.48305],[6.9446,51.4832],[6.9453,51.48388],[6.9456,51.48473],[6.94594,51.48508],[6.94631,51.48511],[6.94712,51.48619],[6.94761,51.48609],[6.94643,51.48808],[6.94718,51.48851],[6.94814,51.48958],[6.9495,51.4926],[6.94996,51.49318],[6.94918,51.49353],[6.94874,51.49354],[6.94395,51.49189],[6.94357,51.49245]]]}},{"type":"Feature","properties":{"name":"Freisenbruch"},"geometry":{"type":"Polygon","coordinates":[[[7.10927,51.46048],[7.10836,51.46135],[7.10541,51.46025],[7.10494,51.46048],[7.10432,51.45947],[7.10433,51.45922],[7.1027,51.45748],[7.10145,51.45629],[7.10025,51.4557],[7.10078,51.45506],[7.10035,51.45481],[7.10077,51.45453],[7.10049,51.45425],[7.09881,51.45541],[7.09761,51.45531],[7.09608,51.45481],[7.09241,51.45447],[7.09159,51.45422],[7.09175,51.45402],[7.09118,51.45391],[7.09195,51.45221],[7.09224,51.45107],[7.0925,51.45093],[7.09396,51.44918],[7.09434,51.44934],[7.09447,51.44914],[7.09308,51.44828],[7.09239,51.44592],[7.09191,51.44533],[7.09101,51.44473],[7.08971,51.44453],[7.08687,51.44507],[7.08646,51.44501],[7.08631,51.44474],[7.08776,51.44417],[7.08891,51.44335],[7.08995,51.44308],[7.09132,51.44242],[7.09197,51.44268],[7.0958,51.44106],[7.09877,51.44054],[7.10159,51.44057],[7.10346,51.44073],[7.10649,51.44136],[7.10727,51.44166],[7.11022,51.44216],[7.11364,51.44211],[7.11611,51.44227],[7.11976,51.44293],[7.12181,51.44356],[7.12432,51.44457],[7.12861,51.44698],[7.1258,51.45013],[7.12304,51.45235],[7.12137,51.45495],[7.11837,51.45535],[7.11604,51.45493],[7.11569,51.45637],[7.11544,51.45634],[7.1147,51.45824],[7.11293,51.46],[7.11128,51.45966],[7.11122,51.45981],[7.10956,51.45938],[7.10927,51.46048]]]}},{"type":"Feature","properties":{"name":"Horst"},"geometry":{"type":"Polygon","coordinates":[[[7.1294,51.44426],[7.1282,51.44513],[7.12895,51.44555],[7.12825,51.44608],[7.12895,51.44662],[7.12861,51.44698],[7.12432,51.44457],[7.12181,51.44356],[7.11976,51.44293],[7.11611,51.44227],[7.11364,51.44211],[7.11022,51.44216],[7.10727,51.44166],[7.10649,51.44136],[7.10346,51.44073],[7.10074,51.44053],[7.09818,51.44059],[7.0958,51.44106],[7.09197,51.44268],[7.09132,51.44242],[7.08995,51.44308],[7.08891,51.44335],[7.08776,51.44417],[7.08635,51.44471],[7.08542,51.44469],[7.08531,51.44448],[7.08453,51.44453],[7.08364,51.44432],[7.08291,51.44391],[7.08274,51.44355],[7.08248,51.44363],[7.08103,51.44265],[7.08243,51.44205],[7.08355,51.44107],[7.0844,51.43916],[7.08444,51.43768],[7.08468,51.43702],[7.08638,51.4338],[7.08792,51.43151],[7.08868,51.43067],[7.08906,51.43045],[7.09025,51.43022],[7.09723,51.42933],[7.10025,51.42873],[7.10327,51.42864],[7.10757,51.42883],[7.1093,51.42913],[7.11134,51.42917],[7.11347,51.42942],[7.11925,51.4309],[7.11906,51.43129],[7.12294,51.43168],[7.12266,51.43412],[7.12477,51.43508],[7.12703,51.43661],[7.13103,51.43888],[7.13267,51.43949],[7.13248,51.43968],[7.13279,51.4398],[7.13265,51.4401],[7.1328,51.44016],[7.13234,51.44053],[7.13315,51.44078],[7.13296,51.44127],[7.13371,51.44141],[7.13353,51.44188],[7.13388,51.44217],[7.1329,51.442],[7.13178,51.44268],[7.13091,51.44276],[7.13101,51.44301],[7.13181,51.4435],[7.13019,51.44427],[7.12982,51.44402],[7.1294,51.44426]]]}},{"type":"Feature","properties":{"name":"Margarethenhöhe"},"geometry":{"type":"Polygon","coordinates":[[[6.97338,51.43682],[6.97222,51.43704],[6.97203,51.43696],[6.97213,51.43677],[6.97149,51.43582],[6.97058,51.43539],[6.97002,51.4345],[6.96998,51.43398],[6.96959,51.433],[6.96985,51.43239],[6.96974,51.43214],[6.96997,51.43179],[6.97022,51.43182],[6.97034,51.43166],[6.97014,51.43136],[6.97006,51.42979],[6.96982,51.42955],[6.97006,51.42905],[6.96997,51.42889],[6.97025,51.42876],[6.97072,51.42881],[6.97106,51.4284],[6.97132,51.42773],[6.9715,51.42707],[6.97107,51.42594],[6.97117,51.42529],[6.97227,51.42452],[6.97356,51.42177],[6.97409,51.42149],[6.97474,51.42046],[6.97477,51.41975],[6.9744,51.41872],[6.97454,51.41811],[6.97639,51.41782],[6.97776,51.41885],[6.98241,51.42133],[6.98555,51.42242],[6.98029,51.42619],[6.98094,51.42657],[6.98158,51.42751],[6.98151,51.42796],[6.98202,51.42894],[6.98326,51.43042],[6.98451,51.43092],[6.98592,51.43202],[6.98664,51.43216],[6.98699,51.43206],[6.98722,51.43241],[6.98516,51.4329],[6.98329,51.43376],[6.98312,51.4337],[6.98144,51.43461],[6.97998,51.43511],[6.97338,51.43682]]]}},{"type":"Feature","properties":{"name":"Burgaltendorf"},"geometry":{"type":"Polygon","coordinates":[[[7.13076,51.42904],[7.12922,51.42971],[7.12655,51.43049],[7.12442,51.43086],[7.12102,51.43108],[7.11902,51.43086],[7.11347,51.42942],[7.11134,51.42917],[7.1093,51.42913],[7.10757,51.42883],[7.10327,51.42864],[7.10025,51.42873],[7.09723,51.42933],[7.09025,51.43022],[7.09011,51.42992],[7.09054,51.42981],[7.09087,51.42706],[7.09177,51.42566],[7.0907,51.42526],[7.09196,51.42443],[7.09372,51.42289],[7.09506,51.42226],[7.09482,51.42149],[7.09493,51.42118],[7.09568,51.42109],[7.09573,51.4209],[7.09537,51.42057],[7.09544,51.42033],[7.09459,51.42021],[7.09407,51.42032],[7.09487,51.4201],[7.09596,51.42031],[7.09653,51.41888],[7.09692,51.41846],[7.09723,51.41841],[7.0959,51.41795],[7.09618,51.41758],[7.09633,51.41762],[7.09638,51.41705],[7.09605,51.41574],[7.09498,51.41385],[7.09523,51.41331],[7.09466,51.4131],[7.09552,51.41226],[7.09543,51.41186],[7.09594,51.41125],[7.0962,51.41056],[7.09613,51.41027],[7.0968,51.41055],[7.09959,51.41102],[7.10053,51.41015],[7.10094,51.41005],[7.10123,51.40969],[7.10415,51.40782],[7.1056,51.40714],[7.10831,51.40665],[7.11053,51.40754],[7.11257,51.40772],[7.11238,51.40823],[7.11548,51.40874],[7.11682,51.40774],[7.12079,51.40883],[7.12162,51.40851],[7.12178,51.40883],[7.12239,51.40922],[7.12174,51.40963],[7.12177,51.40985],[7.12283,51.40994],[7.12387,51.41054],[7.12427,51.41027],[7.12575,51.41149],[7.12598,51.41137],[7.12676,51.41193],[7.12691,51.41179],[7.12653,51.41148],[7.12689,51.41117],[7.12672,51.41093],[7.12731,51.41055],[7.12748,51.41084],[7.12698,51.41133],[7.12736,51.41163],[7.12896,51.41259],[7.12939,51.41274],[7.12992,51.41261],[7.1292,51.41383],[7.12891,51.41393],[7.13043,51.4147],[7.13207,51.41527],[7.13194,51.4155],[7.13268,51.41591],[7.1329,51.41637],[7.13341,51.41665],[7.13389,51.41734],[7.13426,51.41748],[7.13431,51.41782],[7.13468,51.41799],[7.13471,51.41831],[7.13527,51.41854],[7.13485,51.41887],[7.13569,51.41934],[7.13583,51.41961],[7.13567,51.41983],[7.13683,51.42044],[7.13623,51.42204],[7.13765,51.42225],[7.13728,51.42272],[7.13705,51.42359],[7.13653,51.42376],[7.13657,51.42399],[7.1362,51.42453],[7.13756,51.4253],[7.13076,51.42904]]]}},{"type":"Feature","properties":{"name":"Byfang"},"geometry":{"type":"Polygon","coordinates":[[[7.09611,51.41074],[7.09589,51.41125],[7.09326,51.40965],[7.09004,51.40852],[7.08811,51.40805],[7.08501,51.40745],[7.08138,51.40739],[7.08224,51.40321],[7.08288,51.40322],[7.08342,51.40257],[7.08339,51.40236],[7.08478,51.40214],[7.08529,51.40084],[7.088,51.40098],[7.08829,51.40102],[7.08824,51.40123],[7.08867,51.40127],[7.08932,51.40115],[7.08983,51.40094],[7.0903,51.40031],[7.09076,51.40039],[7.09105,51.40005],[7.09096,51.39993],[7.09138,51.39949],[7.09159,51.39946],[7.09181,51.39872],[7.09303,51.39802],[7.0942,51.3979],[7.09487,51.39807],[7.09548,51.39803],[7.09556,51.39815],[7.09615,51.39784],[7.09608,51.39774],[7.09805,51.3982],[7.0993,51.39783],[7.09863,51.39765],[7.0987,51.39754],[7.09984,51.39724],[7.10082,51.39657],[7.10105,51.39658],[7.10064,51.39607],[7.1009,51.39573],[7.10205,51.39561],[7.10294,51.3958],[7.10354,51.3954],[7.10347,51.39522],[7.10293,51.39498],[7.10348,51.39464],[7.10334,51.39418],[7.10296,51.39385],[7.10355,51.39326],[7.09742,51.39039],[7.09866,51.38928],[7.09805,51.389],[7.0982,51.3886],[7.0993,51.3878],[7.09922,51.38722],[7.10047,51.38666],[7.10033,51.38559],[7.10052,51.38524],[7.10094,51.38497],[7.10143,51.38407],[7.10157,51.38408],[7.10199,51.38272],[7.10626,51.38337],[7.11125,51.38384],[7.11139,51.38403],[7.11145,51.38388],[7.11179,51.38383],[7.11553,51.38342],[7.11732,51.38287],[7.11724,51.38322],[7.11661,51.38408],[7.11609,51.3841],[7.11648,51.38468],[7.11636,51.38526],[7.11684,51.38582],[7.11751,51.3862],[7.1188,51.3866],[7.11952,51.38733],[7.1183,51.38867],[7.11734,51.38833],[7.11818,51.38903],[7.11754,51.39],[7.1184,51.39155],[7.11864,51.39227],[7.1185,51.39387],[7.11747,51.39512],[7.11681,51.3953],[7.11611,51.39577],[7.11554,51.39641],[7.11479,51.39781],[7.11316,51.39911],[7.11281,51.40001],[7.11232,51.40036],[7.11227,51.40192],[7.11261,51.40238],[7.11234,51.40307],[7.11278,51.40365],[7.11253,51.40419],[7.11169,51.40453],[7.11169,51.40552],[7.11118,51.40571],[7.11089,51.4056],[7.111,51.40577],[7.10831,51.40665],[7.1056,51.40714],[7.10415,51.40782],[7.10123,51.40969],[7.09959,51.41102],[7.0968,51.41055],[7.09613,51.41027],[7.09611,51.41074]]]}},{"type":"Feature","properties":{"name":"Überruhr-Holthausen"},"geometry":{"type":"Polygon","coordinates":[[[7.09175,51.42568],[7.09087,51.42706],[7.09054,51.42981],[7.09011,51.42987],[7.09025,51.43022],[7.08906,51.43045],[7.08864,51.42994],[7.0883,51.42986],[7.08772,51.42936],[7.08411,51.42875],[7.08202,51.42803],[7.08091,51.42735],[7.08263,51.42635],[7.08354,51.42556],[7.08218,51.42543],[7.08038,51.42492],[7.07961,51.42501],[7.07863,51.42463],[7.07839,51.42473],[7.07678,51.42424],[7.07604,51.42387],[7.07527,51.42324],[7.07433,51.422],[7.07355,51.42226],[7.0737,51.42238],[7.07322,51.42235],[7.07317,51.4216],[7.07073,51.42133],[7.06929,51.42194],[7.06885,51.42182],[7.07111,51.4197],[7.07106,51.41925],[7.07135,51.41894],[7.07127,51.41854],[7.07286,51.41682],[7.07496,51.41362],[7.07813,51.41131],[7.0803,51.41004],[7.08077,51.40953],[7.08138,51.40739],[7.08587,51.40754],[7.09004,51.40852],[7.0929,51.40951],[7.09594,51.41125],[7.09543,51.41186],[7.09544,51.4124],[7.09466,51.4131],[7.09523,51.41331],[7.09498,51.41385],[7.09605,51.41574],[7.09638,51.41705],[7.09633,51.41762],[7.09618,51.41758],[7.0959,51.41795],[7.09723,51.41841],[7.09692,51.41846],[7.09653,51.41888],[7.09596,51.42031],[7.09487,51.4201],[7.09407,51.42032],[7.09459,51.42021],[7.09544,51.42033],[7.09537,51.42057],[7.09573,51.4209],[7.09568,51.42109],[7.09493,51.42118],[7.09482,51.42149],[7.09506,51.42226],[7.09372,51.42289],[7.09196,51.42443],[7.0907,51.42526],[7.09175,51.42568]]]}},{"type":"Feature","properties":{"name":"Stoppenberg"},"geometry":{"type":"Polygon","coordinates":[[[7.03531,51.49787],[7.03536,51.49803],[7.03235,51.49781],[7.03095,51.49795],[7.03037,51.49713],[7.02917,51.49749],[7.02889,51.49719],[7.02912,51.49706],[7.02896,51.49691],[7.02704,51.49622],[7.02645,51.49572],[7.02546,51.49608],[7.02525,51.496],[7.02516,51.49611],[7.02532,51.49617],[7.02509,51.49635],[7.0236,51.49598],[7.02415,51.49219],[7.02451,51.49164],[7.02339,51.49151],[7.0236,51.49029],[7.02077,51.48982],[7.02234,51.48738],[7.02268,51.48587],[7.02161,51.4843],[7.01963,51.48261],[7.02078,51.48183],[7.021,51.48186],[7.0228,51.47988],[7.02385,51.47914],[7.02253,51.47835],[7.0227,51.47828],[7.02239,51.47808],[7.0242,51.47675],[7.02508,51.47534],[7.02479,51.47516],[7.02347,51.47241],[7.02322,51.47057],[7.024,51.47076],[7.02446,51.47007],[7.02418,51.47],[7.02428,51.46961],[7.0264,51.47016],[7.02664,51.46996],[7.02676,51.47027],[7.02807,51.46955],[7.03204,51.46807],[7.03319,51.46733],[7.03392,51.46663],[7.03417,51.46636],[7.03383,51.46623],[7.03444,51.46567],[7.03765,51.46581],[7.03861,51.46604],[7.04046,51.466],[7.0409,51.46608],[7.04084,51.46647],[7.044,51.46692],[7.04554,51.46731],[7.04484,51.46871],[7.0448,51.46924],[7.04502,51.46987],[7.04643,51.47005],[7.05175,51.47157],[7.0534,51.47224],[7.05538,51.4733],[7.05554,51.47313],[7.05786,51.47466],[7.057,51.47558],[7.05498,51.47502],[7.05425,51.47498],[7.05257,51.47533],[7.05187,51.47602],[7.0516,51.47684],[7.04818,51.47783],[7.04724,51.47788],[7.04658,51.4777],[7.04383,51.47857],[7.04379,51.47876],[7.04633,51.47949],[7.04748,51.48],[7.04706,51.48054],[7.04643,51.48071],[7.04605,51.48194],[7.04553,51.48209],[7.04401,51.48181],[7.04388,51.48269],[7.04353,51.48354],[7.0436,51.48375],[7.04833,51.48783],[7.04843,51.48798],[7.04825,51.48813],[7.04957,51.48912],[7.04989,51.48955],[7.04915,51.48994],[7.04843,51.49114],[7.04741,51.49149],[7.04708,51.49174],[7.04644,51.49177],[7.04568,51.4923],[7.0446,51.49228],[7.04258,51.49257],[7.04293,51.49285],[7.04116,51.49243],[7.03944,51.49466],[7.03582,51.49364],[7.03472,51.49353],[7.03551,51.49377],[7.03478,51.49476],[7.0344,51.49477],[7.03531,51.49787]]]}},{"type":"Feature","properties":{"name":"Schönebeck"},"geometry":{"type":"Polygon","coordinates":[[[6.92927,51.46481],[6.92757,51.46304],[6.92579,51.46179],[6.92601,51.46153],[6.92528,51.46112],[6.92513,51.46081],[6.92526,51.46011],[6.92457,51.4583],[6.92527,51.45786],[6.92447,51.45733],[6.9242,51.45744],[6.92369,51.45706],[6.92392,51.45691],[6.92097,51.45458],[6.91962,51.45462],[6.91613,51.45329],[6.91518,51.45033],[6.9158,51.45013],[6.91798,51.45001],[6.92309,51.45027],[6.92585,51.45088],[6.92737,51.45104],[6.92769,51.45122],[6.92877,51.45113],[6.93004,51.45133],[6.9316,51.45128],[6.93318,51.4507],[6.93434,51.45056],[6.93679,51.45064],[6.93796,51.45038],[6.93905,51.44963],[6.94048,51.44904],[6.94106,51.44846],[6.94161,51.44824],[6.9424,51.44756],[6.94298,51.44737],[6.94465,51.44752],[6.94649,51.44738],[6.9491,51.44883],[6.95008,51.44958],[6.95062,51.44946],[6.95046,51.44997],[6.95086,51.45058],[6.95232,51.45164],[6.95209,51.45201],[6.95255,51.45298],[6.95253,51.45336],[6.95186,51.45394],[6.95198,51.45345],[6.95108,51.45328],[6.95337,51.45735],[6.95432,51.45765],[6.95408,51.45806],[6.95499,51.4586],[6.95907,51.46006],[6.95868,51.46044],[6.96024,51.46215],[6.95741,51.46286],[6.95311,51.46293],[6.94857,51.4635],[6.94071,51.46228],[6.93351,51.46239],[6.93255,51.46261],[6.92927,51.46481]]]}},{"type":"Feature","properties":{"name":"Karnap"},"geometry":{"type":"Polygon","coordinates":[[[7.00278,51.53403],[7.00221,51.53421],[7.00196,51.534],[7.00179,51.53409],[7.00094,51.53389],[7.00037,51.53401],[6.99897,51.53376],[6.9989,51.53367],[6.99911,51.53346],[6.99887,51.53301],[6.99906,51.53244],[6.99819,51.53219],[6.99768,51.53191],[6.9975,51.53164],[6.99662,51.53178],[6.99512,51.53088],[6.9952,51.53035],[6.99494,51.53013],[6.99512,51.52243],[6.99283,51.52029],[6.9913,51.51792],[6.98687,51.51354],[6.98609,51.51295],[6.98615,51.51038],[6.98776,51.50867],[6.98755,51.50858],[6.98826,51.50841],[6.99298,51.51019],[6.99332,51.51023],[6.99371,51.50996],[6.99418,51.50994],[6.99631,51.51071],[6.99625,51.51086],[7.00277,51.51192],[7.00687,51.51311],[7.02185,51.51637],[7.0234,51.51679],[7.0235,51.51706],[7.02439,51.51741],[7.02299,51.51881],[7.02231,51.51913],[7.01977,51.5181],[7.01799,51.5224],[7.01676,51.52318],[7.01665,51.52394],[7.01604,51.52468],[7.01603,51.52523],[7.01591,51.52521],[7.01561,51.52647],[7.01488,51.52754],[7.01355,51.52843],[7.01314,51.5292],[7.01301,51.52998],[7.01329,51.53061],[7.01337,51.53158],[7.01406,51.53242],[7.00791,51.5327],[7.00689,51.53298],[7.00697,51.53343],[7.00532,51.53357],[7.00495,51.53387],[7.00487,51.53413],[7.00452,51.53415],[7.00376,51.53386],[7.00278,51.53403]]]}},{"type":"Feature","properties":{"name":"Heidhausen"},"geometry":{"type":"Polygon","coordinates":[[[7.01714,51.38846],[7.01544,51.38866],[7.0151,51.38825],[7.01396,51.38776],[7.01377,51.38727],[7.01394,51.38661],[7.01472,51.38561],[7.01473,51.38538],[7.01291,51.38542],[7.01056,51.38439],[7.00951,51.3836],[7.0084,51.38403],[7.00752,51.38325],[7.00713,51.38343],[7.00591,51.38265],[7.00569,51.38289],[7.00576,51.3833],[7.00603,51.38381],[7.00666,51.38444],[7.00665,51.38462],[7.00569,51.38533],[7.00471,51.38514],[7.00442,51.38558],[7.00448,51.38576],[7.00387,51.38529],[7.00398,51.38523],[7.00386,51.38513],[7.00335,51.38507],[7.00317,51.38359],[7.00326,51.38308],[7.00303,51.38288],[7.00184,51.38324],[7.00068,51.38203],[7.00025,51.38137],[6.99964,51.38109],[6.99879,51.38153],[6.99764,51.38069],[6.99639,51.38033],[6.98735,51.3799],[6.98458,51.37912],[6.98223,51.37786],[6.98049,51.37741],[6.97844,51.37713],[6.97191,51.37682],[6.97041,51.37662],[6.96419,51.37511],[6.96309,51.37456],[6.96216,51.37368],[6.96201,51.37234],[6.96235,51.36873],[6.96323,51.36856],[6.9655,51.36984],[6.97292,51.3731],[6.97335,51.37272],[6.9747,51.37225],[6.97582,51.37287],[6.97598,51.37274],[6.97772,51.37387],[6.97824,51.37352],[6.9795,51.37314],[6.97899,51.373],[6.9785,51.3726],[6.97981,51.37096],[6.9803,51.37072],[6.9791,51.3695],[6.97923,51.36912],[6.97964,51.36877],[6.9794,51.36811],[6.98023,51.36815],[6.98057,51.36797],[6.98191,51.36817],[6.98261,51.36701],[6.98352,51.366],[6.98221,51.36498],[6.98087,51.36429],[6.98232,51.36253],[6.98203,51.3619],[6.98111,51.36176],[6.98147,51.36158],[6.98131,51.36146],[6.98141,51.36134],[6.98242,51.36144],[6.98374,51.36079],[6.98568,51.36072],[6.98639,51.36087],[6.98633,51.36019],[6.98572,51.36023],[6.98553,51.35943],[6.98609,51.35825],[6.98626,51.35721],[6.98822,51.35846],[6.99007,51.35815],[6.99123,51.3591],[6.99184,51.35917],[6.99203,51.35939],[6.99303,51.35908],[6.99447,51.35825],[6.9952,51.35838],[6.99624,51.35816],[6.99709,51.35753],[6.99788,51.35724],[6.99909,51.35707],[6.99959,51.35706],[6.9997,51.35739],[7.00023,51.35747],[7.00055,51.3573],[7.00112,51.3577],[7.00224,51.35789],[7.00318,51.35789],[7.00347,51.35767],[7.00459,51.35754],[7.00497,51.35725],[7.00601,51.35746],[7.00759,51.35751],[7.00788,51.35771],[7.00708,51.35932],[7.01073,51.36055],[7.00948,51.36113],[7.01124,51.3624],[7.01474,51.36367],[7.01574,51.36413],[7.01617,51.36456],[7.01706,51.36487],[7.01794,51.36501],[7.01826,51.36482],[7.02107,51.36551],[7.02147,51.36471],[7.0233,51.36525],[7.0242,51.36445],[7.02395,51.36429],[7.02538,51.36376],[7.02663,51.3635],[7.02788,51.36299],[7.02795,51.36278],[7.02882,51.36258],[7.0292,51.36234],[7.03031,51.36253],[7.03263,51.36358],[7.03328,51.36336],[7.0341,51.36249],[7.03562,51.36189],[7.0359,51.36156],[7.03598,51.36194],[7.03634,51.3623],[7.0377,51.36261],[7.03923,51.3644],[7.04238,51.36704],[7.04333,51.36701],[7.04329,51.36748],[7.04378,51.36822],[7.04415,51.36815],[7.04389,51.36937],[7.0416,51.37024],[7.04012,51.37055],[7.03938,51.37132],[7.03848,51.37266],[7.0385,51.37334],[7.039,51.37404],[7.03912,51.37557],[7.03828,51.37996],[7.03825,51.38126],[7.03934,51.38311],[7.03949,51.383],[7.03954,51.38311],[7.03922,51.38346],[7.03844,51.38384],[7.03853,51.38392],[7.03737,51.38384],[7.03674,51.38404],[7.03651,51.38421],[7.0367,51.38447],[7.0364,51.38466],[7.03536,51.38439],[7.03393,51.3845],[7.03284,51.38435],[7.02946,51.38429],[7.02867,51.38463],[7.02784,51.38521],[7.02564,51.3858],[7.02541,51.38635],[7.02333,51.38752],[7.02225,51.38794],[7.02086,51.38824],[7.01714,51.38846]]]}},{"type":"Feature","properties":{"name":"Vogelheim"},"geometry":{"type":"Polygon","coordinates":[[[6.99258,51.50976],[6.9925,51.50992],[6.98826,51.50841],[6.98755,51.50858],[6.97765,51.50513],[6.97794,51.50473],[6.97772,51.50466],[6.97784,51.50437],[6.9782,51.50425],[6.97798,51.50419],[6.97879,51.50333],[6.97999,51.50159],[6.97989,51.49991],[6.98004,51.4991],[6.98015,51.49443],[6.97861,51.49441],[6.97876,51.49331],[6.97835,51.49339],[6.97881,51.49325],[6.97875,51.49308],[6.97913,51.49206],[6.97922,51.48987],[6.97905,51.48964],[6.98029,51.48947],[6.98032,51.48916],[6.98036,51.48839],[6.97988,51.48673],[6.97952,51.48639],[6.97945,51.48542],[6.97917,51.48541],[6.97931,51.48459],[6.97926,51.48306],[6.98124,51.4821],[6.98252,51.48117],[6.98682,51.48207],[6.9871,51.48229],[6.98712,51.48283],[6.98852,51.48308],[6.98862,51.48379],[6.98979,51.48377],[6.9889,51.48576],[6.98971,51.48603],[6.98957,51.48613],[6.99222,51.48699],[6.99407,51.48788],[6.99449,51.48785],[6.99491,51.48803],[6.99798,51.48993],[6.99762,51.49195],[6.9972,51.4933],[6.99649,51.49483],[6.99542,51.49654],[6.99536,51.49697],[6.99552,51.49778],[6.99545,51.50003],[6.99618,51.50302],[6.99576,51.50362],[6.99521,51.50391],[6.9944,51.5041],[6.99354,51.50409],[6.99302,51.50479],[6.99376,51.50575],[6.99408,51.50663],[6.99409,51.50739],[6.99373,51.5083],[6.99275,51.50945],[6.99279,51.50973],[6.99258,51.50976]]]}},{"type":"Feature","properties":{"name":"Frillendorf"},"geometry":{"type":"Polygon","coordinates":[[[7.05669,51.47305],[7.05634,51.47362],[7.05567,51.473],[7.05538,51.4733],[7.0534,51.47224],[7.05149,51.47148],[7.04643,51.47005],[7.04502,51.46987],[7.0448,51.46924],[7.04484,51.46871],[7.04554,51.46731],[7.044,51.46692],[7.04084,51.46647],[7.0409,51.46608],[7.04046,51.466],[7.03861,51.46604],[7.03765,51.46581],[7.03476,51.46561],[7.03671,51.46354],[7.03733,51.46228],[7.03774,51.4624],[7.0374,51.46073],[7.03685,51.45994],[7.03694,51.45987],[7.03645,51.45955],[7.03893,51.45975],[7.03936,51.45797],[7.04046,51.45774],[7.04162,51.45714],[7.04457,51.45626],[7.04421,51.45589],[7.04313,51.45554],[7.04331,51.45546],[7.04707,51.45467],[7.05085,51.45353],[7.05346,51.45295],[7.05711,51.45267],[7.05901,51.4528],[7.05763,51.45299],[7.05762,51.4532],[7.05576,51.45355],[7.05585,51.45408],[7.05381,51.45428],[7.05358,51.45733],[7.05581,51.45715],[7.05619,51.45724],[7.05622,51.45744],[7.05671,51.45764],[7.05648,51.45781],[7.05514,51.45796],[7.05523,51.45867],[7.05654,51.45853],[7.05657,51.45869],[7.0565,51.45895],[7.05615,51.45898],[7.05591,51.46023],[7.0546,51.46121],[7.05434,51.46182],[7.05484,51.46219],[7.05481,51.46253],[7.05589,51.46293],[7.0566,51.46354],[7.05761,51.46395],[7.05911,51.46489],[7.0601,51.46507],[7.06175,51.46474],[7.06074,51.46513],[7.06143,51.46585],[7.06302,51.46698],[7.0634,51.46699],[7.06335,51.46751],[7.06313,51.46764],[7.0632,51.46782],[7.06429,51.46824],[7.06159,51.46794],[7.06162,51.46822],[7.06272,51.46833],[7.06149,51.46864],[7.06128,51.46951],[7.0613,51.47028],[7.0604,51.47049],[7.05989,51.47113],[7.05946,51.47126],[7.05873,51.47115],[7.05851,51.47163],[7.05669,51.47305]]]}},{"type":"Feature","properties":{"name":"Kupferdreh"},"geometry":{"type":"Polygon","coordinates":[[[7.08339,51.40238],[7.08342,51.40257],[7.08288,51.40322],[7.08224,51.40321],[7.0823,51.40208],[7.08211,51.40141],[7.0811,51.39961],[7.07942,51.39784],[7.07668,51.39534],[7.07477,51.3929],[7.0742,51.39152],[7.07402,51.38884],[7.0733,51.38765],[7.07239,51.38722],[7.07095,51.38685],[7.06687,51.38688],[7.06721,51.38465],[7.06699,51.38386],[7.06628,51.3837],[7.06597,51.3833],[7.06509,51.38311],[7.0647,51.38263],[7.06403,51.38238],[7.06417,51.38223],[7.06417,51.38162],[7.06383,51.38127],[7.06449,51.38108],[7.06383,51.38067],[7.06354,51.38021],[7.06309,51.37992],[7.0632,51.37965],[7.06262,51.37913],[7.06278,51.37899],[7.06225,51.37875],[7.06215,51.37845],[7.06158,51.37825],[7.06124,51.37788],[7.06136,51.37729],[7.06003,51.37639],[7.06017,51.37594],[7.05994,51.37563],[7.05912,51.37505],[7.05349,51.37252],[7.05328,51.37273],[7.0524,51.37256],[7.05211,51.37286],[7.0497,51.37163],[7.04846,51.37185],[7.04667,51.37186],[7.04434,51.36962],[7.04383,51.36942],[7.04411,51.36836],[7.04437,51.36837],[7.04471,51.36626],[7.04519,51.36556],[7.04592,51.3651],[7.04757,51.36455],[7.04835,51.36383],[7.04824,51.36319],[7.04893,51.36245],[7.05047,51.36207],[7.0519,51.36242],[7.05485,51.3623],[7.05604,51.36257],[7.05584,51.36293],[7.05609,51.36317],[7.0579,51.36352],[7.05836,51.36374],[7.06292,51.36721],[7.06318,51.36715],[7.06568,51.36807],[7.06597,51.3684],[7.06666,51.36793],[7.06983,51.37051],[7.07078,51.37075],[7.07446,51.37231],[7.07453,51.37262],[7.07675,51.37319],[7.07959,51.37451],[7.08148,51.37281],[7.08124,51.37224],[7.08096,51.37209],[7.08072,51.37073],[7.08165,51.37004],[7.08421,51.3713],[7.08605,51.37098],[7.08641,51.37105],[7.08711,51.3716],[7.08807,51.37185],[7.08818,51.37111],[7.08875,51.37037],[7.0888,51.36968],[7.09033,51.36863],[7.09143,51.36892],[7.09247,51.36977],[7.09263,51.36945],[7.09464,51.37005],[7.09576,51.36989],[7.09677,51.3706],[7.09741,51.37065],[7.098,51.37014],[7.09954,51.37061],[7.09935,51.37079],[7.09959,51.37087],[7.09895,51.3713],[7.09946,51.37164],[7.10011,51.37156],[7.09982,51.37165],[7.09974,51.37213],[7.10018,51.37234],[7.09934,51.37262],[7.09884,51.37251],[7.09855,51.37267],[7.09892,51.37317],[7.0992,51.37329],[7.09936,51.37357],[7.10027,51.37315],[7.10083,51.37265],[7.10113,51.37277],[7.10137,51.37292],[7.10139,51.3735],[7.10118,51.37398],[7.10132,51.37432],[7.10185,51.37494],[7.10286,51.37503],[7.10295,51.37593],[7.10412,51.37583],[7.10477,51.37658],[7.10585,51.37694],[7.10721,51.37709],[7.10855,51.37689],[7.11183,51.37799],[7.11221,51.37743],[7.11213,51.37591],[7.11243,51.37605],[7.11318,51.37589],[7.11399,51.37667],[7.11467,51.3764],[7.1149,51.37665],[7.11542,51.37652],[7.1158,51.37616],[7.11595,51.37567],[7.11652,51.37578],[7.11775,51.3774],[7.11951,51.378],[7.11899,51.37849],[7.11758,51.37836],[7.11579,51.37774],[7.11547,51.37816],[7.11622,51.37869],[7.11704,51.37888],[7.11705,51.37966],[7.11872,51.37979],[7.11826,51.3802],[7.11704,51.38054],[7.11706,51.38109],[7.11735,51.38112],[7.11789,51.38199],[7.11785,51.38217],[7.11731,51.3826],[7.11732,51.38287],[7.11596,51.38331],[7.11179,51.38383],[7.11145,51.38388],[7.11139,51.38403],[7.11125,51.38384],[7.10626,51.38337],[7.10199,51.38272],[7.10157,51.38408],[7.10143,51.38407],[7.10094,51.38497],[7.10052,51.38524],[7.10033,51.38559],[7.10047,51.38666],[7.09922,51.38722],[7.0993,51.3878],[7.0982,51.3886],[7.09805,51.389],[7.09866,51.38928],[7.09742,51.39039],[7.10355,51.39326],[7.10296,51.39385],[7.10334,51.39418],[7.10348,51.39464],[7.10293,51.39498],[7.10347,51.39522],[7.10354,51.3954],[7.10294,51.3958],[7.10205,51.39561],[7.1009,51.39573],[7.10064,51.39607],[7.10105,51.39658],[7.10082,51.39657],[7.09984,51.39724],[7.0987,51.39754],[7.09863,51.39765],[7.0993,51.39783],[7.09805,51.3982],[7.09608,51.39774],[7.09615,51.39784],[7.09556,51.39815],[7.09548,51.39803],[7.09487,51.39807],[7.0942,51.3979],[7.09303,51.39802],[7.09181,51.39872],[7.09159,51.39946],[7.09138,51.39949],[7.09096,51.39993],[7.09105,51.40005],[7.09076,51.40039],[7.09019,51.40037],[7.0897,51.40102],[7.08867,51.40127],[7.08824,51.40123],[7.08829,51.40102],[7.088,51.40098],[7.08529,51.40084],[7.08478,51.40214],[7.08339,51.40238]]]}},{"type":"Feature","properties":{"name":"Fischlaken"},"geometry":{"type":"Polygon","coordinates":[[[7.0385,51.4071],[7.03443,51.40753],[7.0295,51.40744],[7.02966,51.40718],[7.02743,51.40711],[7.02402,51.40642],[7.02372,51.40655],[7.01751,51.40473],[7.01372,51.40391],[7.01419,51.4032],[7.01344,51.40285],[7.01239,51.40191],[7.01062,51.40126],[7.01021,51.40026],[7.01022,51.40006],[7.01127,51.40036],[7.01231,51.40034],[7.01152,51.39987],[7.01251,51.39813],[7.01244,51.39736],[7.01345,51.39648],[7.01345,51.39547],[7.01376,51.39505],[7.01377,51.39483],[7.01332,51.39483],[7.01349,51.39423],[7.01338,51.39338],[7.01348,51.393],[7.01205,51.39268],[7.01135,51.39183],[7.01219,51.39182],[7.01249,51.39036],[7.01321,51.39041],[7.01351,51.38974],[7.01594,51.39032],[7.01574,51.38897],[7.01586,51.38898],[7.01544,51.38866],[7.02097,51.38822],[7.02225,51.38794],[7.02333,51.38752],[7.02541,51.38635],[7.02564,51.3858],[7.02784,51.38521],[7.02867,51.38463],[7.02946,51.38429],[7.03284,51.38435],[7.03393,51.3845],[7.03536,51.38439],[7.03625,51.38467],[7.03665,51.38455],[7.03669,51.38431],[7.03651,51.38421],[7.03674,51.38404],[7.03737,51.38384],[7.03853,51.38392],[7.03844,51.38384],[7.039,51.38364],[7.03954,51.38311],[7.03949,51.383],[7.03934,51.38311],[7.03825,51.38126],[7.03828,51.37996],[7.03912,51.37557],[7.039,51.37404],[7.0385,51.37334],[7.03848,51.37266],[7.03938,51.37132],[7.04028,51.37047],[7.0416,51.37024],[7.04383,51.36942],[7.04434,51.36962],[7.04667,51.37186],[7.04846,51.37185],[7.0497,51.37163],[7.05211,51.37286],[7.0524,51.37256],[7.05328,51.37273],[7.05349,51.37252],[7.05941,51.37523],[7.06017,51.37594],[7.05999,51.37621],[7.0601,51.37647],[7.06136,51.37729],[7.06124,51.37788],[7.06158,51.37825],[7.06215,51.37845],[7.06225,51.37875],[7.06278,51.37899],[7.06262,51.37913],[7.0632,51.37965],[7.06309,51.37992],[7.06354,51.38021],[7.06383,51.38067],[7.06449,51.38108],[7.06383,51.38127],[7.06417,51.38162],[7.06417,51.38223],[7.06403,51.38238],[7.0647,51.38263],[7.06509,51.38311],[7.06597,51.3833],[7.06628,51.3837],[7.06699,51.38386],[7.06721,51.38465],[7.06687,51.38688],[7.06521,51.38726],[7.06259,51.38848],[7.05947,51.39129],[7.05894,51.39184],[7.05772,51.39381],[7.05727,51.39513],[7.05627,51.39692],[7.05434,51.39871],[7.05184,51.40051],[7.05034,51.4022],[7.04675,51.40406],[7.04708,51.40419],[7.04317,51.40593],[7.04228,51.40629],[7.0385,51.4071]]]}},{"type":"Feature","properties":{"name":"Überruhr-Hinsel"},"geometry":{"type":"Polygon","coordinates":[[[7.0844,51.43916],[7.08355,51.44107],[7.08243,51.44205],[7.08103,51.44265],[7.07802,51.44307],[7.07545,51.44298],[7.07284,51.44284],[7.07038,51.44216],[7.06979,51.44177],[7.06933,51.44115],[7.06891,51.43973],[7.06808,51.43966],[7.06748,51.43878],[7.06462,51.43869],[7.06284,51.43829],[7.0617,51.43776],[7.06046,51.43653],[7.06022,51.43656],[7.05957,51.4356],[7.05795,51.43239],[7.05768,51.4309],[7.05718,51.42979],[7.05692,51.42866],[7.0572,51.4285],[7.05709,51.42814],[7.05685,51.42819],[7.0566,51.42726],[7.05659,51.42653],[7.05688,51.42552],[7.05734,51.42491],[7.05808,51.42439],[7.06283,51.42273],[7.06713,51.42091],[7.06942,51.41981],[7.07127,51.41854],[7.07135,51.41894],[7.07106,51.41925],[7.07111,51.4197],[7.06885,51.42182],[7.06929,51.42194],[7.07073,51.42133],[7.07317,51.4216],[7.07322,51.42235],[7.0737,51.42238],[7.07355,51.42226],[7.07433,51.422],[7.07527,51.42324],[7.07604,51.42387],[7.07678,51.42424],[7.07839,51.42473],[7.07863,51.42463],[7.07961,51.42501],[7.08038,51.42492],[7.08218,51.42543],[7.08354,51.42556],[7.08263,51.42635],[7.08091,51.42735],[7.08202,51.42803],[7.08411,51.42875],[7.08772,51.42936],[7.0883,51.42986],[7.08864,51.42994],[7.08906,51.43045],[7.08809,51.43129],[7.08589,51.43461],[7.08444,51.43768],[7.0844,51.43916]]]}},{"type":"Feature","properties":{"name":"Leithe"},"geometry":{"type":"Polygon","coordinates":[[[7.10239,51.48079],[7.10208,51.48094],[7.10162,51.48066],[7.09801,51.47725],[7.09642,51.47616],[7.08566,51.4714],[7.08645,51.47092],[7.08705,51.47117],[7.08793,51.47051],[7.08867,51.46956],[7.08899,51.46869],[7.08852,51.4685],[7.09054,51.46918],[7.09072,51.46911],[7.09107,51.46875],[7.09078,51.46861],[7.09133,51.46774],[7.09171,51.46802],[7.09209,51.46767],[7.09148,51.46728],[7.09346,51.46521],[7.08146,51.46082],[7.08207,51.46058],[7.08387,51.4611],[7.08462,51.46031],[7.08362,51.45964],[7.08305,51.45888],[7.08335,51.4588],[7.08272,51.45797],[7.0818,51.45727],[7.08222,51.45687],[7.08181,51.45655],[7.08152,51.45664],[7.08082,51.45622],[7.08082,51.45466],[7.08055,51.45419],[7.08033,51.45308],[7.08067,51.45311],[7.08049,51.45278],[7.08358,51.45327],[7.08473,51.4541],[7.08642,51.45357],[7.08652,51.4534],[7.08791,51.45378],[7.08966,51.4539],[7.08971,51.45409],[7.09608,51.45481],[7.09761,51.45531],[7.09881,51.45541],[7.10049,51.45425],[7.10077,51.45453],[7.10035,51.45481],[7.10078,51.45506],[7.10025,51.4557],[7.10145,51.45629],[7.1027,51.45748],[7.10433,51.45922],[7.10432,51.45947],[7.10494,51.46048],[7.10541,51.46025],[7.10836,51.46135],[7.10852,51.4619],[7.10827,51.46243],[7.11125,51.46386],[7.11205,51.46385],[7.11323,51.46458],[7.11342,51.46503],[7.11367,51.46508],[7.11393,51.46558],[7.11355,51.46593],[7.11347,51.46646],[7.11384,51.46766],[7.11365,51.46913],[7.11341,51.46968],[7.11396,51.47033],[7.11375,51.47185],[7.11407,51.4719],[7.11406,51.47201],[7.11338,51.47243],[7.11314,51.47313],[7.1123,51.47356],[7.11165,51.47356],[7.11082,51.47435],[7.11047,51.4744],[7.10867,51.47542],[7.10853,51.47554],[7.10871,51.47608],[7.1083,51.47618],[7.10813,51.47658],[7.10778,51.4767],[7.10775,51.47688],[7.10718,51.4769],[7.10693,51.47709],[7.10702,51.47727],[7.10686,51.47745],[7.10615,51.47765],[7.10586,51.47811],[7.10552,51.4781],[7.10574,51.47837],[7.10562,51.47865],[7.10514,51.47922],[7.10462,51.47948],[7.10402,51.4802],[7.1035,51.48045],[7.10294,51.48045],[7.10239,51.48079]]]}},{"type":"Feature","properties":{"name":"Kettwig"},"geometry":{"type":"Polygon","coordinates":[[[6.94328,51.38766],[6.94366,51.38931],[6.94293,51.38922],[6.94045,51.38807],[6.93756,51.38751],[6.93564,51.38749],[6.93402,51.38726],[6.93345,51.38774],[6.9333,51.38771],[6.93073,51.38643],[6.9275,51.38536],[6.92901,51.38337],[6.92676,51.3821],[6.92618,51.38287],[6.92215,51.38198],[6.91968,51.38181],[6.91984,51.38165],[6.91938,51.38117],[6.91902,51.38118],[6.91783,51.38077],[6.91545,51.37937],[6.91498,51.37969],[6.9135,51.37898],[6.91241,51.37992],[6.912,51.37975],[6.91092,51.37915],[6.91099,51.37859],[6.90981,51.37793],[6.91253,51.37631],[6.91633,51.37467],[6.91513,51.37374],[6.9148,51.3728],[6.91365,51.37162],[6.91204,51.37255],[6.90921,51.37059],[6.90891,51.37072],[6.90627,51.36879],[6.90724,51.36825],[6.90601,51.36776],[6.9059,51.36792],[6.90509,51.3676],[6.90738,51.36568],[6.9133,51.36207],[6.91299,51.36172],[6.91507,51.36138],[6.91872,51.36011],[6.9228,51.3583],[6.92495,51.3577],[6.92424,51.35675],[6.9235,51.35633],[6.92273,51.35554],[6.92249,51.3556],[6.92259,51.35573],[6.92238,51.35584],[6.92091,51.35528],[6.92218,51.35492],[6.92154,51.35406],[6.92192,51.35386],[6.92248,51.35388],[6.92279,51.35419],[6.92589,51.35347],[6.92634,51.35347],[6.92672,51.35366],[6.92702,51.35296],[6.92868,51.35303],[6.9286,51.35281],[6.92903,51.35244],[6.92859,51.35206],[6.92708,51.3516],[6.92642,51.35111],[6.92423,51.35038],[6.92598,51.34849],[6.92881,51.34966],[6.92887,51.34908],[6.92928,51.34814],[6.93042,51.34909],[6.93153,51.35042],[6.93237,51.35038],[6.93374,51.34952],[6.93427,51.34977],[6.93558,51.34933],[6.9374,51.35031],[6.93844,51.35054],[6.93881,51.35085],[6.93948,51.35056],[6.93953,51.35098],[6.94154,51.34992],[6.94261,51.35024],[6.94326,51.34981],[6.94482,51.35072],[6.94462,51.35094],[6.94521,51.35142],[6.94578,51.35109],[6.94697,51.35147],[6.95037,51.34979],[6.95108,51.34918],[6.95218,51.34998],[6.9532,51.34945],[6.961,51.34757],[6.96204,51.34895],[6.96259,51.34879],[6.96325,51.34783],[6.96382,51.34805],[6.96423,51.34763],[6.96774,51.34864],[6.96978,51.34941],[6.96869,51.35007],[6.97131,51.3513],[6.97222,51.35152],[6.97251,51.35168],[6.97248,51.35182],[6.97415,51.35198],[6.97586,51.35255],[6.97612,51.35275],[6.97661,51.35436],[6.97737,51.35556],[6.97722,51.35582],[6.97951,51.35568],[6.98014,51.35518],[6.97978,51.35442],[6.98001,51.35427],[6.98002,51.35402],[6.98037,51.35398],[6.9807,51.35416],[6.98219,51.35349],[6.98639,51.35701],[6.98605,51.35793],[6.98609,51.35825],[6.98553,51.35943],[6.98572,51.36023],[6.98633,51.36019],[6.98639,51.36087],[6.98568,51.36072],[6.98374,51.36079],[6.98242,51.36144],[6.98141,51.36134],[6.98131,51.36146],[6.98147,51.36158],[6.98111,51.36176],[6.98203,51.3619],[6.98232,51.36253],[6.98087,51.36429],[6.98221,51.36498],[6.98352,51.366],[6.98261,51.36701],[6.98191,51.36817],[6.98057,51.36797],[6.98023,51.36815],[6.9794,51.36811],[6.97964,51.36877],[6.97923,51.36912],[6.9791,51.3695],[6.9803,51.37072],[6.97981,51.37096],[6.9785,51.3726],[6.97899,51.373],[6.9795,51.37314],[6.97824,51.37352],[6.97772,51.37387],[6.97598,51.37274],[6.97582,51.37287],[6.9747,51.37225],[6.97335,51.37272],[6.97292,51.3731],[6.9655,51.36984],[6.96323,51.36856],[6.96235,51.36873],[6.96207,51.37134],[6.96208,51.37338],[6.96118,51.37326],[6.9605,51.37394],[6.96024,51.37459],[6.96052,51.37544],[6.96114,51.37639],[6.95997,51.37674],[6.96099,51.37739],[6.96117,51.37798],[6.96061,51.37783],[6.9601,51.37799],[6.95973,51.37829],[6.9586,51.37994],[6.95627,51.38077],[6.95186,51.38045],[6.95115,51.38131],[6.94465,51.38516],[6.94327,51.38517],[6.94361,51.3865],[6.94315,51.38656],[6.94328,51.38766]]]}}]}