{"type":"FeatureCollection","features":[{"type":"Feature","properties":{"name":"Umweltzone"},"geometry":{"type":"Polygon","coordinates":[[[7.01387,51.53253],[7.00739,51.53274],[7.00702,51.5329],[7.00678,51.53329],[7.00554,51.53338],[7.00498,51.53366],[7.00468,51.53413],[7.0043,51.53397],[7.00392,51.53378],[7.00342,51.53375],[7.00281,51.53395],[7.00237,51.53418],[7.00181,51.53411],[7.00156,51.53384],[7.00044,51.53401],[7,51.53393],[6.99962,51.53378],[6.999,51.53378],[6.99906,51.53355],[6.99886,51.5332],[6.99892,51.53289],[6.99903,51.5325],[6.99896,51.53223],[6.99809,51.53216],[6.99752,51.53162],[6.99665,51.53182],[6.99519,51.5309],[6.99519,51.53055],[6.99526,51.52246],[6.99265,51.52007],[6.99214,51.51934],[6.99181,51.51868],[6.99088,51.51774],[6.99084,51.51688],[6.99084,51.5161],[6.99088,51.51493],[6.99095,51.51406],[6.99113,51.51302],[6.99117,51.51283],[6.99133,51.51235],[6.99149,51.51194],[6.9916,51.51175],[6.99183,51.51148],[6.99314,51.51003],[6.99367,51.50952],[6.99407,51.50909],[6.99449,51.50866],[6.99471,51.50846],[6.99534,51.50769],[6.99606,51.50685],[6.99635,51.50646],[6.99634,51.50656],[6.99635,51.50672],[6.99638,51.50681],[6.99645,51.50691],[6.99656,51.507],[6.99668,51.50706],[6.99698,51.50714],[6.99725,51.50715],[6.99749,51.50712],[6.99767,51.50706],[6.99777,51.507],[6.99786,51.50692],[6.99792,51.50686],[6.99799,51.50671],[6.998,51.5066],[6.99799,51.50652],[6.99794,51.50642],[6.99777,51.50625],[6.99939,51.50674],[7.00073,51.50709],[7.00163,51.50727],[7.00268,51.50743],[7.00428,51.50762],[7.00429,51.50761],[7.00557,51.50773],[7.00831,51.50783],[7.01083,51.50794],[7.01215,51.50807],[7.0136,51.50825],[7.01422,51.50835],[7.01552,51.50861],[7.01631,51.50881],[7.01826,51.50941],[7.01916,51.50973],[7.02036,51.51022],[7.021,51.51051],[7.02146,51.5107],[7.02221,51.51105],[7.02441,51.51197],[7.02542,51.51237],[7.02679,51.51284],[7.02758,51.51309],[7.02849,51.51334],[7.02912,51.51351],[7.03043,51.51381],[7.03182,51.51408],[7.03305,51.51427],[7.03277,51.5146],[7.03255,51.51483],[7.03256,51.51533],[7.03306,51.51529],[7.03302,51.51615],[7.03127,51.51624],[7.02978,51.51653],[7.02792,51.51678],[7.02624,51.51702],[7.02562,51.51691],[7.02506,51.51692],[7.0245,51.51723],[7.02236,51.51904],[7.01972,51.51801],[7.01806,51.52192],[7.01783,51.52254],[7.01696,51.5227],[7.01659,51.5231],[7.01649,51.52403],[7.01569,51.52466],[7.0157,51.52493],[7.01566,51.52586],[7.01542,51.52645],[7.01506,51.52704],[7.01451,51.52755],[7.01334,51.52818],[7.01316,51.52849],[7.01298,51.52896],[7.01268,51.52935],[7.01269,51.52982],[7.01276,51.53013],[7.01308,51.53055],[7.01309,51.53102],[7.01316,51.53129],[7.01304,51.53168],[7.01336,51.53203],[7.01387,51.53253]]]}},{"type":"Feature","properties":{"name":"Umweltzone"},"geometry":{"type":"Polygon","coordinates":[[[6.99036,51.51694],[6.98916,51.51562],[6.98853,51.51498],[6.98794,51.51432],[6.98741,51.51379],[6.98595,51.51279],[6.98581,51.51034],[6.98769,51.50867],[6.9814,51.50642],[6.9771,51.50499],[6.97978,51.5041],[6.98054,51.50388],[6.98171,51.5036],[6.98193,51.50356],[6.9821,51.50359],[6.9828,51.50346],[6.98382,51.50335],[6.98463,51.5033],[6.98587,51.50328],[6.98673,51.50331],[6.98729,51.50336],[6.98803,51.50345],[6.98894,51.50358],[6.98945,51.50368],[6.99047,51.5039],[6.99224,51.50441],[6.9928,51.50456],[6.99527,51.5054],[6.99483,51.50541],[6.99463,51.50546],[6.99444,51.50555],[6.99429,51.50568],[6.99422,51.50582],[6.99421,51.50595],[6.99425,51.50607],[6.99434,51.50618],[6.99448,51.50629],[6.99469,51.50638],[6.99501,51.50643],[6.99531,51.5064],[6.99558,51.50633],[6.99577,51.50623],[6.99562,51.50646],[6.99477,51.50739],[6.99418,51.5081],[6.99379,51.50849],[6.99321,51.50918],[6.99255,51.51005],[6.99145,51.51129],[6.99123,51.51161],[6.99083,51.51235],[6.99065,51.51308],[6.99053,51.51375],[6.99042,51.51423],[6.99037,51.51572],[6.99036,51.51694]]]}},{"type":"Feature","properties":{"name":"Umweltzone"},"geometry":{"type":"Polygon","coordinates":[[[7.03249,51.3635],[7.03261,51.36355],[7.03327,51.36334],[7.03365,51.36292],[7.03389,51.36262],[7.03405,51.36249],[7.0344,51.36237],[7.0346,51.36221],[7.03517,51.36199],[7.03549,51.36191],[7.03557,51.36187],[7.03588,51.36153],[7.03601,51.36195],[7.03636,51.36235],[7.0365,51.36234],[7.03672,51.36237],[7.03771,51.36263],[7.03896,51.36402],[7.04062,51.36576],[7.04102,51.36599],[7.04155,51.36638],[7.04237,51.36707],[7.04286,51.36709],[7.04318,51.36701],[7.04329,51.36704],[7.0432,51.36742],[7.04345,51.36777],[7.04375,51.36825],[7.04428,51.36816],[7.04431,51.3679],[7.04451,51.36782],[7.04454,51.3674],[7.04469,51.3665],[7.04512,51.36593],[7.04514,51.36567],[7.04601,51.36507],[7.04647,51.36497],[7.0476,51.36453],[7.04789,51.36432],[7.04842,51.36385],[7.04844,51.36358],[7.04827,51.36324],[7.0485,51.36294],[7.04861,51.36274],[7.04877,51.36257],[7.04923,51.36238],[7.04942,51.36239],[7.04984,51.36222],[7.05034,51.36212],[7.05096,51.36222],[7.05194,51.36243],[7.05211,51.36241],[7.05348,51.36237],[7.05439,51.36229],[7.05486,51.36231],[7.05595,51.36256],[7.05585,51.36268],[7.05575,51.36296],[7.0559,51.36315],[7.05624,51.36329],[7.05689,51.3634],[7.05794,51.36356],[7.05831,51.36374],[7.06018,51.36527],[7.06163,51.36623],[7.06214,51.36669],[7.06239,51.36674],[7.06286,51.36707],[7.0636,51.36736],[7.06474,51.36785],[7.06509,51.3679],[7.06579,51.36812],[7.06654,51.36791],[7.06984,51.37054],[7.07106,51.37092],[7.07111,51.37119],[7.07142,51.37191],[7.07155,51.37217],[7.07172,51.37245],[7.0719,51.3727],[7.07218,51.37302],[7.07248,51.37332],[7.07265,51.37353],[7.07323,51.37406],[7.07521,51.37564],[7.07601,51.37639],[7.07638,51.37684],[7.07667,51.37724],[7.07709,51.37799],[7.07728,51.37852],[7.07735,51.37882],[7.07744,51.37927],[7.07749,51.37989],[7.07751,51.38135],[7.07753,51.38179],[7.07757,51.38214],[7.07762,51.38251],[7.07773,51.38291],[7.07793,51.38344],[7.07812,51.38379],[7.07849,51.38428],[7.07884,51.38466],[7.07919,51.38495],[7.08021,51.38573],[7.08113,51.38639],[7.08097,51.38651],[7.08081,51.38668],[7.08067,51.38687],[7.08059,51.38711],[7.08041,51.38727],[7.08034,51.38735],[7.08028,51.38744],[7.08022,51.38758],[7.08003,51.38829],[7.07983,51.38924],[7.0797,51.3893],[7.07929,51.38941],[7.07894,51.38945],[7.0788,51.38942],[7.07802,51.38908],[7.07706,51.38968],[7.07693,51.38992],[7.07657,51.39069],[7.07718,51.39097],[7.07818,51.39125],[7.07839,51.39128],[7.07862,51.39129],[7.07887,51.39126],[7.07922,51.39117],[7.0795,51.39103],[7.07969,51.39102],[7.07993,51.39105],[7.08005,51.39086],[7.08095,51.38967],[7.08212,51.38819],[7.08209,51.38849],[7.08205,51.38868],[7.08193,51.38899],[7.08181,51.38921],[7.08157,51.38956],[7.08075,51.39062],[7.08044,51.39109],[7.08031,51.39136],[7.08023,51.3916],[7.08014,51.39211],[7.0802,51.39281],[7.08048,51.39351],[7.08089,51.39407],[7.08136,51.3945],[7.08183,51.39487],[7.08247,51.39532],[7.08276,51.39556],[7.08304,51.39581],[7.08355,51.39643],[7.08378,51.39674],[7.08424,51.39746],[7.08457,51.39803],[7.08485,51.39859],[7.08516,51.39929],[7.0853,51.39969],[7.08537,51.39996],[7.08541,51.40033],[7.08542,51.40072],[7.08539,51.40106],[7.08533,51.40132],[7.08519,51.40178],[7.08492,51.40247],[7.08464,51.40295],[7.0844,51.40322],[7.0842,51.40352],[7.08383,51.40389],[7.08309,51.40446],[7.08266,51.40472],[7.08167,51.40519],[7.08107,51.40543],[7.07952,51.40598],[7.07865,51.40625],[7.07771,51.40658],[7.07677,51.40698],[7.07536,51.40771],[7.07489,51.40798],[7.07434,51.40833],[7.07414,51.4085],[7.07374,51.40878],[7.07345,51.40902],[7.07307,51.40937],[7.07252,51.40982],[7.07174,51.41072],[7.07139,51.41118],[7.07052,51.41239],[7.06996,51.41322],[7.0693,51.41414],[7.06898,51.41455],[7.06865,51.41493],[7.06796,51.41563],[7.06713,51.41632],[7.06676,51.41658],[7.06639,51.41682],[7.06574,51.41718],[7.06508,51.41746],[7.06247,51.41846],[7.06105,51.41909],[7.06048,51.41938],[7.05901,51.42023],[7.05861,51.42053],[7.0584,51.42073],[7.05817,51.42101],[7.05797,51.42127],[7.05649,51.42336],[7.05578,51.42433],[7.05554,51.42472],[7.05532,51.42516],[7.05515,51.42572],[7.05507,51.42656],[7.05505,51.4269],[7.05509,51.42729],[7.05531,51.42803],[7.05546,51.42867],[7.0559,51.42862],[7.05609,51.42919],[7.05616,51.42943],[7.05616,51.42966],[7.056,51.43005],[7.0558,51.43028],[7.0552,51.43107],[7.05516,51.43118],[7.0552,51.43156],[7.05536,51.4319],[7.05551,51.43209],[7.05567,51.43225],[7.0567,51.43309],[7.05677,51.43319],[7.05679,51.43329],[7.05679,51.43354],[7.05684,51.43375],[7.05688,51.43385],[7.05701,51.43408],[7.0573,51.43448],[7.05759,51.43475],[7.05792,51.435],[7.05844,51.43545],[7.0588,51.43582],[7.05917,51.43629],[7.05938,51.43667],[7.05954,51.43705],[7.05962,51.43748],[7.05972,51.43789],[7.05996,51.43823],[7.06001,51.43843],[7.06011,51.43857],[7.06048,51.43899],[7.06093,51.4393],[7.06133,51.43951],[7.06345,51.44042],[7.06381,51.44059],[7.06403,51.44072],[7.06431,51.44092],[7.06448,51.44106],[7.06504,51.44159],[7.06543,51.44189],[7.06583,51.44215],[7.06629,51.44239],[7.06673,51.44255],[7.06756,51.44269],[7.06816,51.44281],[7.06839,51.44287],[7.06909,51.44316],[7.06959,51.4433],[7.07106,51.44344],[7.07439,51.44389],[7.07569,51.44404],[7.07694,51.44411],[7.0781,51.44412],[7.07893,51.44415],[7.08021,51.44425],[7.08142,51.44441],[7.08213,51.44447],[7.08308,51.44461],[7.08405,51.44487],[7.08448,51.44497],[7.08516,51.44507],[7.08563,51.44508],[7.08636,51.44503],[7.08709,51.44492],[7.08873,51.44462],[7.08921,51.44456],[7.08985,51.44456],[7.09017,51.4446],[7.09075,51.44474],[7.09132,51.44498],[7.09157,51.44512],[7.09189,51.44537],[7.09204,51.44553],[7.09222,51.44575],[7.09244,51.44612],[7.09256,51.44647],[7.09264,51.44686],[7.09276,51.44771],[7.09285,51.448],[7.09295,51.4482],[7.09306,51.44836],[7.09332,51.44858],[7.09355,51.44872],[7.09381,51.44885],[7.09554,51.4496],[7.1088,51.45481],[7.11094,51.45562],[7.1112,51.4557],[7.11573,51.45637],[7.11565,51.45661],[7.11503,51.45788],[7.11309,51.46],[7.11147,51.45963],[7.11122,51.45982],[7.10953,51.45933],[7.1091,51.45942],[7.1093,51.46027],[7.10802,51.46125],[7.10835,51.46211],[7.10811,51.46242],[7.10968,51.46307],[7.10938,51.46334],[7.11019,51.46364],[7.11063,51.46352],[7.11151,51.4639],[7.112,51.46382],[7.11201,51.46405],[7.11333,51.46455],[7.11321,51.46494],[7.11359,51.46505],[7.11386,51.46575],[7.11325,51.46626],[7.1135,51.46645],[7.11364,51.46715],[7.11372,51.46781],[7.1135,51.4691],[7.11313,51.46929],[7.11327,51.46976],[7.11397,51.4703],[7.1138,51.47152],[7.1128,51.47142],[7.11163,51.47137],[7.1106,51.47137],[7.10926,51.47142],[7.1087,51.47147],[7.10761,51.4716],[7.10727,51.47166],[7.10667,51.47178],[7.10491,51.47206],[7.10457,51.4721],[7.10338,51.47216],[7.10253,51.47215],[7.10178,51.4721],[7.10106,51.47202],[7.10009,51.47184],[7.09902,51.47154],[7.09835,51.47129],[7.09754,51.47093],[7.09701,51.47065],[7.09658,51.47038],[7.09644,51.47027],[7.09254,51.46798],[7.09156,51.46744],[7.09093,51.46706],[7.09074,51.46692],[7.08978,51.46637],[7.08909,51.46604],[7.08878,51.46628],[7.08951,51.46663],[7.09145,51.46775],[7.0917,51.46787],[7.09372,51.46906],[7.09395,51.4692],[7.09427,51.46943],[7.09693,51.47098],[7.09785,51.47145],[7.09877,51.4718],[7.09921,51.47195],[7.10041,51.47225],[7.10103,51.47235],[7.10166,51.47242],[7.10223,51.47246],[7.10318,51.47249],[7.10406,51.47245],[7.10471,51.47238],[7.10799,51.47187],[7.10854,51.47179],[7.10921,51.47173],[7.11049,51.47166],[7.11138,51.47166],[7.11261,51.4717],[7.1136,51.47178],[7.1139,51.47222],[7.11342,51.47261],[7.11306,51.4732],[7.11226,51.4736],[7.11157,51.47353],[7.10936,51.47471],[7.1095,51.47514],[7.10845,51.47558],[7.10876,51.47573],[7.10815,51.47624],[7.10792,51.47675],[7.10742,51.47683],[7.10693,51.47703],[7.10681,51.4775],[7.10607,51.47754],[7.10547,51.4784],[7.10572,51.47871],[7.10451,51.47989],[7.10395,51.4799],[7.10224,51.48123],[7.10136,51.48085],[7.09791,51.48256],[7.09735,51.48237],[7.09711,51.48264],[7.09355,51.4824],[7.0928,51.48218],[7.0922,51.48292],[7.09019,51.48255],[7.08965,51.4831],[7.08885,51.48357],[7.08656,51.48398],[7.08568,51.48392],[7.08488,51.48416],[7.08363,51.48397],[7.08342,51.48316],[7.08213,51.48352],[7.08181,51.48317],[7.07402,51.4829],[7.07384,51.48337],[7.07374,51.4843],[7.07332,51.48485],[7.07258,51.4854],[7.07083,51.48514],[7.07113,51.4872],[7.07116,51.48829],[7.07087,51.48926],[7.07314,51.49029],[7.0724,51.49092],[7.07322,51.49134],[7.07292,51.49157],[7.07305,51.49192],[7.07406,51.49261],[7.07388,51.49289],[7.0737,51.49324],[7.07188,51.495],[7.07144,51.49477],[7.07007,51.49564],[7.06657,51.49793],[7.06075,51.4967],[7.05894,51.49897],[7.05756,51.49848],[7.05747,51.50019],[7.05725,51.50108],[7.05689,51.50183],[7.05623,51.50242],[7.05514,51.50375],[7.0542,51.5036],[7.05409,51.5043],[7.05423,51.50492],[7.05455,51.50523],[7.0545,51.50554],[7.05388,51.50562],[7.05294,51.50548],[7.05225,51.50525],[7.05158,51.50607],[7.05141,51.50673],[7.05044,51.50791],[7.05076,51.5081],[7.05021,51.50865],[7.04987,51.5099],[7.05008,51.51102],[7.05017,51.51223],[7.04892,51.51193],[7.04792,51.5119],[7.04648,51.51171],[7.04529,51.5113],[7.04455,51.5115],[7.04373,51.51131],[7.04286,51.5112],[7.04236,51.51136],[7.04174,51.51129],[7.04137,51.51157],[7.04157,51.51191],[7.04132,51.51215],[7.04114,51.51238],[7.04103,51.51297],[7.04085,51.51344],[7.04042,51.51364],[7.03955,51.51384],[7.03874,51.51377],[7.03781,51.51381],[7.03712,51.51427],[7.03597,51.5142],[7.03456,51.51408],[7.03336,51.51394],[7.03236,51.51379],[7.03144,51.51363],[7.03059,51.51346],[7.02993,51.51332],[7.02835,51.51292],[7.02767,51.51272],[7.02682,51.51245],[7.0262,51.51224],[7.02507,51.51181],[7.02324,51.51105],[7.02056,51.50988],[7.0191,51.50929],[7.01774,51.50883],[7.0162,51.50842],[7.01536,51.50823],[7.01448,51.50806],[7.01367,51.50793],[7.01257,51.50778],[7.01193,51.50772],[7.01015,51.50758],[7.00622,51.50743],[7.00426,51.50728],[7.00323,51.50715],[7.00183,51.50688],[7.0007,51.50662],[6.99952,51.50632],[6.99769,51.50575],[6.99769,51.50574],[6.99798,51.50574],[6.99816,51.5057],[6.99838,51.50562],[6.9985,51.50555],[6.99862,51.50541],[6.99867,51.50525],[6.99866,51.50512],[6.99857,51.50497],[6.99842,51.50485],[6.99821,51.50476],[6.99797,51.50472],[6.9978,51.50471],[6.99762,51.50473],[6.99747,51.50477],[6.99728,51.50485],[6.99712,51.50497],[6.9972,51.50467],[6.99725,51.50433],[6.99657,51.50432],[6.99651,51.50424],[6.99635,51.50411],[6.99624,51.50406],[6.996,51.50399],[6.99571,51.50397],[6.99547,51.50401],[6.99527,51.50409],[6.99507,51.50423],[6.99498,51.50437],[6.99495,51.50449],[6.99495,51.50455],[6.99498,51.50466],[6.99503,51.50475],[6.99513,51.50487],[6.99205,51.50386],[6.99163,51.50375],[6.98974,51.50333],[6.98825,51.50308],[6.98691,51.50298],[6.98597,51.50293],[6.98462,51.50294],[6.98371,51.50299],[6.98302,51.50307],[6.9822,51.50319],[6.98182,51.50326],[6.98182,51.5033],[6.98123,51.5034],[6.98083,51.50349],[6.98029,51.50362],[6.97946,51.50387],[6.97656,51.50483],[6.96666,51.50347],[6.96291,51.503],[6.95873,51.50253],[6.95648,51.50223],[6.95442,51.50178],[6.94916,51.50035],[6.94772,51.4999],[6.94602,51.4994],[6.94414,51.49876],[6.94196,51.49847],[6.94046,51.49828],[6.93934,51.49818],[6.93728,51.49808],[6.93528,51.4979],[6.93335,51.49768],[6.93129,51.49754],[6.92967,51.49724],[6.92848,51.49706],[6.92837,51.49788],[6.91907,51.49655],[6.91966,51.49515],[6.91996,51.49468],[6.92032,51.49394],[6.92067,51.49296],[6.92109,51.49218],[6.92152,51.49152],[6.91945,51.49103],[6.91864,51.49072],[6.91788,51.49034],[6.91601,51.48993],[6.91494,51.48967],[6.91359,51.48948],[6.91341,51.48968],[6.91254,51.48953],[6.91141,51.48942],[6.91147,51.48919],[6.90224,51.4884],[6.90282,51.48607],[6.89964,51.48586],[6.89938,51.48524],[6.89837,51.48144],[6.89682,51.48176],[6.89649,51.48087],[6.89598,51.4801],[6.89546,51.47913],[6.89501,51.47867],[6.89475,51.47809],[6.89468,51.4775],[6.89467,51.47696],[6.89441,51.47653],[6.8944,51.47622],[6.89452,51.47587],[6.89483,51.47556],[6.89501,51.47513],[6.89524,51.47466],[6.89486,51.47428],[6.89535,51.47392],[6.89585,51.47369],[6.89666,51.47368],[6.89702,51.47333],[6.89727,51.47313],[6.89739,51.47282],[6.89757,51.4727],[6.89813,51.47246],[6.89807,51.47274],[6.89857,51.47281],[6.89875,51.47269],[6.89893,51.47242],[6.89905,51.47218],[6.89936,51.47199],[6.89961,51.47175],[6.89972,51.47132],[6.90064,51.47136],[6.90138,51.47127],[6.902,51.47096],[6.90249,51.47068],[6.90298,51.47044],[6.90354,51.47013],[6.90391,51.46997],[6.90428,51.46973],[6.90459,51.46981],[6.90491,51.47008],[6.90572,51.47027],[6.90609,51.47007],[6.90608,51.46988],[6.90639,51.46956],[6.90701,51.46956],[6.90763,51.46959],[6.90769,51.46916],[6.90831,51.46908],[6.90892,51.46849],[6.90935,51.46849],[6.90966,51.46825],[6.90984,51.46782],[6.91058,51.46755],[6.91132,51.46739],[6.91182,51.4673],[6.912,51.46707],[6.91268,51.46702],[6.91287,51.46687],[6.91311,51.46644],[6.9136,51.46597],[6.9139,51.46554],[6.91427,51.46542],[6.91476,51.46518],[6.91526,51.46498],[6.91587,51.46471],[6.91605,51.4642],[6.91561,51.46413],[6.91586,51.46385],[6.91585,51.46362],[6.91578,51.46331],[6.91659,51.46303],[6.91689,51.46268],[6.91738,51.46229],[6.91688,51.46213],[6.91712,51.4619],[6.91737,51.46162],[6.91736,51.4612],[6.91685,51.46097],[6.91716,51.46058],[6.91684,51.46042],[6.91677,51.46011],[6.91677,51.45969],[6.91688,51.45934],[6.91713,51.45902],[6.91699,51.45848],[6.91678,51.45735],[6.91683,51.45681],[6.91701,51.45615],[6.91706,51.45572],[6.91704,51.45486],[6.91679,51.45456],[6.91614,51.45355],[6.9159,51.45355],[6.91558,51.45317],[6.91543,51.45208],[6.91568,51.452],[6.91527,51.45053],[6.91577,51.4504],[6.91813,51.45039],[6.91813,51.45008],[6.91887,51.45011],[6.91956,51.45026],[6.9208,51.45025],[6.92199,51.45028],[6.92311,51.45039],[6.92411,51.45053],[6.92567,51.45095],[6.92629,51.45094],[6.92767,51.4512],[6.92866,51.45104],[6.92922,51.45123],[6.92991,51.45126],[6.93072,51.45126],[6.93128,51.45129],[6.93177,51.45125],[6.93239,51.45105],[6.93308,51.45108],[6.93326,51.45077],[6.93362,51.45046],[6.93412,51.45049],[6.93468,51.45049],[6.93524,51.45052],[6.93574,51.45063],[6.9363,51.45063],[6.93661,51.4507],[6.93686,51.45055],[6.93735,51.45047],[6.93804,51.45038],[6.93785,51.45019],[6.93841,51.45015],[6.9389,51.44995],[6.93889,51.4496],[6.93951,51.44932],[6.94003,51.44924],[6.94008,51.44873],[6.94132,51.44833],[6.94248,51.44763],[6.94291,51.44739],[6.94342,51.44762],[6.94391,51.44757],[6.94466,51.44765],[6.94534,51.44752],[6.94627,51.44748],[6.94841,51.44851],[6.94917,51.44901],[6.95036,51.44974],[6.95185,51.4493],[6.95178,51.4491],[6.9519,51.44875],[6.95227,51.44867],[6.95301,51.44816],[6.95373,51.44707],[6.9542,51.44597],[6.95467,51.44442],[6.95491,51.44387],[6.95564,51.44348],[6.95619,51.443],[6.95618,51.4423],[6.95704,51.44168],[6.95762,51.441],[6.95772,51.4409],[6.9601,51.44114],[6.96181,51.44141],[6.96266,51.44159],[6.96276,51.44159],[6.96357,51.44173],[6.96812,51.4424],[6.96812,51.44213],[6.96549,51.44174],[6.96332,51.44135],[6.9609,51.4409],[6.96037,51.44082],[6.95805,51.44057],[6.95826,51.44031],[6.95908,51.43935],[6.95965,51.4397],[6.95977,51.43939],[6.95957,51.43911],[6.95926,51.43892],[6.95912,51.43826],[6.95929,51.43764],[6.95723,51.43731],[6.95629,51.43696],[6.95739,51.43571],[6.95762,51.43509],[6.95758,51.43314],[6.95578,51.43304],[6.95571,51.43265],[6.95127,51.43179],[6.95212,51.43093],[6.95304,51.43026],[6.95464,51.42936],[6.95425,51.42835],[6.95389,51.42602],[6.95437,51.42551],[6.95412,51.4252],[6.95445,51.42337],[6.95195,51.42257],[6.95138,51.42223],[6.94836,51.42019],[6.94807,51.41981],[6.94714,51.41845],[6.94587,51.41729],[6.9439,51.41513],[6.94433,51.41497],[6.94388,51.41447],[6.94425,51.414],[6.94418,51.41365],[6.94461,51.41346],[6.94467,51.41318],[6.94453,51.41268],[6.94538,51.41178],[6.94481,51.41116],[6.94443,51.41062],[6.94461,51.41046],[6.9446,51.41011],[6.94456,51.40975],[6.94443,51.40952],[6.94419,51.40927],[6.94384,51.40926],[6.94396,51.40869],[6.9447,51.40862],[6.94562,51.40848],[6.94611,51.40839],[6.94697,51.40818],[6.94744,51.40805],[6.94826,51.40776],[6.94889,51.40746],[6.94923,51.40726],[6.94981,51.40681],[6.95009,51.40654],[6.95029,51.40631],[6.95062,51.40585],[6.95089,51.40527],[6.95098,51.40504],[6.95106,51.40467],[6.95129,51.40454],[6.95166,51.40451],[6.95622,51.40454],[6.95716,51.40453],[6.95928,51.40444],[6.95838,51.40404],[6.95714,51.40335],[6.95182,51.40078],[6.95228,51.40059],[6.95354,51.40121],[6.95395,51.4014],[6.95498,51.40184],[6.95618,51.40242],[6.95746,51.40306],[6.9588,51.40376],[6.96006,51.40446],[6.96096,51.40498],[6.96196,51.40559],[6.96315,51.40636],[6.96374,51.40675],[6.96487,51.40756],[6.96653,51.4088],[6.96771,51.40975],[6.96845,51.41037],[6.96999,51.41174],[6.97072,51.41244],[6.97141,51.41316],[6.97241,51.4141],[6.97391,51.41538],[6.97423,51.41527],[6.9732,51.41436],[6.97278,51.41393],[6.97008,51.4114],[6.96981,51.41113],[6.96963,51.411],[6.96849,51.41001],[6.96749,51.40917],[6.96669,51.40856],[6.96436,51.40684],[6.96326,51.40611],[6.96235,51.40553],[6.96064,51.40448],[6.95988,51.40404],[6.95793,51.40297],[6.9572,51.40259],[6.95598,51.40198],[6.95587,51.40191],[6.95573,51.40178],[6.95568,51.4017],[6.95566,51.40158],[6.95567,51.40149],[6.95573,51.40137],[6.95588,51.4012],[6.95618,51.40097],[6.95627,51.40092],[6.95638,51.40088],[6.95654,51.40085],[6.95679,51.40088],[6.95693,51.40092],[6.95709,51.40079],[6.95608,51.40034],[6.95586,51.40025],[6.95573,51.40016],[6.95515,51.39991],[6.95486,51.39975],[6.95484,51.39971],[6.95485,51.39964],[6.95493,51.39957],[6.95512,51.39947],[6.95635,51.39911],[6.95678,51.39893],[6.95711,51.39874],[6.95762,51.3984],[6.95815,51.39802],[6.95846,51.39783],[6.95858,51.39771],[6.95874,51.39761],[6.95893,51.39755],[6.95945,51.39741],[6.96003,51.39728],[6.96173,51.39697],[6.96195,51.39691],[6.96211,51.39684],[6.96236,51.39662],[6.96352,51.3955],[6.96397,51.39514],[6.96424,51.39498],[6.96482,51.3946],[6.96519,51.39438],[6.96561,51.39417],[6.96644,51.39382],[6.96664,51.39374],[6.96694,51.39367],[6.96718,51.39363],[6.96788,51.39355],[6.968,51.39351],[6.96976,51.39307],[6.97094,51.3927],[6.97128,51.39261],[6.97327,51.39237],[6.97433,51.39218],[6.97553,51.39186],[6.97576,51.39177],[6.97623,51.39155],[6.97644,51.39132],[6.97679,51.39087],[6.97747,51.38937],[6.97812,51.38673],[6.97817,51.38632],[6.97824,51.38591],[6.97825,51.38573],[6.97832,51.38558],[6.97864,51.38515],[6.97877,51.38501],[6.97883,51.38479],[6.97877,51.38445],[6.97861,51.38397],[6.97847,51.3838],[6.97813,51.38347],[6.97785,51.38315],[6.97778,51.38303],[6.97774,51.38293],[6.97773,51.38283],[6.9778,51.38272],[6.97796,51.38262],[6.97843,51.38256],[6.97979,51.38259],[6.98027,51.38258],[6.98046,51.38256],[6.98082,51.38247],[6.98096,51.38242],[6.98104,51.38234],[6.98109,51.38227],[6.98111,51.38216],[6.98112,51.38199],[6.98109,51.38172],[6.9811,51.38138],[6.98121,51.38081],[6.98138,51.37965],[6.98145,51.37907],[6.9815,51.37881],[6.98207,51.37738],[6.9813,51.37724],[6.98007,51.37696],[6.97825,51.37678],[6.97598,51.37673],[6.97483,51.37665],[6.97329,51.3766],[6.9722,51.37654],[6.97149,51.37648],[6.97062,51.37635],[6.96915,51.37608],[6.96791,51.37581],[6.96736,51.37563],[6.96546,51.37506],[6.96438,51.3748],[6.96399,51.37463],[6.96339,51.37433],[6.9631,51.37411],[6.96276,51.37381],[6.9625,51.37342],[6.96242,51.37288],[6.96252,51.37234],[6.96255,51.37179],[6.96264,51.37115],[6.9628,51.37039],[6.9629,51.37007],[6.96277,51.37006],[6.96301,51.36893],[6.96303,51.36867],[6.96287,51.36855],[6.96254,51.36826],[6.96231,51.36802],[6.96179,51.36733],[6.96142,51.36675],[6.96125,51.36652],[6.96075,51.36609],[6.96018,51.36534],[6.96004,51.36496],[6.95976,51.36453],[6.95947,51.36423],[6.95886,51.36382],[6.95782,51.36308],[6.95721,51.36278],[6.95548,51.36184],[6.95459,51.36144],[6.95303,51.36047],[6.95232,51.36005],[6.95165,51.35973],[6.95106,51.35931],[6.95053,51.35884],[6.94994,51.35847],[6.94937,51.35818],[6.9492,51.35807],[6.94928,51.35787],[6.94793,51.35771],[6.94496,51.3575],[6.94389,51.35744],[6.94322,51.35752],[6.94309,51.35718],[6.94283,51.3571],[6.94256,51.35707],[6.94215,51.35707],[6.94122,51.35697],[6.94067,51.35675],[6.94033,51.35657],[6.9397,51.35636],[6.93689,51.35553],[6.93573,51.3551],[6.93553,51.35499],[6.93552,51.35485],[6.93564,51.35472],[6.93615,51.35461],[6.93641,51.35449],[6.93679,51.35412],[6.93703,51.35397],[6.93735,51.35383],[6.93777,51.35374],[6.93826,51.35374],[6.93951,51.35385],[6.94025,51.35395],[6.9413,51.35412],[6.94331,51.35454],[6.94409,51.35469],[6.94574,51.35446],[6.94596,51.3543],[6.94603,51.35416],[6.94602,51.35404],[6.94599,51.35396],[6.94584,51.35381],[6.94558,51.35358],[6.94529,51.35328],[6.9452,51.35311],[6.94515,51.35293],[6.94519,51.35275],[6.94528,51.35254],[6.94546,51.35235],[6.94571,51.35214],[6.94635,51.35173],[6.94687,51.35145],[6.95004,51.34996],[6.95042,51.34975],[6.95104,51.34925],[6.95163,51.34973],[6.95218,51.35001],[6.95316,51.34952],[6.95329,51.34947],[6.95455,51.34924],[6.95547,51.34901],[6.95807,51.34835],[6.95822,51.34826],[6.95929,51.34798],[6.95976,51.34789],[6.96092,51.34755],[6.96199,51.34899],[6.96261,51.34878],[6.96296,51.34832],[6.96328,51.34785],[6.96384,51.34805],[6.96425,51.34763],[6.96697,51.34842],[6.96773,51.34867],[6.96805,51.34885],[6.96963,51.34947],[6.96866,51.35008],[6.96924,51.3503],[6.96998,51.35063],[6.97074,51.35099],[6.97136,51.35114],[6.97149,51.35122],[6.97157,51.35134],[6.97212,51.3515],[6.97235,51.35174],[6.97254,51.35185],[6.97274,51.35185],[6.973,51.352],[6.97328,51.35196],[6.97349,51.35196],[6.97373,51.35202],[6.97404,51.35196],[6.97419,51.35212],[6.97523,51.35237],[6.97576,51.35254],[6.976,51.35275],[6.97616,51.35302],[6.97644,51.35394],[6.97671,51.35443],[6.97699,51.35478],[6.97713,51.35508],[6.97727,51.35531],[6.97739,51.35558],[6.97711,51.35579],[6.97729,51.35594],[6.9775,51.35588],[6.97808,51.3559],[6.97896,51.35583],[6.97913,51.3558],[6.97926,51.35575],[6.97949,51.35575],[6.9797,51.35568],[6.98007,51.35543],[6.98024,51.35522],[6.98018,51.35513],[6.98018,51.35499],[6.98,51.3549],[6.98028,51.35464],[6.98042,51.35445],[6.9807,51.35413],[6.98191,51.35362],[6.98198,51.35356],[6.9822,51.35346],[6.98247,51.35362],[6.98262,51.3538],[6.98294,51.35405],[6.98352,51.35457],[6.98402,51.355],[6.98416,51.35505],[6.98603,51.35663],[6.98645,51.357],[6.98634,51.35721],[6.98735,51.35792],[6.98824,51.35843],[6.99012,51.35811],[6.99076,51.35866],[6.99112,51.35906],[6.9914,51.35919],[6.99161,51.35919],[6.99184,51.35918],[6.99205,51.35944],[6.99247,51.35926],[6.993,51.35909],[6.99321,51.35891],[6.99365,51.35861],[6.9944,51.35829],[6.99476,51.35833],[6.995,51.3584],[6.99523,51.35839],[6.9955,51.35835],[6.99624,51.35817],[6.99707,51.35754],[6.99734,51.35744],[6.9977,51.35734],[6.99783,51.35723],[6.99792,51.35721],[6.99805,51.35723],[6.99813,51.35718],[6.99877,51.3571],[6.99914,51.35705],[6.99919,51.3571],[6.99954,51.3571],[6.99966,51.35742],[6.99991,51.35743],[7,51.3575],[7.00035,51.35749],[7.00036,51.35739],[7.00052,51.35733],[7.00068,51.35734],[7.00072,51.35744],[7.00076,51.35759],[7.00096,51.35764],[7.00113,51.35775],[7.00158,51.35777],[7.00212,51.35791],[7.00238,51.35793],[7.00336,51.35792],[7.00364,51.35778],[7.00365,51.35767],[7.00379,51.35763],[7.00449,51.35759],[7.00475,51.35739],[7.00496,51.35731],[7.00515,51.35741],[7.00548,51.35737],[7.00591,51.3575],[7.00633,51.35752],[7.00659,51.35746],[7.00686,51.35749],[7.00752,51.35759],[7.00775,51.35783],[7.00774,51.35794],[7.00703,51.35935],[7.00977,51.36021],[7.01072,51.36059],[7.00957,51.36113],[7.01112,51.36225],[7.0113,51.3624],[7.01181,51.36249],[7.01318,51.36305],[7.01472,51.36363],[7.01555,51.36399],[7.01651,51.36468],[7.01675,51.36477],[7.0172,51.3649],[7.01792,51.36502],[7.01813,51.36477],[7.01907,51.36494],[7.01965,51.36515],[7.01997,51.3652],[7.02097,51.36546],[7.02103,51.36545],[7.02144,51.36467],[7.02231,51.36488],[7.02328,51.36519],[7.02382,51.36467],[7.02415,51.36444],[7.0239,51.36429],[7.02447,51.36404],[7.02528,51.36377],[7.02665,51.36348],[7.02785,51.36298],[7.02797,51.36278],[7.02868,51.36251],[7.0288,51.36256],[7.02917,51.36233],[7.03034,51.36252],[7.03124,51.36291],[7.03158,51.36316],[7.03249,51.3635]],[[7.03689,51.44438],[7.03737,51.44438],[7.03737,51.44325],[7.03682,51.44347],[7.03691,51.44405],[7.03689,51.44438]],[[7.03205,51.43761],[7.03075,51.43725],[7.0302,51.4374],[7.03191,51.43792],[7.03233,51.43806],[7.03246,51.43774],[7.03205,51.43761]],[[7.0279,51.43641],[7.02841,51.4367],[7.02927,51.43709],[7.02976,51.43725],[7.03037,51.43713],[7.02983,51.43696],[7.02925,51.43673],[7.02903,51.43663],[7.02845,51.43634],[7.0279,51.43641]],[[7.03724,51.44276],[7.0371,51.4421],[7.03693,51.44155],[7.03676,51.44109],[7.03645,51.44049],[7.03635,51.4405],[7.03623,51.44058],[7.03615,51.44067],[7.03611,51.44076],[7.03646,51.44154],[7.03665,51.4423],[7.0368,51.44335],[7.03734,51.44313],[7.03724,51.44276]],[[7.03456,51.43911],[7.03506,51.43949],[7.03531,51.43973],[7.03574,51.44019],[7.03587,51.44022],[7.036,51.44021],[7.03609,51.44017],[7.03615,51.44011],[7.03616,51.44006],[7.03572,51.43959],[7.03542,51.4393],[7.03481,51.43885],[7.03409,51.43838],[7.0337,51.4382],[7.03265,51.4378],[7.03252,51.43812],[7.03316,51.43835],[7.03348,51.43851],[7.03394,51.43875],[7.03456,51.43911]],[[7.0374,51.44717],[7.03776,51.44814],[7.03816,51.44806],[7.03792,51.44738],[7.03796,51.44736],[7.03763,51.44644],[7.03745,51.44579],[7.03738,51.4453],[7.03737,51.44462],[7.03689,51.44462],[7.03688,51.44488],[7.03693,51.44555],[7.03699,51.44597],[7.03723,51.44665],[7.0374,51.44717]],[[6.97883,51.41858],[6.97756,51.41774],[6.97642,51.41695],[6.97556,51.4163],[6.97449,51.41545],[6.97413,51.41558],[6.97481,51.41618],[6.97539,51.41662],[6.97599,51.4171],[6.97742,51.41807],[6.97906,51.41912],[6.97932,51.41889],[6.97883,51.41858]],[[6.97272,51.44308],[6.97579,51.44354],[6.97769,51.4438],[6.97774,51.44375],[6.97804,51.44358],[6.9744,51.44307],[6.97422,51.44331],[6.9739,51.44326],[6.97404,51.44308],[6.9734,51.44318],[6.97272,51.44308],[6.97359,51.44294],[6.97173,51.44267],[6.96897,51.44226],[6.96895,51.44252],[6.97272,51.44308]],[[6.98475,51.44456],[6.98298,51.44432],[6.9784,51.44363],[6.9782,51.44373],[6.97804,51.44385],[6.98306,51.4446],[6.98418,51.44475],[6.98613,51.445],[6.98627,51.44472],[6.98475,51.44456]],[[7.02292,51.4327],[7.02394,51.43326],[7.02447,51.43358],[7.02508,51.434],[7.02566,51.43449],[7.02693,51.43571],[7.02751,51.43616],[7.02774,51.4363],[7.02827,51.43624],[7.02784,51.43596],[7.02742,51.43563],[7.02699,51.43524],[7.02653,51.43477],[7.02599,51.43428],[7.02551,51.43387],[7.02501,51.43352],[7.02453,51.43321],[7.02324,51.43248],[7.02275,51.43223],[7.02292,51.4327]],[[7.08032,51.46502],[7.08356,51.46534],[7.08661,51.46571],[7.08733,51.46583],[7.08787,51.46597],[7.08847,51.46616],[7.0888,51.46594],[7.08786,51.46564],[7.08698,51.46544],[7.08656,51.46537],[7.08389,51.46504],[7.08015,51.46467],[7.08032,51.46502]],[[7.02094,51.45058],[7.02268,51.45105],[7.02347,51.45123],[7.0243,51.45136],[7.02692,51.45161],[7.02786,51.45172],[7.02853,51.45182],[7.02828,51.45178],[7.02831,51.45178],[7.02862,51.45163],[7.02863,51.45161],[7.02763,51.45149],[7.02539,51.45129],[7.02464,51.4512],[7.02364,51.45103],[7.02312,51.45092],[7.02155,51.45055],[7.02082,51.45036],[7.02033,51.45024],[7.01986,51.45016],[7.01861,51.45],[7.01736,51.44989],[7.01693,51.44987],[7.0139,51.44988],[7.0139,51.45007],[7.01579,51.45003],[7.01727,51.45007],[7.01798,51.45012],[7.01928,51.45026],[7.01963,51.45032],[7.02021,51.45042],[7.02094,51.45058]],[[7.01626,51.42861],[7.01573,51.42831],[7.01488,51.42776],[7.01436,51.42787],[7.01549,51.42858],[7.01643,51.42914],[7.01936,51.43082],[7.0218,51.43213],[7.02274,51.43261],[7.02267,51.43238],[7.0225,51.43209],[7.02181,51.43173],[7.01918,51.43029],[7.01669,51.42887],[7.0167,51.4293],[7.01629,51.42906],[7.01626,51.42861]],[[6.98662,51.44504],[6.98824,51.44523],[6.99307,51.44597],[6.99647,51.44653],[6.99782,51.44669],[7.00072,51.447],[7.0008,51.44675],[6.99764,51.4464],[6.99625,51.4462],[6.99283,51.44564],[6.98948,51.44514],[6.98674,51.44477],[6.98662,51.44504]],[[7.0012,51.42283],[6.9995,51.42305],[6.99938,51.42309],[6.99935,51.42313],[6.99933,51.42317],[6.99936,51.42321],[6.99942,51.42325],[6.99965,51.42329],[7.00233,51.42297],[7.00308,51.42291],[7.00376,51.42293],[7.00459,51.42298],[7.0057,51.42311],[7.00623,51.42321],[7.0072,51.42345],[7.00822,51.42381],[7.00859,51.42398],[7.00918,51.4243],[7.00966,51.42457],[7.01045,51.42508],[7.01225,51.42642],[7.0133,51.42716],[7.01414,51.42772],[7.01466,51.42763],[7.01321,51.42666],[7.01078,51.42489],[7.01024,51.42452],[7.00954,51.4241],[7.00911,51.42388],[7.00835,51.42353],[7.0079,51.42337],[7.00717,51.42313],[7.00653,51.42296],[7.0062,51.42289],[7.00543,51.42275],[7.00436,51.42264],[7.00321,51.42266],[7.00243,51.42271],[7.00144,51.4228],[7.00151,51.42307],[7.00128,51.4231],[7.0012,51.42283]],[[6.99774,51.42344],[6.99875,51.42337],[6.99888,51.4233],[6.99889,51.42324],[6.99885,51.42319],[6.99865,51.42314],[6.99531,51.42323],[6.99501,51.4232],[6.99352,51.42311],[6.99136,51.42295],[6.99005,51.42281],[6.98914,51.42267],[6.98827,51.42252],[6.98739,51.42233],[6.98615,51.42203],[6.98496,51.42169],[6.98447,51.42152],[6.98297,51.42092],[6.9821,51.42051],[6.9812,51.42004],[6.97962,51.41907],[6.97934,51.41929],[6.9813,51.42049],[6.9822,51.42096],[6.98285,51.42125],[6.98543,51.4221],[6.98641,51.42235],[6.98731,51.42256],[6.98887,51.42287],[6.98975,51.423],[6.99125,51.42318],[6.99334,51.42332],[6.99505,51.42342],[6.99601,51.42345],[6.99697,51.42346],[6.99774,51.42344]],[[7.03155,51.45265],[7.03258,51.45302],[7.03334,51.45327],[7.0343,51.4535],[7.03587,51.45378],[7.04096,51.45459],[7.04165,51.45472],[7.04242,51.45492],[7.04285,51.45506],[7.04378,51.45541],[7.04434,51.45568],[7.04626,51.45679],[7.04743,51.4574],[7.04859,51.45797],[7.04862,51.45801],[7.04956,51.45848],[7.05137,51.45928],[7.05196,51.45952],[7.05279,51.45983],[7.05504,51.46057],[7.05724,51.46133],[7.06045,51.4625],[7.06224,51.46319],[7.06253,51.46329],[7.06375,51.46376],[7.06414,51.4639],[7.06466,51.46405],[7.06516,51.46416],[7.06547,51.46421],[7.0661,51.46428],[7.06664,51.46432],[7.06885,51.46438],[7.06961,51.46442],[7.07211,51.46449],[7.07355,51.46455],[7.07576,51.46469],[7.07962,51.46495],[7.07945,51.4646],[7.07583,51.46433],[7.07417,51.46423],[7.07166,51.46413],[7.06664,51.46399],[7.066,51.46393],[7.06544,51.46385],[7.06502,51.46377],[7.06425,51.46357],[7.06331,51.46322],[7.06304,51.46308],[7.06158,51.46251],[7.05943,51.46169],[7.05718,51.46086],[7.05467,51.46003],[7.05191,51.45908],[7.05118,51.45879],[7.04962,51.4581],[7.04675,51.45672],[7.04456,51.4554],[7.04415,51.45517],[7.04379,51.45501],[7.04334,51.45483],[7.043,51.45467],[7.04258,51.45442],[7.04219,51.45414],[7.04163,51.45366],[7.04106,51.45308],[7.04092,51.45291],[7.04076,51.45267],[7.03973,51.4514],[7.03947,51.45099],[7.03895,51.45112],[7.03919,51.45164],[7.03996,51.45346],[7.04008,51.45368],[7.04021,51.45388],[7.04055,51.45427],[7.03563,51.45347],[7.03428,51.45322],[7.03309,51.45294],[7.03286,51.45287],[7.03079,51.45213],[7.02999,51.45188],[7.02933,51.45173],[7.02903,51.45188],[7.02906,51.45192],[7.02973,51.45206],[7.03031,51.45223],[7.03155,51.45265]]]}}]}