{"type":"FeatureCollection","features":[{"type":"Feature","properties":{"zone":"Ostviertel","district":"Ostviertel","rawHours":"","rawFee":"","note":"Bewohnerparkbereich Ostviertel","windows":[],"fee":{"kind":"unknown"},"unmodelledRules":[],"sourceDefect":null,"scheduleUnknown":true,"spaces":null,"maxStayMinutes":null,"maxStay":null,"maxStayShare":0,"maxStayValues":[],"chargingPoints":0,"carsharing":0},"geometry":{"type":"Polygon","coordinates":[[[7.02142,51.45433],[7.02173,51.45454],[7.02207,51.45487],[7.02221,51.45509],[7.0227,51.45607],[7.02277,51.4563],[7.02285,51.45666],[7.02284,51.45687],[7.02282,51.45703],[7.02256,51.45744],[7.02311,51.45775],[7.02387,51.45804],[7.02434,51.45817],[7.02475,51.45823],[7.02465,51.45852],[7.02367,51.45833],[7.02362,51.45849],[7.02367,51.45911],[7.02319,51.45945],[7.02194,51.45957],[7.02146,51.45959],[7.02105,51.46047],[7.02093,51.46065],[7.02068,51.46088],[7.01981,51.46145],[7.01903,51.46145],[7.01842,51.46139],[7.01783,51.46132],[7.0163,51.46107],[7.01591,51.46105],[7.01514,51.46108],[7.01496,51.46063],[7.01482,51.46001],[7.01465,51.45904],[7.01466,51.45877],[7.01475,51.45845],[7.015,51.45794],[7.01546,51.45706],[7.01558,51.45666],[7.01567,51.45641],[7.01592,51.45596],[7.01617,51.45558],[7.0164,51.45518],[7.0166,51.45471],[7.01767,51.45484],[7.01954,51.45497],[7.01985,51.45494],[7.02022,51.45485],[7.02142,51.45433]]]}},{"type":"Feature","properties":{"zone":"Ostviertel 2","district":"Ostviertel","rawHours":"","rawFee":"","note":"Bewohnerparkbereich Ostviertel 2","windows":[],"fee":{"kind":"unknown"},"unmodelledRules":[],"sourceDefect":null,"scheduleUnknown":true,"spaces":null,"maxStayMinutes":null,"maxStay":null,"maxStayShare":0,"maxStayValues":[],"chargingPoints":0,"carsharing":0},"geometry":{"type":"Polygon","coordinates":[[[7.01514,51.46108],[7.01591,51.46105],[7.0163,51.46107],[7.01783,51.46132],[7.01842,51.46139],[7.01903,51.46145],[7.01981,51.46145],[7.0194,51.46185],[7.01929,51.46203],[7.0183,51.46403],[7.01814,51.46417],[7.01793,51.4642],[7.01772,51.4642],[7.01749,51.46409],[7.01585,51.46218],[7.01525,51.4613],[7.01514,51.46108]]]}},{"type":"Feature","properties":{"zone":"Innenstadt Nord","district":"Stadtkern","rawHours":"","rawFee":"","note":"Bewohnerparkbereich Innenstadt Nord","windows":[],"fee":{"kind":"unknown"},"unmodelledRules":[],"sourceDefect":null,"scheduleUnknown":true,"spaces":null,"maxStayMinutes":null,"maxStay":null,"maxStayShare":0,"maxStayValues":[],"chargingPoints":0,"carsharing":0},"geometry":{"type":"Polygon","coordinates":[[[7.0151,51.46201],[7.01461,51.46207],[7.01366,51.46207],[7.01304,51.46201],[7.01244,51.46186],[7.0107,51.4631],[7.0082,51.46265],[7.00367,51.46191],[7.00491,51.45979],[7.00547,51.45972],[7.00695,51.45978],[7.00724,51.45941],[7.00703,51.45836],[7.00685,51.45804],[7.00745,51.45788],[7.00977,51.45757],[7.01057,51.45757],[7.01058,51.45703],[7.01167,51.45689],[7.01251,51.45696],[7.01272,51.45643],[7.01411,51.4566],[7.01556,51.45671],[7.01546,51.45706],[7.015,51.45794],[7.01475,51.45845],[7.01466,51.45877],[7.01465,51.45904],[7.01482,51.46001],[7.01496,51.46063],[7.01525,51.4613],[7.01544,51.46159],[7.0156,51.46188],[7.0151,51.46201]]]}},{"type":"Feature","properties":{"zone":"Museum-Süd (V)","district":"Rüttenscheid","rawHours":"","rawFee":"","note":"Bewohnerparkbereich Museum-Süd (V)","windows":[],"fee":{"kind":"unknown"},"unmodelledRules":[],"sourceDefect":null,"scheduleUnknown":true,"spaces":null,"maxStayMinutes":null,"maxStay":null,"maxStayShare":0,"maxStayValues":[],"chargingPoints":0,"carsharing":0},"geometry":{"type":"Polygon","coordinates":[[[7.0036,51.43953],[7.00473,51.44077],[7.00171,51.44155],[7.00014,51.44186],[6.99819,51.4417],[6.998,51.4417],[6.99759,51.44159],[6.99762,51.44154],[6.99706,51.44129],[6.99751,51.44046],[6.99763,51.44049],[6.99768,51.4404],[6.99756,51.44037],[6.99776,51.44001],[6.99787,51.44003],[6.99872,51.43904],[6.99975,51.43665],[7.00296,51.43719],[7.0036,51.43953]]]}},{"type":"Feature","properties":{"zone":"Museum-West (IV)","district":"Holsterhausen","rawHours":"","rawFee":"","note":"Bewohnerparkbereich Museum-West (IV)","windows":[],"fee":{"kind":"unknown"},"unmodelledRules":[],"sourceDefect":null,"scheduleUnknown":true,"spaces":null,"maxStayMinutes":null,"maxStay":null,"maxStayShare":0,"maxStayValues":[],"chargingPoints":0,"carsharing":0},"geometry":{"type":"Polygon","coordinates":[[[7.00622,51.4445],[7.00308,51.4473],[7.0016,51.4464],[7.00122,51.44595],[7.00067,51.44499],[7.00023,51.44448],[6.9996,51.44393],[6.99835,51.44288],[6.99782,51.44222],[6.99798,51.442],[6.998,51.4417],[6.99819,51.4417],[7.00014,51.44186],[7.00171,51.44155],[7.00473,51.44077],[7.00622,51.4445]]]}},{"type":"Feature","properties":{"zone":"Museum-Nord (II)","district":"Südviertel","rawHours":"","rawFee":"","note":"Bewohnerparkbereich Museum-Nord (II)","windows":[],"fee":{"kind":"unknown"},"unmodelledRules":[],"sourceDefect":null,"scheduleUnknown":true,"spaces":null,"maxStayMinutes":null,"maxStay":null,"maxStayShare":0,"maxStayValues":[],"chargingPoints":0,"carsharing":0},"geometry":{"type":"Polygon","coordinates":[[[7.00622,51.4445],[7.00755,51.44378],[7.01039,51.44293],[7.01137,51.44285],[7.01301,51.44344],[7.01372,51.44615],[7.01335,51.44951],[7.01294,51.45023],[7.0121,51.4501],[7.0099,51.44991],[7.00825,51.44965],[7.00646,51.44902],[7.00308,51.4473],[7.00622,51.4445]]]}},{"type":"Feature","properties":{"zone":"Sternviertel (I)","district":"Südviertel","rawHours":"","rawFee":"","note":"Bewohnerparkbereich Sternviertel (I)","windows":[],"fee":{"kind":"unknown"},"unmodelledRules":[],"sourceDefect":null,"scheduleUnknown":true,"spaces":null,"maxStayMinutes":null,"maxStay":null,"maxStayShare":0,"maxStayValues":[],"chargingPoints":0,"carsharing":0},"geometry":{"type":"Polygon","coordinates":[[[7.01294,51.45023],[7.01335,51.44951],[7.01372,51.44615],[7.01301,51.44344],[7.02222,51.44726],[7.02198,51.44835],[7.02153,51.4497],[7.02081,51.45068],[7.02019,51.45105],[7.01917,51.45147],[7.01838,51.45153],[7.01782,51.45132],[7.01781,51.4508],[7.01806,51.45018],[7.01609,51.45012],[7.01294,51.45023]]]}},{"type":"Feature","properties":{"zone":"Museum-Ost (III)","district":"Rüttenscheid","rawHours":"","rawFee":"","note":"Bewohnerparkbereich Museum-Ost (III)","windows":[],"fee":{"kind":"unknown"},"unmodelledRules":[],"sourceDefect":null,"scheduleUnknown":true,"spaces":null,"maxStayMinutes":null,"maxStay":null,"maxStayShare":0,"maxStayValues":[],"chargingPoints":0,"carsharing":0},"geometry":{"type":"Polygon","coordinates":[[[7.01312,51.43958],[7.01137,51.44285],[7.01039,51.44293],[7.00755,51.44378],[7.00622,51.4445],[7.00473,51.44077],[7.00364,51.43959],[7.00296,51.43719],[7.00549,51.43768],[7.00725,51.43816],[7.00955,51.43882],[7.01082,51.43927],[7.01312,51.43958]]]}},{"type":"Feature","properties":{"zone":"Innenstadt Süd","district":"Stadtkern","rawHours":"","rawFee":"","note":"Bewohnerparkbereich Innenstadt Süd","windows":[],"fee":{"kind":"unknown"},"unmodelledRules":[],"sourceDefect":null,"scheduleUnknown":true,"spaces":null,"maxStayMinutes":null,"maxStay":null,"maxStayShare":0,"maxStayValues":[],"chargingPoints":0,"carsharing":0},"geometry":{"type":"Polygon","coordinates":[[[7.00685,51.45804],[7.00703,51.45836],[7.00724,51.45941],[7.00695,51.45978],[7.00547,51.45972],[7.00491,51.45979],[7.00456,51.45862],[7.00467,51.45799],[7.00527,51.45735],[7.00588,51.45677],[7.00646,51.45601],[7.00695,51.45459],[7.00747,51.45143],[7.01619,51.45209],[7.01607,51.45437],[7.0166,51.45471],[7.0164,51.45518],[7.01617,51.45558],[7.01592,51.45596],[7.01567,51.45641],[7.01558,51.45666],[7.01411,51.4566],[7.01272,51.45643],[7.01251,51.45696],[7.01167,51.45689],[7.01058,51.45703],[7.01057,51.45757],[7.00977,51.45757],[7.00745,51.45788],[7.00685,51.45804]]]}}]}