{"type":"FeatureCollection","features":[{"type":"Feature","properties":{"name":"Stare Miasto","bezirk":"Dzielnica I"},"geometry":{"type":"Polygon","coordinates":[[[19.94206,50.04483],[19.93966,50.04503],[19.9378,50.04578],[19.93707,50.04637],[19.93498,50.04869],[19.93313,50.05136],[19.93165,50.05396],[19.93138,50.0542],[19.93015,50.05445],[19.92849,50.05417],[19.9279,50.05492],[19.92805,50.055],[19.92793,50.05518],[19.9281,50.05532],[19.92746,50.05582],[19.92378,50.06243],[19.92553,50.06715],[19.92753,50.07012],[19.93011,50.0716],[19.93226,50.0727],[19.93443,50.07334],[19.9347,50.07319],[19.937,50.07349],[19.93811,50.07348],[19.94031,50.0753],[19.94102,50.07558],[19.94116,50.07596],[19.94105,50.07605],[19.94516,50.07733],[19.94508,50.07743],[19.94541,50.07753],[19.94613,50.07914],[19.94736,50.08098],[19.95051,50.08059],[19.95048,50.08074],[19.95665,50.07986],[19.95696,50.07978],[19.95755,50.07898],[19.95792,50.07876],[19.96017,50.07863],[19.95209,50.06778],[19.94997,50.06815],[19.95007,50.06726],[19.94929,50.06555],[19.94926,50.06501],[19.94739,50.06484],[19.94748,50.06158],[19.94764,50.06128],[19.94744,50.06115],[19.94758,50.06072],[19.94741,50.05997],[19.9473,50.05998],[19.94729,50.05978],[19.94748,50.05978],[19.94753,50.05877],[19.94752,50.05856],[19.94734,50.05845],[19.94744,50.05762],[19.94799,50.05609],[19.94785,50.05553],[19.94834,50.05547],[19.94905,50.05441],[19.94893,50.05407],[19.9496,50.05377],[19.95334,50.05065],[19.95382,50.05086],[19.95466,50.05011],[19.94819,50.04673],[19.94414,50.04513],[19.94206,50.04483]]]}},{"type":"Feature","properties":{"name":"Grzegórzki","bezirk":"Dzielnica II"},"geometry":{"type":"Polygon","coordinates":[[[19.95466,50.05011],[19.95382,50.05086],[19.95334,50.05065],[19.9496,50.05377],[19.94893,50.05407],[19.94905,50.05441],[19.94834,50.05547],[19.94785,50.05553],[19.94799,50.05609],[19.94744,50.05762],[19.94734,50.05845],[19.94752,50.05856],[19.94753,50.05877],[19.94748,50.05978],[19.94729,50.05978],[19.9473,50.05998],[19.94741,50.05997],[19.94758,50.06072],[19.94744,50.06115],[19.94764,50.06128],[19.94748,50.06158],[19.94752,50.06262],[19.94733,50.06401],[19.94746,50.06406],[19.94739,50.06484],[19.94926,50.06501],[19.94929,50.06555],[19.95007,50.06726],[19.94997,50.06815],[19.95209,50.06778],[19.96017,50.07863],[19.95792,50.07876],[19.95755,50.07898],[19.95696,50.07978],[19.9593,50.07964],[19.96418,50.07822],[19.96701,50.07703],[19.96716,50.0772],[19.96799,50.07687],[19.96782,50.07668],[19.96845,50.07642],[19.96869,50.07594],[19.96996,50.07524],[19.972,50.07371],[19.9719,50.07364],[19.97316,50.07249],[19.97454,50.07079],[19.97613,50.068],[19.97672,50.06729],[19.98101,50.06878],[19.98177,50.0684],[19.98288,50.07006],[19.98337,50.06984],[19.98417,50.07056],[19.98708,50.06905],[19.98819,50.06799],[19.98828,50.06772],[19.98814,50.06723],[19.98845,50.06711],[19.98874,50.06482],[19.98864,50.06447],[19.98454,50.06369],[19.98215,50.06245],[19.98277,50.06213],[19.98483,50.06154],[19.98648,50.06038],[19.98685,50.05986],[19.98527,50.05962],[19.98423,50.0591],[19.98233,50.05759],[19.98109,50.05587],[19.97895,50.05426],[19.97702,50.05352],[19.97234,50.05231],[19.97062,50.05222],[19.96568,50.05285],[19.96279,50.05281],[19.96139,50.05261],[19.96009,50.05236],[19.95768,50.05152],[19.95637,50.05103],[19.95466,50.05011]]]}},{"type":"Feature","properties":{"name":"Prądnik Czerwony","bezirk":"Dzielnica III"},"geometry":{"type":"Polygon","coordinates":[[[19.97672,50.06729],[19.97613,50.068],[19.97454,50.07079],[19.97316,50.07249],[19.9719,50.07364],[19.972,50.07371],[19.96996,50.07524],[19.96869,50.07594],[19.96845,50.07642],[19.96782,50.07668],[19.96799,50.07687],[19.96716,50.0772],[19.96701,50.07703],[19.96418,50.07822],[19.9593,50.07964],[19.95723,50.07984],[19.95713,50.07974],[19.95048,50.08074],[19.95051,50.08059],[19.94735,50.081],[19.94851,50.08272],[19.94886,50.08264],[19.94972,50.08422],[19.95087,50.08578],[19.95071,50.08582],[19.95211,50.0877],[19.95333,50.08864],[19.96079,50.09341],[19.96118,50.09345],[19.96675,50.09635],[19.96878,50.09666],[19.97041,50.09721],[19.97787,50.10155],[19.98524,50.10435],[19.98667,50.10478],[19.9909,50.10399],[19.99106,50.10385],[19.99096,50.10358],[19.99106,50.10288],[19.99083,50.10251],[19.99101,50.10195],[19.99065,50.10142],[19.9907,50.1006],[19.99043,50.10041],[19.9907,50.09994],[19.99204,50.10027],[19.99248,50.09956],[19.99052,50.09905],[19.98934,50.09844],[19.98776,50.0979],[19.98806,50.0979],[19.9877,50.09562],[19.98783,50.09512],[19.98803,50.09513],[19.98808,50.09491],[19.98782,50.09487],[19.9875,50.0944],[19.98785,50.09095],[19.98363,50.09042],[19.98297,50.09028],[19.98285,50.09006],[19.98013,50.08975],[19.9806,50.0882],[19.97851,50.08793],[19.97933,50.08607],[19.98246,50.08627],[19.98234,50.08554],[19.98395,50.08554],[19.98453,50.08534],[19.98512,50.08477],[19.9867,50.08409],[19.98678,50.08371],[19.98618,50.08372],[19.98649,50.08317],[19.98749,50.08339],[19.98795,50.08275],[19.98827,50.08259],[19.98939,50.08052],[19.98764,50.0801],[19.98724,50.07967],[19.98863,50.07715],[19.98934,50.07658],[19.98906,50.07607],[19.98813,50.0756],[19.98851,50.07327],[19.98742,50.07321],[19.9871,50.07254],[19.98587,50.07258],[19.98545,50.07217],[19.98583,50.07186],[19.98499,50.07134],[19.98337,50.06984],[19.98288,50.07006],[19.98177,50.0684],[19.98101,50.06878],[19.97672,50.06729]]]}},{"type":"Feature","properties":{"name":"Prądnik Biały","bezirk":"Dzielnica IV"},"geometry":{"type":"Polygon","coordinates":[[[19.94735,50.081],[19.93415,50.08256],[19.9301,50.08265],[19.92116,50.08226],[19.91605,50.08222],[19.9044,50.08262],[19.89988,50.08346],[19.89635,50.08381],[19.89134,50.08343],[19.89141,50.08653],[19.89168,50.08684],[19.89246,50.08726],[19.89227,50.08751],[19.89007,50.0878],[19.88412,50.08989],[19.88031,50.09154],[19.87728,50.09309],[19.87365,50.09557],[19.86894,50.09786],[19.86769,50.09943],[19.86737,50.09918],[19.86661,50.1],[19.86532,50.09955],[19.86445,50.10068],[19.86434,50.10174],[19.86357,50.10262],[19.86183,50.10595],[19.86332,50.10733],[19.86736,50.10745],[19.87527,50.11104],[19.87664,50.11253],[19.8768,50.11351],[19.8777,50.11507],[19.87864,50.11716],[19.87899,50.11844],[19.8804,50.12013],[19.88187,50.12124],[19.88448,50.12216],[19.88662,50.12225],[19.88943,50.12275],[19.89141,50.12251],[19.89134,50.12308],[19.89055,50.12363],[19.89047,50.12401],[19.89157,50.1241],[19.89153,50.12432],[19.89256,50.12434],[19.89239,50.12514],[19.89251,50.12608],[19.89832,50.12613],[19.89833,50.12568],[19.89959,50.1258],[19.89937,50.12542],[19.89829,50.12534],[19.89838,50.12501],[19.89885,50.12501],[19.9005,50.12551],[19.90087,50.12506],[19.9011,50.12511],[19.90141,50.12439],[19.90218,50.12357],[19.90469,50.12212],[19.90595,50.1209],[19.90711,50.11944],[19.90852,50.11813],[19.90947,50.11556],[19.91005,50.11456],[19.91079,50.11265],[19.91149,50.11159],[19.91162,50.11107],[19.91227,50.10995],[19.91406,50.10561],[19.9147,50.10328],[19.91511,50.10093],[19.91889,50.10018],[19.91893,50.10103],[19.91878,50.10134],[19.92101,50.10214],[19.92087,50.10226],[19.92353,50.10341],[19.92622,50.10444],[19.92643,50.10438],[19.92673,50.1047],[19.9273,50.10494],[19.92769,50.10508],[19.92815,50.10492],[19.92814,50.10432],[19.92887,50.10373],[19.93079,50.10481],[19.92937,50.10665],[19.93045,50.10683],[19.93122,50.10749],[19.93131,50.1078],[19.93106,50.10862],[19.92842,50.11027],[19.9276,50.11039],[19.9271,50.11024],[19.92935,50.10813],[19.92936,50.10771],[19.928,50.10786],[19.92763,50.10737],[19.92721,50.10728],[19.92677,50.10748],[19.92624,50.10809],[19.92603,50.10811],[19.92536,50.11012],[19.92501,50.1104],[19.92444,50.1113],[19.92542,50.1118],[19.92574,50.1124],[19.92494,50.11407],[19.92729,50.11462],[19.92774,50.11351],[19.92941,50.11412],[19.93262,50.11448],[19.93543,50.11515],[19.93526,50.11553],[19.93997,50.11624],[19.93982,50.11719],[19.94017,50.11893],[19.94131,50.11904],[19.94319,50.11882],[19.94733,50.11934],[19.94876,50.11654],[19.9512,50.11407],[19.95368,50.11248],[19.95529,50.11122],[19.9559,50.11051],[19.95744,50.11059],[19.95731,50.10939],[19.9581,50.10832],[19.96042,50.10848],[19.96253,50.10957],[19.96328,50.11021],[19.96583,50.10921],[19.96824,50.10852],[19.97026,50.10735],[19.97214,50.10683],[19.97562,50.1064],[19.9775,50.10587],[19.979,50.10582],[19.98072,50.10496],[19.98136,50.10557],[19.98667,50.10478],[19.97787,50.10155],[19.97104,50.09751],[19.96878,50.09666],[19.96675,50.09635],[19.96118,50.09345],[19.96079,50.09341],[19.95933,50.09255],[19.95333,50.08864],[19.95211,50.0877],[19.95071,50.08582],[19.95087,50.08578],[19.94972,50.08422],[19.94886,50.08264],[19.94851,50.08272],[19.94735,50.081]]]}},{"type":"Feature","properties":{"name":"Krowodrza","bezirk":"Dzielnica V"},"geometry":{"type":"Polygon","coordinates":[[[19.92468,50.05916],[19.92459,50.05946],[19.92399,50.05942],[19.90428,50.06254],[19.90422,50.06236],[19.90263,50.06261],[19.90271,50.0629],[19.90238,50.06298],[19.90247,50.06319],[19.89224,50.06645],[19.89216,50.06629],[19.89109,50.06648],[19.8897,50.0671],[19.88808,50.06757],[19.88795,50.06802],[19.88724,50.06874],[19.88742,50.07044],[19.88769,50.07071],[19.88752,50.07096],[19.88803,50.07129],[19.88793,50.07176],[19.88808,50.07227],[19.8891,50.07187],[19.88936,50.07233],[19.90397,50.07027],[19.90469,50.07207],[19.90583,50.0758],[19.90619,50.0759],[19.90934,50.08244],[19.91832,50.0822],[19.93253,50.08263],[19.93415,50.08256],[19.94735,50.081],[19.94613,50.07914],[19.94541,50.07753],[19.94508,50.07743],[19.94516,50.07733],[19.94105,50.07605],[19.94116,50.07596],[19.94102,50.07558],[19.94031,50.0753],[19.93811,50.07348],[19.937,50.07349],[19.9347,50.07319],[19.93443,50.07334],[19.93293,50.07296],[19.92971,50.07139],[19.92753,50.07012],[19.92539,50.06688],[19.92377,50.06261],[19.92448,50.06099],[19.92551,50.05922],[19.92468,50.05916]]]}},{"type":"Feature","properties":{"name":"Bronowice","bezirk":"Dzielnica VI"},"geometry":{"type":"Polygon","coordinates":[[[19.88765,50.06728],[19.88665,50.06747],[19.88357,50.06752],[19.88201,50.06784],[19.8807,50.0684],[19.87908,50.06937],[19.87307,50.07178],[19.87199,50.07197],[19.86794,50.07209],[19.86601,50.07319],[19.86373,50.07348],[19.863,50.07373],[19.85842,50.07663],[19.85572,50.07676],[19.85411,50.0775],[19.85258,50.07788],[19.84786,50.07782],[19.84581,50.07818],[19.84489,50.07865],[19.84224,50.08055],[19.84112,50.08187],[19.83927,50.08287],[19.83885,50.08369],[19.83785,50.08442],[19.83764,50.08518],[19.83827,50.08608],[19.83829,50.08663],[19.83812,50.0869],[19.83671,50.088],[19.83453,50.0885],[19.83557,50.08959],[19.83647,50.08933],[19.83776,50.09046],[19.83818,50.09035],[19.8385,50.09066],[19.83904,50.09066],[19.84008,50.09144],[19.84094,50.09179],[19.84186,50.09182],[19.8431,50.09238],[19.84374,50.09217],[19.84499,50.09222],[19.84687,50.09302],[19.84908,50.09352],[19.85083,50.09422],[19.85187,50.09443],[19.85602,50.0936],[19.85862,50.0935],[19.86158,50.09266],[19.86769,50.09943],[19.86894,50.09786],[19.87365,50.09557],[19.8768,50.09338],[19.87883,50.09223],[19.8838,50.09002],[19.8877,50.08861],[19.89071,50.08763],[19.89227,50.08751],[19.89246,50.08726],[19.89168,50.08684],[19.89141,50.08653],[19.89134,50.08343],[19.89635,50.08381],[19.89988,50.08346],[19.9044,50.08262],[19.90934,50.08244],[19.90619,50.0759],[19.90583,50.0758],[19.90469,50.07207],[19.90397,50.07027],[19.88936,50.07233],[19.8891,50.07187],[19.88808,50.07227],[19.88793,50.07176],[19.88803,50.07129],[19.88752,50.07096],[19.88768,50.07063],[19.88742,50.07044],[19.88725,50.06943],[19.88728,50.06865],[19.88795,50.06802],[19.88808,50.06757],[19.88765,50.06728]]]}},{"type":"Feature","properties":{"name":"Zwierzyniec","bezirk":"Dzielnica VII"},"geometry":{"type":"Polygon","coordinates":[[[19.82203,50.03187],[19.82023,50.03199],[19.8186,50.03236],[19.81562,50.03374],[19.81448,50.03491],[19.81343,50.03541],[19.81306,50.03668],[19.81259,50.03768],[19.81281,50.0383],[19.81283,50.03924],[19.81207,50.04015],[19.81064,50.04065],[19.8107,50.04178],[19.811,50.04292],[19.81129,50.04332],[19.81368,50.04525],[19.81774,50.0491],[19.81831,50.05028],[19.81889,50.05066],[19.81949,50.05146],[19.81967,50.05241],[19.82016,50.05337],[19.82016,50.05426],[19.82075,50.05532],[19.82066,50.05636],[19.82078,50.05685],[19.82126,50.05764],[19.822,50.0582],[19.81984,50.05822],[19.81587,50.05935],[19.81462,50.0592],[19.81452,50.05902],[19.81288,50.0588],[19.8124,50.05858],[19.8121,50.05868],[19.81107,50.05849],[19.8109,50.05916],[19.81046,50.0592],[19.81042,50.05942],[19.80984,50.05978],[19.80929,50.061],[19.80453,50.0621],[19.80461,50.06455],[19.8017,50.06921],[19.80541,50.07157],[19.806,50.07213],[19.80833,50.07703],[19.80844,50.07761],[19.80829,50.07839],[19.8094,50.07935],[19.81124,50.08016],[19.81342,50.08028],[19.81615,50.0808],[19.81704,50.08076],[19.81847,50.08103],[19.81935,50.08173],[19.82328,50.08259],[19.82347,50.08273],[19.82342,50.08311],[19.82369,50.08342],[19.82536,50.08413],[19.828,50.0858],[19.82801,50.08601],[19.82928,50.08769],[19.82987,50.0879],[19.82983,50.08811],[19.83126,50.08846],[19.8323,50.08853],[19.83437,50.08831],[19.83453,50.0885],[19.83511,50.08844],[19.83626,50.08817],[19.83708,50.08778],[19.83829,50.08663],[19.83827,50.08608],[19.83764,50.08518],[19.83785,50.08442],[19.83885,50.08369],[19.83927,50.08287],[19.84112,50.08187],[19.84224,50.08055],[19.84489,50.07865],[19.84581,50.07818],[19.84786,50.07782],[19.85258,50.07788],[19.85411,50.0775],[19.85572,50.07676],[19.85842,50.07663],[19.863,50.07373],[19.86373,50.07348],[19.86601,50.07319],[19.86794,50.07209],[19.87199,50.07197],[19.87307,50.07178],[19.87908,50.06937],[19.8807,50.0684],[19.88201,50.06784],[19.88357,50.06752],[19.88665,50.06747],[19.88765,50.06728],[19.88813,50.06757],[19.8897,50.0671],[19.89109,50.06648],[19.89216,50.06629],[19.89224,50.06645],[19.90247,50.06319],[19.90238,50.06298],[19.90271,50.0629],[19.90266,50.0626],[19.90422,50.06236],[19.90428,50.06254],[19.92399,50.05942],[19.92459,50.05946],[19.92468,50.05916],[19.92551,50.05922],[19.92653,50.05767],[19.92746,50.05582],[19.9281,50.05532],[19.92793,50.05518],[19.92805,50.055],[19.9279,50.05492],[19.92849,50.05417],[19.92473,50.05263],[19.92184,50.05196],[19.9158,50.05121],[19.91106,50.05121],[19.90997,50.05108],[19.90898,50.05076],[19.90727,50.04974],[19.90638,50.04875],[19.90467,50.04595],[19.90274,50.04374],[19.90085,50.04122],[19.89919,50.03985],[19.89825,50.03931],[19.89594,50.03858],[19.88735,50.0381],[19.88448,50.03811],[19.87952,50.03871],[19.87809,50.03938],[19.87249,50.04319],[19.87087,50.04365],[19.86905,50.04392],[19.86591,50.04392],[19.86109,50.0434],[19.85163,50.04338],[19.84889,50.043],[19.84737,50.04245],[19.84526,50.04127],[19.84439,50.04055],[19.84136,50.03856],[19.83919,50.03748],[19.83673,50.03657],[19.83544,50.03626],[19.83127,50.03585],[19.8286,50.03533],[19.82698,50.03449],[19.82643,50.0336],[19.82623,50.03274],[19.82451,50.03207],[19.82203,50.03187]]]}},{"type":"Feature","properties":{"name":"Dębniki","bezirk":"Dzielnica VIII"},"geometry":{"type":"Polygon","coordinates":[[[19.87809,49.97143],[19.87391,49.97142],[19.87245,49.9717],[19.87024,49.97183],[19.86893,49.97248],[19.86767,49.97448],[19.86334,49.97483],[19.86217,49.97517],[19.8607,49.97591],[19.86298,49.97657],[19.86294,49.97862],[19.86238,49.97863],[19.86229,49.97926],[19.8625,49.97928],[19.86244,49.97983],[19.86449,49.98014],[19.86446,49.98318],[19.86303,49.98389],[19.86266,49.98418],[19.86239,49.98471],[19.86073,49.98461],[19.85986,49.98472],[19.85656,49.98551],[19.85448,49.98551],[19.85337,49.98536],[19.85171,49.98544],[19.84878,49.98519],[19.84865,49.98748],[19.84825,49.98999],[19.84924,49.99267],[19.84953,49.99467],[19.84901,49.99487],[19.84839,49.9949],[19.84768,49.99461],[19.84686,49.99474],[19.8463,49.99456],[19.8448,49.99459],[19.84483,49.99472],[19.84468,49.99472],[19.84404,49.9945],[19.84392,49.99477],[19.84311,49.99478],[19.84266,49.99504],[19.84116,49.99481],[19.8381,49.99502],[19.83707,49.99553],[19.83161,49.99604],[19.82244,49.99624],[19.82194,49.99677],[19.81935,49.99699],[19.81842,49.99676],[19.81833,49.99645],[19.81516,49.99581],[19.81421,49.99512],[19.81475,49.99441],[19.81402,49.99431],[19.81303,49.99454],[19.81306,49.99474],[19.81266,49.99478],[19.81217,49.99469],[19.81161,49.99436],[19.81101,49.99443],[19.81137,49.99403],[19.81123,49.99371],[19.81058,49.99337],[19.81035,49.99296],[19.80983,49.99312],[19.80956,49.99292],[19.80953,49.99217],[19.80742,49.99258],[19.80599,49.99303],[19.80361,49.99296],[19.80351,49.99352],[19.80394,49.99406],[19.80386,49.99433],[19.80277,49.99412],[19.80223,49.99337],[19.80171,49.99343],[19.80137,49.99391],[19.80089,49.99399],[19.80093,49.9942],[19.80061,49.99481],[19.80094,49.99496],[19.80066,49.99532],[19.80078,49.99548],[19.80001,49.99578],[19.79879,49.99597],[19.79822,49.99537],[19.79832,49.99532],[19.79645,49.99456],[19.79617,49.99513],[19.79567,49.99528],[19.79606,49.99581],[19.79663,49.99737],[19.79518,50.00277],[19.79522,50.00325],[19.79434,50.00721],[19.79238,50.01104],[19.79224,50.01181],[19.79249,50.01275],[19.79336,50.01396],[19.79432,50.01468],[19.79755,50.01561],[19.79927,50.01681],[19.80043,50.01829],[19.80087,50.02031],[19.802,50.02269],[19.80263,50.02365],[19.8043,50.02523],[19.80591,50.02609],[19.80712,50.02643],[19.80867,50.02656],[19.81032,50.02637],[19.81159,50.02585],[19.81235,50.02543],[19.81518,50.02151],[19.81616,50.02096],[19.81859,50.02037],[19.82033,50.02046],[19.82182,50.02088],[19.82771,50.02375],[19.82869,50.02472],[19.82893,50.02525],[19.8291,50.02581],[19.82895,50.02692],[19.82768,50.02975],[19.82655,50.03169],[19.82633,50.03241],[19.82451,50.03207],[19.82623,50.03274],[19.82643,50.0336],[19.82698,50.03449],[19.8286,50.03533],[19.83127,50.03585],[19.83544,50.03626],[19.83673,50.03657],[19.83919,50.03748],[19.84136,50.03856],[19.84628,50.04187],[19.84737,50.04245],[19.84889,50.043],[19.85163,50.04338],[19.86109,50.0434],[19.86591,50.04392],[19.86905,50.04392],[19.87087,50.04365],[19.87249,50.04319],[19.87809,50.03938],[19.87952,50.03871],[19.88448,50.03811],[19.88735,50.0381],[19.89594,50.03858],[19.89825,50.03931],[19.89919,50.03985],[19.90085,50.04122],[19.90274,50.04374],[19.90467,50.04595],[19.90638,50.04875],[19.90727,50.04974],[19.90898,50.05076],[19.90997,50.05108],[19.91106,50.05121],[19.9158,50.05121],[19.92184,50.05196],[19.92473,50.05263],[19.92916,50.05436],[19.93015,50.05445],[19.93138,50.0542],[19.93461,50.04919],[19.93707,50.04637],[19.9378,50.04578],[19.93966,50.04503],[19.94206,50.04483],[19.94101,50.04409],[19.93561,50.04104],[19.93522,50.03978],[19.93483,50.03936],[19.92858,50.03585],[19.92817,50.0351],[19.9287,50.03452],[19.92863,50.03418],[19.92723,50.03334],[19.92842,50.03205],[19.92846,50.03184],[19.9272,50.02959],[19.92642,50.02918],[19.92613,50.02884],[19.92629,50.02846],[19.9268,50.02816],[19.92686,50.02787],[19.92652,50.02732],[19.92686,50.02677],[19.92581,50.02577],[19.92578,50.02521],[19.92536,50.02536],[19.92527,50.02584],[19.92204,50.02656],[19.9222,50.02634],[19.92233,50.02544],[19.92249,50.02531],[19.9221,50.02348],[19.92209,50.02334],[19.9223,50.02328],[19.92069,50.02307],[19.91955,50.02221],[19.91733,50.02169],[19.91436,50.0206],[19.91378,50.01956],[19.91366,50.01959],[19.9136,50.01887],[19.91314,50.01858],[19.91113,50.01644],[19.90987,50.01414],[19.90886,50.01297],[19.90751,50.01078],[19.90765,50.01034],[19.90779,50.01031],[19.90705,50.00943],[19.90746,50.00876],[19.90505,50.00719],[19.903,50.00655],[19.89858,50.00664],[19.89549,50.00757],[19.8938,50.00771],[19.89202,50.00769],[19.8918,50.0076],[19.89141,50.007],[19.89003,50.00681],[19.88982,50.00565],[19.88882,50.00268],[19.89175,50.00115],[19.89397,49.99975],[19.89398,49.99827],[19.89493,49.99831],[19.89582,49.9961],[19.89555,49.99634],[19.89554,49.99592],[19.89507,49.99512],[19.89309,49.99323],[19.89255,49.99233],[19.89149,49.99237],[19.89018,49.99219],[19.88992,49.99083],[19.89016,49.99062],[19.89014,49.9904],[19.89152,49.98992],[19.89184,49.99],[19.89191,49.98908],[19.89298,49.98847],[19.89279,49.98758],[19.8932,49.98693],[19.88708,49.98661],[19.88696,49.98649],[19.88577,49.98471],[19.88626,49.98441],[19.88639,49.98349],[19.88627,49.98312],[19.88888,49.98333],[19.88881,49.98271],[19.88747,49.98104],[19.88728,49.97934],[19.88651,49.97919],[19.88631,49.97887],[19.886,49.97877],[19.88611,49.97855],[19.88545,49.97833],[19.88543,49.97807],[19.88513,49.97797],[19.88532,49.97778],[19.88517,49.97767],[19.88517,49.97739],[19.88538,49.97723],[19.88544,49.97693],[19.88488,49.97656],[19.8847,49.97611],[19.88295,49.97564],[19.88243,49.97531],[19.88218,49.97494],[19.88104,49.97472],[19.87998,49.97405],[19.87969,49.97355],[19.87944,49.97145],[19.87809,49.97143]]]}},{"type":"Feature","properties":{"name":"Łagiewniki-Borek Fałęcki","bezirk":"Dzielnica IX"},"geometry":{"type":"Polygon","coordinates":[[[19.93307,50.00173],[19.93204,50.00226],[19.93094,50.00247],[19.93255,50.00321],[19.93369,50.00399],[19.93398,50.00432],[19.93388,50.0044],[19.93507,50.00543],[19.9354,50.0059],[19.93553,50.0068],[19.93544,50.00773],[19.93525,50.00797],[19.93299,50.00777],[19.93292,50.00758],[19.93224,50.00748],[19.92934,50.00756],[19.92618,50.00733],[19.92196,50.00774],[19.91938,50.00737],[19.91839,50.00741],[19.91595,50.00812],[19.91437,50.00935],[19.91349,50.00958],[19.90923,50.00953],[19.90813,50.00919],[19.90746,50.00876],[19.90705,50.00943],[19.90779,50.01031],[19.90765,50.01034],[19.90751,50.01078],[19.90886,50.01297],[19.90987,50.01414],[19.91068,50.01581],[19.91167,50.01705],[19.9136,50.01887],[19.91366,50.01959],[19.91378,50.01956],[19.91436,50.0206],[19.91733,50.02169],[19.91955,50.02221],[19.92069,50.02307],[19.9223,50.02328],[19.92209,50.02334],[19.9221,50.02348],[19.92249,50.02531],[19.92233,50.02544],[19.9222,50.02634],[19.92204,50.02656],[19.92527,50.02584],[19.92536,50.02536],[19.92578,50.02521],[19.92581,50.02577],[19.92686,50.02677],[19.92652,50.02732],[19.92686,50.02787],[19.9268,50.02816],[19.92629,50.02846],[19.92613,50.02884],[19.92642,50.02918],[19.9272,50.02959],[19.92758,50.03022],[19.93242,50.03027],[19.93413,50.02973],[19.93613,50.02861],[19.93643,50.02855],[19.93684,50.0289],[19.94064,50.02823],[19.94105,50.02764],[19.9443,50.02851],[19.9456,50.02332],[19.94527,50.01743],[19.94508,50.01537],[19.94483,50.01488],[19.94512,50.01344],[19.94497,50.01344],[19.94505,50.01266],[19.94406,50.01171],[19.94385,50.01095],[19.94392,50.01017],[19.94514,50.00705],[19.94507,50.0066],[19.94468,50.00584],[19.94384,50.0058],[19.94416,50.00564],[19.94349,50.00561],[19.94078,50.00249],[19.94006,50.00215],[19.93973,50.00224],[19.93969,50.0025],[19.93461,50.00204],[19.93329,50.00261],[19.93299,50.00221],[19.93307,50.00173]]]}},{"type":"Feature","properties":{"name":"Swoszowice","bezirk":"Dzielnica X"},"geometry":{"type":"Polygon","coordinates":[[[19.95567,49.96767],[19.95539,49.96771],[19.95572,49.96865],[19.95521,49.96867],[19.955,49.96915],[19.95411,49.96947],[19.9538,49.97008],[19.95331,49.97012],[19.95297,49.96984],[19.95211,49.9701],[19.95202,49.96956],[19.95171,49.96952],[19.95084,49.96986],[19.95077,49.97024],[19.95114,49.97038],[19.95122,49.97064],[19.95057,49.9707],[19.95069,49.97108],[19.94946,49.97136],[19.94897,49.9713],[19.94833,49.97207],[19.94765,49.97229],[19.9466,49.97209],[19.94598,49.97228],[19.94492,49.97221],[19.94482,49.97233],[19.94492,49.97261],[19.94462,49.9727],[19.94444,49.97306],[19.94377,49.97284],[19.94285,49.97334],[19.94293,49.97368],[19.94327,49.97394],[19.94239,49.97403],[19.94216,49.97416],[19.9422,49.97436],[19.94061,49.97446],[19.94074,49.9748],[19.9401,49.97487],[19.94035,49.9752],[19.94026,49.97528],[19.93957,49.97513],[19.93952,49.97471],[19.93907,49.97482],[19.93907,49.97454],[19.93853,49.97484],[19.93835,49.97455],[19.93792,49.97474],[19.93777,49.97454],[19.93405,49.97557],[19.93447,49.97644],[19.93371,49.97644],[19.93345,49.97683],[19.93298,49.97686],[19.93294,49.97748],[19.93318,49.97771],[19.93288,49.97818],[19.93244,49.97821],[19.93259,49.97879],[19.93143,49.97843],[19.92954,49.97918],[19.92841,49.97915],[19.92825,49.97955],[19.92774,49.97959],[19.92742,49.97982],[19.92739,49.98003],[19.92782,49.98028],[19.92734,49.98082],[19.92609,49.981],[19.9257,49.98132],[19.91898,49.98],[19.91335,49.97985],[19.91261,49.98025],[19.912,49.98131],[19.90979,49.98183],[19.90965,49.98197],[19.90856,49.9815],[19.90563,49.98128],[19.90192,49.98131],[19.90119,49.98108],[19.90016,49.98122],[19.89904,49.98104],[19.89809,49.98062],[19.89626,49.98043],[19.89589,49.98044],[19.8959,49.98062],[19.89497,49.98061],[19.89177,49.98027],[19.89176,49.98054],[19.88833,49.98064],[19.88793,49.98036],[19.88732,49.98039],[19.88747,49.98104],[19.88881,49.98271],[19.88888,49.98333],[19.88627,49.98312],[19.88639,49.98349],[19.88626,49.98441],[19.88577,49.98466],[19.88589,49.98502],[19.88708,49.98661],[19.8932,49.98693],[19.89279,49.98758],[19.89298,49.98847],[19.89191,49.98908],[19.89184,49.99],[19.89152,49.98992],[19.89014,49.9904],[19.89016,49.99062],[19.88992,49.99083],[19.89018,49.99219],[19.89149,49.99237],[19.89255,49.99233],[19.89309,49.99323],[19.89507,49.99512],[19.89554,49.99592],[19.89555,49.99634],[19.89582,49.9961],[19.89493,49.99831],[19.89398,49.99827],[19.89397,49.99975],[19.89175,50.00115],[19.88882,50.00268],[19.88982,50.00565],[19.89003,50.00681],[19.89141,50.007],[19.8918,50.0076],[19.89202,50.00769],[19.8938,50.00771],[19.89549,50.00757],[19.89858,50.00664],[19.903,50.00655],[19.90505,50.00719],[19.90813,50.00919],[19.90971,50.00957],[19.91317,50.0096],[19.91407,50.00947],[19.91595,50.00812],[19.91839,50.00741],[19.91938,50.00737],[19.92196,50.00774],[19.92618,50.00733],[19.92934,50.00756],[19.93224,50.00748],[19.93292,50.00758],[19.93299,50.00777],[19.93506,50.00801],[19.93544,50.00773],[19.93553,50.0068],[19.9354,50.0059],[19.93507,50.00543],[19.93388,50.0044],[19.93398,50.00432],[19.93369,50.00399],[19.93255,50.00321],[19.93094,50.00247],[19.93204,50.00226],[19.93307,50.00173],[19.93299,50.00221],[19.93329,50.00261],[19.93399,50.00223],[19.93477,50.00206],[19.93515,50.00151],[19.93516,50.0012],[19.93476,50.0002],[19.93489,50.00016],[19.93538,50.00069],[19.93578,50.00074],[19.93626,50.00025],[19.93724,50.0003],[19.93823,49.99983],[19.93945,49.9996],[19.93952,49.99982],[19.94157,50.00034],[19.94271,50.00035],[19.94518,50.00002],[19.94502,50.00047],[19.94676,50.00023],[19.9467,50.0004],[19.95177,49.99992],[19.9554,49.99995],[19.96127,50.00028],[19.96133,50.00017],[19.96239,50.0003],[19.96218,50.00086],[19.96723,50.00158],[19.96723,50.00147],[19.96909,50.00157],[19.96976,50.00141],[19.97026,50.0009],[19.97185,50.00119],[19.9721,50.00084],[19.97272,50.00106],[19.97272,50.00134],[19.97325,50.00114],[19.98198,50.00077],[19.98252,50.00054],[19.98279,50.0002],[19.98304,50.00032],[19.98694,50.00011],[19.99018,50.00031],[19.99168,50.00006],[19.99215,50.00041],[19.99372,50.00024],[19.99527,50.00054],[19.99917,50.0008],[20.0012,50.00114],[20.00126,50.00133],[20.00394,50.00139],[20.00414,50.00119],[20.00352,50.00039],[20.00348,49.99983],[20.00276,49.99924],[20.00325,49.99801],[20.00414,49.9976],[20.00402,49.99749],[20.0044,49.99724],[20.00443,49.99697],[20.00478,49.99712],[20.0052,49.99704],[20.00709,49.99646],[20.0085,49.99553],[20.01027,49.99516],[20.01099,49.99528],[20.01223,49.99468],[20.01303,49.9936],[20.01284,49.99342],[20.01345,49.99333],[20.01391,49.99135],[20.01471,49.99048],[20.01543,49.98885],[20.01588,49.98837],[20.01782,49.9872],[20.01865,49.9864],[20.0186,49.98586],[20.01602,49.98438],[20.01376,49.98229],[20.01134,49.98086],[20.0097,49.98018],[20.01002,49.97724],[20.00917,49.9761],[20.00824,49.97596],[20.00767,49.97541],[20.00822,49.97508],[20.00809,49.97504],[20.00687,49.97476],[20.0029,49.97468],[20.00339,49.97515],[20.00113,49.97568],[19.99978,49.97486],[19.99931,49.97481],[19.99806,49.9743],[19.99799,49.97408],[19.99728,49.97394],[19.99008,49.973],[19.98704,49.97304],[19.98378,49.97259],[19.98128,49.97263],[19.98107,49.97322],[19.98215,49.97519],[19.98226,49.97609],[19.98224,49.97711],[19.98174,49.97743],[19.98138,49.97823],[19.98196,49.97898],[19.98206,49.97963],[19.98259,49.98019],[19.98259,49.9807],[19.98222,49.98103],[19.98045,49.98094],[19.97786,49.98117],[19.97711,49.98101],[19.97696,49.98079],[19.97564,49.98085],[19.9744,49.98039],[19.97357,49.98037],[19.97229,49.98],[19.97209,49.98013],[19.97168,49.97982],[19.97094,49.97997],[19.96995,49.97952],[19.96896,49.97949],[19.96843,49.97903],[19.96728,49.97876],[19.96684,49.97886],[19.96654,49.97875],[19.96638,49.97834],[19.96562,49.97843],[19.96524,49.97789],[19.9643,49.97775],[19.96485,49.97758],[19.9656,49.97648],[19.96595,49.97549],[19.96706,49.97375],[19.96704,49.97316],[19.9649,49.97302],[19.96309,49.97232],[19.96289,49.97105],[19.96344,49.96856],[19.96257,49.96867],[19.96248,49.96842],[19.96168,49.96833],[19.9615,49.96844],[19.9616,49.96895],[19.96051,49.96891],[19.95946,49.96926],[19.9593,49.96875],[19.95888,49.96858],[19.95887,49.96824],[19.9587,49.96837],[19.95731,49.96833],[19.95732,49.96815],[19.9576,49.96806],[19.95753,49.96787],[19.95718,49.96825],[19.95662,49.96825],[19.95617,49.96803],[19.95615,49.96771],[19.95567,49.96767]]]}},{"type":"Feature","properties":{"name":"Podgórze Duchackie","bezirk":"Dzielnica XI"},"geometry":{"type":"Polygon","coordinates":[[[19.99168,50.00006],[19.99018,50.00031],[19.98694,50.00011],[19.98304,50.00032],[19.98279,50.0002],[19.98252,50.00054],[19.98198,50.00077],[19.97325,50.00114],[19.97272,50.00134],[19.97272,50.00106],[19.9721,50.00084],[19.97185,50.00119],[19.97026,50.0009],[19.96976,50.00141],[19.96909,50.00157],[19.96723,50.00147],[19.96723,50.00158],[19.96218,50.00086],[19.96239,50.0003],[19.96133,50.00017],[19.96127,50.00028],[19.9554,49.99995],[19.95177,49.99992],[19.9467,50.0004],[19.94676,50.00023],[19.94502,50.00047],[19.94518,50.00002],[19.94271,50.00035],[19.94157,50.00034],[19.93952,49.99982],[19.93945,49.9996],[19.93823,49.99983],[19.93724,50.0003],[19.93626,50.00025],[19.93578,50.00074],[19.93538,50.00069],[19.93489,50.00016],[19.93476,50.0002],[19.93516,50.0012],[19.93515,50.00151],[19.93477,50.00206],[19.93969,50.0025],[19.93973,50.00224],[19.94006,50.00215],[19.94078,50.00249],[19.94349,50.00561],[19.94416,50.00564],[19.94384,50.0058],[19.94468,50.00584],[19.94512,50.00673],[19.94514,50.00705],[19.94401,50.00989],[19.94384,50.01069],[19.944,50.01162],[19.94505,50.01266],[19.94497,50.01344],[19.94512,50.01344],[19.94483,50.01488],[19.94508,50.01537],[19.94559,50.02251],[19.94549,50.02384],[19.9443,50.02851],[19.94542,50.02908],[19.94613,50.02981],[19.94691,50.03189],[19.94697,50.03266],[19.94758,50.03236],[19.94838,50.03161],[19.94833,50.03147],[19.95042,50.03038],[19.95247,50.02974],[19.95808,50.02853],[19.95803,50.02839],[19.95891,50.02782],[19.95923,50.0279],[19.95909,50.02829],[19.95949,50.02838],[19.96607,50.02698],[19.97015,50.02675],[19.97343,50.02623],[19.97378,50.02597],[19.97416,50.02608],[19.9763,50.02554],[19.97889,50.02396],[19.97752,50.02291],[19.97713,50.02238],[19.97703,50.02131],[19.97725,50.01957],[19.9772,50.01803],[19.9769,50.01731],[19.97585,50.01666],[19.97274,50.01598],[19.97269,50.01558],[19.97432,50.01528],[19.97788,50.01506],[19.97821,50.01491],[19.98472,50.01493],[19.98661,50.01509],[19.98845,50.01489],[19.98979,50.01494],[19.99121,50.01544],[19.99106,50.01452],[19.99179,50.01365],[19.99239,50.01324],[19.99117,50.01343],[19.99082,50.01329],[19.99096,50.01292],[19.99024,50.01234],[19.99053,50.01223],[19.99065,50.01201],[19.99051,50.012],[19.99055,50.0115],[19.99071,50.01126],[19.99158,50.01078],[19.99152,50.01061],[19.9924,50.01038],[19.99254,50.01017],[19.9967,50.00835],[19.99822,50.00703],[20.00066,50.00539],[20.00127,50.00475],[20.00163,50.00383],[20.0032,50.0034],[20.0017,50.00267],[20.00021,50.00235],[20.00016,50.00216],[20.00066,50.00203],[20.00007,50.0014],[20.00126,50.00133],[20.0012,50.00114],[19.99868,50.00075],[19.99527,50.00054],[19.99372,50.00024],[19.99215,50.00041],[19.99168,50.00006]]]}},{"type":"Feature","properties":{"name":"Bieżanów-Prokocim","bezirk":"Dzielnica XII"},"geometry":{"type":"Polygon","coordinates":[[[20.0474,49.99898],[20.04677,49.99915],[20.04398,49.99915],[20.03916,49.99983],[20.03772,50.001],[20.03575,50.00141],[20.03101,50.00092],[20.02889,50.0011],[20.0288,50.00092],[20.02918,50.00041],[20.02932,49.99962],[20.02919,49.99929],[20.02848,49.99918],[20.0236,50.00301],[20.02215,50.00325],[20.01881,50.00311],[20.01849,50.00418],[20.01828,50.00433],[20.01748,50.00424],[20.01673,50.00395],[20.01327,50.00371],[20.01054,50.00333],[20.00631,50.00249],[20.00611,50.00196],[20.00426,50.00117],[20.00394,50.00139],[20.00229,50.00129],[20.00007,50.0014],[20.00066,50.00203],[20.00016,50.00216],[20.0004,50.00247],[20.00131,50.00254],[20.0032,50.0034],[20.00163,50.00383],[20.00127,50.00475],[20.00066,50.00539],[19.99822,50.00703],[19.9967,50.00835],[19.99254,50.01017],[19.9924,50.01038],[19.99152,50.01061],[19.99158,50.01078],[19.99071,50.01126],[19.99055,50.0115],[19.99051,50.012],[19.99065,50.01201],[19.99053,50.01223],[19.99024,50.01234],[19.99096,50.01292],[19.99082,50.01329],[19.99117,50.01343],[19.99239,50.01324],[19.99179,50.01365],[19.99106,50.01452],[19.99121,50.01544],[19.98979,50.01494],[19.98845,50.01489],[19.98661,50.01509],[19.98472,50.01493],[19.97821,50.01491],[19.97788,50.01506],[19.97327,50.01545],[19.97269,50.01558],[19.97274,50.01598],[19.97603,50.01673],[19.97679,50.0172],[19.97716,50.0178],[19.97725,50.01957],[19.97703,50.02131],[19.97713,50.02238],[19.97752,50.02291],[19.97889,50.02396],[19.97651,50.02541],[19.97742,50.02599],[19.97666,50.02672],[19.97738,50.02696],[19.97847,50.02588],[19.98111,50.02659],[19.98193,50.02708],[19.98294,50.02673],[19.98326,50.0264],[19.98371,50.02654],[19.98418,50.02596],[19.98448,50.02606],[19.9849,50.02576],[19.98553,50.02596],[19.98511,50.02636],[19.98609,50.02683],[19.9868,50.02696],[19.99205,50.03038],[19.99198,50.03084],[19.99645,50.03038],[19.99643,50.03017],[19.9997,50.02971],[20.00488,50.02943],[20.01365,50.02803],[20.0141,50.02801],[20.01455,50.02833],[20.01483,50.02815],[20.01436,50.02797],[20.01982,50.02651],[20.02271,50.02589],[20.02421,50.02568],[20.02624,50.02573],[20.02795,50.02532],[20.02805,50.02714],[20.02784,50.02847],[20.02956,50.03006],[20.02969,50.03074],[20.02971,50.03163],[20.02915,50.03331],[20.02938,50.03411],[20.03082,50.03417],[20.03371,50.03506],[20.03501,50.03511],[20.03595,50.03496],[20.03781,50.0343],[20.03953,50.03402],[20.04736,50.03396],[20.05292,50.03443],[20.05775,50.0337],[20.06276,50.03384],[20.07282,50.03143],[20.0728,50.03085],[20.07228,50.02976],[20.06909,50.02712],[20.06843,50.02648],[20.06769,50.02545],[20.06486,50.02427],[20.06504,50.02397],[20.06716,50.02219],[20.06843,50.022],[20.06976,50.01835],[20.06907,50.01572],[20.06803,50.01408],[20.06766,50.01309],[20.06762,50.01275],[20.06776,50.01272],[20.0679,50.01224],[20.06788,50.0117],[20.06722,50.00954],[20.06676,50.00915],[20.06626,50.00903],[20.06567,50.00779],[20.06433,50.00809],[20.06332,50.00819],[20.06292,50.00808],[20.06235,50.00762],[20.06231,50.00729],[20.06256,50.00684],[20.06233,50.00632],[20.06182,50.00625],[20.06159,50.00578],[20.06138,50.00583],[20.06075,50.00533],[20.05829,50.00566],[20.05728,50.00471],[20.05516,50.0046],[20.05517,50.00411],[20.05162,50.00383],[20.0496,50.00429],[20.04828,50.00417],[20.04814,50.00399],[20.04815,50.00306],[20.0478,50.00177],[20.04773,50.00007],[20.04797,49.99909],[20.0474,49.99898]]]}},{"type":"Feature","properties":{"name":"Podgórze","bezirk":"Dzielnica XIII"},"geometry":{"type":"Polygon","coordinates":[[[20.02795,50.02532],[20.02624,50.02573],[20.02421,50.02568],[20.02271,50.02589],[20.01982,50.02651],[20.01436,50.02797],[20.01483,50.02815],[20.01455,50.02833],[20.0141,50.02801],[20.01365,50.02803],[20.00488,50.02943],[19.9997,50.02971],[19.99643,50.03017],[19.99645,50.03038],[19.99198,50.03084],[19.99205,50.03038],[19.9868,50.02696],[19.98609,50.02683],[19.98511,50.02636],[19.98553,50.02596],[19.9849,50.02576],[19.98448,50.02606],[19.98418,50.02596],[19.98371,50.02654],[19.98326,50.0264],[19.98294,50.02673],[19.98193,50.02708],[19.98111,50.02659],[19.97847,50.02588],[19.97738,50.02696],[19.97666,50.02672],[19.97742,50.02599],[19.97651,50.02541],[19.97563,50.02574],[19.97416,50.02608],[19.97378,50.02597],[19.97349,50.02621],[19.97208,50.02647],[19.97015,50.02675],[19.96607,50.02698],[19.95949,50.02838],[19.95909,50.02829],[19.95923,50.0279],[19.95891,50.02782],[19.95803,50.02839],[19.95808,50.02853],[19.95247,50.02974],[19.95042,50.03038],[19.94833,50.03147],[19.94838,50.03161],[19.94758,50.03236],[19.94697,50.03266],[19.94691,50.03189],[19.94632,50.03018],[19.94542,50.02908],[19.94421,50.02848],[19.94105,50.02764],[19.94064,50.02823],[19.93684,50.0289],[19.93643,50.02855],[19.93613,50.02861],[19.93413,50.02973],[19.93242,50.03027],[19.92758,50.03022],[19.92846,50.03184],[19.92842,50.03205],[19.92723,50.03334],[19.92863,50.03418],[19.9287,50.03452],[19.92817,50.0351],[19.92858,50.03585],[19.93483,50.03936],[19.93522,50.03978],[19.93561,50.04104],[19.94101,50.04409],[19.94206,50.04483],[19.94414,50.04513],[19.94819,50.04673],[19.95637,50.05103],[19.96009,50.05236],[19.96279,50.05281],[19.96424,50.05287],[19.96721,50.05273],[19.97062,50.05222],[19.97234,50.05231],[19.97702,50.05352],[19.97895,50.05426],[19.9802,50.05513],[19.98109,50.05587],[19.98233,50.05759],[19.98423,50.0591],[19.98527,50.05962],[19.98685,50.05986],[19.9903,50.05957],[19.9914,50.05927],[19.99396,50.058],[19.99561,50.05693],[19.99652,50.05605],[19.99926,50.05113],[20.00109,50.04951],[20.0032,50.04818],[20.00552,50.04698],[20.00861,50.04575],[20.01118,50.04503],[20.01409,50.04495],[20.01515,50.04519],[20.01585,50.04554],[20.01647,50.04596],[20.01698,50.04658],[20.01809,50.04862],[20.02009,50.0506],[20.02142,50.05129],[20.02283,50.05168],[20.02442,50.05169],[20.02589,50.05138],[20.02736,50.05079],[20.03028,50.04913],[20.03226,50.04844],[20.03575,50.04784],[20.03705,50.04783],[20.03849,50.04797],[20.04039,50.04845],[20.04586,50.05127],[20.04834,50.05191],[20.0494,50.05204],[20.05227,50.05188],[20.05724,50.05076],[20.05886,50.05057],[20.06616,50.0504],[20.06989,50.05066],[20.07753,50.05172],[20.08295,50.05272],[20.08666,50.05306],[20.08835,50.05275],[20.0902,50.05217],[20.09168,50.05132],[20.09313,50.04998],[20.09399,50.04885],[20.09446,50.04761],[20.09441,50.04619],[20.09416,50.04532],[20.09438,50.04442],[20.09506,50.04344],[20.09556,50.04302],[20.09808,50.0418],[20.1007,50.04132],[20.10319,50.04118],[20.10008,50.0383],[20.09936,50.0378],[20.09801,50.03728],[20.09596,50.03696],[20.09402,50.03715],[20.09218,50.03802],[20.09169,50.03869],[20.09155,50.03959],[20.09164,50.04025],[20.09234,50.04178],[20.09228,50.04207],[20.09164,50.04225],[20.09171,50.04262],[20.09087,50.04365],[20.08963,50.04438],[20.08929,50.04444],[20.08923,50.04471],[20.08901,50.04485],[20.088,50.0449],[20.08725,50.04455],[20.08688,50.04419],[20.08689,50.04402],[20.08616,50.04377],[20.08562,50.04296],[20.08354,50.04149],[20.08231,50.04128],[20.0817,50.04078],[20.08135,50.04086],[20.08106,50.04065],[20.08032,50.0407],[20.08101,50.03871],[20.08199,50.03891],[20.08338,50.03829],[20.08381,50.0379],[20.08331,50.03774],[20.08236,50.0369],[20.07973,50.0358],[20.08081,50.03503],[20.08163,50.03468],[20.08171,50.03426],[20.07877,50.03369],[20.07467,50.03259],[20.07354,50.03219],[20.07282,50.03143],[20.06276,50.03384],[20.05775,50.0337],[20.05292,50.03443],[20.04736,50.03396],[20.03953,50.03402],[20.03781,50.0343],[20.03639,50.03486],[20.03501,50.03511],[20.0331,50.03496],[20.03082,50.03417],[20.02938,50.03411],[20.02915,50.03331],[20.02971,50.03163],[20.02969,50.03074],[20.02956,50.03006],[20.02784,50.02847],[20.02805,50.02714],[20.02795,50.02532]]]}},{"type":"Feature","properties":{"name":"Czyżyny","bezirk":"Dzielnica XIV"},"geometry":{"type":"Polygon","coordinates":[[[19.97952,50.08604],[19.98864,50.08704],[19.98865,50.08715],[19.99308,50.08774],[19.99491,50.08758],[20.00111,50.08785],[20.00345,50.0881],[20.00374,50.08775],[20.00716,50.08677],[20.01327,50.0857],[20.01184,50.08284],[20.01589,50.08161],[20.01571,50.08095],[20.01574,50.07995],[20.01592,50.07981],[20.01524,50.07868],[20.01579,50.07861],[20.01587,50.07893],[20.01616,50.07889],[20.0193,50.07815],[20.01912,50.07768],[20.02189,50.0768],[20.02136,50.07632],[20.01862,50.07486],[20.01736,50.07426],[20.01629,50.07395],[20.01614,50.07318],[20.01662,50.07279],[20.01659,50.07266],[20.01768,50.07256],[20.01858,50.07294],[20.02107,50.07294],[20.02922,50.07203],[20.02872,50.071],[20.02954,50.07011],[20.03089,50.06974],[20.02897,50.06792],[20.02921,50.0672],[20.02902,50.06607],[20.02952,50.06597],[20.02993,50.06559],[20.03048,50.06544],[20.03145,50.06477],[20.03252,50.06461],[20.03326,50.06429],[20.03553,50.06397],[20.03533,50.06436],[20.03707,50.06408],[20.04062,50.06317],[20.04033,50.06242],[20.04159,50.06235],[20.04146,50.06155],[20.04213,50.06145],[20.04163,50.05998],[20.04062,50.05995],[20.03841,50.05894],[20.03933,50.05865],[20.0375,50.05769],[20.03729,50.05775],[20.03704,50.05709],[20.03613,50.05624],[20.04259,50.05382],[20.04754,50.05347],[20.04744,50.05284],[20.04798,50.05267],[20.04834,50.05191],[20.04586,50.05127],[20.04039,50.04845],[20.03849,50.04797],[20.03705,50.04783],[20.03575,50.04784],[20.03226,50.04844],[20.03028,50.04913],[20.02736,50.05079],[20.02589,50.05138],[20.02442,50.05169],[20.02283,50.05168],[20.02142,50.05129],[20.02009,50.0506],[20.01809,50.04862],[20.01748,50.04739],[20.01647,50.04596],[20.01515,50.04519],[20.01409,50.04495],[20.01118,50.04503],[20.00861,50.04575],[20.00552,50.04698],[20.00179,50.04903],[19.99986,50.05049],[19.99893,50.05163],[19.99761,50.0542],[19.99705,50.055],[19.9969,50.05554],[19.99561,50.05693],[19.99509,50.05729],[19.9914,50.05927],[19.98876,50.05979],[19.98685,50.05986],[19.98648,50.06038],[19.98483,50.06154],[19.98277,50.06213],[19.98215,50.06245],[19.98454,50.06369],[19.98864,50.06447],[19.98874,50.06482],[19.98845,50.06711],[19.98814,50.06723],[19.98828,50.06772],[19.98806,50.0682],[19.98691,50.06916],[19.98417,50.07056],[19.98528,50.07157],[19.98545,50.07155],[19.98583,50.07186],[19.98545,50.07217],[19.98587,50.07258],[19.9871,50.07254],[19.98742,50.07321],[19.98851,50.07327],[19.98813,50.0756],[19.98906,50.07607],[19.98934,50.07658],[19.98863,50.07715],[19.98724,50.07967],[19.98764,50.0801],[19.98939,50.08052],[19.98827,50.08259],[19.98795,50.08275],[19.98763,50.08331],[19.98718,50.0834],[19.98649,50.08317],[19.98618,50.08372],[19.98678,50.08371],[19.9867,50.08409],[19.98642,50.08432],[19.98558,50.08452],[19.98453,50.08534],[19.98395,50.08554],[19.98234,50.08554],[19.98246,50.08627],[19.97952,50.08604]]]}},{"type":"Feature","properties":{"name":"Mistrzejowice","bezirk":"Dzielnica XV"},"geometry":{"type":"Polygon","coordinates":[[[19.97952,50.08604],[19.97933,50.08607],[19.97851,50.08793],[19.9806,50.0882],[19.98013,50.08975],[19.98285,50.09006],[19.98297,50.09028],[19.98363,50.09042],[19.98785,50.09095],[19.9875,50.0944],[19.98782,50.09487],[19.98808,50.09491],[19.98803,50.09513],[19.98783,50.09512],[19.9877,50.09562],[19.98806,50.0979],[19.98776,50.0979],[19.98934,50.09844],[19.99052,50.09905],[19.99248,50.09956],[19.99204,50.10027],[19.9907,50.09994],[19.99043,50.10041],[19.9907,50.1006],[19.99065,50.10142],[19.99101,50.10195],[19.99083,50.10251],[19.99106,50.10288],[19.99104,50.10388],[19.98667,50.10478],[19.98784,50.10523],[19.98829,50.10528],[19.98872,50.10513],[19.9895,50.10536],[19.99101,50.10621],[19.99283,50.1067],[19.99482,50.10701],[19.99989,50.10724],[20.00455,50.10716],[20.01625,50.10662],[20.01757,50.10644],[20.0221,50.10518],[20.02424,50.10394],[20.02763,50.10436],[20.028,50.10577],[20.03004,50.10588],[20.03162,50.10789],[20.03403,50.10874],[20.03504,50.10656],[20.03556,50.10586],[20.0363,50.10595],[20.03708,50.10564],[20.03753,50.10575],[20.03773,50.10555],[20.03753,50.10522],[20.03669,50.10495],[20.03327,50.1043],[20.03354,50.10368],[20.03461,50.10228],[20.03454,50.10211],[20.03438,50.10192],[20.03398,50.10187],[20.03213,50.09954],[20.03182,50.09941],[20.03084,50.09945],[20.02986,50.0988],[20.02969,50.09835],[20.02982,50.09808],[20.03019,50.09775],[20.03111,50.09769],[20.03155,50.09711],[20.03162,50.09668],[20.03213,50.09621],[20.03204,50.09578],[20.03271,50.09468],[20.03226,50.09439],[20.03149,50.0942],[20.03073,50.09368],[20.02988,50.09357],[20.02952,50.09329],[20.02725,50.09339],[20.02607,50.09361],[20.02018,50.09537],[20.01809,50.0955],[20.01607,50.095],[20.01399,50.09393],[20.00482,50.08854],[20.00368,50.08815],[20.00111,50.08785],[19.99491,50.08758],[19.99308,50.08774],[19.98865,50.08715],[19.98864,50.08704],[19.97952,50.08604]]]}},{"type":"Feature","properties":{"name":"Bieńczyce","bezirk":"Dzielnica XVI"},"geometry":{"type":"Polygon","coordinates":[[[20.05235,50.07642],[20.05022,50.07972],[20.04966,50.0802],[20.04353,50.08278],[20.04067,50.08341],[20.03839,50.08505],[20.02858,50.07973],[20.02809,50.08033],[20.02733,50.08019],[20.02698,50.08027],[20.02641,50.07998],[20.02649,50.07971],[20.02571,50.07879],[20.02184,50.07668],[20.02189,50.0768],[20.02093,50.07719],[20.01912,50.07768],[20.0193,50.07815],[20.01616,50.07889],[20.01587,50.07893],[20.01579,50.07861],[20.01524,50.07868],[20.01592,50.07981],[20.01574,50.07995],[20.01571,50.08095],[20.01589,50.08161],[20.01184,50.08284],[20.01327,50.0857],[20.00716,50.08677],[20.00374,50.08775],[20.00345,50.0881],[20.00482,50.08854],[20.01399,50.09393],[20.01607,50.095],[20.01746,50.0954],[20.01884,50.09554],[20.01989,50.09544],[20.02607,50.09361],[20.02725,50.09339],[20.02952,50.09329],[20.03366,50.09349],[20.03394,50.09295],[20.03381,50.09249],[20.03266,50.09083],[20.03867,50.08929],[20.04526,50.08952],[20.04724,50.08875],[20.04685,50.08745],[20.04685,50.08684],[20.04759,50.08551],[20.04758,50.08493],[20.04776,50.08462],[20.04831,50.08427],[20.04869,50.0838],[20.04943,50.08352],[20.05205,50.08353],[20.05289,50.08373],[20.05364,50.08365],[20.05377,50.08344],[20.05343,50.08292],[20.05342,50.08154],[20.05305,50.08105],[20.05324,50.08079],[20.05413,50.08034],[20.05499,50.07946],[20.05596,50.07877],[20.05633,50.07824],[20.05631,50.07777],[20.05649,50.07745],[20.05235,50.07642]]]}},{"type":"Feature","properties":{"name":"Wzgórza Krzesławickie","bezirk":"Dzielnica XVII"},"geometry":{"type":"Polygon","coordinates":[[[20.02963,50.09335],[20.02988,50.09357],[20.03073,50.09368],[20.03149,50.0942],[20.03226,50.09439],[20.03271,50.09468],[20.03204,50.09578],[20.03213,50.09621],[20.03162,50.09668],[20.03155,50.09711],[20.03111,50.09769],[20.03019,50.09775],[20.02969,50.09835],[20.02986,50.0988],[20.03052,50.0993],[20.03091,50.09946],[20.03182,50.09941],[20.03213,50.09954],[20.03398,50.10187],[20.03438,50.10192],[20.03454,50.10211],[20.03461,50.10228],[20.03354,50.10368],[20.03327,50.1043],[20.03669,50.10495],[20.03753,50.10522],[20.03773,50.10546],[20.03753,50.10575],[20.03708,50.10564],[20.0363,50.10595],[20.03556,50.10586],[20.03504,50.10656],[20.03411,50.10848],[20.0358,50.10862],[20.03523,50.10999],[20.03601,50.11017],[20.03616,50.11067],[20.03694,50.11133],[20.03716,50.11188],[20.03704,50.1127],[20.03769,50.11296],[20.03973,50.11332],[20.04192,50.11349],[20.04241,50.11249],[20.04418,50.11069],[20.0447,50.11032],[20.04546,50.11116],[20.04695,50.10931],[20.04764,50.10965],[20.04919,50.10971],[20.05009,50.11025],[20.05076,50.11029],[20.05106,50.11056],[20.05036,50.11094],[20.05073,50.11119],[20.05187,50.11064],[20.05196,50.11084],[20.05219,50.11088],[20.05209,50.11124],[20.05252,50.11209],[20.0535,50.11282],[20.05462,50.11289],[20.05548,50.11259],[20.05643,50.1126],[20.05807,50.11374],[20.05801,50.11386],[20.05848,50.11469],[20.06178,50.11426],[20.06159,50.11353],[20.06274,50.11345],[20.06383,50.11344],[20.06705,50.11402],[20.07015,50.11393],[20.07026,50.11274],[20.07313,50.11272],[20.07646,50.11296],[20.07896,50.1124],[20.079,50.1123],[20.07867,50.11203],[20.07769,50.11154],[20.07549,50.10949],[20.07622,50.10918],[20.07728,50.10822],[20.07827,50.1083],[20.08178,50.10958],[20.08372,50.10981],[20.08417,50.11026],[20.08436,50.11123],[20.08533,50.11153],[20.08795,50.1114],[20.08816,50.11346],[20.09023,50.11374],[20.09412,50.11479],[20.09422,50.1163],[20.0949,50.11745],[20.09584,50.11854],[20.09625,50.11935],[20.10837,50.11673],[20.11135,50.1165],[20.1114,50.1169],[20.11484,50.11699],[20.11726,50.11678],[20.11795,50.11628],[20.11856,50.11677],[20.11998,50.11646],[20.12024,50.11571],[20.12084,50.10846],[20.12276,50.1085],[20.12757,50.10737],[20.13171,50.10683],[20.13549,50.10688],[20.13788,50.10676],[20.13794,50.10657],[20.14311,50.10647],[20.14384,50.10926],[20.14466,50.11146],[20.14633,50.11374],[20.14688,50.11434],[20.15174,50.11722],[20.15246,50.1179],[20.15301,50.11882],[20.15434,50.11946],[20.15698,50.1182],[20.15758,50.1173],[20.15828,50.11569],[20.15849,50.11552],[20.15838,50.11533],[20.15882,50.115],[20.15856,50.11481],[20.15873,50.11466],[20.1588,50.11416],[20.15892,50.11211],[20.15925,50.11159],[20.15956,50.11154],[20.16087,50.11066],[20.16007,50.11002],[20.15749,50.10705],[20.15764,50.10701],[20.15659,50.10334],[20.15678,50.1033],[20.15605,50.101],[20.15697,50.10096],[20.15688,50.1004],[20.15591,50.1004],[20.15589,50.09998],[20.15424,50.09997],[20.15418,50.09885],[20.15471,50.09692],[20.15435,50.0946],[20.14568,50.09304],[20.13747,50.09186],[20.1375,50.0921],[20.13518,50.0918],[20.13489,50.09162],[20.13318,50.09262],[20.13333,50.09242],[20.13311,50.09214],[20.13117,50.09147],[20.12944,50.09115],[20.12925,50.09163],[20.12824,50.09147],[20.12844,50.091],[20.12646,50.09068],[20.12516,50.09005],[20.11976,50.0892],[20.11976,50.08904],[20.11632,50.08861],[20.11663,50.08767],[20.1156,50.08754],[20.11454,50.08757],[20.11246,50.08794],[20.11007,50.08891],[20.10734,50.08965],[20.09324,50.09228],[20.08965,50.0923],[20.08504,50.09172],[20.08545,50.09068],[20.08426,50.0895],[20.08399,50.08934],[20.08375,50.08943],[20.08349,50.08917],[20.08331,50.08922],[20.08208,50.08872],[20.06663,50.08139],[20.06626,50.08094],[20.06612,50.07958],[20.06287,50.07915],[20.05649,50.07745],[20.05631,50.07777],[20.05633,50.07824],[20.05596,50.07877],[20.05499,50.07946],[20.05413,50.08034],[20.05324,50.08079],[20.05305,50.08105],[20.05342,50.08154],[20.05343,50.08292],[20.05377,50.08344],[20.05364,50.08365],[20.05289,50.08373],[20.05205,50.08353],[20.04943,50.08352],[20.04869,50.0838],[20.04831,50.08427],[20.04776,50.08462],[20.04758,50.08493],[20.04759,50.08551],[20.04685,50.08684],[20.04685,50.08745],[20.04724,50.08875],[20.04498,50.08961],[20.03867,50.08929],[20.03556,50.09004],[20.03266,50.09083],[20.03381,50.09249],[20.03394,50.09295],[20.03366,50.09349],[20.02963,50.09335]]]}},{"type":"Feature","properties":{"name":"Nowa Huta","bezirk":"Dzielnica XVIII"},"geometry":{"type":"Polygon","coordinates":[[[20.1258,50.03969],[20.12506,50.03973],[20.12279,50.04031],[20.11929,50.04181],[20.1154,50.04263],[20.11174,50.04267],[20.10686,50.04244],[20.10437,50.04128],[20.10319,50.04118],[20.1007,50.04132],[20.09808,50.0418],[20.09624,50.04258],[20.09506,50.04344],[20.09471,50.04388],[20.09438,50.04442],[20.09416,50.04532],[20.09441,50.04619],[20.09446,50.04761],[20.09399,50.04885],[20.09313,50.04998],[20.0921,50.051],[20.0908,50.05185],[20.0902,50.05217],[20.08761,50.05293],[20.08666,50.05306],[20.08295,50.05272],[20.07753,50.05172],[20.06989,50.05066],[20.06616,50.0504],[20.05995,50.05047],[20.05724,50.05076],[20.05512,50.05134],[20.05135,50.052],[20.04834,50.05191],[20.04798,50.05267],[20.04744,50.05284],[20.04754,50.05347],[20.04259,50.05382],[20.03613,50.05624],[20.03704,50.05709],[20.03729,50.05775],[20.0375,50.05769],[20.03933,50.05865],[20.03841,50.05894],[20.04062,50.05995],[20.04163,50.05998],[20.04213,50.06145],[20.04146,50.06155],[20.04159,50.06235],[20.04033,50.06242],[20.04062,50.06317],[20.03707,50.06408],[20.03533,50.06436],[20.03553,50.06397],[20.03326,50.06429],[20.03252,50.06461],[20.03145,50.06477],[20.03048,50.06544],[20.02993,50.06559],[20.02952,50.06597],[20.02902,50.06607],[20.02921,50.0672],[20.02897,50.06792],[20.03089,50.06974],[20.02954,50.07011],[20.02872,50.071],[20.02922,50.07203],[20.02107,50.07294],[20.01858,50.07294],[20.01768,50.07256],[20.01694,50.0726],[20.01659,50.07266],[20.01662,50.07279],[20.01614,50.07318],[20.01629,50.07394],[20.01736,50.07426],[20.01939,50.07526],[20.02563,50.07874],[20.02649,50.07971],[20.02641,50.07998],[20.02698,50.08027],[20.02733,50.08019],[20.02809,50.08033],[20.02858,50.07973],[20.03839,50.08505],[20.04067,50.08341],[20.04353,50.08278],[20.04966,50.0802],[20.05022,50.07972],[20.05235,50.07642],[20.06287,50.07915],[20.06612,50.07958],[20.06626,50.08094],[20.06663,50.08139],[20.08208,50.08872],[20.08331,50.08922],[20.08349,50.08917],[20.08375,50.08943],[20.08399,50.08934],[20.08426,50.0895],[20.08545,50.09068],[20.08504,50.09172],[20.08965,50.0923],[20.09324,50.09228],[20.10734,50.08965],[20.11007,50.08891],[20.11246,50.08794],[20.11454,50.08757],[20.1156,50.08754],[20.11663,50.08767],[20.11632,50.08861],[20.11976,50.08904],[20.11976,50.0892],[20.12516,50.09005],[20.12646,50.09068],[20.12844,50.091],[20.12824,50.09147],[20.12925,50.09163],[20.12944,50.09115],[20.13117,50.09147],[20.13311,50.09214],[20.13333,50.09242],[20.13318,50.09262],[20.13489,50.09162],[20.13518,50.0918],[20.1375,50.0921],[20.13747,50.09186],[20.14568,50.09304],[20.15435,50.0946],[20.15471,50.09692],[20.15418,50.09885],[20.15424,50.09997],[20.15589,50.09998],[20.15591,50.1004],[20.15688,50.1004],[20.15697,50.10096],[20.15605,50.101],[20.15678,50.1033],[20.15659,50.10334],[20.15764,50.10701],[20.15749,50.10705],[20.16007,50.11002],[20.16087,50.11066],[20.15956,50.11154],[20.15925,50.11159],[20.15897,50.11202],[20.15881,50.11251],[20.15873,50.11466],[20.15856,50.11481],[20.15882,50.115],[20.15838,50.11533],[20.15849,50.11552],[20.15828,50.11569],[20.15716,50.11796],[20.15634,50.11857],[20.15638,50.11898],[20.15722,50.11935],[20.15714,50.11948],[20.15734,50.11968],[20.15768,50.11974],[20.1592,50.1208],[20.15906,50.12161],[20.16135,50.12147],[20.16585,50.12153],[20.16581,50.12051],[20.17239,50.12039],[20.17319,50.11882],[20.17338,50.11908],[20.17422,50.11902],[20.17493,50.11979],[20.17875,50.11835],[20.17981,50.11723],[20.18157,50.11663],[20.18245,50.11784],[20.18535,50.11676],[20.18686,50.11822],[20.18975,50.1178],[20.19024,50.11803],[20.19052,50.11865],[20.19103,50.11905],[20.1925,50.11963],[20.19298,50.11967],[20.19355,50.11922],[20.1946,50.11901],[20.19549,50.11849],[20.19593,50.11868],[20.19625,50.11968],[20.19779,50.11964],[20.19898,50.12057],[20.20029,50.12021],[20.20027,50.12048],[20.20131,50.12047],[20.20149,50.1192],[20.20145,50.11779],[20.20162,50.11749],[20.20407,50.11767],[20.20477,50.11739],[20.20386,50.11715],[20.20381,50.11638],[20.20398,50.11596],[20.20908,50.11557],[20.20573,50.11231],[20.20502,50.11113],[20.20333,50.11123],[20.20224,50.11112],[20.20143,50.11065],[20.2009,50.11002],[20.19963,50.10962],[20.19788,50.10851],[20.19737,50.10833],[20.19613,50.10826],[20.19575,50.10736],[20.19538,50.10697],[20.19506,50.10541],[20.1939,50.10435],[20.19311,50.10322],[20.19221,50.10057],[20.19162,50.09743],[20.1916,50.09654],[20.19184,50.09556],[20.19157,50.0943],[20.19174,50.09165],[20.19284,50.08782],[20.19233,50.0874],[20.19037,50.08701],[20.18919,50.08645],[20.18493,50.08607],[20.18511,50.08564],[20.18559,50.08537],[20.1885,50.0851],[20.18932,50.08473],[20.18997,50.08397],[20.18977,50.08268],[20.19002,50.08198],[20.19042,50.08163],[20.1911,50.0815],[20.19172,50.08083],[20.1927,50.08044],[20.19283,50.07979],[20.19335,50.07963],[20.19361,50.07911],[20.19461,50.07878],[20.19459,50.07822],[20.19553,50.07814],[20.19561,50.07639],[20.19579,50.07624],[20.19685,50.07608],[20.19709,50.07562],[20.19946,50.07487],[20.19956,50.07424],[20.19523,50.07396],[20.19535,50.07372],[20.19445,50.07343],[20.19296,50.07228],[20.19275,50.07126],[20.19301,50.07047],[20.19476,50.06976],[20.19649,50.06949],[20.19755,50.06915],[20.19896,50.06815],[20.19918,50.067],[20.20264,50.06583],[20.20391,50.06524],[20.20438,50.06482],[20.20563,50.06517],[20.20636,50.06501],[20.20736,50.06402],[20.21227,50.05768],[20.21306,50.05688],[20.21735,50.05343],[20.21489,50.05192],[20.21282,50.05012],[20.21127,50.04791],[20.21052,50.04624],[20.20999,50.04544],[20.20889,50.04461],[20.20727,50.04401],[20.20436,50.04358],[20.20249,50.04369],[20.20112,50.04386],[20.19855,50.04469],[20.19423,50.04699],[20.19135,50.048],[20.18853,50.04834],[20.18648,50.0483],[20.18386,50.04802],[20.18116,50.04747],[20.16652,50.04384],[20.161,50.04293],[20.15773,50.04282],[20.15351,50.04306],[20.15035,50.04366],[20.14228,50.04573],[20.13929,50.04594],[20.13737,50.04564],[20.13496,50.04472],[20.13383,50.04391],[20.13176,50.04188],[20.12947,50.04037],[20.12767,50.03982],[20.1258,50.03969]]]}}]}