{"type":"FeatureCollection","features":[{"type":"Feature","properties":{"zone":"A1","district":"Stare Miasto","rawHours":"","rawFee":"","note":"Sektor 1, Podstrefa A","windows":[],"fee":{"kind":"unknown"},"unmodelledRules":[],"sourceDefect":null,"scheduleUnknown":true,"spaces":null,"maxStayMinutes":null,"maxStay":null,"maxStayShare":0,"maxStayValues":[],"chargingPoints":0,"carsharing":0},"geometry":{"type":"Polygon","coordinates":[[[19.94021,50.06614],[19.94083,50.06595],[19.94439,50.06472],[19.94483,50.0644],[19.94497,50.06347],[19.94497,50.06328],[19.94483,50.06255],[19.94409,50.06126],[19.94391,50.06114],[19.94394,50.06114],[19.94395,50.06111],[19.94385,50.06095],[19.94344,50.06064],[19.9413,50.0591],[19.94093,50.0588],[19.94083,50.05861],[19.94071,50.05832],[19.94003,50.05556],[19.94001,50.05555],[19.93986,50.05486],[19.93978,50.0547],[19.93921,50.05424],[19.93887,50.05408],[19.93861,50.05426],[19.93856,50.05433],[19.93841,50.05443],[19.93834,50.05444],[19.93818,50.05452],[19.93818,50.05457],[19.93808,50.05465],[19.9381,50.05466],[19.93781,50.05488],[19.93755,50.05516],[19.93752,50.0552],[19.93736,50.05527],[19.93637,50.05541],[19.93637,50.0554],[19.93605,50.05543],[19.93569,50.0554],[19.93496,50.05525],[19.9338,50.05771],[19.93378,50.05781],[19.9334,50.05863],[19.93324,50.05915],[19.93284,50.05979],[19.93226,50.06102],[19.93191,50.0618],[19.93188,50.06189],[19.93188,50.06199],[19.93212,50.06254],[19.93227,50.06268],[19.93289,50.06319],[19.9333,50.06357],[19.93328,50.06359],[19.93441,50.06463],[19.9354,50.06551],[19.93554,50.0656],[19.93603,50.06604],[19.93613,50.06608],[19.93627,50.0661],[19.93965,50.06621],[19.93989,50.0662],[19.94021,50.06614]]]}},{"type":"Feature","properties":{"zone":"A2","district":"Stare Miasto","rawHours":"","rawFee":"","note":"Sektor 2, Podstrefa A","windows":[],"fee":{"kind":"unknown"},"unmodelledRules":[],"sourceDefect":null,"scheduleUnknown":true,"spaces":null,"maxStayMinutes":null,"maxStay":null,"maxStayShare":0,"maxStayValues":[],"chargingPoints":0,"carsharing":0},"geometry":{"type":"Polygon","coordinates":[[[19.92762,50.0551],[19.92728,50.05561],[19.92635,50.05738],[19.92585,50.05818],[19.92507,50.05933],[19.92473,50.05989],[19.92439,50.0605],[19.92371,50.06182],[19.92353,50.06221],[19.92348,50.06237],[19.92346,50.06253],[19.92348,50.06285],[19.92352,50.06307],[19.92384,50.06384],[19.92457,50.06583],[19.92497,50.06676],[19.92515,50.06713],[19.92542,50.0676],[19.92568,50.06799],[19.92647,50.06911],[19.92904,50.06688],[19.93132,50.06502],[19.93162,50.06475],[19.93282,50.06357],[19.93304,50.06333],[19.93289,50.06319],[19.93227,50.06268],[19.93212,50.06254],[19.93191,50.06207],[19.93188,50.06199],[19.93188,50.06189],[19.93191,50.0618],[19.93226,50.06102],[19.93284,50.05979],[19.93324,50.05915],[19.9334,50.05863],[19.93378,50.05781],[19.9338,50.05771],[19.93496,50.05525],[19.9335,50.05492],[19.92965,50.05583],[19.92959,50.05581],[19.92913,50.05593],[19.9289,50.05589],[19.92859,50.05563],[19.928,50.05525],[19.92762,50.0551]]]}},{"type":"Feature","properties":{"zone":"A3","district":"Stare Miasto","rawHours":"","rawFee":"","note":"Sektor 3, Podstrefa A","windows":[],"fee":{"kind":"unknown"},"unmodelledRules":[],"sourceDefect":null,"scheduleUnknown":true,"spaces":null,"maxStayMinutes":null,"maxStay":null,"maxStayShare":0,"maxStayValues":[],"chargingPoints":0,"carsharing":0},"geometry":{"type":"Polygon","coordinates":[[[19.93304,50.06333],[19.93282,50.06357],[19.93162,50.06475],[19.93132,50.06502],[19.92904,50.06688],[19.92647,50.06911],[19.92707,50.07],[19.92726,50.07026],[19.92738,50.07038],[19.9289,50.07126],[19.92973,50.07171],[19.93139,50.07256],[19.93198,50.07284],[19.93246,50.07304],[19.9329,50.0732],[19.9334,50.07334],[19.93431,50.07355],[19.93457,50.07359],[19.93577,50.07368],[19.93663,50.07377],[19.93693,50.07379],[19.93715,50.07379],[19.93808,50.07371],[19.94207,50.07315],[19.94238,50.07312],[19.94299,50.0731],[19.94362,50.07316],[19.94395,50.07322],[19.94432,50.07331],[19.94468,50.07343],[19.94503,50.07358],[19.94541,50.07378],[19.94562,50.07391],[19.9459,50.07358],[19.94722,50.07116],[19.94731,50.07095],[19.94758,50.07021],[19.94767,50.06986],[19.94771,50.06959],[19.94773,50.0693],[19.94783,50.06652],[19.94761,50.06486],[19.94507,50.06463],[19.94463,50.06454],[19.94439,50.06472],[19.94063,50.06602],[19.94003,50.06618],[19.93984,50.06621],[19.93965,50.06621],[19.9362,50.0661],[19.93613,50.06608],[19.93603,50.06604],[19.93554,50.0656],[19.9354,50.06551],[19.93349,50.06378],[19.93328,50.06359],[19.9333,50.06357],[19.93304,50.06333]]]}},{"type":"Feature","properties":{"zone":"A4","district":"Stare Miasto","rawHours":"","rawFee":"","note":"Sektor 4, Podstrefa A","windows":[],"fee":{"kind":"unknown"},"unmodelledRules":[],"sourceDefect":null,"scheduleUnknown":true,"spaces":null,"maxStayMinutes":null,"maxStay":null,"maxStayShare":0,"maxStayValues":[],"chargingPoints":0,"carsharing":0},"geometry":{"type":"Polygon","coordinates":[[[19.94463,50.06454],[19.94507,50.06463],[19.94761,50.06486],[19.9476,50.06468],[19.94776,50.06233],[19.9479,50.06047],[19.94797,50.05854],[19.94739,50.05841],[19.94717,50.05834],[19.94697,50.05825],[19.94675,50.05809],[19.94613,50.05735],[19.94535,50.05637],[19.9437,50.05424],[19.9427,50.05293],[19.94167,50.05176],[19.94073,50.05107],[19.94055,50.05095],[19.94043,50.0509],[19.94012,50.05082],[19.93767,50.05048],[19.93706,50.05039],[19.93676,50.05032],[19.93602,50.05015],[19.93433,50.04963],[19.93279,50.05191],[19.93216,50.05313],[19.93183,50.05382],[19.93148,50.05412],[19.93103,50.05435],[19.93046,50.05448],[19.92971,50.05448],[19.929,50.05435],[19.92836,50.05414],[19.92762,50.0551],[19.928,50.05525],[19.92859,50.05563],[19.9289,50.05589],[19.92913,50.05593],[19.92959,50.05581],[19.92965,50.05583],[19.9335,50.05492],[19.93569,50.0554],[19.93605,50.05543],[19.93637,50.0554],[19.93637,50.05541],[19.93727,50.05529],[19.93736,50.05527],[19.93749,50.05522],[19.93781,50.05488],[19.9381,50.05466],[19.93808,50.05465],[19.93818,50.05457],[19.93818,50.05452],[19.93834,50.05444],[19.93841,50.05443],[19.93856,50.05433],[19.93861,50.05426],[19.93887,50.05408],[19.93919,50.05423],[19.93978,50.0547],[19.93986,50.05486],[19.94001,50.05555],[19.94003,50.05556],[19.94071,50.05832],[19.94083,50.05861],[19.94093,50.0588],[19.9413,50.0591],[19.9438,50.0609],[19.94385,50.06095],[19.94395,50.06111],[19.94394,50.06114],[19.94391,50.06114],[19.94409,50.06126],[19.94483,50.06255],[19.94497,50.06328],[19.94497,50.06347],[19.94483,50.0644],[19.94463,50.06454]]]}},{"type":"Feature","properties":{"zone":"B5","district":"Dębniki","rawHours":"","rawFee":"","note":"Sektor 5, Podstrefa B","windows":[],"fee":{"kind":"unknown"},"unmodelledRules":[],"sourceDefect":null,"scheduleUnknown":true,"spaces":null,"maxStayMinutes":null,"maxStay":null,"maxStayShare":0,"maxStayValues":[],"chargingPoints":0,"carsharing":0},"geometry":{"type":"Polygon","coordinates":[[[19.93433,50.04963],[19.93165,50.04879],[19.92464,50.04648],[19.92248,50.0458],[19.92139,50.0455],[19.92112,50.04544],[19.92095,50.04571],[19.91833,50.04888],[19.9183,50.04907],[19.91788,50.04961],[19.91786,50.04967],[19.91787,50.04971],[19.91793,50.04976],[19.91876,50.05022],[19.91881,50.05026],[19.91883,50.05031],[19.91886,50.05073],[19.9186,50.05159],[19.91891,50.05163],[19.92071,50.05179],[19.92184,50.05196],[19.92322,50.05223],[19.92473,50.05263],[19.92612,50.05313],[19.92734,50.05366],[19.92836,50.05414],[19.929,50.05435],[19.92971,50.05448],[19.93046,50.05448],[19.93103,50.05435],[19.93148,50.05412],[19.93183,50.05382],[19.93216,50.05313],[19.93269,50.05209],[19.9329,50.05174],[19.93433,50.04963]]]}},{"type":"Feature","properties":{"zone":"A6","district":"Zwierzyniec","rawHours":"","rawFee":"","note":"Sektor 6, Podstrefa A","windows":[],"fee":{"kind":"unknown"},"unmodelledRules":[],"sourceDefect":null,"scheduleUnknown":true,"spaces":null,"maxStayMinutes":null,"maxStay":null,"maxStayShare":0,"maxStayValues":[],"chargingPoints":0,"carsharing":0},"geometry":{"type":"Polygon","coordinates":[[[19.92836,50.05414],[19.92734,50.05366],[19.92612,50.05313],[19.92473,50.05263],[19.92322,50.05223],[19.92184,50.05196],[19.92071,50.05179],[19.91891,50.05163],[19.91638,50.05129],[19.91599,50.05202],[19.91588,50.05229],[19.9158,50.05265],[19.91568,50.05299],[19.91559,50.05316],[19.91533,50.05356],[19.91521,50.05371],[19.91486,50.05405],[19.91463,50.05423],[19.9143,50.05445],[19.91388,50.05468],[19.91346,50.05486],[19.91224,50.05527],[19.91194,50.05536],[19.91098,50.05559],[19.91026,50.05571],[19.90911,50.05586],[19.90879,50.05592],[19.9084,50.05603],[19.90783,50.05625],[19.90758,50.05637],[19.90729,50.05653],[19.90696,50.05675],[19.90665,50.05694],[19.90776,50.05703],[19.90869,50.05716],[19.92311,50.05922],[19.92495,50.05953],[19.92507,50.05933],[19.92585,50.05818],[19.92635,50.05738],[19.92728,50.05561],[19.92762,50.0551],[19.92836,50.05414]]]}},{"type":"Feature","properties":{"zone":"C7","district":"Zwierzyniec","rawHours":"","rawFee":"","note":"Sektor 7, Podstrefa C","windows":[],"fee":{"kind":"unknown"},"unmodelledRules":[],"sourceDefect":null,"scheduleUnknown":true,"spaces":null,"maxStayMinutes":null,"maxStay":null,"maxStayShare":0,"maxStayValues":[],"chargingPoints":0,"carsharing":0},"geometry":{"type":"Polygon","coordinates":[[[19.90164,50.05967],[19.90285,50.05918],[19.90334,50.05894],[19.90408,50.05852],[19.90696,50.05675],[19.90729,50.05653],[19.90758,50.05637],[19.90806,50.05616],[19.9084,50.05603],[19.90879,50.05592],[19.90947,50.05581],[19.91026,50.05571],[19.91098,50.05559],[19.91194,50.05536],[19.91224,50.05527],[19.91346,50.05486],[19.91411,50.05456],[19.91463,50.05423],[19.915,50.05391],[19.91521,50.05371],[19.91533,50.05356],[19.91559,50.05316],[19.91568,50.05299],[19.9158,50.05267],[19.9157,50.05265],[19.9151,50.05263],[19.91477,50.05259],[19.91369,50.0524],[19.91347,50.05275],[19.91318,50.05342],[19.91302,50.05384],[19.91287,50.05394],[19.91133,50.05439],[19.91081,50.05447],[19.91067,50.05451],[19.90966,50.05468],[19.90919,50.05479],[19.90865,50.05487],[19.90834,50.05494],[19.90834,50.05495],[19.90739,50.05521],[19.90537,50.05565],[19.90477,50.05581],[19.90382,50.05611],[19.90356,50.05589],[19.9028,50.05556],[19.90263,50.05546],[19.90262,50.05544],[19.90202,50.0553],[19.90186,50.05518],[19.90139,50.05408],[19.90117,50.05408],[19.90174,50.05529],[19.90194,50.05543],[19.90223,50.0555],[19.90256,50.05552],[19.90308,50.05576],[19.90336,50.05586],[19.90353,50.05595],[19.90363,50.05604],[19.90366,50.05616],[19.90286,50.05646],[19.90224,50.05664],[19.90093,50.05711],[19.90054,50.05729],[19.90001,50.0576],[19.89974,50.0574],[19.89959,50.05723],[19.89945,50.05714],[19.89934,50.0571],[19.89902,50.05705],[19.89809,50.0572],[19.89658,50.05724],[19.89626,50.05713],[19.89609,50.0571],[19.89575,50.05692],[19.89563,50.0568],[19.89571,50.0567],[19.89546,50.05656],[19.89527,50.05675],[19.89558,50.05688],[19.89574,50.05701],[19.89608,50.05718],[19.89637,50.05728],[19.89655,50.05731],[19.89823,50.05727],[19.89875,50.05717],[19.89906,50.05714],[19.89925,50.05717],[19.89942,50.05722],[19.89949,50.05726],[19.89955,50.05731],[19.89969,50.05747],[19.89991,50.05764],[19.89991,50.05766],[19.89931,50.05802],[19.89916,50.0581],[19.89864,50.05829],[19.89826,50.05836],[19.89834,50.05844],[19.89852,50.05856],[19.89887,50.05885],[19.89857,50.05901],[19.89758,50.05921],[19.8976,50.05924],[19.89857,50.05904],[19.89891,50.05888],[19.89914,50.05905],[19.89913,50.05906],[19.89955,50.05938],[19.89995,50.05966],[19.90004,50.05976],[19.90012,50.05987],[19.9004,50.06014],[19.90164,50.05967]]]}},{"type":"Feature","properties":{"zone":"C8","district":"Krowodrza","rawHours":"","rawFee":"","note":"Sektor 8, Podstrefa C","windows":[],"fee":{"kind":"unknown"},"unmodelledRules":[],"sourceDefect":null,"scheduleUnknown":true,"spaces":null,"maxStayMinutes":null,"maxStay":null,"maxStayShare":0,"maxStayValues":[],"chargingPoints":0,"carsharing":0},"geometry":{"type":"Polygon","coordinates":[[[19.92398,50.06582],[19.92377,50.06594],[19.92325,50.06612],[19.92222,50.06643],[19.92031,50.06695],[19.91902,50.06728],[19.91881,50.06693],[19.91865,50.06696],[19.91887,50.06731],[19.91812,50.0675],[19.9178,50.06754],[19.91756,50.06755],[19.91506,50.06744],[19.91455,50.06752],[19.91459,50.06762],[19.91439,50.06766],[19.91419,50.06774],[19.91146,50.06886],[19.91089,50.06903],[19.90578,50.06979],[19.90455,50.06995],[19.90412,50.07002],[19.90388,50.07007],[19.90422,50.07083],[19.9045,50.07153],[19.90469,50.07207],[19.90472,50.07227],[19.90472,50.07248],[19.90495,50.07313],[19.90496,50.0732],[19.9052,50.0739],[19.90544,50.07441],[19.90578,50.07542],[19.90602,50.07585],[19.90637,50.07568],[19.9074,50.07489],[19.90754,50.0748],[19.90784,50.07468],[19.91069,50.07413],[19.91429,50.07331],[19.91557,50.07299],[19.91762,50.07244],[19.9219,50.07122],[19.92468,50.07026],[19.92525,50.07],[19.92566,50.06976],[19.92647,50.06911],[19.92568,50.06799],[19.92542,50.0676],[19.92515,50.06713],[19.92497,50.06676],[19.92452,50.06572],[19.92398,50.06582]]]}},{"type":"Feature","properties":{"zone":"C9","district":"Krowodrza","rawHours":"","rawFee":"","note":"Sektor 9, Podstrefa C","windows":[],"fee":{"kind":"unknown"},"unmodelledRules":[],"sourceDefect":null,"scheduleUnknown":true,"spaces":null,"maxStayMinutes":null,"maxStay":null,"maxStayShare":0,"maxStayValues":[],"chargingPoints":0,"carsharing":0},"geometry":{"type":"Polygon","coordinates":[[[19.92647,50.06911],[19.92566,50.06976],[19.92525,50.07],[19.92495,50.07014],[19.92468,50.07026],[19.9219,50.07122],[19.91762,50.07244],[19.91557,50.07299],[19.91429,50.07331],[19.91069,50.07413],[19.90784,50.07468],[19.90754,50.0748],[19.9074,50.07489],[19.90637,50.07568],[19.90602,50.07585],[19.90611,50.07598],[19.90694,50.0777],[19.90876,50.0816],[19.90895,50.08213],[19.90941,50.08209],[19.90947,50.08221],[19.91542,50.08201],[19.91535,50.08166],[19.9158,50.08162],[19.91633,50.08155],[19.91655,50.0815],[19.91679,50.08144],[19.91705,50.08131],[19.91883,50.0803],[19.92044,50.07961],[19.92123,50.0793],[19.92228,50.07885],[19.92967,50.0758],[19.92998,50.07572],[19.93382,50.07507],[19.93555,50.07476],[19.93553,50.07458],[19.93555,50.0745],[19.93558,50.07433],[19.93563,50.07367],[19.93457,50.07359],[19.93431,50.07355],[19.9334,50.07334],[19.9329,50.0732],[19.93246,50.07304],[19.93198,50.07284],[19.93139,50.07256],[19.92973,50.07171],[19.9289,50.07126],[19.92738,50.07038],[19.92726,50.07026],[19.92707,50.07],[19.92647,50.06911]]]}},{"type":"Feature","properties":{"zone":"B10","district":"Krowodrza","rawHours":"","rawFee":"","note":"Sektor 10, Podstrefa B","windows":[],"fee":{"kind":"unknown"},"unmodelledRules":[],"sourceDefect":null,"scheduleUnknown":true,"spaces":null,"maxStayMinutes":null,"maxStay":null,"maxStayShare":0,"maxStayValues":[],"chargingPoints":0,"carsharing":0},"geometry":{"type":"Polygon","coordinates":[[[19.94711,50.08085],[19.94687,50.08043],[19.94585,50.07891],[19.94563,50.0785],[19.94544,50.07804],[19.94504,50.07679],[19.94493,50.07618],[19.945,50.07566],[19.94517,50.07528],[19.94583,50.07405],[19.94548,50.07382],[19.94511,50.07362],[19.94481,50.07348],[19.94446,50.07336],[19.94395,50.07322],[19.94362,50.07316],[19.94299,50.0731],[19.94275,50.0731],[19.94238,50.07312],[19.94207,50.07315],[19.93808,50.07371],[19.9375,50.07376],[19.93693,50.07379],[19.93563,50.07367],[19.93558,50.07433],[19.93555,50.0745],[19.93553,50.07458],[19.93555,50.07476],[19.93382,50.07507],[19.92998,50.07572],[19.92967,50.0758],[19.92228,50.07885],[19.92123,50.0793],[19.92044,50.07961],[19.91883,50.0803],[19.91705,50.08131],[19.91679,50.08144],[19.91655,50.0815],[19.91633,50.08155],[19.9158,50.08162],[19.91535,50.08166],[19.91542,50.08201],[19.91553,50.08201],[19.92789,50.08154],[19.9294,50.08143],[19.93162,50.08121],[19.93308,50.08102],[19.93416,50.08081],[19.9347,50.08066],[19.93526,50.08049],[19.93579,50.08029],[19.93668,50.07991],[19.93804,50.07945],[19.93881,50.07915],[19.93981,50.07891],[19.94034,50.07884],[19.94066,50.07882],[19.94224,50.0788],[19.94321,50.0788],[19.94355,50.07883],[19.94392,50.07888],[19.94439,50.07897],[19.94482,50.07909],[19.94504,50.07917],[19.94548,50.07935],[19.94577,50.07951],[19.94598,50.07965],[19.94623,50.07985],[19.94646,50.08007],[19.94687,50.08058],[19.94711,50.08085]]]}},{"type":"Feature","properties":{"zone":"B11","district":"Grzegórzki","rawHours":"","rawFee":"","note":"Sektor 11, Podstrefa B","windows":[],"fee":{"kind":"unknown"},"unmodelledRules":[],"sourceDefect":null,"scheduleUnknown":true,"spaces":null,"maxStayMinutes":null,"maxStay":null,"maxStayShare":0,"maxStayValues":[],"chargingPoints":0,"carsharing":0},"geometry":{"type":"Polygon","coordinates":[[[19.9594,50.06605],[19.95854,50.06511],[19.9571,50.06544],[19.95688,50.06546],[19.94761,50.06465],[19.94761,50.06492],[19.9478,50.06624],[19.94783,50.06652],[19.94774,50.06902],[19.94926,50.06902],[19.94966,50.06904],[19.94988,50.06908],[19.95017,50.06885],[19.95039,50.06872],[19.95077,50.06857],[19.95156,50.06831],[19.9572,50.06724],[19.95916,50.06681],[19.9594,50.06605]]]}},{"type":"Feature","properties":{"zone":"B12","district":"Grzegórzki","rawHours":"","rawFee":"","note":"Sektor 12, Podstrefa B","windows":[],"fee":{"kind":"unknown"},"unmodelledRules":[],"sourceDefect":null,"scheduleUnknown":true,"spaces":null,"maxStayMinutes":null,"maxStay":null,"maxStayShare":0,"maxStayValues":[],"chargingPoints":0,"carsharing":0},"geometry":{"type":"Polygon","coordinates":[[[19.96092,50.05261],[19.95961,50.05225],[19.95808,50.05176],[19.95692,50.05124],[19.95473,50.05013],[19.95311,50.05131],[19.95263,50.05162],[19.95154,50.05242],[19.95114,50.05276],[19.94984,50.05404],[19.94957,50.05433],[19.94913,50.0549],[19.94875,50.05552],[19.94847,50.05608],[19.94837,50.0563],[19.94817,50.05695],[19.94806,50.05745],[19.948,50.05793],[19.9479,50.06047],[19.9478,50.06167],[19.94761,50.06465],[19.95688,50.06546],[19.9571,50.06544],[19.95854,50.06511],[19.95865,50.06504],[19.95897,50.06459],[19.95922,50.064],[19.95979,50.06199],[19.95981,50.0618],[19.9598,50.06171],[19.95958,50.06108],[19.95943,50.06051],[19.95907,50.05944],[19.95887,50.05874],[19.95883,50.05854],[19.9587,50.05843],[19.95844,50.05812],[19.95899,50.05762],[19.95895,50.05725],[19.95901,50.05644],[19.95905,50.05613],[19.95917,50.05566],[19.95922,50.0555],[19.9595,50.05487],[19.9597,50.05444],[19.96092,50.05261]]]}},{"type":"Feature","properties":{"zone":"A13","district":"Stare Miasto","rawHours":"","rawFee":"","note":"Sektor 13, Podstrefa A","windows":[],"fee":{"kind":"unknown"},"unmodelledRules":[],"sourceDefect":null,"scheduleUnknown":true,"spaces":null,"maxStayMinutes":null,"maxStay":null,"maxStayShare":0,"maxStayValues":[],"chargingPoints":0,"carsharing":0},"geometry":{"type":"Polygon","coordinates":[[[19.93433,50.04963],[19.93532,50.04994],[19.93633,50.05023],[19.93706,50.05039],[19.94012,50.05082],[19.94043,50.0509],[19.94073,50.05107],[19.94167,50.05176],[19.9427,50.05293],[19.9437,50.05424],[19.94535,50.05637],[19.94613,50.05735],[19.94675,50.05809],[19.94697,50.05825],[19.94717,50.05834],[19.94739,50.05841],[19.94797,50.05854],[19.948,50.05793],[19.9481,50.05722],[19.94837,50.0563],[19.94864,50.05573],[19.94895,50.05517],[19.94913,50.0549],[19.94957,50.05433],[19.9499,50.05397],[19.95046,50.05342],[19.95114,50.05276],[19.95142,50.05253],[19.95263,50.05162],[19.95311,50.05131],[19.95473,50.05013],[19.95318,50.04929],[19.95011,50.04768],[19.94824,50.04675],[19.94452,50.04521],[19.94368,50.04498],[19.94276,50.04489],[19.94125,50.04486],[19.94052,50.04489],[19.93965,50.04502],[19.93869,50.04533],[19.93813,50.04561],[19.93777,50.04583],[19.93727,50.04623],[19.93644,50.04704],[19.93559,50.04795],[19.93446,50.04943],[19.93433,50.04963]]]}},{"type":"Feature","properties":{"zone":"C15","district":"Grzegórzki","rawHours":"","rawFee":"","note":"Sektor 15, Podstrefa C","windows":[],"fee":{"kind":"unknown"},"unmodelledRules":[],"sourceDefect":null,"scheduleUnknown":true,"spaces":null,"maxStayMinutes":null,"maxStay":null,"maxStayShare":0,"maxStayValues":[],"chargingPoints":0,"carsharing":0},"geometry":{"type":"Polygon","coordinates":[[[19.94988,50.06908],[19.94966,50.06904],[19.94926,50.06902],[19.94774,50.06902],[19.94771,50.06959],[19.94767,50.06986],[19.94758,50.07021],[19.94731,50.07095],[19.94722,50.07116],[19.9459,50.07358],[19.94562,50.07391],[19.94583,50.07405],[19.94517,50.07528],[19.945,50.07566],[19.94493,50.07618],[19.94504,50.07679],[19.94544,50.07804],[19.94563,50.0785],[19.94585,50.07891],[19.94687,50.08043],[19.94711,50.08085],[19.95743,50.0796],[19.95881,50.07941],[19.95941,50.07929],[19.96002,50.07914],[19.96088,50.0789],[19.96225,50.07849],[19.96343,50.0781],[19.96388,50.07794],[19.96578,50.07721],[19.9665,50.07692],[19.96697,50.0767],[19.96737,50.0765],[19.96808,50.07609],[19.97068,50.07434],[19.97135,50.07387],[19.97193,50.07341],[19.97238,50.073],[19.9727,50.07269],[19.97333,50.07197],[19.97393,50.07121],[19.97443,50.07046],[19.97486,50.06971],[19.9752,50.06902],[19.97537,50.06863],[19.97574,50.06751],[19.97584,50.06709],[19.97551,50.06697],[19.97525,50.06689],[19.9747,50.06676],[19.97414,50.06669],[19.97324,50.06662],[19.97005,50.06652],[19.96821,50.06652],[19.9652,50.06657],[19.96444,50.06651],[19.96248,50.06623],[19.96084,50.06609],[19.9594,50.06605],[19.95916,50.06681],[19.9572,50.06724],[19.95156,50.06831],[19.95077,50.06857],[19.95039,50.06872],[19.95017,50.06885],[19.94988,50.06908]]]}},{"type":"Feature","properties":{"zone":"C16","district":"Grzegórzki","rawHours":"","rawFee":"","note":"Sektor 16, Podstrefa C","windows":[],"fee":{"kind":"unknown"},"unmodelledRules":[],"sourceDefect":null,"scheduleUnknown":true,"spaces":null,"maxStayMinutes":null,"maxStay":null,"maxStayShare":0,"maxStayValues":[],"chargingPoints":0,"carsharing":0},"geometry":{"type":"Polygon","coordinates":[[[19.9594,50.06605],[19.96084,50.06609],[19.96248,50.06623],[19.96444,50.06651],[19.9652,50.06657],[19.96821,50.06652],[19.97005,50.06652],[19.97324,50.06662],[19.97414,50.06669],[19.9747,50.06676],[19.97525,50.06689],[19.97551,50.06697],[19.97584,50.06709],[19.97605,50.06601],[19.9761,50.06555],[19.97611,50.06529],[19.9761,50.06434],[19.97596,50.06305],[19.97571,50.0621],[19.97558,50.06174],[19.9754,50.06132],[19.97452,50.05945],[19.97439,50.05918],[19.97423,50.05894],[19.97332,50.0577],[19.97142,50.05507],[19.96947,50.05242],[19.96789,50.05273],[19.9664,50.05291],[19.96492,50.05295],[19.96356,50.05292],[19.96223,50.05284],[19.96092,50.05261],[19.9597,50.05444],[19.9595,50.05487],[19.95922,50.0555],[19.95917,50.05566],[19.95905,50.05613],[19.95901,50.05644],[19.95895,50.05725],[19.95899,50.05762],[19.95844,50.05812],[19.9587,50.05843],[19.95883,50.05854],[19.95887,50.05874],[19.95907,50.05944],[19.95943,50.06051],[19.95958,50.06108],[19.95981,50.06177],[19.95979,50.06199],[19.9592,50.06406],[19.95897,50.06459],[19.95865,50.06504],[19.95854,50.06511],[19.9594,50.06605]]]}},{"type":"Feature","properties":{"zone":"C19","district":"Podgórze","rawHours":"","rawFee":"","note":"Sektor 19, Podstrefa C","windows":[],"fee":{"kind":"unknown"},"unmodelledRules":[],"sourceDefect":null,"scheduleUnknown":true,"spaces":null,"maxStayMinutes":null,"maxStay":null,"maxStayShare":0,"maxStayValues":[],"chargingPoints":0,"carsharing":0},"geometry":{"type":"Polygon","coordinates":[[[19.95473,50.05013],[19.95692,50.05124],[19.95808,50.05176],[19.95961,50.05225],[19.96092,50.05261],[19.96223,50.05284],[19.96356,50.05292],[19.96492,50.05295],[19.9664,50.05291],[19.96789,50.05273],[19.96947,50.05242],[19.96724,50.04935],[19.96781,50.04915],[19.96818,50.04896],[19.96846,50.04878],[19.96851,50.0487],[19.97031,50.04749],[19.97049,50.04739],[19.97105,50.047],[19.9724,50.04624],[19.97337,50.04562],[19.97399,50.045],[19.97397,50.04497],[19.97302,50.04464],[19.97101,50.04405],[19.97002,50.04384],[19.96906,50.04355],[19.96786,50.04315],[19.96647,50.04275],[19.96623,50.04266],[19.96597,50.0425],[19.96544,50.04222],[19.96485,50.04268],[19.96338,50.0437],[19.95903,50.04695],[19.95473,50.05013]]]}},{"type":"Feature","properties":{"zone":"A20","district":"Podgórze","rawHours":"","rawFee":"","note":"Sektor 20, Podstrefa A","windows":[],"fee":{"kind":"unknown"},"unmodelledRules":[],"sourceDefect":null,"scheduleUnknown":true,"spaces":null,"maxStayMinutes":null,"maxStay":null,"maxStayShare":0,"maxStayValues":[],"chargingPoints":0,"carsharing":0},"geometry":{"type":"MultiPolygon","coordinates":[[[[19.93595,50.04125],[19.93675,50.04164],[19.93747,50.04206],[19.93816,50.04252],[19.93854,50.04274],[19.93899,50.04296],[19.94077,50.04394],[19.94116,50.04418],[19.94131,50.04429],[19.94182,50.04488],[19.94276,50.04489],[19.94368,50.04498],[19.94452,50.04521],[19.94824,50.04675],[19.95011,50.04768],[19.95318,50.04929],[19.95473,50.05013],[19.95903,50.04695],[19.96338,50.0437],[19.96485,50.04268],[19.96544,50.04222],[19.96463,50.04179],[19.9639,50.04163],[19.96315,50.04162],[19.96246,50.0417],[19.96142,50.04159],[19.96048,50.04147],[19.95913,50.04118],[19.9575,50.04093],[19.95663,50.04074],[19.95616,50.04061],[19.95572,50.04047],[19.9553,50.04032],[19.95487,50.04013],[19.9542,50.03978],[19.95352,50.03936],[19.95318,50.03912],[19.94954,50.03638],[19.94846,50.03548],[19.94819,50.03533],[19.94765,50.03477],[19.94716,50.03413],[19.94693,50.03388],[19.94695,50.03385],[19.94672,50.03358],[19.94666,50.03355],[19.94648,50.03336],[19.94571,50.03395],[19.94539,50.03419],[19.94475,50.03453],[19.94297,50.03534],[19.94106,50.03617],[19.94067,50.03636],[19.94041,50.03652],[19.94022,50.03689],[19.94005,50.03706],[19.93905,50.03787],[19.93867,50.03816],[19.93848,50.03833],[19.93824,50.03849],[19.93769,50.03895],[19.93708,50.03972],[19.93595,50.04125]]]]}},{"type":"Feature","properties":{"zone":"C21","district":"Podgórze","rawHours":"","rawFee":"","note":"Sektor 21, Podstrefa C","windows":[],"fee":{"kind":"unknown"},"unmodelledRules":[],"sourceDefect":null,"scheduleUnknown":true,"spaces":null,"maxStayMinutes":null,"maxStay":null,"maxStayShare":0,"maxStayValues":[],"chargingPoints":0,"carsharing":0},"geometry":{"type":"Polygon","coordinates":[[[19.94059,50.03617],[19.94031,50.03592],[19.93983,50.03537],[19.93938,50.03457],[19.93876,50.03339],[19.93649,50.02898],[19.93613,50.02909],[19.93501,50.02954],[19.93352,50.03007],[19.93302,50.03021],[19.93245,50.0303],[19.928,50.03026],[19.92604,50.03028],[19.92558,50.0303],[19.92568,50.03091],[19.92568,50.03249],[19.92551,50.03361],[19.92542,50.03436],[19.92533,50.03479],[19.92738,50.03592],[19.92786,50.03616],[19.92821,50.0363],[19.92864,50.03638],[19.92894,50.03638],[19.92912,50.03635],[19.9293,50.03628],[19.93197,50.03772],[19.93439,50.0391],[19.93482,50.03938],[19.93499,50.03952],[19.93526,50.03982],[19.93537,50.04002],[19.9354,50.0401],[19.93545,50.04033],[19.93551,50.04076],[19.9356,50.04104],[19.93567,50.04111],[19.93595,50.04125],[19.93708,50.03972],[19.93769,50.03895],[19.93824,50.03849],[19.93848,50.03833],[19.93867,50.03816],[19.93905,50.03787],[19.94005,50.03706],[19.94022,50.03689],[19.94041,50.03652],[19.94067,50.03636],[19.94059,50.03617]]]}},{"type":"Feature","properties":{"zone":"C22","district":"Dębniki","rawHours":"","rawFee":"","note":"Sektor 22, Podstrefa C","windows":[],"fee":{"kind":"unknown"},"unmodelledRules":[],"sourceDefect":null,"scheduleUnknown":true,"spaces":null,"maxStayMinutes":null,"maxStay":null,"maxStayShare":0,"maxStayValues":[],"chargingPoints":0,"carsharing":0},"geometry":{"type":"Polygon","coordinates":[[[19.93433,50.04963],[19.93446,50.04943],[19.93559,50.04795],[19.93644,50.04704],[19.93727,50.04623],[19.93777,50.04583],[19.93813,50.04561],[19.93869,50.04533],[19.93965,50.04502],[19.94052,50.04489],[19.94125,50.04486],[19.94182,50.04488],[19.94131,50.04429],[19.94116,50.04418],[19.94077,50.04394],[19.93899,50.04296],[19.93854,50.04274],[19.93816,50.04252],[19.93747,50.04206],[19.93675,50.04164],[19.93567,50.04111],[19.9356,50.04104],[19.93556,50.04094],[19.93551,50.04076],[19.93545,50.04033],[19.9354,50.0401],[19.93537,50.04002],[19.93526,50.03982],[19.93499,50.03952],[19.93482,50.03938],[19.93439,50.0391],[19.93197,50.03772],[19.9293,50.03628],[19.92912,50.03635],[19.92894,50.03638],[19.92864,50.03638],[19.92821,50.0363],[19.92786,50.03616],[19.92738,50.03592],[19.92533,50.03479],[19.92535,50.03488],[19.92537,50.03619],[19.92544,50.03679],[19.92542,50.03821],[19.92541,50.03837],[19.92534,50.03864],[19.92527,50.03883],[19.92519,50.03897],[19.92436,50.04031],[19.92203,50.04417],[19.92175,50.0446],[19.92126,50.0452],[19.92112,50.04544],[19.92139,50.0455],[19.92248,50.0458],[19.92464,50.04648],[19.93165,50.04879],[19.93433,50.04963]]]}},{"type":"Feature","properties":{"zone":"B30","district":"Krowodrza","rawHours":"","rawFee":"","note":"Sektor 30, Podstrefa B — seit 10. August 2026 erweitert","windows":[],"fee":{"kind":"unknown"},"unmodelledRules":[],"sourceDefect":null,"scheduleUnknown":true,"spaces":null,"maxStayMinutes":null,"maxStay":null,"maxStayShare":0,"maxStayValues":[],"chargingPoints":0,"carsharing":0},"geometry":{"type":"Polygon","coordinates":[[[19.91842,50.06743],[19.91887,50.06731],[19.91865,50.06696],[19.91881,50.06693],[19.91902,50.06728],[19.92031,50.06695],[19.92222,50.06643],[19.92325,50.06612],[19.92377,50.06594],[19.92398,50.06582],[19.92452,50.06572],[19.92388,50.06395],[19.92352,50.06307],[19.92348,50.06285],[19.92346,50.06253],[19.92348,50.06237],[19.92353,50.06221],[19.92371,50.06182],[19.92439,50.0605],[19.92495,50.05953],[19.92312,50.05922],[19.91221,50.0609],[19.91406,50.06557],[19.91421,50.06586],[19.91416,50.06626],[19.91422,50.06651],[19.91428,50.06693],[19.91455,50.06752],[19.91506,50.06744],[19.91672,50.06752],[19.9177,50.06755],[19.91812,50.0675],[19.91842,50.06743]]]}},{"type":"Feature","properties":{"zone":"C23","district":"Podgórze","rawHours":"","rawFee":"","note":"Sektor 23, Podstrefa C — neu seit 10. August 2026","windows":[],"fee":{"kind":"unknown"},"unmodelledRules":[],"sourceDefect":null,"scheduleUnknown":true,"spaces":null,"maxStayMinutes":null,"maxStay":null,"maxStayShare":0,"maxStayValues":[],"chargingPoints":0,"carsharing":0},"geometry":{"type":"Polygon","coordinates":[[[19.94106,50.03617],[19.94297,50.03534],[19.94475,50.03453],[19.94539,50.03419],[19.94571,50.03395],[19.94648,50.03336],[19.94629,50.03316],[19.94582,50.03203],[19.94579,50.03167],[19.9459,50.03134],[19.9461,50.03091],[19.94625,50.03056],[19.94613,50.03011],[19.94597,50.02982],[19.94564,50.02946],[19.94489,50.02892],[19.94386,50.02855],[19.94271,50.0283],[19.94225,50.02824],[19.94116,50.0282],[19.94064,50.02823],[19.93899,50.02849],[19.93668,50.02893],[19.93649,50.02898],[19.93876,50.03339],[19.93938,50.03457],[19.93983,50.03537],[19.94031,50.03592],[19.94059,50.03617],[19.94067,50.03636],[19.94106,50.03617]]]}},{"type":"Feature","properties":{"zone":"C24","district":"Podgórze","rawHours":"","rawFee":"","note":"Sektor 24, Podstrefa C — neu seit 10. August 2026","windows":[],"fee":{"kind":"unknown"},"unmodelledRules":[],"sourceDefect":null,"scheduleUnknown":true,"spaces":null,"maxStayMinutes":null,"maxStay":null,"maxStayShare":0,"maxStayValues":[],"chargingPoints":0,"carsharing":0},"geometry":{"type":"Polygon","coordinates":[[[19.95872,50.04038],[19.958,50.0404],[19.95754,50.04039],[19.95737,50.04043],[19.95713,50.04085],[19.9575,50.04093],[19.95913,50.04118],[19.96048,50.04147],[19.96186,50.04164],[19.9621,50.04135],[19.96348,50.04],[19.96424,50.03929],[19.96577,50.0377],[19.96542,50.03755],[19.96444,50.03854],[19.96401,50.03835],[19.96333,50.03799],[19.96317,50.0381],[19.96336,50.03821],[19.96256,50.03878],[19.96213,50.03852],[19.96182,50.03871],[19.96168,50.03864],[19.96081,50.03931],[19.96069,50.03938],[19.95953,50.03987],[19.95813,50.03935],[19.95802,50.03942],[19.95879,50.03969],[19.95943,50.03994],[19.95891,50.04019],[19.95882,50.04025],[19.95872,50.04038]]]}},{"type":"Feature","properties":{"zone":"C31","district":"Krowodrza","rawHours":"","rawFee":"","note":"Sektor 31, Podstrefa C — neu seit 10. August 2026","windows":[],"fee":{"kind":"unknown"},"unmodelledRules":[],"sourceDefect":null,"scheduleUnknown":true,"spaces":null,"maxStayMinutes":null,"maxStay":null,"maxStayShare":0,"maxStayValues":[],"chargingPoints":0,"carsharing":0},"geometry":{"type":"Polygon","coordinates":[[[19.91406,50.06557],[19.91221,50.0609],[19.92312,50.05922],[19.90869,50.05716],[19.90776,50.05703],[19.90702,50.05697],[19.90667,50.05692],[19.90408,50.05852],[19.90334,50.05894],[19.90285,50.05918],[19.90213,50.05948],[19.9004,50.06014],[19.90148,50.0615],[19.90217,50.06245],[19.91193,50.06094],[19.91381,50.0657],[19.91322,50.06584],[19.90315,50.06734],[19.90319,50.0679],[19.90323,50.0681],[19.90342,50.06867],[19.9037,50.06936],[19.90396,50.07006],[19.90412,50.07002],[19.90455,50.06995],[19.90578,50.06979],[19.91089,50.06903],[19.91146,50.06886],[19.91419,50.06774],[19.91439,50.06766],[19.91459,50.06762],[19.91428,50.06693],[19.91422,50.06651],[19.91416,50.06626],[19.91421,50.06586],[19.91406,50.06557]]]}}]}